{"type": "Feature", "properties": {"leg_id": 66, "name": "20231006 - Monkey Mia to Abrolhos Islands", "stated_nm": 248.5, "computed_nm": 248.5}, "geometry": {"type": "LineString", "coordinates": [[113.717066, -25.791768], [113.714156, -25.790774], [113.712295, -25.789578], [113.71041, -25.787976], [113.708309, -25.78611], [113.705643, -25.781731], [113.701595, -25.774685], [113.69791, -25.768495], [113.694115, -25.76161], [113.688073, -25.750733], [113.687456, -25.749767], [113.680658, -25.737743], [113.67228, -25.723183], [113.670773, -25.720425], [113.66368, -25.706773], [113.660383, -25.696727], [113.659028, -25.692817], [113.651622, -25.672668], [113.650961, -25.670662], [113.649823, -25.667672], [113.647515, -25.660693], [113.645143, -25.65427], [113.641497, -25.643793], [113.63723, -25.63267], [113.635918, -25.629079], [113.629212, -25.61187], [113.627816, -25.608171], [113.62563, -25.602484], [113.62432, -25.599145], [113.622293, -25.59409], [113.61665, -25.579978], [113.615916, -25.578299], [113.6143, -25.574268], [113.611078, -25.566745], [113.607372, -25.558513], [113.605433, -25.556143], [113.601247, -25.551458], [113.593315, -25.543005], [113.592896, -25.542634], [113.584222, -25.53336], [113.582479, -25.531411], [113.580243, -25.528821], [113.561177, -25.511732], [113.546868, -25.501638], [113.534165, -25.498192], [113.519945, -25.494683], [113.518654, -25.494627], [113.514237, -25.495068], [113.507447, -25.496283], [113.506117, -25.496827], [113.495875, -25.502623], [113.484115, -25.509933], [113.464518, -25.520942], [113.462352, -25.522014], [113.454892, -25.525515], [113.452572, -25.527322], [113.452495, -25.526534], [113.451824, -25.525832], [113.449058, -25.526643], [113.44349, -25.530498], [113.435805, -25.536657], [113.433714, -25.538417], [113.430996, -25.540788], [113.426078, -25.547942], [113.424925, -25.549237], [113.41751, -25.556682], [113.414892, -25.559212], [113.407193, -25.566447], [113.399723, -25.572903], [113.3896, -25.581982], [113.380128, -25.590832], [113.367667, -25.602963], [113.367164, -25.603093], [113.357508, -25.6038], [113.350645, -25.603983], [113.336448, -25.603545], [113.335281, -25.604275], [113.332959, -25.606273], [113.32821, -25.616745], [113.322983, -25.62971], [113.318332, -25.639907], [113.307668, -25.662562], [113.299538, -25.679192], [113.298348, -25.681827], [113.294003, -25.69069], [113.289198, -25.699545], [113.282355, -25.712712], [113.275692, -25.726338], [113.269115, -25.739043], [113.26208, -25.753187], [113.260242, -25.757032], [113.254822, -25.768903], [113.250072, -25.778897], [113.249654, -25.779857], [113.247585, -25.789335], [113.240733, -25.818885], [113.235193, -25.84092], [113.230162, -25.862562], [113.228058, -25.873148], [113.227826, -25.873955], [113.223933, -25.892072], [113.2208, -25.911428], [113.219352, -25.922393], [113.217285, -25.93569], [113.212848, -25.946668], [113.205847, -25.96226], [113.202265, -25.977197], [113.201674, -25.979454], [113.20003, -25.989048], [113.19925, -25.995562], [113.198924, -25.994999], [113.203298, -25.992452], [113.205289, -25.991942], [113.210022, -25.992019], [113.214534, -25.993826], [113.218702, -25.998602], [113.219398, -26.000881], [113.221108, -26.006632], [113.224855, -26.019735], [113.230467, -26.038342], [113.23161, -26.05166], [113.231521, -26.056205], [113.231285, -26.063532], [113.23138, -26.067671], [113.232543, -26.070273], [113.23756, -26.077997], [113.239905, -26.081233], [113.245123, -26.08689], [113.249917, -26.093072], [113.2592, -26.123322], [113.25845, -26.129021], [113.256913, -26.134873], [113.254283, -26.142225], [113.252867, -26.14577], [113.249037, -26.155178], [113.246469, -26.15826], [113.24271, -26.162233], [113.240738, -26.163323], [113.23052, -26.167003], [113.227529, -26.167268], [113.222266, -26.16752], [113.217798, -26.16675], [113.210732, -26.164807], [113.20566, -26.162848], [113.200663, -26.160142], [113.194448, -26.156267], [113.190185, -26.153697], [113.182929, -26.14958], [113.176163, -26.14466], [113.173719, -26.143111], [113.168873, -26.139446], [113.166316, -26.138937], [113.159473, -26.138394], [113.15638, -26.138385], [113.149605, -26.139952], [113.139627, -26.142533], [113.129528, -26.145377], [113.12748, -26.146308], [113.123948, -26.149307], [113.11691, -26.155875], [113.116255, -26.156607], [113.111063, -26.166728], [113.108502, -26.172113], [113.106058, -26.176918], [113.10332, -26.180577], [113.094988, -26.190382], [113.093018, -26.192867], [113.087826, -26.198686], [113.076642, -26.209373], [113.074261, -26.211514], [113.06982, -26.217148], [113.056218, -26.236897], [113.052648, -26.241973], [113.050297, -26.253188], [113.04925, -26.25899], [113.047572, -26.266973], [113.045695, -26.276973], [113.044896, -26.28294], [113.045829, -26.286097], [113.047074, -26.291133], [113.044893, -26.303832], [113.043898, -26.309267], [113.043208, -26.314732], [113.042933, -26.328698], [113.042488, -26.340595], [113.041668, -26.356823], [113.041103, -26.36445], [113.040868, -26.370133], [113.04016, -26.383563], [113.039881, -26.387528], [113.038707, -26.407997], [113.038538, -26.412483], [113.038274, -26.418144], [113.037628, -26.433267], [113.037723, -26.434783], [113.037653, -26.444497], [113.037447, -26.447332], [113.036898, -26.459383], [113.036733, -26.461546], [113.03657, -26.467162], [113.036448, -26.468347], [113.036317, -26.475828], [113.035993, -26.481657], [113.035653, -26.492697], [113.03541, -26.507562], [113.035085, -26.517695], [113.034928, -26.528948], [113.034851, -26.530725], [113.034761, -26.533385], [113.034643, -26.53758], [113.034506, -26.541473], [113.034322, -26.546508], [113.034167, -26.551569], [113.034116, -26.553794], [113.033782, -26.576185], [113.033665, -26.579113], [113.033292, -26.604287], [113.033183, -26.606937], [113.033078, -26.612049], [113.032867, -26.615736], [113.032824, -26.617756], [113.03439, -26.620201], [113.036327, -26.622907], [113.040342, -26.628518], [113.041627, -26.630078], [113.053555, -26.647463], [113.05905, -26.655138], [113.061229, -26.658055], [113.064501, -26.662306], [113.066071, -26.664335], [113.06746, -26.666038], [113.071055, -26.670803], [113.073395, -26.673658], [113.075641, -26.676473], [113.078703, -26.680193], [113.079486, -26.681263], [113.082283, -26.684071], [113.09208, -26.69265], [113.094558, -26.694691], [113.098107, -26.697693], [113.09996, -26.699262], [113.101793, -26.700766], [113.10478, -26.70318], [113.106266, -26.704419], [113.108402, -26.706252], [113.113257, -26.710303], [113.115082, -26.711637], [113.120203, -26.71565], [113.124845, -26.719442], [113.12657, -26.720962], [113.128461, -26.722422], [113.133093, -26.726066], [113.136452, -26.728833], [113.138038, -26.730058], [113.13999, -26.731684], [113.142521, -26.733707], [113.144253, -26.735041], [113.147059, -26.737177], [113.148707, -26.738409], [113.150377, -26.739633], [113.157825, -26.745268], [113.161275, -26.748143], [113.16403, -26.750339], [113.165821, -26.751838], [113.169096, -26.754649], [113.170836, -26.756444], [113.173208, -26.758891], [113.176721, -26.762718], [113.179973, -26.766127], [113.180981, -26.767443], [113.1822, -26.769208], [113.186168, -26.774397], [113.188116, -26.777148], [113.189321, -26.77867], [113.191416, -26.781322], [113.19288, -26.783409], [113.194816, -26.786156], [113.196202, -26.788034], [113.198288, -26.790676], [113.199627, -26.792603], [113.201139, -26.794794], [113.202619, -26.797213], [113.202916, -26.798321], [113.202205, -26.799621], [113.202842, -26.800584], [113.205065, -26.803199], [113.206184, -26.804735], [113.206803, -26.806023], [113.208725, -26.808215], [113.207681, -26.808457], [113.208953, -26.811216], [113.211396, -26.814728], [113.213263, -26.817132], [113.215448, -26.820267], [113.217828, -26.823571], [113.219383, -26.825489], [113.2208, -26.82741], [113.222642, -26.829665], [113.225127, -26.83271], [113.226854, -26.834982], [113.228592, -26.836977], [113.231011, -26.840135], [113.232684, -26.842142], [113.233855, -26.843904], [113.235604, -26.846001], [113.237051, -26.848035], [113.236601, -26.849773], [113.235559, -26.851907], [113.234578, -26.854016], [113.233425, -26.856523], [113.231886, -26.85967], [113.231076, -26.861258], [113.229914, -26.863601], [113.22866, -26.865995], [113.225975, -26.871843], [113.224766, -26.874771], [113.224443, -26.875743], [113.22098, -26.884055], [113.219927, -26.886933], [113.218613, -26.889854], [113.217964, -26.891553], [113.217031, -26.893966], [113.21642, -26.895618], [113.21486, -26.899457], [113.213829, -26.902245], [113.212929, -26.904618], [113.211268, -26.908914], [113.210563, -26.910751], [113.209198, -26.914402], [113.208108, -26.917233], [113.206824, -26.920227], [113.205742, -26.922808], [113.204619, -26.925286], [113.203513, -26.928428], [113.201282, -26.93358], [113.200689, -26.935074], [113.199453, -26.938166], [113.197907, -26.941974], [113.196964, -26.94435], [113.195682, -26.947526], [113.195204, -26.948692], [113.194454, -26.950375], [113.192685, -26.954255], [113.191358, -26.958577], [113.190902, -26.960114], [113.190333, -26.962314], [113.189816, -26.964383], [113.189298, -26.966192], [113.188369, -26.969651], [113.187806, -26.971978], [113.186979, -26.975187], [113.186319, -26.977673], [113.185685, -26.980058], [113.184976, -26.98268], [113.184114, -26.985931], [113.183305, -26.988782], [113.182062, -26.993225], [113.179158, -27.003198], [113.178612, -27.004958], [113.177496, -27.010131], [113.177043, -27.014648], [113.176248, -27.022508], [113.175843, -27.028683], [113.175587, -27.030665], [113.17444, -27.047018], [113.174214, -27.049099], [113.173895, -27.052639], [113.173457, -27.061278], [113.173209, -27.063818], [113.173142, -27.068336], [113.172961, -27.072202], [113.172655, -27.075454], [113.17246, -27.086318], [113.172355, -27.088252], [113.17209, -27.0939], [113.171886, -27.096869], [113.17247, -27.099346], [113.173335, -27.1015], [113.174926, -27.104236], [113.176886, -27.107169], [113.179465, -27.110085], [113.183037, -27.114117], [113.185301, -27.116385], [113.187544, -27.11888], [113.188648, -27.120112], [113.193637, -27.125672], [113.198403, -27.130518], [113.201593, -27.133392], [113.2039, -27.13569], [113.206528, -27.138003], [113.209413, -27.141038], [113.217022, -27.148548], [113.219152, -27.150514], [113.221851, -27.153125], [113.22474, -27.155926], [113.228177, -27.159213], [113.239162, -27.168768], [113.240634, -27.169954], [113.245302, -27.173703], [113.247938, -27.175944], [113.251605, -27.178869], [113.253536, -27.180387], [113.260118, -27.185645], [113.262227, -27.187222], [113.265823, -27.190106], [113.267726, -27.191639], [113.270156, -27.193466], [113.271057, -27.194276], [113.27693, -27.198762], [113.278353, -27.200032], [113.277604, -27.203511], [113.278915, -27.204385], [113.28307, -27.2066], [113.284695, -27.207449], [113.288012, -27.209246], [113.290841, -27.210782], [113.293082, -27.212011], [113.295193, -27.213119], [113.297463, -27.214312], [113.300457, -27.215924], [113.304416, -27.218044], [113.308785, -27.220401], [113.312328, -27.22231], [113.315653, -27.224195], [113.318197, -27.225807], [113.319058, -27.229903], [113.319686, -27.232726], [113.318823, -27.237374], [113.317608, -27.243799], [113.316805, -27.248181], [113.315973, -27.253032], [113.313255, -27.26902], [113.313024, -27.270978], [113.311803, -27.278245], [113.31105, -27.283407], [113.310272, -27.286698], [113.30943, -27.291155], [113.307493, -27.299643], [113.307135, -27.301813], [113.305343, -27.310098], [113.304653, -27.313894], [113.303645, -27.318573], [113.300532, -27.332193], [113.299905, -27.334527], [113.297323, -27.345845], [113.296697, -27.34813], [113.295712, -27.352353], [113.294248, -27.358055], [113.293296, -27.361124], [113.292083, -27.36566], [113.289347, -27.375233], [113.28614, -27.386842], [113.283363, -27.395903], [113.282674, -27.398458], [113.282143, -27.40084], [113.280298, -27.408068], [113.279539, -27.410716], [113.278238, -27.415558], [113.277227, -27.419268], [113.276545, -27.421748], [113.275132, -27.42711], [113.273073, -27.433822], [113.271692, -27.43887], [113.270078, -27.444158], [113.269082, -27.44704], [113.267696, -27.451856], [113.26544, -27.460318], [113.265103, -27.461192], [113.262822, -27.469447], [113.261543, -27.473193], [113.260348, -27.477573], [113.258975, -27.481703], [113.257874, -27.485564], [113.256704, -27.489777], [113.255634, -27.49436], [113.254349, -27.497377], [113.254957, -27.497912], [113.254793, -27.506907], [113.254645, -27.50945], [113.254503, -27.513035], [113.254354, -27.516217], [113.254201, -27.5198], [113.254012, -27.522495], [113.253572, -27.533657], [113.253287, -27.536382], [113.252498, -27.546583], [113.25221, -27.548907], [113.251743, -27.553163], [113.251497, -27.554332], [113.250873, -27.563335], [113.250517, -27.56662], [113.260016, -27.574212], [113.272442, -27.58008], [113.274803, -27.581274], [113.281119, -27.584384], [113.283842, -27.585754], [113.29157, -27.589942], [113.29389, -27.591071], [113.296271, -27.592208], [113.299569, -27.593993], [113.304775, -27.596698], [113.308031, -27.59853], [113.311368, -27.600154], [113.314036, -27.601555], [113.318427, -27.603762], [113.321458, -27.605368], [113.326971, -27.608158], [113.338688, -27.613635], [113.339235, -27.613957], [113.346812, -27.619262], [113.349382, -27.621296], [113.351876, -27.623297], [113.355825, -27.626475], [113.359007, -27.629076], [113.365053, -27.63255], [113.373703, -27.636903], [113.379343, -27.63989], [113.387892, -27.644143], [113.389527, -27.645052], [113.399468, -27.649953], [113.409115, -27.653962], [113.411799, -27.655002], [113.41686, -27.65704], [113.432097, -27.663103], [113.442152, -27.666797], [113.445898, -27.668252], [113.460258, -27.673622], [113.464267, -27.675033], [113.477867, -27.680533], [113.479404, -27.680974], [113.48869, -27.683367], [113.490728, -27.684663], [113.49423, -27.687124], [113.508507, -27.697285], [113.518922, -27.70447], [113.520484, -27.705618], [113.530165, -27.712307], [113.531958, -27.71376], [113.535885, -27.717037], [113.538976, -27.719622], [113.543114, -27.722998], [113.551913, -27.730167], [113.555863, -27.733187], [113.570278, -27.744715], [113.571855, -27.746065], [113.577328, -27.750458], [113.578942, -27.751595], [113.585767, -27.75693], [113.588773, -27.759361], [113.590208, -27.760398], [113.604175, -27.771247], [113.612577, -27.777995], [113.614506, -27.779418], [113.61924, -27.783228], [113.624258, -27.787127], [113.631438, -27.792518], [113.632779, -27.793804], [113.635205, -27.796039], [113.63785, -27.798488], [113.63956, -27.800224], [113.643982, -27.804092], [113.651323, -27.810728], [113.653642, -27.812655], [113.659195, -27.817667], [113.660364, -27.818607], [113.663811, -27.821669], [113.665633, -27.823229], [113.668467, -27.825903], [113.6696, -27.826938], [113.671621, -27.828808], [113.672579, -27.829712], [113.675137, -27.832065], [113.677163, -27.833919], [113.679793, -27.836437], [113.682046, -27.83846], [113.685522, -27.84169], [113.687599, -27.843538], [113.689694, -27.845443], [113.692293, -27.847859], [113.695482, -27.85054], [113.70037, -27.854263], [113.702685, -27.855901], [113.705509, -27.857982], [113.708084, -27.859859], [113.709142, -27.860503], [113.719015, -27.865412], [113.7207, -27.866326], [113.723712, -27.867837], [113.725275, -27.868717], [113.735975, -27.87396], [113.738086, -27.87505], [113.740007, -27.875963], [113.7497, -27.881], [113.75168, -27.881884], [113.755373, -27.883594], [113.760683, -27.886137], [113.768055, -27.889992], [113.771405, -27.891483], [113.775467, -27.89358], [113.779117, -27.895257], [113.781252, -27.896338], [113.78824, -27.89956], [113.790108, -27.900376], [113.7944, -27.902372], [113.79599, -27.903205], [113.801147, -27.905793], [113.804286, -27.907422], [113.807877, -27.909114], [113.81154, -27.910805], [113.817853, -27.91385], [113.820414, -27.915019], [113.824737, -27.917076], [113.827705, -27.918455], [113.830582, -27.919767], [113.835472, -27.9221], [113.838334, -27.923361], [113.843064, -27.925557], [113.845341, -27.926627], [113.848399, -27.928103], [113.855017, -27.931123], [113.856067, -27.931695], [113.868542, -27.937408], [113.870353, -27.938264], [113.874715, -27.940303], [113.878748, -27.941939], [113.881143, -27.943014], [113.883393, -27.944053], [113.891593, -27.947597], [113.895515, -27.949471], [113.896344, -27.950329], [113.8964, -27.951434], [113.894643, -27.954599], [113.893749, -27.956421], [113.892803, -27.958221], [113.892085, -27.959624], [113.890773, -27.962436], [113.888584, -27.96711], [113.887859, -27.968536], [113.887147, -27.969922], [113.885783, -27.97267], [113.884793, -27.974718], [113.883375, -27.977577], [113.882409, -27.979373], [113.880668, -27.981968], [113.877747, -27.986313], [113.876548, -27.987897], [113.87364, -27.992274], [113.870077, -27.997338], [113.868705, -27.999548], [113.866225, -28.002872], [113.865384, -28.004093], [113.863939, -28.005881], [113.862205, -28.0083], [113.859995, -28.011285], [113.857959, -28.014138], [113.855549, -28.017332], [113.854084, -28.019315], [113.852516, -28.021421], [113.847543, -28.027997], [113.846238, -28.029878], [113.841865, -28.035735], [113.840085, -28.039206], [113.8392, -28.040838], [113.837772, -28.043335], [113.835032, -28.048088], [113.833921, -28.050121], [113.829603, -28.057717], [113.826613, -28.06281], [113.825283, -28.064837], [113.82227, -28.070175], [113.821035, -28.072069], [113.819062, -28.075663], [113.817968, -28.077546], [113.815362, -28.082123], [113.814244, -28.084172], [113.812557, -28.087297], [113.809857, -28.09172], [113.806452, -28.098], [113.804397, -28.101421], [113.802381, -28.103763], [113.799313, -28.107007], [113.796363, -28.110585], [113.793748, -28.113541], [113.792251, -28.115714], [113.790573, -28.119349], [113.790468, -28.119727], [113.785885, -28.129478], [113.785308, -28.130851], [113.783856, -28.134213], [113.782768, -28.136535], [113.781589, -28.13912], [113.780273, -28.141926], [113.779284, -28.144067], [113.777366, -28.148248], [113.776247, -28.15069], [113.774768, -28.153583], [113.773111, -28.157209], [113.772302, -28.158847], [113.77054, -28.162659], [113.769184, -28.165727], [113.767593, -28.169252], [113.766764, -28.171045], [113.76568, -28.173417], [113.762167, -28.181114], [113.761289, -28.18301], [113.759757, -28.186207], [113.757981, -28.189886], [113.757312, -28.19153], [113.756274, -28.193741], [113.753532, -28.199824], [113.752794, -28.201384], [113.752067, -28.202938], [113.750255, -28.206789], [113.748729, -28.210096], [113.748177, -28.211238], [113.746921, -28.213847], [113.746269, -28.215136], [113.745425, -28.216907], [113.744634, -28.218491], [113.74408, -28.219635], [113.742881, -28.222016], [113.742084, -28.223658], [113.737842, -28.232212], [113.737062, -28.233574], [113.735638, -28.236617], [113.734877, -28.238292], [113.733743, -28.240477], [113.732991, -28.242142], [113.731414, -28.245375], [113.730513, -28.247249], [113.726675, -28.254863], [113.725866, -28.256572], [113.724124, -28.260138], [113.72331, -28.261749], [113.721482, -28.265516], [113.720803, -28.266936], [113.718725, -28.27129], [113.717986, -28.27264], [113.71701, -28.274518], [113.715976, -28.276583], [113.714631, -28.279398], [113.712623, -28.283216], [113.71131, -28.285282], [113.709345, -28.288572], [113.706373, -28.293078], [113.705575, -28.294434], [113.702978, -28.29858], [113.702335, -28.299674], [113.701249, -28.301329], [113.700391, -28.302727], [113.698894, -28.305014], [113.697831, -28.306627], [113.696629, -28.30851], [113.695643, -28.310014], [113.693503, -28.313332], [113.694266, -28.314743], [113.697658, -28.317668], [113.699536, -28.318852], [113.701761, -28.320062], [113.703501, -28.32104], [113.708503, -28.32372], [113.710296, -28.324757], [113.714037, -28.326872], [113.717287, -28.328608], [113.72, -28.330185], [113.726317, -28.333597], [113.727689, -28.33427], [113.731138, -28.33602], [113.733681, -28.337414], [113.736941, -28.339027], [113.739749, -28.340589], [113.745075, -28.343557], [113.747495, -28.344822], [113.752086, -28.347347], [113.755726, -28.349356], [113.757328, -28.350262], [113.759804, -28.351561], [113.761637, -28.352572], [113.763619, -28.353655], [113.765651, -28.354859], [113.76475, -28.355842], [113.763613, -28.357358], [113.762419, -28.359049], [113.760827, -28.361257], [113.759522, -28.362815], [113.757489, -28.365532], [113.756301, -28.367035], [113.754625, -28.369241], [113.753779, -28.370409], [113.753034, -28.371384], [113.750901, -28.37427], [113.749396, -28.376297], [113.748742, -28.377188], [113.74549, -28.381735], [113.744499, -28.383283], [113.743158, -28.385166], [113.741557, -28.387455], [113.740311, -28.389155], [113.73863, -28.391775], [113.737292, -28.394913], [113.737337, -28.399712], [113.737263, -28.407432], [113.737151, -28.41047], [113.737024, -28.413033], [113.736873, -28.415265], [113.737422, -28.42977]]}, "times": ["2023-10-06T21:57:28+00:00", "2023-10-06T22:08:14+00:00", "2023-10-06T22:12:59+00:00", "2023-10-06T22:13:55+00:00", "2023-10-06T22:15:56+00:00", "2023-10-06T22:22:05+00:00", "2023-10-06T22:25:14+00:00", "2023-10-06T22:29:51+00:00", "2023-10-06T22:34:47+00:00", "2023-10-06T22:42:33+00:00", "2023-10-06T22:43:38+00:00", "2023-10-06T22:51:44+00:00", "2023-10-06T23:01:45+00:00", "2023-10-06T23:05:29+00:00", "2023-10-06T23:13:10+00:00", "2023-10-06T23:20:00+00:00", "2023-10-06T23:25:16+00:00", "2023-10-06T23:36:10+00:00", "2023-10-06T23:38:10+00:00", "2023-10-06T23:39:30+00:00", "2023-10-06T23:44:06+00:00", "2023-10-06T23:48:27+00:00", "2023-10-06T23:55:28+00:00", "2023-10-07T00:02:59+00:00", "2023-10-07T00:07:44+00:00", "2023-10-07T00:16:46+00:00", "2023-10-07T00:21:39+00:00", "2023-10-07T00:23:15+00:00", "2023-10-07T00:23:59+00:00", "2023-10-07T00:29:28+00:00", "2023-10-07T00:37:29+00:00", "2023-10-07T00:37:49+00:00", "2023-10-07T00:41:09+00:00", "2023-10-07T00:45:58+00:00", "2023-10-07T00:51:15+00:00", "2023-10-07T00:52:59+00:00", "2023-10-07T00:56:32+00:00", "2023-10-07T01:03:09+00:00", "2023-10-07T01:03:37+00:00", "2023-10-07T01:10:46+00:00", "2023-10-07T01:13:51+00:00", "2023-10-07T01:14:35+00:00", "2023-10-07T01:29:01+00:00", "2023-10-07T01:38:51+00:00", "2023-10-07T01:46:08+00:00", "2023-10-07T01:54:10+00:00", "2023-10-07T01:54:34+00:00", "2023-10-07T01:57:22+00:00", "2023-10-07T02:01:15+00:00", "2023-10-07T02:02:31+00:00", "2023-10-07T02:08:56+00:00", "2023-10-07T02:17:29+00:00", "2023-10-07T02:32:00+00:00", "2023-10-07T02:34:20+00:00", "2023-10-07T02:38:53+00:00", "2023-10-07T02:41:05+00:00", "2023-10-07T02:57:00+00:00", "2023-10-07T03:04:09+00:00", "2023-10-07T03:06:10+00:00", "2023-10-07T03:10:50+00:00", "2023-10-07T03:17:59+00:00", "2023-10-07T03:22:00+00:00", "2023-10-07T03:22:56+00:00", "2023-10-07T03:28:56+00:00", "2023-10-07T03:30:13+00:00", "2023-10-07T03:37:50+00:00", "2023-10-07T03:43:02+00:00", "2023-10-07T03:48:23+00:00", "2023-10-07T03:56:16+00:00", "2023-10-07T04:07:14+00:00", "2023-10-07T04:17:31+00:00", "2023-10-07T04:30:37+00:00", "2023-10-07T04:31:09+00:00", "2023-10-07T04:37:27+00:00", "2023-10-07T04:42:11+00:00", "2023-10-07T04:51:49+00:00", "2023-10-07T04:53:01+00:00", "2023-10-07T04:55:26+00:00", "2023-10-07T05:04:27+00:00", "2023-10-07T05:15:17+00:00", "2023-10-07T05:23:39+00:00", "2023-10-07T05:42:10+00:00", "2023-10-07T05:56:09+00:00", "2023-10-07T06:00:25+00:00", "2023-10-07T06:05:34+00:00", "2023-10-07T06:13:04+00:00", "2023-10-07T06:24:01+00:00", "2023-10-07T06:34:59+00:00", "2023-10-07T06:45:21+00:00", "2023-10-07T06:56:59+00:00", "2023-10-07T07:03:24+00:00", "2023-10-07T07:09:57+00:00", "2023-10-07T07:18:23+00:00", "2023-10-07T07:18:47+00:00", "2023-10-07T07:26:52+00:00", "2023-10-07T07:51:15+00:00", "2023-10-07T08:09:58+00:00", "2023-10-07T08:29:01+00:00", "2023-10-07T08:38:30+00:00", "2023-10-07T08:39:42+00:00", "2023-10-07T08:55:32+00:00", "2023-10-07T09:12:44+00:00", "2023-10-07T09:22:49+00:00", "2023-10-07T09:35:00+00:00", "2023-10-07T09:45:18+00:00", "2023-10-07T10:00:24+00:00", "2023-10-07T10:14:46+00:00", "2023-10-07T10:19:02+00:00", "2023-10-07T10:25:15+00:00", "2023-10-07T10:31:00+00:00", "2023-10-07T19:06:57+00:00", "2023-10-07T22:02:52+00:00", "2023-10-07T22:04:36+00:00", "2023-10-07T22:10:37+00:00", "2023-10-07T22:12:21+00:00", "2023-10-07T22:17:26+00:00", "2023-10-07T22:20:34+00:00", "2023-10-07T22:23:27+00:00", "2023-10-07T22:32:54+00:00", "2023-10-07T22:46:17+00:00", "2023-10-07T22:55:30+00:00", "2023-10-07T23:00:31+00:00", "2023-10-07T23:03:36+00:00", "2023-10-07T23:06:44+00:00", "2023-10-07T23:09:01+00:00", "2023-10-07T23:14:30+00:00", "2023-10-07T23:18:06+00:00", "2023-10-07T23:23:16+00:00", "2023-10-07T23:28:16+00:00", "2023-10-07T23:47:29+00:00", "2023-10-07T23:51:58+00:00", "2023-10-07T23:56:06+00:00", "2023-10-07T23:58:59+00:00", "2023-10-08T00:01:51+00:00", "2023-10-08T00:06:40+00:00", "2023-10-08T00:10:29+00:00", "2023-10-08T00:11:49+00:00", "2023-10-08T00:13:09+00:00", "2023-10-08T00:18:06+00:00", "2023-10-08T00:19:22+00:00", "2023-10-08T00:22:31+00:00", "2023-10-08T00:25:35+00:00", "2023-10-08T00:28:55+00:00", "2023-10-08T00:31:32+00:00", "2023-10-08T00:33:24+00:00", "2023-10-08T00:37:04+00:00", "2023-10-08T00:39:33+00:00", "2023-10-08T00:44:14+00:00", "2023-10-08T00:48:06+00:00", "2023-10-08T00:50:03+00:00", "2023-10-08T00:52:51+00:00", "2023-10-08T00:54:44+00:00", "2023-10-08T00:58:40+00:00", "2023-10-08T00:59:33+00:00", "2023-10-08T01:02:57+00:00", "2023-10-08T01:08:34+00:00", "2023-10-08T01:14:19+00:00", "2023-10-08T01:15:55+00:00", "2023-10-08T01:18:03+00:00", "2023-10-08T01:23:24+00:00", "2023-10-08T01:24:12+00:00", "2023-10-08T01:30:25+00:00", "2023-10-08T01:33:50+00:00", "2023-10-08T01:37:43+00:00", "2023-10-08T01:40:07+00:00", "2023-10-08T01:48:08+00:00", "2023-10-08T01:50:16+00:00", "2023-10-08T01:56:33+00:00", "2023-10-08T02:06:02+00:00", "2023-10-08T02:08:42+00:00", "2023-10-08T02:12:39+00:00", "2023-10-08T02:27:49+00:00", "2023-10-08T02:31:54+00:00", "2023-10-08T02:39:43+00:00", "2023-10-08T02:43:56+00:00", "2023-10-08T02:49:40+00:00", "2023-10-08T02:56:58+00:00", "2023-10-08T03:02:02+00:00", "2023-10-08T03:02:54+00:00", "2023-10-08T03:09:19+00:00", "2023-10-08T03:17:00+00:00", "2023-10-08T03:22:42+00:00", "2023-10-08T03:25:02+00:00", "2023-10-08T03:35:11+00:00", "2023-10-08T03:43:57+00:00", "2023-10-08T03:55:46+00:00", "2023-10-08T04:01:27+00:00", "2023-10-08T04:05:31+00:00", "2023-10-08T04:15:30+00:00", "2023-10-08T04:21:35+00:00", "2023-10-08T04:34:14+00:00", "2023-10-08T04:41:07+00:00", "2023-10-08T04:42:59+00:00", "2023-10-08T04:54:17+00:00", "2023-10-08T04:55:14+00:00", "2023-10-08T05:03:11+00:00", "2023-10-08T05:07:32+00:00", "2023-10-08T05:14:30+00:00", "2023-10-08T05:16:58+00:00", "2023-10-08T05:20:15+00:00", "2023-10-08T05:21:11+00:00", "2023-10-08T05:26:48+00:00", "2023-10-08T05:31:16+00:00", "2023-10-08T05:39:48+00:00", "2023-10-08T05:51:25+00:00", "2023-10-08T05:59:39+00:00", "2023-10-08T06:08:33+00:00", "2023-10-08T06:09:53+00:00", "2023-10-08T06:11:13+00:00", "2023-10-08T06:17:11+00:00", "2023-10-08T06:19:52+00:00", "2023-10-08T06:25:25+00:00", "2023-10-08T06:28:18+00:00", "2023-10-08T06:28:58+00:00", "2023-10-08T06:46:25+00:00", "2023-10-08T06:49:54+00:00", "2023-10-08T07:09:07+00:00", "2023-10-08T07:13:59+00:00", "2023-10-08T07:18:20+00:00", "2023-10-08T07:20:04+00:00", "2023-10-08T07:21:33+00:00", "2023-10-08T07:24:33+00:00", "2023-10-08T07:25:46+00:00", "2023-10-08T07:29:18+00:00", "2023-10-08T07:30:27+00:00", "2023-10-08T07:42:57+00:00", "2023-10-08T07:48:30+00:00", "2023-10-08T07:52:58+00:00", "2023-10-08T07:55:07+00:00", "2023-10-08T07:55:55+00:00", "2023-10-08T07:57:07+00:00", "2023-10-08T08:00:55+00:00", "2023-10-08T08:02:19+00:00", "2023-10-08T08:06:08+00:00", "2023-10-08T08:09:20+00:00", "2023-10-08T08:10:13+00:00", "2023-10-08T08:14:38+00:00", "2023-10-08T08:20:47+00:00", "2023-10-08T08:25:00+00:00", "2023-10-08T08:26:48+00:00", "2023-10-08T08:27:32+00:00", "2023-10-08T08:28:48+00:00", "2023-10-08T08:32:01+00:00", "2023-10-08T08:33:33+00:00", "2023-10-08T08:34:50+00:00", "2023-10-08T08:38:55+00:00", "2023-10-08T08:40:23+00:00", "2023-10-08T08:44:48+00:00", "2023-10-08T08:49:05+00:00", "2023-10-08T08:51:50+00:00", "2023-10-08T08:53:02+00:00", "2023-10-08T08:57:15+00:00", "2023-10-08T08:59:32+00:00", "2023-10-08T09:00:48+00:00", "2023-10-08T09:02:32+00:00", "2023-10-08T09:03:57+00:00", "2023-10-08T09:06:21+00:00", "2023-10-08T09:08:34+00:00", "2023-10-08T09:10:18+00:00", "2023-10-08T09:12:07+00:00", "2023-10-08T09:18:01+00:00", "2023-10-08T09:20:49+00:00", "2023-10-08T09:22:46+00:00", "2023-10-08T09:25:06+00:00", "2023-10-08T09:27:11+00:00", "2023-10-08T09:29:19+00:00", "2023-10-08T09:32:35+00:00", "2023-10-08T09:35:52+00:00", "2023-10-08T09:38:44+00:00", "2023-10-08T09:39:49+00:00", "2023-10-08T09:41:37+00:00", "2023-10-08T09:46:30+00:00", "2023-10-08T09:48:59+00:00", "2023-10-08T09:50:39+00:00", "2023-10-08T09:54:24+00:00", "2023-10-08T09:55:04+00:00", "2023-10-08T09:57:08+00:00", "2023-10-08T09:59:57+00:00", "2023-10-08T10:02:34+00:00", "2023-10-08T10:03:54+00:00", "2023-10-08T10:06:14+00:00", "2023-10-08T10:08:10+00:00", "2023-10-08T10:09:03+00:00", "2023-10-08T10:12:19+00:00", "2023-10-08T10:14:39+00:00", "2023-10-08T10:17:08+00:00", "2023-10-08T10:18:12+00:00", "2023-10-08T10:19:48+00:00", "2023-10-08T10:22:33+00:00", "2023-10-08T10:24:17+00:00", "2023-10-08T10:26:17+00:00", "2023-10-08T10:34:10+00:00", "2023-10-08T10:36:26+00:00", "2023-10-08T10:40:07+00:00", "2023-10-08T10:43:56+00:00", "2023-10-08T10:48:56+00:00", "2023-10-08T10:52:25+00:00", "2023-10-08T10:56:50+00:00", "2023-10-08T11:01:59+00:00", "2023-10-08T11:05:11+00:00", "2023-10-08T11:11:00+00:00", "2023-10-08T11:15:05+00:00", "2023-10-08T11:20:45+00:00", "2023-10-08T11:23:17+00:00", "2023-10-08T11:28:10+00:00", "2023-10-08T11:30:11+00:00", "2023-10-08T11:32:47+00:00", "2023-10-08T11:36:40+00:00", "2023-10-08T11:39:52+00:00", "2023-10-08T11:41:29+00:00", "2023-10-08T11:47:54+00:00", "2023-10-08T11:49:30+00:00", "2023-10-08T11:52:22+00:00", "2023-10-08T11:54:55+00:00", "2023-10-08T12:02:29+00:00", "2023-10-08T12:05:29+00:00", "2023-10-08T12:07:13+00:00", "2023-10-08T12:16:47+00:00", "2023-10-08T12:20:24+00:00", "2023-10-08T12:23:32+00:00", "2023-10-08T12:25:20+00:00", "2023-10-08T12:28:49+00:00", "2023-10-08T12:31:54+00:00", "2023-10-08T12:34:38+00:00", "2023-10-08T12:37:15+00:00", "2023-10-08T12:42:07+00:00", "2023-10-08T12:44:28+00:00", "2023-10-08T12:45:12+00:00", "2023-10-08T12:49:52+00:00", "2023-10-08T12:51:37+00:00", "2023-10-08T12:55:58+00:00", "2023-10-08T12:57:23+00:00", "2023-10-08T13:00:47+00:00", "2023-10-08T13:03:11+00:00", "2023-10-08T13:08:04+00:00", "2023-10-08T13:09:13+00:00", "2023-10-08T13:12:37+00:00", "2023-10-08T13:15:46+00:00", "2023-10-08T13:17:58+00:00", "2023-10-08T13:22:04+00:00", "2023-10-08T13:22:24+00:00", "2023-10-08T13:24:24+00:00", "2023-10-08T13:27:33+00:00", "2023-10-08T13:31:06+00:00", "2023-10-08T13:32:19+00:00", "2023-10-08T13:35:07+00:00", "2023-10-08T13:36:28+00:00", "2023-10-08T13:37:36+00:00", "2023-10-08T13:42:41+00:00", "2023-10-08T13:44:33+00:00", "2023-10-08T13:46:26+00:00", "2023-10-08T13:49:46+00:00", "2023-10-08T13:52:15+00:00", "2023-10-08T13:52:51+00:00", "2023-10-08T13:57:08+00:00", "2023-10-08T13:58:28+00:00", "2023-10-08T14:05:30+00:00", "2023-10-08T14:11:43+00:00", "2023-10-08T14:12:43+00:00", "2023-10-08T14:20:09+00:00", "2023-10-08T14:25:10+00:00", "2023-10-08T14:30:15+00:00", "2023-10-08T14:36:20+00:00", "2023-10-08T14:38:16+00:00", "2023-10-08T14:53:27+00:00", "2023-10-08T14:55:32+00:00", "2023-10-08T15:00:21+00:00", "2023-10-08T15:08:38+00:00", "2023-10-08T15:10:02+00:00", "2023-10-08T15:18:16+00:00", "2023-10-08T15:22:08+00:00", "2023-10-08T15:24:49+00:00", "2023-10-08T15:36:15+00:00", "2023-10-08T15:37:07+00:00", "2023-10-08T15:46:16+00:00", "2023-10-08T15:49:22+00:00", "2023-10-08T15:51:54+00:00", "2023-10-08T15:54:51+00:00", "2023-10-08T15:56:31+00:00", "2023-10-08T16:02:24+00:00", "2023-10-08T16:05:20+00:00", "2023-10-08T16:11:06+00:00", "2023-10-08T16:12:46+00:00", "2023-10-08T16:17:43+00:00", "2023-10-08T16:19:43+00:00", "2023-10-08T16:26:29+00:00", "2023-10-08T16:32:50+00:00", "2023-10-08T16:36:30+00:00", "2023-10-08T16:39:23+00:00", "2023-10-08T16:42:32+00:00", "2023-10-08T16:46:04+00:00", "2023-10-08T16:55:50+00:00", "2023-10-08T17:01:40+00:00", "2023-10-08T17:02:52+00:00", "2023-10-08T17:05:41+00:00", "2023-10-08T17:14:15+00:00", "2023-10-08T17:23:45+00:00", "2023-10-08T17:24:49+00:00", "2023-10-08T17:31:10+00:00", "2023-10-08T17:32:31+00:00", "2023-10-08T17:39:32+00:00", "2023-10-08T17:41:53+00:00", "2023-10-08T17:48:38+00:00", "2023-10-08T17:49:39+00:00", "2023-10-08T17:56:16+00:00", "2023-10-08T17:57:57+00:00", "2023-10-08T17:59:53+00:00", "2023-10-08T18:02:01+00:00", "2023-10-08T18:09:39+00:00", "2023-10-08T18:11:48+00:00", "2023-10-08T18:16:33+00:00", "2023-10-08T18:17:49+00:00", "2023-10-08T18:22:26+00:00", "2023-10-08T18:24:14+00:00", "2023-10-08T18:29:35+00:00", "2023-10-08T18:31:44+00:00", "2023-10-08T18:33:44+00:00", "2023-10-08T18:36:32+00:00", "2023-10-08T18:38:17+00:00", "2023-10-08T18:39:49+00:00", "2023-10-08T18:46:38+00:00", "2023-10-08T18:52:27+00:00", "2023-10-08T18:54:19+00:00", "2023-10-08T18:59:40+00:00", "2023-10-08T19:00:16+00:00", "2023-10-08T19:05:13+00:00", "2023-10-08T19:08:05+00:00", "2023-10-08T19:16:43+00:00", "2023-10-08T19:21:12+00:00", "2023-10-08T19:24:53+00:00", "2023-10-08T19:30:26+00:00", "2023-10-08T19:42:56+00:00", "2023-10-08T19:45:49+00:00", "2023-10-08T19:51:31+00:00", "2023-10-08T19:56:32+00:00", "2023-10-08T19:59:36+00:00", "2023-10-08T20:03:32+00:00", "2023-10-08T20:11:14+00:00", "2023-10-08T20:13:22+00:00", "2023-10-08T20:20:56+00:00", "2023-10-08T20:23:37+00:00", "2023-10-08T20:31:17+00:00", "2023-10-08T20:41:10+00:00", "2023-10-08T20:44:22+00:00", "2023-10-08T20:53:23+00:00", "2023-10-08T20:56:35+00:00", "2023-10-08T20:59:15+00:00", "2023-10-08T21:04:15+00:00", "2023-10-08T21:05:31+00:00", "2023-10-08T21:11:44+00:00", "2023-10-08T21:18:52+00:00", "2023-10-08T21:29:37+00:00", "2023-10-08T21:38:14+00:00", "2023-10-08T21:41:58+00:00", "2023-10-08T21:43:06+00:00", "2023-10-08T21:49:54+00:00", "2023-10-08T21:50:58+00:00", "2023-10-08T21:58:27+00:00", "2023-10-08T22:01:47+00:00", "2023-10-08T22:02:39+00:00", "2023-10-08T22:07:23+00:00", "2023-10-08T22:13:32+00:00", "2023-10-08T22:18:20+00:00", "2023-10-08T22:23:37+00:00", "2023-10-08T22:24:57+00:00", "2023-10-08T22:33:04+00:00", "2023-10-08T22:39:58+00:00", "2023-10-08T22:40:54+00:00", "2023-10-08T22:48:39+00:00", "2023-10-08T22:52:35+00:00", "2023-10-08T22:56:19+00:00", "2023-10-08T23:00:03+00:00", "2023-10-08T23:03:04+00:00", "2023-10-08T23:09:40+00:00", "2023-10-08T23:12:04+00:00", "2023-10-08T23:13:49+00:00", "2023-10-08T23:15:01+00:00", "2023-10-08T23:22:50+00:00", "2023-10-08T23:27:29+00:00", "2023-10-08T23:29:13+00:00", "2023-10-08T23:33:13+00:00", "2023-10-08T23:35:06+00:00", "2023-10-08T23:36:54+00:00", "2023-10-08T23:46:36+00:00", "2023-10-08T23:51:32+00:00", "2023-10-08T23:58:08+00:00", "2023-10-09T00:00:49+00:00", "2023-10-09T00:04:10+00:00", "2023-10-09T00:05:26+00:00", "2023-10-09T00:13:15+00:00", "2023-10-09T00:19:29+00:00", "2023-10-09T00:28:46+00:00", "2023-10-09T00:38:57+00:00", "2023-10-09T00:39:33+00:00", "2023-10-09T00:47:26+00:00", "2023-10-09T00:50:59+00:00", "2023-10-09T00:57:44+00:00", "2023-10-09T01:00:16+00:00", "2023-10-09T01:01:00+00:00", "2023-10-09T01:06:09+00:00", "2023-10-09T01:10:34+00:00", "2023-10-09T01:12:58+00:00", "2023-10-09T01:18:18+00:00", "2023-10-09T01:20:39+00:00", "2023-10-09T01:24:15+00:00", "2023-10-09T01:25:35+00:00", "2023-10-09T01:34:56+00:00", "2023-10-09T01:43:21+00:00", "2023-10-09T01:44:09+00:00", "2023-10-09T01:52:18+00:00", "2023-10-09T01:55:10+00:00", "2023-10-09T02:00:39+00:00", "2023-10-09T02:05:52+00:00", "2023-10-09T02:08:12+00:00", "2023-10-09T02:13:09+00:00", "2023-10-09T02:20:30+00:00", "2023-10-09T02:25:47+00:00", "2023-10-09T02:33:24+00:00", "2023-10-09T02:34:56+00:00", "2023-10-09T02:43:45+00:00", "2023-10-09T02:50:02+00:00", "2023-10-09T02:53:14+00:00", "2023-10-09T02:56:10+00:00", "2023-10-09T03:04:12+00:00", "2023-10-09T03:10:01+00:00", "2023-10-09T03:14:21+00:00", "2023-10-09T03:20:10+00:00", "2023-10-09T03:24:31+00:00", "2023-10-09T03:30:00+00:00", "2023-10-09T03:31:12+00:00", "2023-10-09T03:35:37+00:00", "2023-10-09T03:36:13+00:00", "2023-10-09T03:41:14+00:00", "2023-10-09T03:51:04+00:00", "2023-10-09T03:58:17+00:00", "2023-10-09T03:59:53+00:00", "2023-10-09T04:05:51+00:00", "2023-10-09T04:07:15+00:00", "2023-10-09T04:12:07+00:00", "2023-10-09T04:13:43+00:00", "2023-10-09T04:19:04+00:00", "2023-10-09T04:23:53+00:00", "2023-10-09T04:27:11+00:00", "2023-10-09T04:38:39+00:00", "2023-10-09T04:40:34+00:00", "2023-10-09T04:44:15+00:00", "2023-10-09T04:45:31+00:00", "2023-10-09T04:51:05+00:00", "2023-10-09T04:52:53+00:00", "2023-10-09T04:54:29+00:00", "2023-10-09T05:05:44+00:00", "2023-10-09T05:12:05+00:00", "2023-10-09T05:14:21+00:00", "2023-10-09T05:17:17+00:00", "2023-10-09T05:21:02+00:00", "2023-10-09T05:26:22+00:00", "2023-10-09T05:27:35+00:00", "2023-10-09T05:30:47+00:00", "2023-10-09T05:33:11+00:00", "2023-10-09T05:34:03+00:00", "2023-10-09T05:37:44+00:00", "2023-10-09T05:44:11+00:00", "2023-10-09T05:47:25+00:00", "2023-10-09T05:51:11+00:00", "2023-10-09T05:53:58+00:00", "2023-10-09T05:55:36+00:00", "2023-10-09T05:57:48+00:00", "2023-10-09T05:59:25+00:00", "2023-10-09T06:00:36+00:00", "2023-10-09T06:03:09+00:00", "2023-10-09T06:03:45+00:00", "2023-10-09T06:05:42+00:00", "2023-10-09T06:08:50+00:00", "2023-10-09T06:10:18+00:00", "2023-10-09T06:13:47+00:00", "2023-10-09T06:16:55+00:00", "2023-10-09T06:19:28+00:00", "2023-10-09T06:20:32+00:00", "2023-10-09T06:24:52+00:00", "2023-10-09T06:27:04+00:00", "2023-10-09T06:31:17+00:00", "2023-10-09T06:32:49+00:00", "2023-10-09T06:37:18+00:00", "2023-10-09T06:38:58+00:00", "2023-10-09T06:40:18+00:00", "2023-10-09T06:46:19+00:00", "2023-10-09T06:47:55+00:00", "2023-10-09T06:48:48+00:00", "2023-10-09T06:50:20+00:00", "2023-10-09T06:57:01+00:00", "2023-10-09T06:58:29+00:00", "2023-10-09T06:59:41+00:00", "2023-10-09T07:05:58+00:00", "2023-10-09T07:07:06+00:00", "2023-10-09T07:10:19+00:00", "2023-10-09T07:13:23+00:00", "2023-10-09T07:18:00+00:00", "2023-10-09T07:20:12+00:00", "2023-10-09T07:23:01+00:00", "2023-10-09T07:24:49+00:00", "2023-10-09T07:27:01+00:00", "2023-10-09T07:32:06+00:00", "2023-10-09T07:33:34+00:00", "2023-10-09T07:37:18+00:00", "2023-10-09T07:37:38+00:00", "2023-10-09T07:40:47+00:00", "2023-10-09T07:42:24+00:00", "2023-10-09T07:46:48+00:00", "2023-10-09T07:48:21+00:00", "2023-10-09T07:52:13+00:00", "2023-10-09T07:52:53+00:00", "2023-10-09T07:57:38+00:00", "2023-10-09T07:59:50+00:00", "2023-10-09T08:01:06+00:00", "2023-10-09T08:03:58+00:00", "2023-10-09T08:04:38+00:00", "2023-10-09T08:09:59+00:00", "2023-10-09T08:10:35+00:00", "2023-10-09T08:13:16+00:00", "2023-10-09T08:17:36+00:00", "2023-10-09T08:18:24+00:00", "2023-10-09T08:27:53+00:00", "2023-10-09T08:28:25+00:00", "2023-10-09T08:33:02+00:00", "2023-10-09T08:35:46+00:00", "2023-10-09T08:37:50+00:00", "2023-10-09T08:40:14+00:00", "2023-10-09T08:46:31+00:00", "2023-10-09T08:49:24+00:00", "2023-10-09T08:51:36+00:00", "2023-10-09T08:53:20+00:00", "2023-10-09T08:56:05+00:00", "2023-10-09T08:58:33+00:00", "2023-10-09T09:00:29+00:00", "2023-10-09T09:01:13+00:00", "2023-10-09T09:04:54+00:00", "2023-10-09T09:08:26+00:00", "2023-10-09T09:10:11+00:00", "2023-10-09T09:11:39+00:00", "2023-10-09T09:13:59+00:00", "2023-10-09T09:17:24+00:00", "2023-10-09T09:19:36+00:00", "2023-10-09T09:21:56+00:00", "2023-10-09T09:24:29+00:00", "2023-10-09T09:27:09+00:00", "2023-10-09T09:28:50+00:00", "2023-10-09T09:32:03+00:00", "2023-10-09T09:36:12+00:00", "2023-10-09T09:37:56+00:00", "2023-10-09T09:40:33+00:00", "2023-10-09T09:41:25+00:00", "2023-10-09T09:42:14+00:00", "2023-10-09T09:45:18+00:00", "2023-10-09T09:47:27+00:00", "2023-10-09T09:51:44+00:00", "2023-10-09T09:52:40+00:00", "2023-10-09T09:53:36+00:00", "2023-10-09T09:55:56+00:00", "2023-10-09T10:01:08+00:00", "2023-10-09T10:02:33+00:00", "2023-10-09T10:07:01+00:00", "2023-10-09T10:10:02+00:00", "2023-10-09T10:12:18+00:00", "2023-10-09T10:14:50+00:00", "2023-10-09T10:19:03+00:00", "2023-10-09T10:22:19+00:00", "2023-10-09T10:26:52+00:00", "2023-10-09T10:30:44+00:00", "2023-10-09T10:32:17+00:00", "2023-10-09T10:36:13+00:00", "2023-10-09T10:38:46+00:00", "2023-10-09T10:40:18+00:00", "2023-10-09T10:42:18+00:00", "2023-10-09T10:45:31+00:00", "2023-10-09T10:47:23+00:00", "2023-10-09T10:49:19+00:00", "2023-10-09T10:52:51+00:00", "2023-10-09T10:57:32+00:00", "2023-10-09T10:59:44+00:00", "2023-10-09T11:02:24+00:00", "2023-10-09T11:04:16+00:00", "2023-10-09T11:06:45+00:00", "2023-10-09T11:08:21+00:00", "2023-10-09T11:10:37+00:00", "2023-10-09T11:13:02+00:00", "2023-10-09T11:13:30+00:00", "2023-10-09T11:21:26+00:00", "2023-10-09T11:22:10+00:00", "2023-10-09T11:24:55+00:00", "2023-10-09T11:26:43+00:00", "2023-10-09T11:29:07+00:00", "2023-10-09T11:30:55+00:00", "2023-10-09T11:32:39+00:00", "2023-10-09T11:37:08+00:00", "2023-10-09T11:37:40+00:00", "2023-10-09T11:39:48+00:00", "2023-10-09T11:42:12+00:00", "2023-10-09T11:43:48+00:00", "2023-10-09T11:46:41+00:00", "2023-10-09T11:51:09+00:00", "2023-10-09T11:52:05+00:00", "2023-10-09T11:53:05+00:00", "2023-10-09T11:55:13+00:00", "2023-10-09T12:01:14+00:00", "2023-10-09T12:01:50+00:00", "2023-10-09T12:05:06+00:00", "2023-10-09T12:07:02+00:00", "2023-10-09T12:08:22+00:00", "2023-10-09T12:10:34+00:00", "2023-10-09T12:14:55+00:00", "2023-10-09T12:15:47+00:00", "2023-10-09T12:17:03+00:00", "2023-10-09T12:22:03+00:00", "2023-10-09T12:22:43+00:00", "2023-10-09T12:23:15+00:00", "2023-10-09T12:26:11+00:00", "2023-10-09T12:26:39+00:00", "2023-10-09T12:28:03+00:00", "2023-10-09T12:29:23+00:00", "2023-10-09T12:30:11+00:00", "2023-10-09T12:32:44+00:00", "2023-10-09T12:33:48+00:00", "2023-10-09T12:40:44+00:00", "2023-10-09T12:41:56+00:00", "2023-10-09T12:44:01+00:00", "2023-10-09T12:45:37+00:00", "2023-10-09T12:48:17+00:00", "2023-10-09T12:48:53+00:00", "2023-10-09T12:51:09+00:00", "2023-10-09T12:53:17+00:00", "2023-10-09T12:58:54+00:00", "2023-10-09T13:00:58+00:00", "2023-10-09T13:03:10+00:00", "2023-10-09T13:03:42+00:00", "2023-10-09T13:07:31+00:00", "2023-10-09T13:08:27+00:00", "2023-10-09T13:12:11+00:00", "2023-10-09T13:13:24+00:00", "2023-10-09T13:14:44+00:00", "2023-10-09T13:16:24+00:00", "2023-10-09T13:19:53+00:00", "2023-10-09T13:22:13+00:00", "2023-10-09T13:22:49+00:00", "2023-10-09T13:26:38+00:00", "2023-10-09T13:30:06+00:00", "2023-10-09T13:31:27+00:00", "2023-10-09T13:34:19+00:00", "2023-10-09T13:34:47+00:00", "2023-10-09T13:36:27+00:00", "2023-10-09T13:37:36+00:00", "2023-10-09T13:40:05+00:00", "2023-10-09T13:40:49+00:00", "2023-10-09T13:42:49+00:00", "2023-10-09T13:43:46+00:00", "2023-10-09T13:46:14+00:00", "2023-10-09T13:47:34+00:00", "2023-10-09T13:54:15+00:00", "2023-10-09T13:56:16+00:00", "2023-10-09T13:58:08+00:00", "2023-10-09T14:00:00+00:00", "2023-10-09T14:03:33+00:00", "2023-10-09T14:05:18+00:00", "2023-10-09T14:07:50+00:00", "2023-10-09T14:09:11+00:00", "2023-10-09T14:12:07+00:00", "2023-10-09T14:16:52+00:00", "2023-10-09T14:18:36+00:00", "2023-10-09T14:20:33+00:00", "2023-10-09T14:22:49+00:00", "2023-10-09T14:25:02+00:00", "2023-10-09T14:28:26+00:00", "2023-10-09T14:31:23+00:00", "2023-10-09T14:32:11+00:00", "2023-10-09T14:38:20+00:00", "2023-10-09T14:39:56+00:00", "2023-10-09T14:41:00+00:00", "2023-10-09T14:43:28+00:00", "2023-10-09T14:44:45+00:00", "2023-10-09T14:45:57+00:00", "2023-10-09T14:47:45+00:00", "2023-10-09T14:49:09+00:00", "2023-10-09T14:50:17+00:00", "2023-10-09T14:53:06+00:00", "2023-10-09T14:54:02+00:00", "2023-10-09T14:55:30+00:00", "2023-10-09T14:59:07+00:00", "2023-10-09T15:01:07+00:00", "2023-10-09T15:02:52+00:00", "2023-10-09T15:04:00+00:00", "2023-10-09T15:05:08+00:00", "2023-10-09T15:07:12+00:00", "2023-10-09T15:09:33+00:00", "2023-10-09T15:10:05+00:00", "2023-10-09T15:13:33+00:00", "2023-10-09T15:15:10+00:00", "2023-10-09T15:16:30+00:00", "2023-10-09T15:17:38+00:00", "2023-10-09T15:19:30+00:00", "2023-10-09T15:20:22+00:00", "2023-10-09T15:25:46+00:00", "2023-10-09T15:31:19+00:00", "2023-10-09T15:39:47+00:00", "2023-10-09T15:42:20+00:00", "2023-10-09T15:46:04+00:00", "2023-10-09T15:47:36+00:00", "2023-10-09T16:02:54+00:00"], "elevations": [0.0, 0.0, 0.0, 0.0, 0.0, 0.0, 0.0, 0.0, 0.0, 0.0, 0.0, 0.0, 0.0, 0.0, 0.0, 0.0, 0.0, 0.0, 0.0, 0.0, 0.0, 0.0, 0.0, 0.0, 0.0, 0.0, 0.0, 0.0, 0.0, 0.0, 0.0, 0.0, null, 0.0, 0.0, 0.0, 0.0, 0.0, 0.0, 0.0, 0.0, 0.0, 0.0, 0.0, 0.0, 0.0, 0.0, 0.0, 0.0, 0.0, 0.0, 0.0, 0.0, 0.0, 0.0, 0.0, 0.0, 0.0, 0.0, 0.0, 0.0, 0.0, 0.0, 0.0, 0.0, 0.0, 0.0, 0.0, 0.0, 0.0, 0.0, 0.0, 0.0, 0.0, 0.0, 0.0, 0.0, 0.0, 0.0, 0.0, 0.0, 0.0, 0.0, 0.0, 0.0, 0.0, 0.0, 0.0, 0.0, 0.0, 0.0, 0.0, 0.0, 0.0, 0.0, 0.0, 0.0, 0.0, 0.0, 0.0, 0.0, 0.0, 0.0, 0.0, 0.0, 0.0, 0.0, 0.0, 0.0, 0.0, 0.0, 0.0, 0.0, 0.0, 0.0, 0.0, 0.0, 0.0, 0.0, null, null, null, null, null, null, null, null, null, null, null, null, null, null, null, null, null, null, null, null, null, null, null, null, null, null, null, null, null, null, null, null, null, null, null, null, null, null, null, null, null, null, null, null, null, null, null, null, null, null, null, null, null, null, null, null, null, null, null, null, null, null, null, null, null, null, null, null, 0.0, 0.0, 0.0, 0.0, 0.0, 0.0, 0.0, 0.0, 0.0, 0.0, 0.0, 0.0, 0.0, 0.0, 0.0, 0.0, 0.0, 0.0, 0.0, 0.0, 0.0, 0.0, 0.0, 0.0, 0.0, 0.0, 0.0, 0.0, 0.0, 0.0, 0.0, 0.0, 0.0, 0.0, 0.0, 0.0, 0.0, 0.0, 0.0, 0.0, 0.0, 0.0, 0.0, 0.0, 0.0, 0.0, 0.0, 0.0, 0.0, 0.0, 0.0, 0.0, 0.0, 0.0, 0.0, 0.0, 0.0, 0.0, 0.0, 0.0, 0.0, 0.0, 0.0, 0.0, 0.0, 0.0, 0.0, 0.0, 0.0, 0.0, 0.0, 0.0, 0.0, 0.0, 0.0, 0.0, 0.0, 0.0, 0.0, 0.0, 0.0, 0.0, 0.0, 0.0, 0.0, 0.0, 0.0, 0.0, 0.0, 0.0, 0.0, 0.0, 0.0, 0.0, 0.0, 0.0, 0.0, 0.0, 0.0, 0.0, 0.0, 0.0, 0.0, 0.0, 0.0, 0.0, 0.0, 0.0, 0.0, 0.0, 0.0, 0.0, 0.0, 0.0, 0.0, 0.0, 0.0, 0.0, 0.0, 0.0, 0.0, 0.0, 0.0, 0.0, 0.0, 0.0, 0.0, 0.0, 0.0, null, 0.0, 0.0, 0.0, 0.0, 0.0, 0.0, 0.0, 0.0, 0.0, 0.0, 0.0, 0.0, 0.0, 0.0, 0.0, 0.0, 0.0, 0.0, 0.0, 0.0, 0.0, 0.0, 0.0, 0.0, 0.0, 0.0, 0.0, 0.0, 0.0, 0.0, 0.0, 0.0, 0.0, 0.0, 0.0, 0.0, 0.0, 0.0, 0.0, 0.0, 0.0, 0.0, 0.0, 0.0, 0.0, 0.0, 0.0, 0.0, 0.0, 0.0, 0.0, 0.0, 0.0, 0.0, 0.0, 0.0, 0.0, 0.0, 0.0, 0.0, 0.0, 0.0, 0.0, 0.0, 0.0, 0.0, 0.0, 0.0, 0.0, 0.0, 0.0, 0.0, 0.0, 0.0, 0.0, 0.0, 0.0, 0.0, 0.0, 0.0, 0.0, 0.0, 0.0, 0.0, 0.0, 0.0, 0.0, 0.0, 0.0, 0.0, 0.0, 0.0, 0.0, 0.0, 0.0, 0.0, 0.0, 0.0, 0.0, 0.0, 0.0, 0.0, 0.0, 0.0, 0.0, 0.0, 0.0, 0.0, 0.0, 0.0, 0.0, 0.0, 0.0, 0.0, 0.0, 0.0, 0.0, 0.0, 0.0, 0.0, 0.0, 0.0, 0.0, 0.0, 0.0, 0.0, 0.0, 0.0, 0.0, 0.0, 0.0, 0.0, 0.0, 0.0, 0.0, 0.0, 0.0, 0.0, 0.0, 0.0, 0.0, 0.0, 0.0, 0.0, 0.0, 0.0, 0.0, 0.0, 0.0, 0.0, 0.0, 0.0, 0.0, 0.0, 0.0, 0.0, 0.0, 0.0, 0.0, null, 0.0, 0.0, 0.0, 0.0, 0.0, 0.0, 0.0, 0.0, 0.0, 0.0, 0.0, 0.0, 0.0, 0.0, 0.0, 0.0, 0.0, 0.0, 0.0, 0.0, 0.0, 0.0, 0.0, 0.0, 0.0, 0.0, 0.0, 0.0, 0.0, 0.0, 0.0, 0.0, 0.0, 0.0, 0.0, 0.0, 0.0, 0.0, 0.0, 0.0, 0.0, 0.0, 0.0, 0.0, 0.0, 0.0, 0.0, 0.0, 0.0, 0.0, 0.0, 0.0, 0.0, 0.0, 0.0, 0.0, 0.0, 0.0, 0.0, 0.0, 0.0, 0.0, 0.0, 0.0, 0.0, 0.0, 0.0, 0.0, 0.0, 0.0, 0.0, 0.0, null, 0.0, 0.0, 0.0, 0.0, 0.0, 0.0, 0.0, 0.0, 0.0, 0.0, 0.0, 0.0, 0.0, 0.0, 0.0, 0.0, 0.0, 0.0, 0.0, 0.0, 0.0, 0.0, 0.0, 0.0, 0.0, 0.0, 0.0, 0.0, 0.0, 0.0, 0.0, 0.0, 0.0, 0.0, null, 0.0, 0.0, 0.0, null, 0.0, 0.0, null, 0.0, 0.0, 0.0, 0.0, 0.0, 0.0, 0.0, 0.0, null, 0.0, 0.0, 0.0, 0.0, 0.0, 0.0, 0.0, 0.0, 0.0, 0.0, 0.0, 0.0, 0.0, 0.0, 0.0, 0.0, 0.0, 0.0, 0.0, 0.0, 0.0, 0.0, 0.0, 0.0, 0.0, null, 0.0, 0.0, 0.0, 0.0, 0.0, 0.0, 0.0, 0.0, 0.0, 0.0, 0.0, 0.0, 0.0, 0.0, 0.0, 0.0, 0.0, 0.0, 0.0, 0.0, 0.0, 0.0, 0.0, 0.0, 0.0, 0.0, 0.0, 0.0, 0.0, 0.0, 0.0, 0.0, 0.0, 0.0, 0.0, 0.0, 0.0, 0.0, 0.0, 0.0, 0.0, 0.0, 0.0, 0.0, 0.0, 0.0, 0.0, 0.0, 0.0, 0.0, 0.0, 0.0, 0.0, 0.0, 0.0, 0.0, 0.0, 0.0, null, 0.0, 0.0, 0.0, 0.0, 0.0, 0.0, 0.0, 0.0, 0.0, 0.0, 0.0, 0.0, 0.0, 0.0, 0.0, 0.0, 0.0, 0.0, 0.0, 0.0, 0.0, 0.0, 0.0, 0.0, 0.0, 0.0, 0.0, 0.0, 0.0, 0.0, 0.0, 0.0, 0.0, 0.0, 0.0, 0.0, 0.0, 0.0, 0.0, 0.0, 0.0, 0.0, 0.0, 0.0, 0.0, 0.0, 0.0, 0.0, 0.0, 0.0, 0.0, 0.0, 0.0, 0.0, 0.0, 0.0, 0.0, 0.0, 0.0, 0.0, 0.0, 0.0, 0.0, 0.0, 0.0, 0.0, 0.0, 0.0, 0.0, 0.0, 0.0, 0.0, 0.0, 0.0, 0.0, 0.0, 0.0, 0.0, null, 0.0, 0.0, 0.0, 0.0, 0.0, 0.0, 0.0, 0.0, 0.0, 0.0, 0.0, 0.0, 0.0, 0.0, 0.0, 0.0, 0.0, 0.0, 0.0, 0.0, 0.0, 0.0, 0.0, 0.0, 0.0, 0.0, 0.0, 0.0, 0.0, 0.0, 0.0, 0.0, 0.0, 0.0, 0.0, 0.0, 0.0, 0.0, 0.0, 0.0, 0.0]}