{"type": "Feature", "properties": {"leg_id": 5, "name": "20191113 - Mulege to Loreto", "stated_nm": 99.9, "computed_nm": 99.9}, "geometry": {"type": "LineString", "coordinates": [[-111.885937, 26.763971], [-111.875828, 26.753433], [-111.862793, 26.7624], [-111.853399, 26.77446], [-111.852406, 26.775635], [-111.846097, 26.787645], [-111.84365, 26.80229], [-111.842099, 26.81718], [-111.84228, 26.819623], [-111.843301, 26.832119], [-111.847451, 26.846506], [-111.849189, 26.861528], [-111.847917, 26.865412], [-111.847626, 26.866493], [-111.858095, 26.876321], [-111.851021, 26.890608], [-111.83652, 26.899665], [-111.833718, 26.901205], [-111.821717, 26.908098], [-111.819191, 26.909498], [-111.805311, 26.908476], [-111.787807, 26.904969], [-111.783335, 26.90407], [-111.770865, 26.900146], [-111.759971, 26.896386], [-111.750904, 26.893303], [-111.745171, 26.891336], [-111.730922, 26.886623], [-111.720008, 26.882668], [-111.716021, 26.880541], [-111.710032, 26.876064], [-111.700481, 26.867721], [-111.690487, 26.858816], [-111.68626, 26.854973], [-111.680936, 26.850096], [-111.671363, 26.841489], [-111.661702, 26.832973], [-111.656648, 26.828355], [-111.651956, 26.824063], [-111.642514, 26.814852], [-111.634015, 26.805043], [-111.628925, 26.79882], [-111.625577, 26.794664], [-111.618279, 26.785497], [-111.611384, 26.776786], [-111.606846, 26.77116], [-111.604282, 26.768067], [-111.597167, 26.759004], [-111.590599, 26.750017], [-111.585903, 26.74347], [-111.584078, 26.740872], [-111.578978, 26.736647], [-111.568864, 26.729617], [-111.560948, 26.723556], [-111.558767, 26.721978], [-111.548973, 26.71435], [-111.540092, 26.70746], [-111.539083, 26.699813], [-111.538879, 26.697757], [-111.533748, 26.681413], [-111.527663, 26.665165], [-111.519406, 26.651308], [-111.51858, 26.650353], [-111.506952, 26.637476], [-111.49556, 26.625118], [-111.48501, 26.612931], [-111.474992, 26.600219], [-111.464571, 26.588761], [-111.454278, 26.577377], [-111.453551, 26.576615], [-111.443385, 26.564166], [-111.432801, 26.55048], [-111.42809, 26.534544], [-111.427503, 26.532401], [-111.423753, 26.518482], [-111.419183, 26.502632], [-111.414465, 26.486461], [-111.413855, 26.483166], [-111.412622, 26.469529], [-111.410767, 26.452573], [-111.409153, 26.435476], [-111.40877, 26.43096], [-111.407758, 26.418267], [-111.408912, 26.400712], [-111.411441, 26.38326], [-111.412203, 26.377583], [-111.419634, 26.369107], [-111.431137, 26.366124], [-111.429678, 26.366014], [-111.40643, 26.357531], [-111.391369, 26.346956], [-111.38345, 26.339303], [-111.378409, 26.334498], [-111.36566, 26.322153], [-111.352953, 26.309948], [-111.344418, 26.301903], [-111.340204, 26.298155], [-111.32718, 26.286918], [-111.314045, 26.276073], [-111.304743, 26.267451], [-111.301557, 26.264398], [-111.28908, 26.252118], [-111.283446, 26.237471], [-111.279015, 26.225298], [-111.277965, 26.222328], [-111.272315, 26.206501], [-111.270612, 26.18971], [-111.273995, 26.175635], [-111.274809, 26.173686], [-111.281029, 26.158416], [-111.28713, 26.142965], [-111.2938, 26.128138], [-111.294228, 26.127219], [-111.290122, 26.113102], [-111.283947, 26.112366], [-111.284139, 26.112189], [-111.290881, 26.111476], [-111.300627, 26.103257], [-111.310447, 26.089499], [-111.314307, 26.072708], [-111.31485, 26.068411], [-111.317099, 26.056733], [-111.323348, 26.040749], [-111.33313, 26.025473], [-111.337203, 26.019146], [-111.337273, 26.017813], [-111.328097, 26.007009], [-111.324535, 25.990424], [-111.321055, 25.974252], [-111.320106, 25.970166], [-111.317578, 25.957603], [-111.314424, 25.940921], [-111.31148, 25.923732], [-111.310558, 25.918228], [-111.308521, 25.906252], [-111.305295, 25.888899], [-111.30189, 25.872336], [-111.300558, 25.866011], [-111.298379, 25.855775], [-111.292738, 25.840068], [-111.286169, 25.825327], [-111.283285, 25.818643], [-111.279131, 25.810323], [-111.272, 25.794762], [-111.265713, 25.779984], [-111.262278, 25.772316], [-111.258842, 25.765282], [-111.252495, 25.750229], [-111.244222, 25.736101], [-111.237495, 25.729036], [-111.235867, 25.723886]]}, "times": ["2019-11-13T21:00:10+00:00", "2019-11-14T20:07:18+00:00", "2019-11-14T20:17:05+00:00", "2019-11-14T20:26:52+00:00", "2019-11-14T20:27:45+00:00", "2019-11-14T20:36:39+00:00", "2019-11-14T20:46:26+00:00", "2019-11-14T20:56:12+00:00", "2019-11-14T20:57:45+00:00", "2019-11-14T21:05:59+00:00", "2019-11-14T21:15:46+00:00", "2019-11-14T21:25:33+00:00", "2019-11-14T21:35:20+00:00", "2019-11-15T15:24:29+00:00", "2019-11-15T15:34:16+00:00", "2019-11-15T15:44:03+00:00", "2019-11-15T15:53:50+00:00", "2019-11-15T15:55:30+00:00", "2019-11-15T16:03:37+00:00", "2019-11-15T16:05:15+00:00", "2019-11-15T16:13:24+00:00", "2019-11-15T16:23:11+00:00", "2019-11-15T16:25:30+00:00", "2019-11-15T16:32:58+00:00", "2019-11-15T16:42:45+00:00", "2019-11-15T16:52:33+00:00", "2019-11-15T17:02:20+00:00", "2019-11-15T17:12:07+00:00", "2019-11-15T17:21:54+00:00", "2019-11-15T17:25:30+00:00", "2019-11-15T17:31:41+00:00", "2019-11-15T17:41:27+00:00", "2019-11-15T17:51:14+00:00", "2019-11-15T17:55:30+00:00", "2019-11-15T18:01:02+00:00", "2019-11-15T18:10:49+00:00", "2019-11-15T18:20:36+00:00", "2019-11-15T18:25:30+00:00", "2019-11-15T18:30:23+00:00", "2019-11-15T18:40:10+00:00", "2019-11-15T18:49:57+00:00", "2019-11-15T18:55:30+00:00", "2019-11-15T18:59:43+00:00", "2019-11-15T19:09:31+00:00", "2019-11-15T19:19:18+00:00", "2019-11-15T19:25:30+00:00", "2019-11-15T19:29:05+00:00", "2019-11-15T19:38:52+00:00", "2019-11-15T19:48:39+00:00", "2019-11-15T19:55:30+00:00", "2019-11-15T19:58:25+00:00", "2019-11-15T20:08:13+00:00", "2019-11-15T20:18:00+00:00", "2019-11-15T20:25:30+00:00", "2019-11-15T20:27:46+00:00", "2019-11-15T20:37:33+00:00", "2019-11-15T20:47:20+00:00", "2019-11-15T20:55:30+00:00", "2019-11-15T20:57:06+00:00", "2019-11-15T21:06:53+00:00", "2019-11-15T21:16:41+00:00", "2019-11-15T21:25:30+00:00", "2019-11-15T21:26:27+00:00", "2019-11-15T21:36:15+00:00", "2019-11-15T21:46:01+00:00", "2019-11-15T21:55:45+00:00", "2019-11-15T22:05:35+00:00", "2019-11-15T22:15:22+00:00", "2019-11-15T22:25:09+00:00", "2019-11-15T22:25:45+00:00", "2019-11-15T22:34:56+00:00", "2019-11-15T22:44:43+00:00", "2019-11-15T22:54:30+00:00", "2019-11-15T22:55:45+00:00", "2019-11-15T23:04:17+00:00", "2019-11-15T23:14:03+00:00", "2019-11-15T23:23:50+00:00", "2019-11-15T23:25:45+00:00", "2019-11-15T23:33:38+00:00", "2019-11-15T23:43:25+00:00", "2019-11-15T23:53:12+00:00", "2019-11-15T23:55:45+00:00", "2019-11-16T00:02:59+00:00", "2019-11-16T00:12:46+00:00", "2019-11-16T00:22:34+00:00", "2019-11-16T00:25:45+00:00", "2019-11-16T00:32:21+00:00", "2019-11-16T00:42:08+00:00", "2019-11-16T11:55:51+00:00", "2019-11-16T14:31:10+00:00", "2019-11-16T14:40:57+00:00", "2019-11-16T14:46:45+00:00", "2019-11-16T14:50:44+00:00", "2019-11-16T15:00:32+00:00", "2019-11-16T15:10:18+00:00", "2019-11-16T15:16:45+00:00", "2019-11-16T15:20:05+00:00", "2019-11-16T15:29:53+00:00", "2019-11-16T15:39:39+00:00", "2019-11-16T15:46:45+00:00", "2019-11-16T15:49:26+00:00", "2019-11-16T15:59:13+00:00", "2019-11-16T16:09:00+00:00", "2019-11-16T16:16:45+00:00", "2019-11-16T16:18:47+00:00", "2019-11-16T16:28:34+00:00", "2019-11-16T16:38:21+00:00", "2019-11-16T16:46:45+00:00", "2019-11-16T16:48:08+00:00", "2019-11-16T16:57:55+00:00", "2019-11-16T17:07:42+00:00", "2019-11-16T17:16:45+00:00", "2019-11-16T17:17:29+00:00", "2019-11-16T17:27:16+00:00", "2019-11-16T21:07:54+00:00", "2019-11-17T09:33:55+00:00", "2019-11-17T18:46:45+00:00", "2019-11-17T18:54:50+00:00", "2019-11-17T19:04:37+00:00", "2019-11-17T19:14:24+00:00", "2019-11-17T19:16:45+00:00", "2019-11-17T19:24:10+00:00", "2019-11-17T19:33:58+00:00", "2019-11-17T19:43:45+00:00", "2019-11-17T19:53:32+00:00", "2019-11-17T23:07:45+00:00", "2019-11-17T23:15:49+00:00", "2019-11-17T23:25:36+00:00", "2019-11-17T23:35:23+00:00", "2019-11-17T23:37:45+00:00", "2019-11-17T23:45:10+00:00", "2019-11-17T23:54:56+00:00", "2019-11-18T00:04:44+00:00", "2019-11-18T00:07:45+00:00", "2019-11-18T00:14:31+00:00", "2019-11-18T00:24:18+00:00", "2019-11-18T00:34:05+00:00", "2019-11-18T00:37:45+00:00", "2019-11-18T00:43:52+00:00", "2019-11-18T00:53:39+00:00", "2019-11-18T01:03:26+00:00", "2019-11-18T01:07:45+00:00", "2019-11-18T01:13:13+00:00", "2019-11-18T01:23:01+00:00", "2019-11-18T01:32:47+00:00", "2019-11-18T01:37:45+00:00", "2019-11-18T01:42:35+00:00", "2019-11-18T01:52:22+00:00", "2019-11-18T02:02:09+00:00", "2019-11-18T02:07:45+00:00", "2019-11-18T02:21:43+00:00"], "elevations": [-5.1, -2.0, -5.0, -5.0, -5.8, -4.0, -4.0, -3.0, -3.7, -3.0, -3.0, -4.0, -5.4, -2.4, 0.0, -3.0, -1.0, -1.7, -2.0, -1.7, -2.0, -2.0, -1.7, -2.0, -2.0, -4.0, -4.9, -3.0, -2.0, -1.7, 0.0, 0.0, -2.0, -3.7, -4.0, -3.0, -2.0, -3.7, -2.0, -4.0, -6.0, -5.8, -5.0, -3.0, -1.0, 0.3, 0.0, 1.0, -3.0, -3.7, -2.0, -5.0, -4.0, -5.8, -4.0, -4.0, -5.0, -5.8, -4.0, -3.0, -4.0, -3.7, -3.0, -2.0, -2.0, -1.7, -1.0, -6.0, -9.0, -9.8, -8.0, -8.0, -5.0, -5.8, -4.0, -4.0, -3.0, -3.7, -4.0, -5.0, -6.0, -7.8, -7.0, -6.0, -6.0, -5.8, -5.0, -5.0, 1.8, -2.0, -3.0, -3.7, -3.0, -4.0, 0.0, -3.7, -2.0, -3.0, -3.0, -3.7, -4.0, -2.0, -2.0, -1.7, -2.0, -2.0, -2.0, -3.7, -3.0, -4.0, -3.0, -1.7, -1.0, -3.0, -4.5, -0.4, -1.7, -2.0, -5.0, 0.0, 0.3, -2.0, -3.0, -2.0, -1.0, -1.7, -8.0, -4.0, -3.0, 0.3, 1.0, -5.0, -2.0, -1.7, -1.0, -2.0, -7.0, -5.8, -1.0, -4.0, -2.0, -3.7, -5.0, -7.0, -8.0, -3.7, -7.0, -3.0, -6.0, -3.7, -3.5]}