{"type": "Feature", "properties": {"leg_id": 51, "name": "20230512 - Lady Musgrave Island to Gladstone", "stated_nm": 81.8, "computed_nm": 81.8}, "geometry": {"type": "LineString", "coordinates": [[152.401333, -23.905093], [152.40462, -23.902042], [152.406388, -23.900725], [152.408732, -23.898719], [152.410379, -23.897838], [152.411879, -23.896368], [152.410847, -23.89419], [152.407807, -23.891727], [152.405676, -23.890868], [152.403147, -23.891306], [152.400392, -23.891988], [152.397543, -23.892771], [152.396675, -23.893835], [152.394444, -23.894777], [152.391265, -23.895268], [152.388509, -23.895622], [152.385086, -23.89653], [152.381729, -23.89682], [152.379235, -23.897364], [152.376482, -23.897933], [152.373786, -23.898636], [152.371196, -23.899875], [152.368399, -23.901055], [152.365818, -23.902042], [152.3633, -23.903212], [152.36092, -23.903697], [152.358832, -23.904011], [152.356524, -23.904103], [152.353953, -23.904787], [152.3513, -23.90569], [152.348976, -23.906395], [152.346461, -23.907019], [152.343697, -23.907228], [152.340854, -23.907507], [152.338449, -23.908161], [152.335573, -23.908636], [152.332602, -23.908522], [152.330245, -23.909201], [152.327386, -23.910157], [152.325969, -23.910555], [152.32314, -23.910881], [152.321495, -23.910968], [152.318853, -23.911347], [152.315994, -23.911664], [152.314379, -23.911882], [152.312155, -23.91235], [152.310559, -23.912694], [152.308404, -23.912956], [152.306637, -23.913124], [152.304837, -23.913403], [152.302879, -23.913647], [152.300968, -23.913979], [152.298908, -23.91427], [152.296485, -23.914877], [152.294466, -23.915333], [152.292659, -23.915642], [152.2903, -23.916044], [152.288174, -23.916435], [152.285713, -23.916701], [152.283481, -23.916963], [152.28159, -23.91707], [152.278986, -23.91742], [152.276688, -23.917737], [152.274694, -23.91799], [152.272804, -23.91828], [152.270876, -23.918416], [152.269121, -23.918447], [152.266757, -23.918384], [152.264857, -23.91849], [152.262734, -23.918763], [152.26082, -23.919096], [152.259013, -23.919275], [152.257141, -23.919647], [152.255016, -23.920103], [152.253398, -23.920373], [152.251639, -23.920537], [152.249627, -23.920621], [152.247915, -23.92069], [152.245729, -23.920801], [152.243395, -23.92111], [152.241783, -23.921372], [152.239496, -23.921709], [152.237377, -23.92201], [152.235718, -23.922164], [152.232501, -23.922309], [152.230291, -23.922379], [152.228501, -23.922438], [152.225945, -23.922677], [152.223822, -23.922829], [152.22181, -23.923034], [152.220012, -23.923243], [152.218262, -23.923396], [152.216533, -23.923595], [152.214693, -23.924042], [152.212765, -23.924224], [152.210228, -23.924366], [152.208081, -23.924501], [152.205864, -23.924784], [152.204108, -23.925073], [152.201881, -23.925082], [152.199145, -23.925173], [152.197175, -23.925107], [152.194675, -23.925087], [152.192525, -23.924954], [152.190771, -23.924811], [152.188449, -23.924518], [152.186277, -23.924383], [152.184597, -23.924242], [152.182897, -23.924187], [152.180723, -23.924193], [152.178945, -23.924313], [152.176952, -23.924329], [152.174761, -23.924211], [152.172591, -23.9242], [152.170728, -23.923982], [152.169002, -23.923728], [152.166963, -23.923451], [152.164652, -23.923219], [152.16274, -23.92282], [152.160989, -23.922307], [152.158635, -23.92109], [152.156158, -23.919752], [152.154427, -23.918986], [152.151658, -23.917728], [152.149241, -23.916798], [152.147672, -23.916196], [152.145497, -23.915698], [152.142678, -23.915403], [152.140011, -23.915433], [152.136961, -23.915873], [152.134706, -23.916125], [152.131026, -23.916473], [152.128973, -23.916766], [152.12552, -23.917208], [152.123128, -23.917544], [152.118918, -23.918201], [152.116289, -23.918736], [152.113253, -23.919321], [152.109955, -23.919929], [152.106261, -23.920664], [152.10349, -23.921278], [152.100349, -23.921759], [152.096791, -23.922082], [152.093719, -23.922639], [152.090353, -23.923448], [152.087434, -23.924212], [152.083754, -23.925264], [152.079574, -23.926315], [152.076393, -23.926993], [152.072632, -23.927631], [152.069753, -23.928056], [152.067186, -23.928704], [152.064459, -23.929282], [152.062194, -23.929702], [152.059132, -23.93036], [152.056558, -23.930932], [152.053732, -23.931476], [152.051246, -23.931962], [152.04843, -23.932676], [152.045376, -23.93349], [152.042702, -23.934311], [152.039977, -23.93497], [152.036733, -23.935725], [152.034152, -23.93638], [152.030929, -23.937198], [152.028027, -23.937931], [152.024201, -23.93922], [152.021356, -23.939902], [152.018367, -23.940684], [152.015421, -23.941579], [152.012896, -23.942408], [152.009557, -23.94343], [152.005989, -23.944462], [152.002564, -23.945351], [151.999565, -23.946143], [151.996396, -23.946946], [151.991973, -23.947968], [151.989525, -23.948629], [151.985861, -23.949447], [151.98358, -23.950034], [151.979867, -23.951023], [151.977819, -23.951778], [151.975809, -23.952554], [151.97341, -23.953574], [151.970564, -23.95459], [151.96802, -23.955475], [151.964804, -23.956434], [151.962163, -23.95734], [151.96072, -23.957806], [151.958584, -23.958581], [151.956213, -23.959443], [151.954012, -23.960373], [151.952363, -23.961144], [151.948443, -23.962586], [151.94599, -23.963525], [151.942267, -23.964804], [151.938668, -23.966068], [151.936172, -23.96695], [151.933786, -23.967812], [151.93049, -23.968449], [151.928015, -23.969044], [151.925178, -23.969734], [151.923009, -23.970238], [151.920654, -23.970888], [151.91811, -23.971599], [151.915825, -23.97232], [151.913047, -23.972876], [151.910138, -23.973191], [151.907191, -23.973656], [151.904498, -23.973977], [151.901856, -23.974359], [151.899067, -23.974676], [151.896407, -23.975017], [151.893392, -23.97528], [151.891157, -23.975526], [151.888373, -23.975773], [151.886485, -23.975925], [151.883777, -23.976159], [151.881041, -23.976326], [151.878626, -23.976382], [151.876209, -23.976445], [151.87413, -23.976527], [151.871111, -23.976508], [151.868226, -23.97656], [151.866089, -23.976752], [151.861416, -23.977342], [151.858605, -23.977687], [151.856296, -23.977973], [151.853567, -23.978489], [151.851446, -23.979013], [151.847992, -23.979639], [151.845286, -23.979879], [151.842306, -23.980246], [151.839459, -23.980458], [151.837391, -23.980648], [151.83517, -23.980919], [151.833017, -23.981199], [151.830001, -23.981448], [151.827128, -23.981634], [151.824074, -23.981903], [151.82063, -23.982238], [151.818255, -23.982578], [151.815574, -23.982845], [151.813363, -23.983094], [151.810871, -23.983618], [151.808082, -23.984078], [151.805401, -23.984421], [151.803101, -23.984817], [151.801005, -23.985175], [151.797953, -23.985526], [151.795941, -23.985728], [151.793308, -23.986164], [151.791387, -23.986358], [151.788108, -23.986739], [151.785612, -23.987199], [151.782981, -23.987764], [151.780061, -23.987996], [151.777264, -23.988285], [151.774447, -23.988718], [151.771965, -23.989079], [151.769924, -23.989573], [151.767796, -23.990026], [151.765262, -23.990603], [151.76276, -23.991415], [151.760197, -23.992109], [151.757657, -23.992687], [151.754522, -23.993456], [151.752598, -23.993833], [151.750449, -23.9942], [151.747549, -23.9949], [151.745095, -23.996279], [151.742399, -23.998434], [151.74048, -24.000404], [151.738856, -24.002125], [151.738039, -24.004575], [151.737691, -24.008056], [151.73723, -24.010024], [151.73609, -24.012216], [151.735793, -24.014814], [151.735805, -24.017757], [151.736556, -24.020108], [151.738938, -24.021883], [151.740535, -24.023471], [151.742406, -24.025582], [151.742895, -24.028045], [151.742712, -24.03089], [151.741484, -24.032712], [151.741669, -24.0327], [151.743075, -24.028654], [151.742359, -24.02636], [151.741236, -24.02413], [151.739586, -24.022613], [151.737519, -24.021094], [151.736434, -24.019719], [151.73556, -24.017182], [151.73482, -24.014893], [151.734858, -24.012534], [151.736024, -24.009016], [151.737143, -24.006035], [151.737335, -24.003641], [151.736861, -24.001477], [151.737575, -23.999928], [151.738807, -23.998228], [151.73816, -23.996533], [151.736593, -23.994811], [151.734769, -23.993012], [151.733074, -23.991165], [151.730644, -23.989736], [151.728384, -23.988605], [151.725208, -23.986816], [151.721967, -23.98503], [151.719484, -23.983744], [151.716178, -23.981871], [151.713671, -23.980586], [151.710675, -23.978888], [151.707476, -23.97733], [151.703739, -23.976246], [151.700548, -23.974795], [151.696991, -23.973702], [151.694731, -23.973387], [151.692314, -23.972887], [151.689442, -23.972002], [151.685936, -23.971327], [151.683097, -23.970683], [151.680333, -23.970023], [151.677871, -23.969465], [151.674659, -23.968963], [151.672174, -23.96862], [151.669213, -23.968171], [151.664933, -23.967581], [151.662156, -23.967135], [151.658817, -23.966677], [151.655258, -23.966296], [151.652368, -23.966027], [151.649555, -23.965748], [151.647327, -23.965434], [151.644063, -23.964946], [151.63997, -23.964408], [151.635631, -23.963764], [151.631808, -23.963644], [151.628554, -23.96382], [151.624422, -23.963914], [151.622029, -23.963946], [151.618869, -23.964457], [151.616096, -23.964773], [151.613203, -23.964856], [151.610754, -23.965501], [151.608115, -23.965858], [151.605511, -23.96493], [151.603365, -23.963886], [151.60087, -23.963202], [151.598228, -23.962501], [151.595972, -23.96141], [151.593499, -23.960396], [151.589522, -23.958845], [151.586949, -23.957725], [151.584403, -23.956785], [151.582434, -23.95607], [151.579795, -23.955344], [151.576109, -23.954413], [151.573542, -23.954208], [151.570506, -23.952729], [151.568311, -23.951582], [151.565586, -23.950672], [151.562999, -23.949971], [151.559984, -23.948685], [151.557373, -23.947273], [151.555476, -23.945819], [151.553383, -23.94451], [151.55101, -23.943188], [151.548158, -23.941876], [151.545599, -23.940635], [151.542054, -23.939164], [151.539286, -23.938537], [151.536145, -23.937858], [151.533551, -23.937352], [151.531051, -23.936957], [151.529021, -23.936525], [151.526515, -23.936145], [151.523159, -23.935484], [151.520747, -23.934867], [151.518006, -23.934365], [151.515264, -23.933897], [151.511541, -23.933179], [151.509043, -23.933295], [151.506434, -23.933319], [151.503778, -23.932924], [151.500624, -23.933072], [151.498206, -23.932593], [151.495297, -23.93241], [151.492635, -23.932569], [151.490082, -23.932718], [151.487019, -23.932765], [151.48359, -23.93229], [151.480758, -23.931955], [151.477406, -23.932086], [151.474621, -23.932381], [151.471913, -23.932959], [151.469452, -23.933337], [151.46698, -23.933965], [151.463282, -23.934542], [151.460283, -23.93477], [151.457214, -23.934468], [151.454153, -23.93448], [151.451771, -23.934654], [151.449074, -23.935127], [151.446263, -23.935239], [151.443117, -23.935264], [151.440718, -23.934914], [151.437701, -23.933644], [151.435297, -23.932794], [151.433, -23.931441], [151.429714, -23.930067], [151.42761, -23.928336], [151.425363, -23.926641], [151.422263, -23.925033], [151.418835, -23.923134], [151.416628, -23.921829], [151.414204, -23.920738], [151.411709, -23.919401], [151.409625, -23.91809], [151.407406, -23.916731], [151.404687, -23.91523], [151.402498, -23.91408], [151.399074, -23.912324], [151.396503, -23.911145], [151.394074, -23.91044], [151.391357, -23.909314], [151.388787, -23.908173], [151.386677, -23.906901], [151.384281, -23.905324], [151.382251, -23.904058], [151.379996, -23.902618], [151.37764, -23.901339], [151.375538, -23.899652], [151.373539, -23.897927], [151.371592, -23.896441], [151.369203, -23.894364], [151.36656, -23.892016], [151.364426, -23.890136], [151.361787, -23.888101], [151.359222, -23.885987], [151.356434, -23.883572], [151.354298, -23.881492], [151.351488, -23.87913], [151.349284, -23.877548], [151.34689, -23.875397], [151.344607, -23.873207], [151.342423, -23.870714], [151.340773, -23.868785], [151.338865, -23.866773], [151.336556, -23.864043], [151.334381, -23.861563], [151.332575, -23.860069], [151.330686, -23.85792], [151.328768, -23.856575], [151.326133, -23.854721], [151.322985, -23.852667], [151.319514, -23.851079], [151.317406, -23.850483], [151.313508, -23.850339], [151.31046, -23.850714], [151.308703, -23.851603], [151.307677, -23.853247], [151.308544, -23.853143], [151.308133, -23.853081], [151.304907, -23.850297], [151.302275, -23.848684], [151.300038, -23.84751], [151.29723, -23.846238], [151.294012, -23.844891], [151.29173, -23.843522], [151.288949, -23.841852], [151.286535, -23.84041], [151.28363, -23.838991], [151.280264, -23.837487], [151.276831, -23.836002], [151.273673, -23.834733], [151.270662, -23.833671], [151.267931, -23.832988], [151.263821, -23.831684], [151.26118, -23.831016], [151.258766, -23.830435], [151.255943, -23.830182], [151.254173, -23.829786], [151.252522, -23.830999], [151.25149, -23.833048], [151.249674, -23.833068], [151.246967, -23.831547], [151.245278, -23.831652], [151.248357, -23.832441], [151.250889, -23.833662], [151.252274, -23.831692], [151.252067, -23.829197], [151.250862, -23.826379], [151.249456, -23.824273], [151.246345, -23.82037], [151.244093, -23.817594], [151.241705, -23.815497], [151.239098, -23.81362], [151.235983, -23.811446], [151.235635, -23.809805], [151.237325, -23.807346], [151.238595, -23.80485], [151.239775, -23.801611], [151.24089, -23.799413], [151.243405, -23.798445], [151.246711, -23.79748], [151.24939, -23.796861], [151.25325, -23.795838], [151.256489, -23.794988], [151.26077, -23.793978], [151.263864, -23.793819], [151.266447, -23.794252], [151.269471, -23.795561], [151.271957, -23.796329], [151.274296, -23.796697], [151.277344, -23.797052], [151.280131, -23.797551], [151.283208, -23.798236], [151.28631, -23.798258], [151.289803, -23.797822], [151.293992, -23.797222], [151.296105, -23.796701], [151.299164, -23.795677], [151.300905, -23.794091], [151.302127, -23.791704], [151.302896, -23.78978], [151.304147, -23.786863], [151.306115, -23.785103], [151.308957, -23.783913], [151.312821, -23.782449], [151.315375, -23.781183], [151.318259, -23.779365], [151.320476, -23.77761], [151.322155, -23.775684]]}, "times": ["2023-05-12T06:27:03+00:00", "2023-05-13T00:12:19+00:00", "2023-05-13T00:13:39+00:00", "2023-05-13T00:15:48+00:00", "2023-05-13T00:17:38+00:00", "2023-05-13T00:18:52+00:00", "2023-05-13T00:20:45+00:00", "2023-05-13T00:22:29+00:00", "2023-05-13T00:23:33+00:00", "2023-05-13T00:24:39+00:00", "2023-05-13T00:26:06+00:00", "2023-05-13T00:27:42+00:00", "2023-05-13T00:29:30+00:00", "2023-05-13T00:31:42+00:00", "2023-05-13T00:33:15+00:00", "2023-05-13T00:34:42+00:00", "2023-05-13T00:36:42+00:00", "2023-05-13T00:38:05+00:00", "2023-05-13T00:39:30+00:00", "2023-05-13T00:41:34+00:00", "2023-05-13T00:42:42+00:00", "2023-05-13T00:44:34+00:00", "2023-05-13T00:45:55+00:00", "2023-05-13T00:47:43+00:00", "2023-05-13T00:48:43+00:00", "2023-05-13T00:50:12+00:00", "2023-05-13T00:51:08+00:00", "2023-05-13T00:52:37+00:00", "2023-05-13T00:53:48+00:00", "2023-05-13T00:55:25+00:00", "2023-05-13T00:56:39+00:00", "2023-05-13T00:57:51+00:00", "2023-05-13T00:59:43+00:00", "2023-05-13T01:01:03+00:00", "2023-05-13T01:02:45+00:00", "2023-05-13T01:03:56+00:00", "2023-05-13T01:05:33+00:00", "2023-05-13T01:07:17+00:00", "2023-05-13T01:08:37+00:00", "2023-05-13T01:09:26+00:00", "2023-05-13T01:11:02+00:00", "2023-05-13T01:11:46+00:00", "2023-05-13T01:13:47+00:00", "2023-05-13T01:15:11+00:00", "2023-05-13T01:15:45+00:00", "2023-05-13T01:17:03+00:00", "2023-05-13T01:17:56+00:00", "2023-05-13T01:19:04+00:00", "2023-05-13T01:20:00+00:00", "2023-05-13T01:20:53+00:00", "2023-05-13T01:22:09+00:00", "2023-05-13T01:22:49+00:00", "2023-05-13T01:23:53+00:00", "2023-05-13T01:25:30+00:00", "2023-05-13T01:26:34+00:00", "2023-05-13T01:27:34+00:00", "2023-05-13T01:28:59+00:00", "2023-05-13T01:29:51+00:00", "2023-05-13T01:31:07+00:00", "2023-05-13T01:32:20+00:00", "2023-05-13T01:33:12+00:00", "2023-05-13T01:34:48+00:00", "2023-05-13T01:35:52+00:00", "2023-05-13T01:36:53+00:00", "2023-05-13T01:37:53+00:00", "2023-05-13T01:38:53+00:00", "2023-05-13T01:39:58+00:00", "2023-05-13T01:41:26+00:00", "2023-05-13T01:42:06+00:00", "2023-05-13T01:43:15+00:00", "2023-05-13T01:44:19+00:00", "2023-05-13T01:45:11+00:00", "2023-05-13T01:46:16+00:00", "2023-05-13T01:47:32+00:00", "2023-05-13T01:48:28+00:00", "2023-05-13T01:49:12+00:00", "2023-05-13T01:50:29+00:00", "2023-05-13T01:51:09+00:00", "2023-05-13T01:52:05+00:00", "2023-05-13T01:53:46+00:00", "2023-05-13T01:54:26+00:00", "2023-05-13T01:55:51+00:00", "2023-05-13T01:56:51+00:00", "2023-05-13T01:57:35+00:00", "2023-05-13T01:59:03+00:00", "2023-05-13T02:00:24+00:00", "2023-05-13T02:01:24+00:00", "2023-05-13T02:02:55+00:00", "2023-05-13T02:03:53+00:00", "2023-05-13T02:04:45+00:00", "2023-05-13T02:05:46+00:00", "2023-05-13T02:06:38+00:00", "2023-05-13T02:07:34+00:00", "2023-05-13T02:08:34+00:00", "2023-05-13T02:09:45+00:00", "2023-05-13T02:10:56+00:00", "2023-05-13T02:11:51+00:00", "2023-05-13T02:13:00+00:00", "2023-05-13T02:13:57+00:00", "2023-05-13T02:15:07+00:00", "2023-05-13T02:16:49+00:00", "2023-05-13T02:17:57+00:00", "2023-05-13T02:19:13+00:00", "2023-05-13T02:20:06+00:00", "2023-05-13T02:21:06+00:00", "2023-05-13T02:22:54+00:00", "2023-05-13T02:23:34+00:00", "2023-05-13T02:24:19+00:00", "2023-05-13T02:25:11+00:00", "2023-05-13T02:26:35+00:00", "2023-05-13T02:27:20+00:00", "2023-05-13T02:28:16+00:00", "2023-05-13T02:29:16+00:00", "2023-05-13T02:30:33+00:00", "2023-05-13T02:31:38+00:00", "2023-05-13T02:32:34+00:00", "2023-05-13T02:33:57+00:00", "2023-05-13T02:35:06+00:00", "2023-05-13T02:35:57+00:00", "2023-05-13T02:36:57+00:00", "2023-05-13T02:38:03+00:00", "2023-05-13T02:39:48+00:00", "2023-05-13T02:40:36+00:00", "2023-05-13T02:42:00+00:00", "2023-05-13T02:43:20+00:00", "2023-05-13T02:44:05+00:00", "2023-05-13T02:45:17+00:00", "2023-05-13T02:46:37+00:00", "2023-05-13T02:47:56+00:00", "2023-05-13T02:49:14+00:00", "2023-05-13T02:51:01+00:00", "2023-05-13T02:52:39+00:00", "2023-05-13T02:53:35+00:00", "2023-05-13T02:55:23+00:00", "2023-05-13T02:56:08+00:00", "2023-05-13T02:58:08+00:00", "2023-05-13T02:59:52+00:00", "2023-05-13T03:00:59+00:00", "2023-05-13T03:03:01+00:00", "2023-05-13T03:04:57+00:00", "2023-05-13T03:05:57+00:00", "2023-05-13T03:06:59+00:00", "2023-05-13T03:08:59+00:00", "2023-05-13T03:10:23+00:00", "2023-05-13T03:11:59+00:00", "2023-05-13T03:13:44+00:00", "2023-05-13T03:15:56+00:00", "2023-05-13T03:17:59+00:00", "2023-05-13T03:18:59+00:00", "2023-05-13T03:20:59+00:00", "2023-05-13T03:21:59+00:00", "2023-05-13T03:23:34+00:00", "2023-05-13T03:24:46+00:00", "2023-05-13T03:26:00+00:00", "2023-05-13T03:27:00+00:00", "2023-05-13T03:28:08+00:00", "2023-05-13T03:29:53+00:00", "2023-05-13T03:31:09+00:00", "2023-05-13T03:32:17+00:00", "2023-05-13T03:34:00+00:00", "2023-05-13T03:35:10+00:00", "2023-05-13T03:37:01+00:00", "2023-05-13T03:38:01+00:00", "2023-05-13T03:39:35+00:00", "2023-05-13T03:41:01+00:00", "2023-05-13T03:42:44+00:00", "2023-05-13T03:45:02+00:00", "2023-05-13T03:46:01+00:00", "2023-05-13T03:47:33+00:00", "2023-05-13T03:49:02+00:00", "2023-05-13T03:50:00+00:00", "2023-05-13T03:52:03+00:00", "2023-05-13T03:54:03+00:00", "2023-05-13T03:55:03+00:00", "2023-05-13T03:57:00+00:00", "2023-05-13T03:58:04+00:00", "2023-05-13T04:00:29+00:00", "2023-05-13T04:01:41+00:00", "2023-05-13T04:03:06+00:00", "2023-05-13T04:04:42+00:00", "2023-05-13T04:06:30+00:00", "2023-05-13T04:07:43+00:00", "2023-05-13T04:08:43+00:00", "2023-05-13T04:10:00+00:00", "2023-05-13T04:11:19+00:00", "2023-05-13T04:12:24+00:00", "2023-05-13T04:14:04+00:00", "2023-05-13T04:15:33+00:00", "2023-05-13T04:16:04+00:00", "2023-05-13T04:17:13+00:00", "2023-05-13T04:18:09+00:00", "2023-05-13T04:19:45+00:00", "2023-05-13T04:20:26+00:00", "2023-05-13T04:22:18+00:00", "2023-05-13T04:24:04+00:00", "2023-05-13T04:25:31+00:00", "2023-05-13T04:27:12+00:00", "2023-05-13T04:28:44+00:00", "2023-05-13T04:30:00+00:00", "2023-05-13T04:31:12+00:00", "2023-05-13T04:32:49+00:00", "2023-05-13T04:33:41+00:00", "2023-05-13T04:35:04+00:00", "2023-05-13T04:36:02+00:00", "2023-05-13T04:37:05+00:00", "2023-05-13T04:38:30+00:00", "2023-05-13T04:39:27+00:00", "2023-05-13T04:41:03+00:00", "2023-05-13T04:42:05+00:00", "2023-05-13T04:43:11+00:00", "2023-05-13T04:44:25+00:00", "2023-05-13T04:45:49+00:00", "2023-05-13T04:47:03+00:00", "2023-05-13T04:48:18+00:00", "2023-05-13T04:49:14+00:00", "2023-05-13T04:50:43+00:00", "2023-05-13T04:51:43+00:00", "2023-05-13T04:52:55+00:00", "2023-05-13T04:54:03+00:00", "2023-05-13T04:55:03+00:00", "2023-05-13T04:56:08+00:00", "2023-05-13T04:57:00+00:00", "2023-05-13T04:58:16+00:00", "2023-05-13T04:59:53+00:00", "2023-05-13T05:00:45+00:00", "2023-05-13T05:03:02+00:00", "2023-05-13T05:04:04+00:00", "2023-05-13T05:05:11+00:00", "2023-05-13T05:06:19+00:00", "2023-05-13T05:07:27+00:00", "2023-05-13T05:09:04+00:00", "2023-05-13T05:10:16+00:00", "2023-05-13T05:11:40+00:00", "2023-05-13T05:13:11+00:00", "2023-05-13T05:14:29+00:00", "2023-05-13T05:15:05+00:00", "2023-05-13T05:16:04+00:00", "2023-05-13T05:17:11+00:00", "2023-05-13T05:18:22+00:00", "2023-05-13T05:20:00+00:00", "2023-05-13T05:21:43+00:00", "2023-05-13T05:22:44+00:00", "2023-05-13T05:24:05+00:00", "2023-05-13T05:25:05+00:00", "2023-05-13T05:26:05+00:00", "2023-05-13T05:27:09+00:00", "2023-05-13T05:28:25+00:00", "2023-05-13T05:29:41+00:00", "2023-05-13T05:30:34+00:00", "2023-05-13T05:32:02+00:00", "2023-05-13T05:33:02+00:00", "2023-05-13T05:34:11+00:00", "2023-05-13T05:35:07+00:00", "2023-05-13T05:36:31+00:00", "2023-05-13T05:38:08+00:00", "2023-05-13T05:39:08+00:00", "2023-05-13T05:40:20+00:00", "2023-05-13T05:41:45+00:00", "2023-05-13T05:43:13+00:00", "2023-05-13T05:44:33+00:00", "2023-05-13T05:45:18+00:00", "2023-05-13T05:46:33+00:00", "2023-05-13T05:47:33+00:00", "2023-05-13T05:49:10+00:00", "2023-05-13T05:50:00+00:00", "2023-05-13T05:51:15+00:00", "2023-05-13T05:52:59+00:00", "2023-05-13T05:54:11+00:00", "2023-05-13T05:55:08+00:00", "2023-05-13T05:56:20+00:00", "2023-05-13T05:58:11+00:00", "2023-05-13T05:59:41+00:00", "2023-05-13T06:01:14+00:00", "2023-05-13T06:03:10+00:00", "2023-05-13T06:05:11+00:00", "2023-05-13T06:08:11+00:00", "2023-05-13T06:10:00+00:00", "2023-05-13T06:11:11+00:00", "2023-05-13T06:13:11+00:00", "2023-05-13T06:15:11+00:00", "2023-05-13T06:17:22+00:00", "2023-05-13T06:19:11+00:00", "2023-05-13T06:21:11+00:00", "2023-05-13T06:23:11+00:00", "2023-05-13T06:24:48+00:00", "2023-05-13T06:26:37+00:00", "2023-05-13T06:29:21+00:00", "2023-05-13T15:43:57+00:00", "2023-05-14T03:00:34+00:00", "2023-05-14T03:01:58+00:00", "2023-05-14T03:04:06+00:00", "2023-05-14T03:05:33+00:00", "2023-05-14T03:07:30+00:00", "2023-05-14T03:08:33+00:00", "2023-05-14T03:10:33+00:00", "2023-05-14T03:12:44+00:00", "2023-05-14T03:14:34+00:00", "2023-05-14T03:17:30+00:00", "2023-05-14T03:19:41+00:00", "2023-05-14T03:21:32+00:00", "2023-05-14T03:23:14+00:00", "2023-05-14T03:24:33+00:00", "2023-05-14T03:26:33+00:00", "2023-05-14T03:27:30+00:00", "2023-05-14T03:28:43+00:00", "2023-05-14T03:30:08+00:00", "2023-05-14T03:31:33+00:00", "2023-05-14T03:32:35+00:00", "2023-05-14T03:33:52+00:00", "2023-05-14T03:35:35+00:00", "2023-05-14T03:37:30+00:00", "2023-05-14T03:38:35+00:00", "2023-05-14T03:40:50+00:00", "2023-05-14T03:42:10+00:00", "2023-05-14T03:44:02+00:00", "2023-05-14T03:45:33+00:00", "2023-05-14T03:47:30+00:00", "2023-05-14T03:48:36+00:00", "2023-05-14T03:51:09+00:00", "2023-05-14T03:52:04+00:00", "2023-05-14T03:53:10+00:00", "2023-05-14T03:54:21+00:00", "2023-05-14T03:56:13+00:00", "2023-05-14T03:57:30+00:00", "2023-05-14T03:58:57+00:00", "2023-05-14T03:59:41+00:00", "2023-05-14T04:01:36+00:00", "2023-05-14T04:02:36+00:00", "2023-05-14T04:04:07+00:00", "2023-05-14T04:06:37+00:00", "2023-05-14T04:07:30+00:00", "2023-05-14T04:09:08+00:00", "2023-05-14T04:10:40+00:00", "2023-05-14T04:12:04+00:00", "2023-05-14T04:13:38+00:00", "2023-05-14T04:14:39+00:00", "2023-05-14T04:15:57+00:00", "2023-05-14T04:17:42+00:00", "2023-05-14T04:20:18+00:00", "2023-05-14T04:21:38+00:00", "2023-05-14T04:23:39+00:00", "2023-05-14T04:25:07+00:00", "2023-05-14T04:26:31+00:00", "2023-05-14T04:27:30+00:00", "2023-05-14T04:29:04+00:00", "2023-05-14T04:30:40+00:00", "2023-05-14T04:32:01+00:00", "2023-05-14T04:33:09+00:00", "2023-05-14T04:34:41+00:00", "2023-05-14T04:35:58+00:00", "2023-05-14T04:37:18+00:00", "2023-05-14T04:38:34+00:00", "2023-05-14T04:39:44+00:00", "2023-05-14T04:40:55+00:00", "2023-05-14T04:43:23+00:00", "2023-05-14T04:44:45+00:00", "2023-05-14T04:46:20+00:00", "2023-05-14T04:47:16+00:00", "2023-05-14T04:48:45+00:00", "2023-05-14T04:50:21+00:00", "2023-05-14T04:51:45+00:00", "2023-05-14T04:53:30+00:00", "2023-05-14T04:54:45+00:00", "2023-05-14T04:55:50+00:00", "2023-05-14T04:57:18+00:00", "2023-05-14T04:58:46+00:00", "2023-05-14T05:00:35+00:00", "2023-05-14T05:01:48+00:00", "2023-05-14T05:03:00+00:00", "2023-05-14T05:04:24+00:00", "2023-05-14T05:05:50+00:00", "2023-05-14T05:07:00+00:00", "2023-05-14T05:08:50+00:00", "2023-05-14T05:10:33+00:00", "2023-05-14T05:11:50+00:00", "2023-05-14T05:13:18+00:00", "2023-05-14T05:14:38+00:00", "2023-05-14T05:15:31+00:00", "2023-05-14T05:16:47+00:00", "2023-05-14T05:18:11+00:00", "2023-05-14T05:19:36+00:00", "2023-05-14T05:20:56+00:00", "2023-05-14T05:22:08+00:00", "2023-05-14T05:23:48+00:00", "2023-05-14T05:25:09+00:00", "2023-05-14T05:26:41+00:00", "2023-05-14T05:27:52+00:00", "2023-05-14T05:29:40+00:00", "2023-05-14T05:30:50+00:00", "2023-05-14T05:32:09+00:00", "2023-05-14T05:33:29+00:00", "2023-05-14T05:34:50+00:00", "2023-05-14T05:35:50+00:00", "2023-05-14T05:37:45+00:00", "2023-05-14T05:38:50+00:00", "2023-05-14T05:40:50+00:00", "2023-05-14T05:41:50+00:00", "2023-05-14T05:43:20+00:00", "2023-05-14T05:44:50+00:00", "2023-05-14T05:45:50+00:00", "2023-05-14T05:47:45+00:00", "2023-05-14T05:48:50+00:00", "2023-05-14T05:50:25+00:00", "2023-05-14T05:51:51+00:00", "2023-05-14T05:52:51+00:00", "2023-05-14T05:53:51+00:00", "2023-05-14T05:55:34+00:00", "2023-05-14T05:56:51+00:00", "2023-05-14T05:57:45+00:00", "2023-05-14T05:59:39+00:00", "2023-05-14T06:00:51+00:00", "2023-05-14T06:01:51+00:00", "2023-05-14T06:03:51+00:00", "2023-05-14T06:05:04+00:00", "2023-05-14T06:06:47+00:00", "2023-05-14T06:07:49+00:00", "2023-05-14T06:10:09+00:00", "2023-05-14T06:11:38+00:00", "2023-05-14T06:12:54+00:00", "2023-05-14T06:14:22+00:00", "2023-05-14T06:15:47+00:00", "2023-05-14T06:16:52+00:00", "2023-05-14T06:18:03+00:00", "2023-05-14T06:19:48+00:00", "2023-05-14T06:21:16+00:00", "2023-05-14T06:22:51+00:00", "2023-05-14T06:23:53+00:00", "2023-05-14T06:25:21+00:00", "2023-05-14T06:26:53+00:00", "2023-05-14T06:27:53+00:00", "2023-05-14T06:29:22+00:00", "2023-05-14T06:30:30+00:00", "2023-05-14T06:32:07+00:00", "2023-05-14T06:33:13+00:00", "2023-05-14T06:34:31+00:00", "2023-05-14T06:36:04+00:00", "2023-05-14T06:37:12+00:00", "2023-05-14T06:38:13+00:00", "2023-05-14T06:40:17+00:00", "2023-05-14T06:41:57+00:00", "2023-05-14T06:43:17+00:00", "2023-05-14T06:45:22+00:00", "2023-05-14T06:46:26+00:00", "2023-05-14T06:48:15+00:00", "2023-05-14T06:49:31+00:00", "2023-05-14T06:51:15+00:00", "2023-05-14T06:52:24+00:00", "2023-05-14T06:54:16+00:00", "2023-05-14T06:55:52+00:00", "2023-05-14T06:57:16+00:00", "2023-05-14T06:58:33+00:00", "2023-05-14T07:01:16+00:00", "2023-05-14T07:02:30+00:00", "2023-05-14T07:04:07+00:00", "2023-05-14T07:05:23+00:00", "2023-05-14T07:06:55+00:00", "2023-05-14T07:08:15+00:00", "2023-05-14T07:10:16+00:00", "2023-05-14T07:12:21+00:00", "2023-05-14T07:13:53+00:00", "2023-05-14T07:16:13+00:00", "2023-05-14T07:17:22+00:00", "2023-05-14T07:19:02+00:00", "2023-05-14T07:20:19+00:00", "2023-05-14T07:26:18+00:00", "2023-05-14T23:05:14+00:00", "2023-05-15T03:19:11+00:00", "2023-05-15T03:20:25+00:00", "2023-05-15T03:21:22+00:00", "2023-05-15T03:22:58+00:00", "2023-05-15T03:24:50+00:00", "2023-05-15T03:26:10+00:00", "2023-05-15T03:27:35+00:00", "2023-05-15T03:29:03+00:00", "2023-05-15T03:30:37+00:00", "2023-05-15T03:32:37+00:00", "2023-05-15T03:34:37+00:00", "2023-05-15T03:36:30+00:00", "2023-05-15T03:37:37+00:00", "2023-05-15T03:38:49+00:00", "2023-05-15T03:41:32+00:00", "2023-05-15T03:42:33+00:00", "2023-05-15T03:43:33+00:00", "2023-05-15T03:45:06+00:00", "2023-05-15T03:46:30+00:00", "2023-05-15T03:47:59+00:00", "2023-05-15T03:49:31+00:00", "2023-05-15T03:50:41+00:00", "2023-05-15T03:52:33+00:00", "2023-05-15T03:54:00+00:00", "2023-05-30T04:39:30+00:00", "2023-05-30T04:41:38+00:00", "2023-05-30T04:43:46+00:00", "2023-05-30T04:45:25+00:00", "2023-05-30T04:46:48+00:00", "2023-05-30T04:47:51+00:00", "2023-05-30T04:51:27+00:00", "2023-05-30T04:52:33+00:00", "2023-05-30T04:54:27+00:00", "2023-05-30T04:56:27+00:00", "2023-05-30T04:57:30+00:00", "2023-05-30T04:58:46+00:00", "2023-05-30T05:00:55+00:00", "2023-05-30T05:02:32+00:00", "2023-05-30T05:05:08+00:00", "2023-05-30T05:07:04+00:00", "2023-05-30T05:08:38+00:00", "2023-05-30T05:11:32+00:00", "2023-05-30T05:13:32+00:00", "2023-05-30T05:16:32+00:00", "2023-05-30T05:18:30+00:00", "2023-05-30T05:22:04+00:00", "2023-05-30T05:24:30+00:00", "2023-05-30T05:26:21+00:00", "2023-05-30T05:28:30+00:00", "2023-05-30T05:30:31+00:00", "2023-05-30T05:32:31+00:00", "2023-05-30T05:34:31+00:00", "2023-05-30T05:37:04+00:00", "2023-05-30T05:39:40+00:00", "2023-05-30T05:42:05+00:00", "2023-05-30T05:45:17+00:00", "2023-05-30T05:48:09+00:00", "2023-05-30T05:49:09+00:00", "2023-05-30T05:51:35+00:00", "2023-05-30T05:53:35+00:00", "2023-05-30T05:55:35+00:00", "2023-05-30T05:56:35+00:00", "2023-05-30T05:58:51+00:00", "2023-05-30T06:01:03+00:00", "2023-05-30T06:02:56+00:00", "2023-05-30T06:06:35+00:00", "2023-05-30T06:08:30+00:00", "2023-05-30T06:11:35+00:00", "2023-05-30T06:13:10+00:00", "2023-05-30T06:15:10+00:00"], "elevations": [26.4, 22.0, 10.0, 10.0, 10.0, 9.2, 8.0, 7.0, 8.0, 8.0, 6.0, 6.0, 8.1, 8.0, 7.0, 9.0, 9.5, 10.0, 4.4, 5.5, 7.0, 6.5, 8.0, 7.5, 7.0, 6.4, 5.0, 5.0, 5.0, 0.0, 2.0, 3.0, 3.0, null, 11.5, 8.0, 7.0, 7.0, 5.0, 4.4, 4.0, 5.0, 5.0, -3.0, 0.0, 1.0, 2.0, 1.0, 0.3, 1.0, null, 13.0, 9.0, 2.0, 2.0, 3.0, null, null, 6.0, 5.0, 4.0, 7.0, null, 1.0, -2.0, 1.0, null, 6.0, 6.0, 3.0, null, 3.0, 0.0, null, 0.0, 2.0, null, 1.0, 1.0, 8.0, 5.0, 0.0, 0.0, 5.0, 4.0, null, 9.0, 2.0, null, 3.0, 2.0, 2.0, null, null, 2.7, 27.0, 32.0, 13.0, 11.0, 10.0, 7.0, 6.0, 4.0, 2.3, 1.0, 1.5, 1.0, null, 1.0, null, 2.0, 3.0, 3.2, -1.0, -2.0, -4.0, 14.0, 13.0, 11.0, 12.0, 13.0, 8.5, null, 11.0, 14.0, 8.0, 12.0, 15.0, 10.0, 11.0, 11.0, 10.0, null, 7.0, 9.0, 12.5, 16.0, 47.0, 46.0, 14.0, 14.0, 24.5, 14.0, 13.5, 12.0, 12.0, 13.0, 35.0, 14.0, 14.0, 13.0, 15.0, 17.5, 21.0, 23.0, 3.5, 4.4, 6.0, 6.0, 8.0, 8.0, 11.0, 12.0, 11.2, 10.0, 8.5, 5.5, null, 6.0, 7.0, 8.4, 6.0, 7.5, 8.0, 9.0, 5.0, 4.4, 4.0, 5.0, 4.0, 4.0, 6.0, 7.0, 6.4, 7.0, 12.5, 25.5, null, 3.0, 5.0, 5.5, null, -2.4, 0.0, 6.0, 2.5, 2.0, 2.0, 2.2, 9.0, 8.0, 7.0, 6.0, 6.0, 6.0, 6.0, 4.7, null, 4.0, 3.0, 3.0, 3.0, 3.0, 4.0, 15.7, null, null, 6.0, 7.0, 9.0, 9.0, 8.0, 8.0, 4.2, 0.0, null, 6.0, 3.0, null, 2.0, null, 2.3, 6.0, 9.0, null, 35.0, 23.0, 6.0, 6.0, 6.4, 5.0, 5.0, 7.0, 7.0, 7.0, 15.0, 8.0, 8.4, 7.0, 8.0, 8.0, 23.0, 20.0, 42.0, 27.0, 18.0, 32.8, 21.0, 19.0, 21.0, 39.0, 36.0, 29.0, 51.0, 12.9, 17.0, 6.0, 9.0, 12.0, 15.0, 16.0, 15.3, 10.0, 12.0, 3.0, 14.0, 20.4, 30.0, 20.0, 7.5, -1.0, 19.5, null, -8.0, 31.5, 34.0, null, -3.3, null, 2.0, 2.0, 0.0, 0.2, 3.5, 21.0, 4.3, 6.0, 4.7, 5.5, 7.0, 2.0, 7.0, 30.0, 6.4, 6.0, null, 6.0, 7.0, 9.0, 2.5, 4.4, 4.5, null, 5.0, 4.5, 3.0, 4.2, 3.0, 4.0, 6.0, 6.0, 7.0, 3.0, 5.7, 5.0, 5.5, 16.0, 1.0, 4.0, 26.0, 18.6, -1.0, 2.0, 3.0, 6.0, 5.0, 4.5, 2.3, 1.0, 1.0, 24.0, 0.5, 0.0, -1.7, 7.0, 2.0, 2.0, 2.5, 3.0, 0.0, 7.0, null, 2.0, 7.5, 1.0, 6.0, 6.0, 6.0, 6.2, 5.0, null, 4.5, 4.0, 4.0, 2.7, 6.5, 7.0, 6.0, 5.0, 5.0, 4.0, 5.2, 3.5, 4.0, 5.0, 6.0, 7.5, 8.0, null, 8.4, 7.2, 5.2, 3.0, 3.0, 8.0, 5.0, 3.0, 3.0, 4.0, 5.0, 5.0, 6.0, 6.0, 10.5, 5.0, 5.0, 5.5, null, 5.0, 1.0, 5.7, 6.0, 6.0, 7.0, 7.0, 6.0, 6.0, 6.0, 6.4, 6.0, 6.0, 6.0, 5.0, null, 6.0, 8.4, 7.0, 4.0, 6.0, 6.0, 6.0, 6.0, 6.4, 21.0, 12.0, 3.0, 3.0, 5.0, 6.0, 6.0, 7.0, 7.0, 5.5, 8.0, 7.0, 6.0, 6.0, 5.0, 5.0, 9.5, 1.0, 3.5, 5.0, 4.4, 6.5, 6.0, 6.0, 6.5, 6.5, 6.0, 6.2, 6.0, 7.0, 6.0, 17.0, 9.5, 7.7, 10.0, 9.5, 10.0, 4.5, 6.7, 0.0, -1.0, null, 24.9, 10.0, null, 5.5, 9.0, 9.0, 18.9, 11.0, 7.0, 7.0, 7.5, 5.5, 4.7, 4.0, 5.0, 7.0, 8.0, 9.0, 6.0, 6.4, 4.0, 1.0, 6.0, 8.0, 8.0, 8.0, 9.0, 2.5, 2.0, -0.3, 15.5, 5.0, 9.5, 9.0, 15.0, 8.7, 7.0, 4.5, 2.5, 2.0, 3.1, 0.5, 0.0, 1.0, 1.0, 0.4, 1.0, 0.0, 1.0, 2.2, 2.0, 2.0, 2.0, 2.0, 6.7, 5.5, 4.0, 6.0, 1.1, 0.0, 1.0, 3.5, 4.0, 4.2, 4.0, 4.0, 3.5, 7.1, 5.0, 5.0, 7.0]}