{"type": "Feature", "properties": {"leg_id": 1, "name": "20171122 - San Francisco to San Diego", "stated_nm": 463.1, "computed_nm": 463.1}, "geometry": {"type": "LineString", "coordinates": [[-122.661904, 36.976699], [-122.661853, 36.965001], [-122.662779, 36.962239], [-122.669657, 36.958032], [-122.671187, 36.952206], [-122.669695, 36.946413], [-122.67055, 36.941607], [-122.672567, 36.935894], [-122.67537, 36.929713], [-122.677687, 36.923852], [-122.679424, 36.918858], [-122.680114, 36.913297], [-122.68097, 36.907971], [-122.68283, 36.902469], [-122.683385, 36.896693], [-122.683983, 36.891936], [-122.685429, 36.886839], [-122.688211, 36.880537], [-122.690886, 36.874003], [-122.691602, 36.870693], [-122.693033, 36.865249], [-122.694124, 36.860275], [-122.694767, 36.854105], [-122.695575, 36.84676], [-122.696028, 36.84261], [-122.69644, 36.837143], [-122.696737, 36.831794], [-122.697151, 36.827419], [-122.697455, 36.823358], [-122.698401, 36.816425], [-122.699138, 36.811165], [-122.701393, 36.803348], [-122.704093, 36.795134], [-122.706436, 36.78725], [-122.708616, 36.779523], [-122.710906, 36.771296], [-122.713262, 36.762786], [-122.717105, 36.754297], [-122.718825, 36.750321], [-122.721879, 36.740483], [-122.723666, 36.734061], [-122.725572, 36.727422], [-122.727576, 36.72021], [-122.729483, 36.7124], [-122.731185, 36.706011], [-122.732803, 36.699179], [-122.734211, 36.692886], [-122.735148, 36.687918], [-122.736092, 36.681391], [-122.736918, 36.676234], [-122.737983, 36.669729], [-122.738923, 36.663759], [-122.740148, 36.65675], [-122.741046, 36.652489], [-122.742497, 36.645966], [-122.743779, 36.640334], [-122.744801, 36.635245], [-122.745923, 36.629851], [-122.747931, 36.622689], [-122.750006, 36.616157], [-122.752203, 36.609186], [-122.754061, 36.602324], [-122.756529, 36.594605], [-122.758487, 36.588844], [-122.760284, 36.580085], [-122.762035, 36.572343], [-122.763419, 36.564972], [-122.764839, 36.557846], [-122.766277, 36.550769], [-122.767677, 36.54419], [-122.769193, 36.536676], [-122.770225, 36.530234], [-122.771659, 36.523449], [-122.771843, 36.518327], [-122.773189, 36.514038], [-122.77675, 36.50717], [-122.779806, 36.500606], [-122.782212, 36.494608], [-122.784956, 36.488227], [-122.789979, 36.481294], [-122.794432, 36.473944], [-122.799756, 36.466524], [-122.802254, 36.462512], [-122.805439, 36.453032], [-122.806616, 36.447159], [-122.806889, 36.441481], [-122.806873, 36.435615], [-122.8068, 36.429108], [-122.806682, 36.424158], [-122.806281, 36.417388], [-122.805701, 36.411453], [-122.805061, 36.405279], [-122.804572, 36.400402], [-122.803973, 36.394369], [-122.80399, 36.389179], [-122.803472, 36.385682], [-122.802317, 36.379182], [-122.800115, 36.37184], [-122.798612, 36.366107], [-122.797293, 36.360242], [-122.796139, 36.354966], [-122.795098, 36.349415], [-122.794165, 36.34469], [-122.793019, 36.339171], [-122.791809, 36.331671], [-122.790744, 36.326056], [-122.789488, 36.320535], [-122.788095, 36.314915], [-122.787069, 36.309449], [-122.786079, 36.302757], [-122.783577, 36.298213], [-122.781626, 36.2939], [-122.780477, 36.288582], [-122.779514, 36.282666], [-122.778779, 36.277359], [-122.780288, 36.270963], [-122.781507, 36.264372], [-122.781906, 36.258456], [-122.782341, 36.252164], [-122.78332, 36.244578], [-122.783887, 36.240249], [-122.784595, 36.236023], [-122.785423, 36.229728], [-122.786157, 36.223971], [-122.78793, 36.218465], [-122.792027, 36.213011], [-122.794524, 36.207548], [-122.798368, 36.201951], [-122.802522, 36.196241], [-122.805232, 36.189868], [-122.808219, 36.182796], [-122.81049, 36.175681], [-122.811753, 36.168651], [-122.812577, 36.163585], [-122.813618, 36.15814], [-122.814704, 36.152491], [-122.815913, 36.146468], [-122.817041, 36.140814], [-122.818421, 36.133349], [-122.819388, 36.128137], [-122.820424, 36.122515], [-122.82178, 36.115816], [-122.823065, 36.109215], [-122.824592, 36.103755], [-122.823925, 36.096745], [-122.823385, 36.092521], [-122.822577, 36.087181], [-122.821644, 36.081653], [-122.8206, 36.075636], [-122.819451, 36.069736], [-122.818426, 36.064172], [-122.817527, 36.059624], [-122.816595, 36.053998], [-122.815568, 36.04765], [-122.814169, 36.04095], [-122.812871, 36.034546], [-122.811879, 36.029356], [-122.810233, 36.021387], [-122.808932, 36.015913], [-122.807608, 36.010118], [-122.806239, 36.004208], [-122.806721, 35.999046], [-122.806535, 35.992829], [-122.805764, 35.98742], [-122.805058, 35.981952], [-122.804227, 35.976607], [-122.80381, 35.971011], [-122.804038, 35.964891], [-122.804843, 35.958666], [-122.806152, 35.952626], [-122.807534, 35.94662], [-122.808709, 35.940953], [-122.809698, 35.935765], [-122.810856, 35.931087], [-122.811425, 35.92494], [-122.811785, 35.918624], [-122.812504, 35.913427], [-122.813212, 35.908322], [-122.813818, 35.902063], [-122.814581, 35.896971], [-122.815426, 35.891281], [-122.816008, 35.886311], [-122.816881, 35.881384], [-122.817825, 35.876166], [-122.818274, 35.870168], [-122.818696, 35.863765], [-122.819378, 35.857517], [-122.820135, 35.851538], [-122.820427, 35.843892], [-122.820724, 35.838197], [-122.821227, 35.830781], [-122.82189, 35.824873], [-122.822184, 35.819327], [-122.822539, 35.812927], [-122.822888, 35.80763], [-122.823265, 35.800843], [-122.824235, 35.796191], [-122.824933, 35.790689], [-122.825552, 35.784812], [-122.826476, 35.779604], [-122.828368, 35.773384], [-122.829635, 35.768135], [-122.83098, 35.762642], [-122.832682, 35.757413], [-122.83407, 35.752162], [-122.835854, 35.746823], [-122.837951, 35.741349], [-122.839378, 35.736212], [-122.84055, 35.731797], [-122.842686, 35.725677], [-122.844045, 35.720473], [-122.845402, 35.715818], [-122.846915, 35.710365], [-122.848134, 35.705127], [-122.849357, 35.700119], [-122.849978, 35.69511], [-122.851846, 35.688853], [-122.853468, 35.682235], [-122.855076, 35.675289], [-122.855853, 35.67105], [-122.856695, 35.66605], [-122.857707, 35.66152], [-122.856908, 35.654843], [-122.854824, 35.648922], [-122.853181, 35.644649], [-122.852205, 35.637863], [-122.852105, 35.632617], [-122.853091, 35.627165], [-122.854815, 35.620371], [-122.8557, 35.615409], [-122.857411, 35.609007], [-122.859538, 35.603186], [-122.861728, 35.597038], [-122.863973, 35.590699], [-122.865869, 35.584764], [-122.867506, 35.57955], [-122.869462, 35.572686], [-122.871201, 35.566924], [-122.872905, 35.561069], [-122.874599, 35.555168], [-122.876244, 35.549408], [-122.878042, 35.543977], [-122.880482, 35.537343], [-122.882764, 35.531221], [-122.885523, 35.524839], [-122.888426, 35.51828], [-122.890222, 35.511388], [-122.892488, 35.504698], [-122.894416, 35.497127], [-122.896065, 35.490211], [-122.898368, 35.482471], [-122.901193, 35.4748], [-122.90328, 35.467588], [-122.904714, 35.460218], [-122.906871, 35.453497], [-122.90787, 35.44642], [-122.909367, 35.439337], [-122.91268, 35.432584], [-122.913904, 35.425808], [-122.916944, 35.418093], [-122.917626, 35.411622], [-122.919517, 35.4047], [-122.921602, 35.39802], [-122.923097, 35.391469], [-122.924662, 35.385236], [-122.926542, 35.377798], [-122.92381, 35.375123], [-122.916766, 35.372443], [-122.909619, 35.369439], [-122.902577, 35.365385], [-122.895145, 35.362437], [-122.888316, 35.359201], [-122.883343, 35.357434], [-122.875106, 35.354096], [-122.867891, 35.351468], [-122.86145, 35.348616], [-122.854487, 35.345786], [-122.846181, 35.343822], [-122.839213, 35.342296], [-122.828961, 35.339924], [-122.806784, 35.335742], [-122.796824, 35.334445], [-122.786784, 35.333231], [-122.78049, 35.332135], [-122.766472, 35.329993], [-122.756165, 35.328718], [-122.745622, 35.327738], [-122.736446, 35.325843], [-122.728693, 35.321517], [-122.723168, 35.318493], [-122.712795, 35.312904], [-122.704628, 35.308589], [-122.696192, 35.304164], [-122.687526, 35.299723], [-122.67808, 35.296255], [-122.672195, 35.294865], [-122.667721, 35.292418], [-122.656719, 35.288835], [-122.635869, 35.280881], [-122.624988, 35.276654], [-122.606535, 35.270673], [-122.606391, 35.27068], [-122.592027, 35.266244], [-122.581282, 35.26165], [-122.563018, 35.254142], [-122.553829, 35.251085], [-122.546092, 35.247629], [-122.538046, 35.242461], [-122.52964, 35.238633], [-122.521489, 35.234511], [-122.513569, 35.229668], [-122.505848, 35.224777], [-122.497702, 35.219971], [-122.489814, 35.215235], [-122.482281, 35.210418], [-122.46691, 35.200977], [-122.457582, 35.197732], [-122.448138, 35.194323], [-122.443736, 35.19229], [-122.431183, 35.188119], [-122.423894, 35.183815], [-122.416265, 35.180045], [-122.407485, 35.176809], [-122.399108, 35.173155], [-122.394777, 35.170737], [-122.380086, 35.161889], [-122.370152, 35.156175], [-122.361833, 35.153793], [-122.354742, 35.149714], [-122.350452, 35.146944], [-122.343792, 35.140198], [-122.337108, 35.136045], [-122.330107, 35.130259], [-122.324096, 35.125437], [-122.319562, 35.121792], [-122.3108, 35.116882], [-122.30343, 35.112749], [-122.296821, 35.108076], [-122.289567, 35.103969], [-122.282937, 35.100467], [-122.276911, 35.097195], [-122.266905, 35.093386], [-122.25894, 35.089663], [-122.250467, 35.087292], [-122.241133, 35.086268], [-122.231464, 35.084032], [-122.226887, 35.081895], [-122.215421, 35.077374], [-122.207999, 35.074524], [-122.200892, 35.072089], [-122.194251, 35.069677], [-122.187568, 35.067439], [-122.178841, 35.064974], [-122.171461, 35.062403], [-122.163543, 35.059603], [-122.155004, 35.057118], [-122.146929, 35.054541], [-122.138555, 35.052054], [-122.130338, 35.049627], [-122.122528, 35.046896], [-122.115316, 35.044394], [-122.107711, 35.041932], [-122.099586, 35.040031], [-122.090865, 35.037598], [-122.083446, 35.035199], [-122.075623, 35.032839], [-122.068413, 35.030714], [-122.060779, 35.028279], [-122.052972, 35.02579], [-122.044201, 35.023228], [-122.037514, 35.020745], [-122.032381, 35.017814], [-122.023863, 35.013741], [-122.016643, 35.010694], [-122.009271, 35.008615], [-122.002104, 35.005491], [-121.996946, 35.003172], [-121.986906, 34.999272], [-121.979738, 34.996318], [-121.972227, 34.993653], [-121.964018, 34.992133], [-121.956284, 34.989342], [-121.949966, 34.987023], [-121.944731, 34.985027], [-121.939759, 34.983061], [-121.931319, 34.980347], [-121.923984, 34.976705], [-121.915303, 34.974866], [-121.908185, 34.971661], [-121.901767, 34.968993], [-121.893722, 34.963979], [-121.887045, 34.959893], [-121.880703, 34.955902], [-121.874144, 34.952059], [-121.868461, 34.947413], [-121.863381, 34.943638], [-121.856932, 34.93859], [-121.851406, 34.93429], [-121.845369, 34.929998], [-121.839269, 34.925115], [-121.833342, 34.920132], [-121.82797, 34.915176], [-121.820895, 34.911392], [-121.814823, 34.907601], [-121.806963, 34.902668], [-121.798902, 34.898679], [-121.791157, 34.894269], [-121.783015, 34.889839], [-121.77454, 34.885836], [-121.767102, 34.882047], [-121.760063, 34.878792], [-121.752571, 34.875588], [-121.744629, 34.872088], [-121.736601, 34.868303], [-121.730071, 34.865228], [-121.723003, 34.861879], [-121.715222, 34.858285], [-121.70763, 34.85456], [-121.699888, 34.850575], [-121.691994, 34.846588], [-121.686814, 34.843938], [-121.675909, 34.838359], [-121.667889, 34.834435], [-121.66041, 34.830574], [-121.652854, 34.826328], [-121.645432, 34.822247], [-121.640487, 34.819525], [-121.632078, 34.814436], [-121.625558, 34.810368], [-121.619064, 34.806338], [-121.612479, 34.80257], [-121.606119, 34.799008], [-121.601291, 34.796128], [-121.593837, 34.791862], [-121.587847, 34.788513], [-121.581918, 34.785234], [-121.575458, 34.782054], [-121.56918, 34.779059], [-121.56413, 34.77663], [-121.557819, 34.773686], [-121.55299, 34.771456], [-121.547882, 34.769117], [-121.54266, 34.766999], [-121.53535, 34.764087], [-121.530054, 34.761916], [-121.52299, 34.758798], [-121.518406, 34.756638], [-121.513153, 34.754432], [-121.50774, 34.752413], [-121.502323, 34.750556], [-121.496562, 34.748621], [-121.490554, 34.746733], [-121.484189, 34.744804], [-121.477669, 34.74269], [-121.471128, 34.740684], [-121.464394, 34.738439], [-121.457872, 34.736476], [-121.450635, 34.734264], [-121.443378, 34.731963], [-121.436098, 34.729747], [-121.429093, 34.727577], [-121.421911, 34.725257], [-121.416005, 34.723271], [-121.409387, 34.721009], [-121.403078, 34.718853], [-121.397035, 34.716589], [-121.39133, 34.714136], [-121.384619, 34.711481], [-121.379819, 34.709506], [-121.373831, 34.706961], [-121.367908, 34.704513], [-121.361867, 34.701833], [-121.355891, 34.69908], [-121.348664, 34.695659], [-121.344115, 34.693498], [-121.3382, 34.690511], [-121.331764, 34.687374], [-121.3255, 34.684201], [-121.319237, 34.681051], [-121.312745, 34.677759], [-121.307521, 34.675284], [-121.29976, 34.671416], [-121.293655, 34.668146], [-121.287521, 34.665022], [-121.281433, 34.661799], [-121.275282, 34.658482], [-121.26995, 34.655674], [-121.262718, 34.651888], [-121.256432, 34.648491], [-121.249953, 34.644987], [-121.243759, 34.64156], [-121.237351, 34.638007], [-121.231368, 34.634733], [-121.224643, 34.631039], [-121.21842, 34.627462], [-121.212204, 34.623823], [-121.206011, 34.620265], [-121.199968, 34.616944], [-121.193629, 34.613681], [-121.187398, 34.610236], [-121.181212, 34.606936], [-121.175064, 34.602917], [-121.169213, 34.599173], [-121.163551, 34.595514], [-121.157572, 34.591798], [-121.152118, 34.588139], [-121.145999, 34.584253], [-121.140146, 34.580519], [-121.133958, 34.576698], [-121.127512, 34.572655], [-121.119991, 34.567977], [-121.114229, 34.56439], [-121.107798, 34.560328], [-121.100978, 34.556435], [-121.094044, 34.552468], [-121.087292, 34.548412], [-121.080445, 34.544353], [-121.075717, 34.541719], [-121.066692, 34.535686], [-121.059878, 34.530452], [-121.053456, 34.525528], [-121.047531, 34.5207], [-121.043838, 34.515005], [-121.04231, 34.510465], [-121.038601, 34.502959], [-121.031679, 34.499386], [-121.024374, 34.49585], [-121.016178, 34.492938], [-121.008192, 34.489296], [-121.002116, 34.486306], [-120.99368, 34.481851], [-120.986455, 34.478374], [-120.979794, 34.473892], [-120.973117, 34.46936], [-120.966666, 34.464845], [-120.960842, 34.460899], [-120.953618, 34.455938], [-120.947212, 34.4512], [-120.940781, 34.446375], [-120.93445, 34.441708], [-120.927901, 34.436676], [-120.921686, 34.431876], [-120.91435, 34.426636], [-120.907586, 34.421647], [-120.900722, 34.416722], [-120.89411, 34.411845], [-120.887228, 34.406704], [-120.880028, 34.401741], [-120.873147, 34.39634], [-120.866177, 34.391505], [-120.859073, 34.386682], [-120.853225, 34.381524], [-120.846503, 34.375487], [-120.839785, 34.369523], [-120.834354, 34.364312], [-120.828747, 34.35875], [-120.823111, 34.353257], [-120.817584, 34.348049], [-120.811884, 34.342886], [-120.804942, 34.338015], [-120.799963, 34.334299], [-120.793106, 34.330014], [-120.786404, 34.326965], [-120.779305, 34.323373], [-120.770798, 34.320283], [-120.761979, 34.317983], [-120.756331, 34.315674], [-120.746029, 34.311485], [-120.738331, 34.308269], [-120.730398, 34.305157], [-120.72228, 34.302299], [-120.714289, 34.299443], [-120.708275, 34.297331], [-120.698397, 34.293832], [-120.690196, 34.291388], [-120.681867, 34.288946], [-120.673509, 34.286657], [-120.6655, 34.284363], [-120.658681, 34.282528], [-120.649093, 34.280095], [-120.641065, 34.278031], [-120.633261, 34.276353], [-120.625005, 34.274673], [-120.617077, 34.272924], [-120.610226, 34.271236], [-120.602112, 34.268759], [-120.594737, 34.266471], [-120.587191, 34.264304], [-120.579453, 34.262161], [-120.571152, 34.260051], [-120.563084, 34.258131], [-120.554677, 34.255914], [-120.546576, 34.25364], [-120.53795, 34.251395], [-120.528727, 34.250565], [-120.519637, 34.24985], [-120.510138, 34.250079], [-120.501488, 34.250166], [-120.492711, 34.248556], [-120.484412, 34.246981], [-120.476026, 34.24605], [-120.467997, 34.244291], [-120.459173, 34.243946], [-120.451908, 34.242853], [-120.443842, 34.243068], [-120.435824, 34.240922], [-120.427302, 34.240441], [-120.418788, 34.241565], [-120.410151, 34.241136], [-120.404691, 34.240888], [-120.393231, 34.240291], [-120.384084, 34.240503], [-120.375539, 34.241168], [-120.367426, 34.240083], [-120.35924, 34.239651], [-120.353295, 34.239565], [-120.343398, 34.239214], [-120.335931, 34.238042], [-120.328345, 34.237401], [-120.320343, 34.235829], [-120.3179, 34.234772], [-120.308884, 34.235566], [-120.301774, 34.236407], [-120.29496, 34.236742], [-120.289682, 34.237105], [-120.282901, 34.237409], [-120.276678, 34.237828], [-120.268766, 34.238872], [-120.260864, 34.239429], [-120.256189, 34.239885], [-120.249171, 34.240512], [-120.242975, 34.241074], [-120.237037, 34.241679], [-120.230463, 34.242439], [-120.224506, 34.243172], [-120.219787, 34.24379], [-120.213865, 34.244497], [-120.208901, 34.244653], [-120.201573, 34.245134], [-120.194206, 34.24569], [-120.186594, 34.246402], [-120.179616, 34.247035], [-120.172169, 34.247825], [-120.164636, 34.24843], [-120.157091, 34.249121], [-120.149345, 34.249934], [-120.140811, 34.251059], [-120.133556, 34.25197], [-120.125055, 34.252065], [-120.117159, 34.248855], [-120.109388, 34.245376], [-120.101052, 34.242956], [-120.09228, 34.241608], [-120.08673, 34.23984], [-120.075565, 34.236574], [-120.067649, 34.233], [-120.059916, 34.229064], [-120.052101, 34.225039], [-120.044245, 34.221123], [-120.038529, 34.218254], [-120.028689, 34.212932], [-120.021705, 34.208113], [-120.014755, 34.203442], [-120.00745, 34.198918], [-120.000946, 34.19399], [-119.995272, 34.190413], [-119.986084, 34.185494], [-119.978579, 34.181379], [-119.971051, 34.1771], [-119.963766, 34.172815], [-119.955873, 34.168807], [-119.94905, 34.165437], [-119.939548, 34.160925], [-119.933212, 34.157848], [-119.925592, 34.153098], [-119.918207, 34.148124], [-119.910784, 34.14309], [-119.904252, 34.138264], [-119.897096, 34.132209], [-119.890482, 34.126464], [-119.883938, 34.120555], [-119.877719, 34.114575], [-119.871553, 34.108449], [-119.865527, 34.102443], [-119.859637, 34.096424], [-119.85416, 34.090302], [-119.848452, 34.084723], [-119.842837, 34.079444], [-119.838268, 34.073548], [-119.834047, 34.067381], [-119.829773, 34.060891], [-119.829406, 34.059986], [-119.829377, 34.060017], [-119.815207, 34.063222], [-119.811704, 34.064296], [-119.809847, 34.069752], [-119.804007, 34.071727], [-119.799269, 34.074731], [-119.79351, 34.07944], [-119.787337, 34.083626], [-119.781862, 34.089233], [-119.778833, 34.092299], [-119.7731, 34.093765], [-119.770509, 34.099805], [-119.768338, 34.106069], [-119.764856, 34.111663], [-119.760953, 34.116452], [-119.760548, 34.122305], [-119.758215, 34.130601], [-119.755987, 34.138277], [-119.751889, 34.145358], [-119.746772, 34.151746], [-119.74184, 34.158861], [-119.740121, 34.165891], [-119.739282, 34.174763], [-119.736921, 34.182441], [-119.736921, 34.190155], [-119.736473, 34.196839], [-119.731902, 34.201292], [-119.725899, 34.204099], [-119.719712, 34.206911], [-119.715327, 34.211074], [-119.711083, 34.216402], [-119.708234, 34.2225], [-119.706525, 34.229581], [-119.703276, 34.235861], [-119.699563, 34.240553], [-119.693755, 34.245108], [-119.687709, 34.249346], [-119.683558, 34.253434], [-119.679489, 34.256867], [-119.674124, 34.258727], [-119.666772, 34.26157], [-119.661271, 34.264377], [-119.658974, 34.266093], [-119.653814, 34.268166], [-119.647131, 34.263944], [-119.642821, 34.257119], [-119.638464, 34.25242], [-119.633573, 34.246363], [-119.630827, 34.242104], [-119.627713, 34.237652], [-119.623856, 34.232109], [-119.62052, 34.227659], [-119.617231, 34.222498], [-119.614673, 34.217892], [-119.61083, 34.213763], [-119.608623, 34.21087], [-119.605375, 34.205225], [-119.603351, 34.199846], [-119.602104, 34.196398], [-119.600794, 34.193397], [-119.599067, 34.190661], [-119.597545, 34.189015], [-119.597608, 34.187773], [-119.596414, 34.185352], [-119.594392, 34.184255], [-119.593436, 34.182712], [-119.590069, 34.178382], [-119.586626, 34.175736], [-119.583422, 34.170879], [-119.578987, 34.161131], [-119.576583, 34.153606], [-119.573261, 34.146006], [-119.569504, 34.138361], [-119.565391, 34.132513], [-119.559766, 34.12357], [-119.554165, 34.116373], [-119.548693, 34.109425], [-119.542823, 34.102468], [-119.536149, 34.096153], [-119.530475, 34.090556], [-119.523244, 34.082579], [-119.516514, 34.075305], [-119.509725, 34.068745], [-119.503369, 34.061529], [-119.49661, 34.054819], [-119.49019, 34.049054], [-119.483682, 34.042039], [-119.47847, 34.035321], [-119.473939, 34.029137], [-119.470089, 34.023317], [-119.466504, 34.016936], [-119.463335, 34.012242], [-119.460181, 34.008196], [-119.456548, 34.003372], [-119.454582, 33.999023], [-119.453986, 33.996346], [-119.451231, 33.993968], [-119.445737, 33.992211], [-119.443009, 33.990796], [-119.438365, 33.987887], [-119.433145, 33.982867], [-119.429809, 33.980118], [-119.427461, 33.977618], [-119.424622, 33.974614], [-119.422474, 33.971763], [-119.422547, 33.968121], [-119.419588, 33.963843], [-119.417365, 33.959811], [-119.41525, 33.954161], [-119.412052, 33.949674], [-119.408738, 33.942969], [-119.405509, 33.937349], [-119.400374, 33.935143], [-119.395348, 33.932966], [-119.389347, 33.930655], [-119.384941, 33.928428], [-119.379862, 33.923207], [-119.375954, 33.919627], [-119.372384, 33.914671], [-119.369515, 33.91057], [-119.364656, 33.904789], [-119.362449, 33.901616], [-119.362033, 33.898959], [-119.363565, 33.896834], [-119.365382, 33.89374], [-119.363259, 33.893085], [-119.358285, 33.889898], [-119.353766, 33.884937], [-119.349826, 33.879639], [-119.347066, 33.875839], [-119.34416, 33.870052], [-119.339091, 33.864734], [-119.336791, 33.859823], [-119.331278, 33.856237], [-119.324699, 33.853385], [-119.319992, 33.850588], [-119.312375, 33.845124], [-119.305278, 33.842187], [-119.298594, 33.838382], [-119.292128, 33.83497], [-119.285531, 33.830484], [-119.280153, 33.827965], [-119.272453, 33.822639], [-119.266365, 33.818375], [-119.260522, 33.813154], [-119.254534, 33.808163], [-119.2478, 33.803692], [-119.241847, 33.799613], [-119.234535, 33.794739], [-119.228862, 33.790386], [-119.223164, 33.785616], [-119.217088, 33.781273], [-119.211153, 33.77764], [-119.205711, 33.773429], [-119.199697, 33.768128], [-119.194022, 33.763439], [-119.188625, 33.759107], [-119.183142, 33.754727], [-119.177298, 33.75017], [-119.172585, 33.746878], [-119.167191, 33.742406], [-119.161691, 33.738115], [-119.155953, 33.733896], [-119.15041, 33.729686], [-119.145073, 33.725554], [-119.139495, 33.72083], [-119.134046, 33.716462], [-119.12831, 33.711949], [-119.122302, 33.707611], [-119.1167, 33.703079], [-119.110722, 33.698489], [-119.103933, 33.694015], [-119.098878, 33.690275], [-119.093088, 33.685732], [-119.088083, 33.680342], [-119.083672, 33.67481], [-119.079875, 33.668583], [-119.075619, 33.662292], [-119.072775, 33.657902], [-119.068219, 33.64895], [-119.064063, 33.64257], [-119.059507, 33.635948], [-119.054418, 33.629243], [-119.049962, 33.62249], [-119.046282, 33.617351], [-119.039452, 33.608882], [-119.034313, 33.60223], [-119.029912, 33.595095], [-119.025353, 33.587746], [-119.021233, 33.580568], [-119.018195, 33.574613], [-119.014253, 33.566297], [-119.010756, 33.5596], [-119.007667, 33.553111], [-119.005334, 33.547178], [-119.002748, 33.541078], [-119.000181, 33.535844], [-118.996171, 33.529134], [-118.992339, 33.523019], [-118.988476, 33.516114], [-118.984475, 33.509249], [-118.981201, 33.502409], [-118.9782, 33.495899], [-118.974229, 33.489124], [-118.970101, 33.483178], [-118.965768, 33.478026], [-118.960778, 33.473102], [-118.955203, 33.46834], [-118.949316, 33.463919], [-118.943372, 33.459307], [-118.937374, 33.454569], [-118.932142, 33.449966], [-118.927215, 33.445089], [-118.922319, 33.440096], [-118.916894, 33.435109], [-118.912328, 33.430729], [-118.90681, 33.426185], [-118.901127, 33.421818], [-118.895988, 33.417106], [-118.890145, 33.412497], [-118.883368, 33.407516], [-118.878429, 33.403268], [-118.873029, 33.398253], [-118.867347, 33.393288], [-118.862124, 33.387754], [-118.85678, 33.381945], [-118.852829, 33.37471], [-118.850246, 33.369808], [-118.846108, 33.360052], [-118.842633, 33.352724], [-118.838898, 33.345105], [-118.834144, 33.338041], [-118.828892, 33.330694], [-118.825449, 33.325166], [-118.818433, 33.316499], [-118.812016, 33.310508], [-118.806456, 33.303925], [-118.800138, 33.298327], [-118.793354, 33.293596], [-118.78772, 33.290129], [-118.78054, 33.286467], [-118.77205, 33.282944], [-118.764797, 33.279489], [-118.757658, 33.275417], [-118.749997, 33.27181], [-118.743818, 33.26813], [-118.735633, 33.263881], [-118.728283, 33.259894], [-118.72087, 33.255815], [-118.713828, 33.251049], [-118.706491, 33.246659], [-118.699956, 33.242791], [-118.692787, 33.238863], [-118.68571, 33.234739], [-118.678974, 33.230461], [-118.6723, 33.22609], [-118.665493, 33.22182], [-118.658792, 33.21712], [-118.651439, 33.213769], [-118.644071, 33.209604], [-118.636676, 33.205857], [-118.629461, 33.201973], [-118.622312, 33.197639], [-118.614835, 33.192857], [-118.607975, 33.189163], [-118.601308, 33.184344], [-118.594336, 33.179507], [-118.587459, 33.175385], [-118.580743, 33.171195], [-118.573425, 33.166168], [-118.568133, 33.162047], [-118.561554, 33.157372], [-118.554605, 33.153612], [-118.547861, 33.149522], [-118.541347, 33.14551], [-118.535351, 33.141454], [-118.5308, 33.138578], [-118.523548, 33.132966], [-118.517044, 33.129056], [-118.510195, 33.124496], [-118.503373, 33.119617], [-118.498021, 33.114568], [-118.494052, 33.110807], [-118.487629, 33.104575], [-118.484157, 33.098633], [-118.482114, 33.092913], [-118.477438, 33.0874], [-118.472584, 33.082107], [-118.468682, 33.07779], [-118.46274, 33.072292], [-118.457881, 33.06756], [-118.452924, 33.062958], [-118.44784, 33.05787], [-118.442918, 33.052233], [-118.437957, 33.047588], [-118.431861, 33.041685], [-118.426026, 33.036391], [-118.421507, 33.030383], [-118.417306, 33.024358], [-118.412435, 33.018907], [-118.408267, 33.013423], [-118.403302, 33.00773], [-118.398263, 33.002492], [-118.393489, 32.997104], [-118.388805, 32.991495], [-118.383375, 32.986367], [-118.378176, 32.980846], [-118.37371, 32.975541], [-118.3701, 32.969716], [-118.366345, 32.963579], [-118.363028, 32.957611], [-118.359495, 32.951775], [-118.354786, 32.946607], [-118.350065, 32.942625], [-118.345063, 32.938304], [-118.340785, 32.933825], [-118.335633, 32.929802], [-118.331252, 32.924942], [-118.325829, 32.91947], [-118.322242, 32.91531], [-118.318402, 32.91019], [-118.314815, 32.9051], [-118.311445, 32.900079], [-118.308251, 32.89503], [-118.301591, 32.892924], [-118.297088, 32.892105], [-118.29124, 32.889803], [-118.28561, 32.888138], [-118.280438, 32.886166], [-118.275023, 32.884578], [-118.268521, 32.883109], [-118.262243, 32.881472], [-118.25433, 32.880171], [-118.246745, 32.878715], [-118.238925, 32.878056], [-118.235059, 32.877066], [-118.229524, 32.873946], [-118.225613, 32.870732], [-118.223388, 32.868632], [-118.222098, 32.865465], [-118.220842, 32.862197], [-118.219843, 32.860048], [-118.219449, 32.857169], [-118.214957, 32.853707], [-118.209889, 32.850225], [-118.205173, 32.847594], [-118.199944, 32.844746], [-118.194481, 32.84198], [-118.189049, 32.839281], [-118.183652, 32.836579], [-118.177426, 32.83381], [-118.172409, 32.831666], [-118.166789, 32.829224], [-118.160961, 32.826898], [-118.155166, 32.824441], [-118.149233, 32.822055], [-118.142339, 32.819247], [-118.137557, 32.817227], [-118.131844, 32.814922], [-118.125994, 32.81263], [-118.120163, 32.810234], [-118.11436, 32.807841], [-118.107399, 32.804765], [-118.103088, 32.802932], [-118.097432, 32.800503], [-118.09171, 32.797878], [-118.085899, 32.795368], [-118.080016, 32.792829], [-118.074043, 32.790533], [-118.069153, 32.788616], [-118.062137, 32.785619], [-118.056186, 32.783214], [-118.050023, 32.7808], [-118.044055, 32.778202], [-118.037977, 32.775824], [-118.032907, 32.773614], [-118.026238, 32.770885], [-118.02029, 32.768305], [-118.014382, 32.765417], [-118.008434, 32.762752], [-118.002679, 32.75996], [-117.997024, 32.757356], [-117.990705, 32.754285], [-117.984564, 32.75139], [-117.978313, 32.748461], [-117.97217, 32.745614], [-117.966169, 32.742629], [-117.959947, 32.73973], [-117.953585, 32.736906], [-117.947259, 32.73413], [-117.94095, 32.731362], [-117.934757, 32.728549], [-117.928333, 32.725834], [-117.921584, 32.722918], [-117.915676, 32.720435], [-117.909355, 32.717661], [-117.903149, 32.714822], [-117.896883, 32.712273], [-117.890614, 32.709586], [-117.883578, 32.706521], [-117.878175, 32.704055], [-117.871969, 32.70137], [-117.865773, 32.698669], [-117.859677, 32.695828], [-117.853662, 32.693083], [-117.846272, 32.68983], [-117.841463, 32.687567], [-117.835412, 32.684638], [-117.829356, 32.68194], [-117.823263, 32.67932], [-117.817152, 32.676636], [-117.809512, 32.673299], [-117.804978, 32.671568], [-117.798687, 32.669424], [-117.792399, 32.667368], [-117.78577, 32.665497], [-117.779156, 32.663746], [-117.772717, 32.662058], [-117.767245, 32.660769], [-117.759577, 32.658976], [-117.752948, 32.657762], [-117.746143, 32.656648], [-117.739437, 32.655354], [-117.732808, 32.65435], [-117.726717, 32.653591], [-117.719302, 32.652412], [-117.712661, 32.651327], [-117.706097, 32.650267], [-117.69958, 32.649168], [-117.692726, 32.648245], [-117.686048, 32.647335], [-117.678982, 32.646258], [-117.672266, 32.645198], [-117.665419, 32.644115], [-117.658617, 32.643126], [-117.651595, 32.642239], [-117.644525, 32.641243], [-117.637706, 32.640514], [-117.630764, 32.639521], [-117.623785, 32.638561], [-117.616848, 32.637559], [-117.609971, 32.636407], [-117.602455, 32.635007], [-117.596153, 32.633903], [-117.589083, 32.63254], [-117.582043, 32.631124], [-117.575129, 32.629878], [-117.568029, 32.629405], [-117.559752, 32.628729], [-117.553592, 32.628191], [-117.546132, 32.627575], [-117.538825, 32.626854], [-117.531575, 32.626103], [-117.524243, 32.625472], [-117.516875, 32.624663], [-117.511539, 32.624081], [-117.502275, 32.62297], [-117.495063, 32.622191], [-117.487796, 32.622475], [-117.480383, 32.623015], [-117.472918, 32.623545], [-117.467275, 32.623857], [-117.458393, 32.624528], [-117.451414, 32.62503], [-117.444512, 32.625668], [-117.43743, 32.62618], [-117.430248, 32.626916], [-117.424228, 32.627434], [-117.416071, 32.628176], [-117.408894, 32.628734], [-117.401586, 32.62918], [-117.394324, 32.62938], [-117.387049, 32.629569], [-117.380319, 32.630108], [-117.372156, 32.630781], [-117.364456, 32.631305], [-117.356785, 32.631843], [-117.349173, 32.632463], [-117.341555, 32.633234], [-117.334114, 32.63414], [-117.326477, 32.634918], [-117.318944, 32.635742], [-117.311381, 32.636435], [-117.303876, 32.637062], [-117.296281, 32.637598], [-117.288572, 32.638165], [-117.281628, 32.638559], [-117.274769, 32.63913], [-117.268025, 32.639576], [-117.261519, 32.640579], [-117.255553, 32.642958], [-117.249812, 32.645553], [-117.245918, 32.648232], [-117.24191, 32.651685], [-117.237719, 32.655241], [-117.233809, 32.659088], [-117.230492, 32.663343], [-117.228281, 32.668834], [-117.228656, 32.675199], [-117.230777, 32.682202], [-117.231, 32.686912], [-117.230659, 32.691957], [-117.231617, 32.698327], [-117.233228, 32.702005], [-117.234548, 32.708488], [-117.234013, 32.709928], [-117.23402, 32.709849]]}, "times": ["2017-11-22T14:22:48+00:00", "2017-11-22T14:32:36+00:00", "2017-11-22T14:37:30+00:00", "2017-11-22T14:47:19+00:00", "2017-11-22T14:52:12+00:00", "2017-11-22T15:02:00+00:00", "2017-11-22T15:06:53+00:00", "2017-11-22T15:11:47+00:00", "2017-11-22T15:21:34+00:00", "2017-11-22T15:26:28+00:00", "2017-11-22T15:32:49+00:00", "2017-11-22T15:41:09+00:00", "2017-11-22T15:46:03+00:00", "2017-11-22T15:55:50+00:00", "2017-11-22T16:02:49+00:00", "2017-11-22T16:10:31+00:00", "2017-11-22T16:15:24+00:00", "2017-11-22T16:25:12+00:00", "2017-11-22T16:30:06+00:00", "2017-11-22T16:34:59+00:00", "2017-11-22T16:39:53+00:00", "2017-11-22T16:44:48+00:00", "2017-11-22T16:54:35+00:00", "2017-11-22T17:02:50+00:00", "2017-11-22T17:09:16+00:00", "2017-11-22T17:19:03+00:00", "2017-11-22T17:28:51+00:00", "2017-11-22T17:33:44+00:00", "2017-11-22T17:43:32+00:00", "2017-11-22T17:53:20+00:00", "2017-11-22T17:58:14+00:00", "2017-11-22T18:03:08+00:00", "2017-11-22T18:08:02+00:00", "2017-11-22T18:12:56+00:00", "2017-11-22T18:17:50+00:00", "2017-11-22T18:22:44+00:00", "2017-11-22T18:27:37+00:00", "2017-11-22T18:32:31+00:00", "2017-11-22T18:37:25+00:00", "2017-11-22T18:42:19+00:00", "2017-11-22T18:47:12+00:00", "2017-11-22T18:52:07+00:00", "2017-11-22T18:57:00+00:00", "2017-11-22T19:02:52+00:00", "2017-11-22T19:06:49+00:00", "2017-11-22T19:11:42+00:00", "2017-11-22T19:16:36+00:00", "2017-11-22T19:21:30+00:00", "2017-11-22T19:31:18+00:00", "2017-11-22T19:36:12+00:00", "2017-11-22T19:41:06+00:00", "2017-11-22T19:50:53+00:00", "2017-11-22T20:00:41+00:00", "2017-11-22T20:05:35+00:00", "2017-11-22T20:15:22+00:00", "2017-11-22T20:20:16+00:00", "2017-11-22T20:30:03+00:00", "2017-11-22T20:34:56+00:00", "2017-11-22T20:39:51+00:00", "2017-11-22T20:44:44+00:00", "2017-11-22T20:49:37+00:00", "2017-11-22T20:54:31+00:00", "2017-11-22T20:59:25+00:00", "2017-11-22T21:04:19+00:00", "2017-11-22T21:09:12+00:00", "2017-11-22T21:14:06+00:00", "2017-11-22T21:19:00+00:00", "2017-11-22T21:23:54+00:00", "2017-11-22T21:28:48+00:00", "2017-11-22T21:33:42+00:00", "2017-11-22T21:38:36+00:00", "2017-11-22T21:43:29+00:00", "2017-11-22T21:48:23+00:00", "2017-11-22T21:53:17+00:00", "2017-11-22T21:58:11+00:00", "2017-11-22T22:03:05+00:00", "2017-11-22T22:07:59+00:00", "2017-11-22T22:12:52+00:00", "2017-11-22T22:17:45+00:00", "2017-11-22T22:22:39+00:00", "2017-11-22T22:27:34+00:00", "2017-11-22T22:32:28+00:00", "2017-11-22T22:37:21+00:00", "2017-11-22T22:42:15+00:00", "2017-11-22T22:47:09+00:00", "2017-11-22T22:52:03+00:00", "2017-11-22T22:56:57+00:00", "2017-11-22T23:02:58+00:00", "2017-11-22T23:06:45+00:00", "2017-11-22T23:16:33+00:00", "2017-11-22T23:21:27+00:00", "2017-11-22T23:31:15+00:00", "2017-11-22T23:36:09+00:00", "2017-11-22T23:41:03+00:00", "2017-11-22T23:50:51+00:00", "2017-11-23T00:00:39+00:00", "2017-11-23T00:05:32+00:00", "2017-11-23T00:10:26+00:00", "2017-11-23T00:15:20+00:00", "2017-11-23T00:20:13+00:00", "2017-11-23T00:25:07+00:00", "2017-11-23T00:30:01+00:00", "2017-11-23T00:34:55+00:00", "2017-11-23T00:39:48+00:00", "2017-11-23T00:44:42+00:00", "2017-11-23T00:49:36+00:00", "2017-11-23T00:54:30+00:00", "2017-11-23T00:59:24+00:00", "2017-11-23T01:04:18+00:00", "2017-11-23T01:09:11+00:00", "2017-11-23T01:14:06+00:00", "2017-11-23T01:18:59+00:00", "2017-11-23T01:23:53+00:00", "2017-11-23T01:28:46+00:00", "2017-11-23T01:33:40+00:00", "2017-11-23T01:38:33+00:00", "2017-11-23T01:43:27+00:00", "2017-11-23T01:48:20+00:00", "2017-11-23T01:53:14+00:00", "2017-11-23T02:00:21+00:00", "2017-11-23T02:03:01+00:00", "2017-11-23T02:07:55+00:00", "2017-11-23T02:12:49+00:00", "2017-11-23T02:17:43+00:00", "2017-11-23T02:22:37+00:00", "2017-11-23T02:27:30+00:00", "2017-11-23T02:33:02+00:00", "2017-11-23T02:37:18+00:00", "2017-11-23T02:42:12+00:00", "2017-11-23T02:47:05+00:00", "2017-11-23T02:51:59+00:00", "2017-11-23T02:56:53+00:00", "2017-11-23T03:03:02+00:00", "2017-11-23T03:06:41+00:00", "2017-11-23T03:11:35+00:00", "2017-11-23T03:16:28+00:00", "2017-11-23T03:21:22+00:00", "2017-11-23T03:26:16+00:00", "2017-11-23T03:33:03+00:00", "2017-11-23T03:36:03+00:00", "2017-11-23T03:40:57+00:00", "2017-11-23T03:45:51+00:00", "2017-11-23T03:50:45+00:00", "2017-11-23T03:55:39+00:00", "2017-11-23T04:03:04+00:00", "2017-11-23T04:05:26+00:00", "2017-11-23T04:10:19+00:00", "2017-11-23T04:15:13+00:00", "2017-11-23T04:20:07+00:00", "2017-11-23T04:25:01+00:00", "2017-11-23T04:29:54+00:00", "2017-11-23T04:34:48+00:00", "2017-11-23T04:39:41+00:00", "2017-11-23T04:49:29+00:00", "2017-11-23T04:54:22+00:00", "2017-11-23T05:03:05+00:00", "2017-11-23T05:09:04+00:00", "2017-11-23T05:13:58+00:00", "2017-11-23T05:18:51+00:00", "2017-11-23T05:23:45+00:00", "2017-11-23T05:28:39+00:00", "2017-11-23T05:33:33+00:00", "2017-11-23T05:38:27+00:00", "2017-11-23T05:43:21+00:00", "2017-11-23T05:48:15+00:00", "2017-11-23T05:53:09+00:00", "2017-11-23T05:58:02+00:00", "2017-11-23T06:03:06+00:00", "2017-11-23T06:07:50+00:00", "2017-11-23T06:12:44+00:00", "2017-11-23T06:17:37+00:00", "2017-11-23T06:22:31+00:00", "2017-11-23T06:27:25+00:00", "2017-11-23T06:33:06+00:00", "2017-11-23T06:42:06+00:00", "2017-11-23T06:47:00+00:00", "2017-11-23T06:51:54+00:00", "2017-11-23T06:56:48+00:00", "2017-11-23T07:03:07+00:00", "2017-11-23T07:06:36+00:00", "2017-11-23T07:11:29+00:00", "2017-11-23T07:16:23+00:00", "2017-11-23T07:21:16+00:00", "2017-11-23T07:26:09+00:00", "2017-11-23T07:33:07+00:00", "2017-11-23T07:40:51+00:00", "2017-11-23T07:45:45+00:00", "2017-11-23T07:55:33+00:00", "2017-11-23T08:03:08+00:00", "2017-11-23T08:10:14+00:00", "2017-11-23T08:15:08+00:00", "2017-11-23T08:20:02+00:00", "2017-11-23T08:24:55+00:00", "2017-11-23T08:33:08+00:00", "2017-11-23T08:39:37+00:00", "2017-11-23T08:44:31+00:00", "2017-11-23T08:49:25+00:00", "2017-11-23T08:54:19+00:00", "2017-11-23T08:59:12+00:00", "2017-11-23T09:04:06+00:00", "2017-11-23T09:09:00+00:00", "2017-11-23T09:13:54+00:00", "2017-11-23T09:18:48+00:00", "2017-11-23T09:23:42+00:00", "2017-11-23T09:28:35+00:00", "2017-11-23T09:33:29+00:00", "2017-11-23T09:38:23+00:00", "2017-11-23T09:43:16+00:00", "2017-11-23T09:48:10+00:00", "2017-11-23T09:57:57+00:00", "2017-11-23T10:03:10+00:00", "2017-11-23T10:12:39+00:00", "2017-11-23T10:17:33+00:00", "2017-11-23T10:27:20+00:00", "2017-11-23T10:33:10+00:00", "2017-11-23T10:42:01+00:00", "2017-11-23T10:46:55+00:00", "2017-11-23T10:56:42+00:00", "2017-11-23T11:03:10+00:00", "2017-11-23T11:06:29+00:00", "2017-11-23T11:11:22+00:00", "2017-11-23T11:16:16+00:00", "2017-11-23T11:26:03+00:00", "2017-11-23T11:33:10+00:00", "2017-11-23T11:40:43+00:00", "2017-11-23T11:45:37+00:00", "2017-11-23T11:50:30+00:00", "2017-11-23T11:55:24+00:00", "2017-11-23T12:00:17+00:00", "2017-11-23T12:05:10+00:00", "2017-11-23T12:10:04+00:00", "2017-11-23T12:14:58+00:00", "2017-11-23T12:19:52+00:00", "2017-11-23T12:24:46+00:00", "2017-11-23T12:29:39+00:00", "2017-11-23T12:34:33+00:00", "2017-11-23T12:39:27+00:00", "2017-11-23T12:44:21+00:00", "2017-11-23T12:49:15+00:00", "2017-11-23T12:54:08+00:00", "2017-11-23T12:59:02+00:00", "2017-11-23T13:03:56+00:00", "2017-11-23T13:08:50+00:00", "2017-11-23T13:13:44+00:00", "2017-11-23T13:18:38+00:00", "2017-11-23T13:23:32+00:00", "2017-11-23T13:28:25+00:00", "2017-11-23T13:33:18+00:00", "2017-11-23T13:38:12+00:00", "2017-11-23T13:43:05+00:00", "2017-11-23T13:47:59+00:00", "2017-11-23T13:52:52+00:00", "2017-11-23T13:57:45+00:00", "2017-11-23T14:03:13+00:00", "2017-11-23T14:07:32+00:00", "2017-11-23T14:12:26+00:00", "2017-11-23T14:17:19+00:00", "2017-11-23T14:22:13+00:00", "2017-11-23T14:27:07+00:00", "2017-11-23T14:33:14+00:00", "2017-11-23T14:36:55+00:00", "2017-11-23T14:41:49+00:00", "2017-11-23T14:46:43+00:00", "2017-11-23T14:51:37+00:00", "2017-11-23T14:56:31+00:00", "2017-11-23T15:03:14+00:00", "2017-11-23T15:06:19+00:00", "2017-11-23T15:11:13+00:00", "2017-11-23T15:16:06+00:00", "2017-11-23T15:21:00+00:00", "2017-11-23T15:25:53+00:00", "2017-11-23T15:30:46+00:00", "2017-11-23T15:35:40+00:00", "2017-11-23T15:40:34+00:00", "2017-11-23T15:45:28+00:00", "2017-11-23T15:50:21+00:00", "2017-11-23T15:55:15+00:00", "2017-11-23T16:00:09+00:00", "2017-11-23T16:05:03+00:00", "2017-11-23T16:09:58+00:00", "2017-11-23T16:21:59+00:00", "2017-11-23T16:26:58+00:00", "2017-11-23T16:31:52+00:00", "2017-11-23T16:36:47+00:00", "2017-11-23T16:41:41+00:00", "2017-11-23T16:46:36+00:00", "2017-11-23T16:51:30+00:00", "2017-11-23T16:56:23+00:00", "2017-11-23T17:01:17+00:00", "2017-11-23T17:06:10+00:00", "2017-11-23T17:11:04+00:00", "2017-11-23T17:15:58+00:00", "2017-11-23T17:20:52+00:00", "2017-11-23T17:25:46+00:00", "2017-11-23T17:30:39+00:00", "2017-11-23T17:33:16+00:00", "2017-11-23T17:35:33+00:00", "2017-11-23T17:40:27+00:00", "2017-11-23T17:50:10+00:00", "2017-11-23T17:55:11+00:00", "2017-11-23T18:03:13+00:00", "2017-11-23T18:03:17+00:00", "2017-11-23T18:09:46+00:00", "2017-11-23T18:14:41+00:00", "2017-11-23T18:24:21+00:00", "2017-11-23T18:29:15+00:00", "2017-11-23T18:34:09+00:00", "2017-11-23T18:39:03+00:00", "2017-11-23T18:43:56+00:00", "2017-11-23T18:48:50+00:00", "2017-11-23T18:53:43+00:00", "2017-11-23T18:58:37+00:00", "2017-11-23T19:03:30+00:00", "2017-11-23T19:08:24+00:00", "2017-11-23T19:13:23+00:00", "2017-11-23T19:23:01+00:00", "2017-11-23T19:27:54+00:00", "2017-11-23T19:32:48+00:00", "2017-11-23T19:37:42+00:00", "2017-11-23T19:42:38+00:00", "2017-11-23T19:47:31+00:00", "2017-11-23T19:52:25+00:00", "2017-11-23T19:57:19+00:00", "2017-11-23T20:02:13+00:00", "2017-11-23T20:07:07+00:00", "2017-11-23T20:15:03+00:00", "2017-11-23T20:21:42+00:00", "2017-11-23T20:26:36+00:00", "2017-11-23T20:31:30+00:00", "2017-11-23T20:36:24+00:00", "2017-11-23T20:41:18+00:00", "2017-11-23T20:51:05+00:00", "2017-11-23T20:55:59+00:00", "2017-11-23T21:00:53+00:00", "2017-11-23T21:05:47+00:00", "2017-11-23T21:10:40+00:00", "2017-11-23T21:15:34+00:00", "2017-11-23T21:20:27+00:00", "2017-11-23T21:25:21+00:00", "2017-11-23T21:30:15+00:00", "2017-11-23T21:35:09+00:00", "2017-11-23T21:40:02+00:00", "2017-11-23T21:44:56+00:00", "2017-11-23T21:49:50+00:00", "2017-11-23T21:54:44+00:00", "2017-11-23T22:03:21+00:00", "2017-11-23T22:09:26+00:00", "2017-11-23T22:14:20+00:00", "2017-11-23T22:19:13+00:00", "2017-11-23T22:24:07+00:00", "2017-11-23T22:29:01+00:00", "2017-11-23T22:33:54+00:00", "2017-11-23T22:38:48+00:00", "2017-11-23T22:43:42+00:00", "2017-11-23T22:48:36+00:00", "2017-11-23T22:53:30+00:00", "2017-11-23T22:58:23+00:00", "2017-11-23T23:03:22+00:00", "2017-11-23T23:08:11+00:00", "2017-11-23T23:13:05+00:00", "2017-11-23T23:17:59+00:00", "2017-11-23T23:22:53+00:00", "2017-11-23T23:27:47+00:00", "2017-11-23T23:33:23+00:00", "2017-11-23T23:37:34+00:00", "2017-11-23T23:42:28+00:00", "2017-11-23T23:47:22+00:00", "2017-11-23T23:52:16+00:00", "2017-11-23T23:57:10+00:00", "2017-11-24T00:03:23+00:00", "2017-11-24T00:06:58+00:00", "2017-11-24T00:11:52+00:00", "2017-11-24T00:16:46+00:00", "2017-11-24T00:21:40+00:00", "2017-11-24T00:26:34+00:00", "2017-11-24T00:31:27+00:00", "2017-11-24T00:36:21+00:00", "2017-11-24T00:41:15+00:00", "2017-11-24T00:46:09+00:00", "2017-11-24T00:51:02+00:00", "2017-11-24T00:55:56+00:00", "2017-11-24T01:00:50+00:00", "2017-11-24T01:05:44+00:00", "2017-11-24T01:07:42+00:00", "2017-11-24T01:10:38+00:00", "2017-11-24T01:15:32+00:00", "2017-11-24T01:20:26+00:00", "2017-11-24T01:25:19+00:00", "2017-11-24T01:30:13+00:00", "2017-11-24T01:35:06+00:00", "2017-11-24T01:40:00+00:00", "2017-11-24T01:44:54+00:00", "2017-11-24T01:49:48+00:00", "2017-11-24T01:54:42+00:00", "2017-11-24T01:59:36+00:00", "2017-11-24T02:04:29+00:00", "2017-11-24T02:09:23+00:00", "2017-11-24T02:14:17+00:00", "2017-11-24T02:19:10+00:00", "2017-11-24T02:24:04+00:00", "2017-11-24T02:28:58+00:00", "2017-11-24T02:33:51+00:00", "2017-11-24T02:38:45+00:00", "2017-11-24T02:43:39+00:00", "2017-11-24T02:48:34+00:00", "2017-11-24T02:53:28+00:00", "2017-11-24T02:58:22+00:00", "2017-11-24T03:03:26+00:00", "2017-11-24T03:08:09+00:00", "2017-11-24T03:13:04+00:00", "2017-11-24T03:17:57+00:00", "2017-11-24T03:22:51+00:00", "2017-11-24T03:27:45+00:00", "2017-11-24T03:33:27+00:00", "2017-11-24T03:37:32+00:00", "2017-11-24T03:42:26+00:00", "2017-11-24T03:47:20+00:00", "2017-11-24T03:52:13+00:00", "2017-11-24T03:57:07+00:00", "2017-11-24T04:02:00+00:00", "2017-11-24T04:06:54+00:00", "2017-11-24T04:11:48+00:00", "2017-11-24T04:16:42+00:00", "2017-11-24T04:21:36+00:00", "2017-11-24T04:26:30+00:00", "2017-11-24T04:31:23+00:00", "2017-11-24T04:36:16+00:00", "2017-11-24T04:41:10+00:00", "2017-11-24T04:46:04+00:00", "2017-11-24T04:50:57+00:00", "2017-11-24T04:55:51+00:00", "2017-11-24T05:00:44+00:00", "2017-11-24T05:05:38+00:00", "2017-11-24T05:10:33+00:00", "2017-11-24T05:15:26+00:00", "2017-11-24T05:20:20+00:00", "2017-11-24T05:25:14+00:00", "2017-11-24T05:30:08+00:00", "2017-11-24T05:35:02+00:00", "2017-11-24T05:39:56+00:00", "2017-11-24T05:44:50+00:00", "2017-11-24T05:49:43+00:00", "2017-11-24T05:54:37+00:00", "2017-11-24T06:03:30+00:00", "2017-11-24T06:09:18+00:00", "2017-11-24T06:14:11+00:00", "2017-11-24T06:19:06+00:00", "2017-11-24T06:24:00+00:00", "2017-11-24T06:28:53+00:00", "2017-11-24T06:33:47+00:00", "2017-11-24T06:38:41+00:00", "2017-11-24T06:43:36+00:00", "2017-11-24T06:48:30+00:00", "2017-11-24T06:53:24+00:00", "2017-11-24T06:58:17+00:00", "2017-11-24T07:03:31+00:00", "2017-11-24T07:08:04+00:00", "2017-11-24T07:12:59+00:00", "2017-11-24T07:17:52+00:00", "2017-11-24T07:22:46+00:00", "2017-11-24T07:27:39+00:00", "2017-11-24T07:33:32+00:00", "2017-11-24T07:37:27+00:00", "2017-11-24T07:42:21+00:00", "2017-11-24T07:47:14+00:00", "2017-11-24T07:52:08+00:00", "2017-11-24T07:57:02+00:00", "2017-11-24T08:03:33+00:00", "2017-11-24T08:06:50+00:00", "2017-11-24T08:11:43+00:00", "2017-11-24T08:16:37+00:00", "2017-11-24T08:21:31+00:00", "2017-11-24T08:26:25+00:00", "2017-11-24T08:33:33+00:00", "2017-11-24T08:36:12+00:00", "2017-11-24T08:41:06+00:00", "2017-11-24T08:46:00+00:00", "2017-11-24T08:50:54+00:00", "2017-11-24T08:55:48+00:00", "2017-11-24T09:00:42+00:00", "2017-11-24T09:05:36+00:00", "2017-11-24T09:10:29+00:00", "2017-11-24T09:15:23+00:00", "2017-11-24T09:20:17+00:00", "2017-11-24T09:25:11+00:00", "2017-11-24T09:30:04+00:00", "2017-11-24T09:34:58+00:00", "2017-11-24T09:39:52+00:00", "2017-11-24T09:44:45+00:00", "2017-11-24T09:49:39+00:00", "2017-11-24T09:54:33+00:00", "2017-11-24T09:59:26+00:00", "2017-11-24T10:04:20+00:00", "2017-11-24T10:09:14+00:00", "2017-11-24T10:14:08+00:00", "2017-11-24T10:19:02+00:00", "2017-11-24T10:23:55+00:00", "2017-11-24T10:28:49+00:00", "2017-11-24T10:33:43+00:00", "2017-11-24T10:38:37+00:00", "2017-11-24T10:43:31+00:00", "2017-11-24T10:48:24+00:00", "2017-11-24T10:53:18+00:00", "2017-11-24T10:58:11+00:00", "2017-11-24T11:03:36+00:00", "2017-11-24T11:07:58+00:00", "2017-11-24T11:12:52+00:00", "2017-11-24T11:17:45+00:00", "2017-11-24T11:22:39+00:00", "2017-11-24T11:27:32+00:00", "2017-11-24T11:33:36+00:00", "2017-11-24T11:37:20+00:00", "2017-11-24T11:42:13+00:00", "2017-11-24T11:47:07+00:00", "2017-11-24T11:52:00+00:00", "2017-11-24T11:56:54+00:00", "2017-11-24T12:01:48+00:00", "2017-11-24T12:06:41+00:00", "2017-11-24T12:11:35+00:00", "2017-11-24T12:16:29+00:00", "2017-11-24T12:21:23+00:00", "2017-11-24T12:26:17+00:00", "2017-11-24T12:31:10+00:00", "2017-11-24T12:36:04+00:00", "2017-11-24T12:40:58+00:00", "2017-11-24T12:45:52+00:00", "2017-11-24T12:50:46+00:00", "2017-11-24T12:55:40+00:00", "2017-11-24T13:00:33+00:00", "2017-11-24T13:05:27+00:00", "2017-11-24T13:10:21+00:00", "2017-11-24T13:15:15+00:00", "2017-11-24T13:20:08+00:00", "2017-11-24T13:25:02+00:00", "2017-11-24T13:29:56+00:00", "2017-11-24T13:34:49+00:00", "2017-11-24T13:39:43+00:00", "2017-11-24T13:44:36+00:00", "2017-11-24T13:49:30+00:00", "2017-11-24T13:54:23+00:00", "2017-11-24T13:59:17+00:00", "2017-11-24T14:04:11+00:00", "2017-11-24T14:09:05+00:00", "2017-11-24T14:13:59+00:00", "2017-11-24T14:18:53+00:00", "2017-11-24T14:23:47+00:00", "2017-11-24T14:28:40+00:00", "2017-11-24T14:33:38+00:00", "2017-11-24T14:38:28+00:00", "2017-11-24T14:43:22+00:00", "2017-11-24T14:48:15+00:00", "2017-11-24T14:53:09+00:00", "2017-11-24T14:58:03+00:00", "2017-11-24T15:03:39+00:00", "2017-11-24T15:07:50+00:00", "2017-11-24T15:12:44+00:00", "2017-11-24T15:17:38+00:00", "2017-11-24T15:22:32+00:00", "2017-11-24T15:27:26+00:00", "2017-11-24T15:33:40+00:00", "2017-11-24T15:37:14+00:00", "2017-11-24T15:42:08+00:00", "2017-11-24T15:47:01+00:00", "2017-11-24T15:51:55+00:00", "2017-11-24T15:56:49+00:00", "2017-11-24T16:01:42+00:00", "2017-11-24T16:06:36+00:00", "2017-11-24T16:11:30+00:00", "2017-11-24T16:16:24+00:00", "2017-11-24T16:21:18+00:00", "2017-11-24T16:26:12+00:00", "2017-11-24T16:31:06+00:00", "2017-11-24T16:36:00+00:00", "2017-11-24T16:40:54+00:00", "2017-11-24T16:45:47+00:00", "2017-11-24T16:50:41+00:00", "2017-11-24T16:55:34+00:00", "2017-11-24T17:00:28+00:00", "2017-11-24T17:05:22+00:00", "2017-11-24T17:10:16+00:00", "2017-11-24T17:15:09+00:00", "2017-11-24T17:20:03+00:00", "2017-11-24T17:24:57+00:00", "2017-11-24T17:29:51+00:00", "2017-11-24T17:34:45+00:00", "2017-11-24T17:39:39+00:00", "2017-11-24T17:44:32+00:00", "2017-11-24T17:49:26+00:00", "2017-11-24T17:54:20+00:00", "2017-11-24T17:59:14+00:00", "2017-11-24T18:04:08+00:00", "2017-11-24T18:09:01+00:00", "2017-11-24T18:13:55+00:00", "2017-11-24T18:18:48+00:00", "2017-11-24T18:23:42+00:00", "2017-11-24T18:28:35+00:00", "2017-11-24T18:33:45+00:00", "2017-11-24T18:38:23+00:00", "2017-11-24T18:43:17+00:00", "2017-11-24T18:48:11+00:00", "2017-11-24T18:53:04+00:00", "2017-11-24T18:57:58+00:00", "2017-11-24T19:03:46+00:00", "2017-11-24T19:07:45+00:00", "2017-11-24T19:12:38+00:00", "2017-11-24T19:17:32+00:00", "2017-11-24T19:22:26+00:00", "2017-11-24T19:27:20+00:00", "2017-11-24T19:32:14+00:00", "2017-11-24T19:37:07+00:00", "2017-11-24T19:42:00+00:00", "2017-11-24T19:46:54+00:00", "2017-11-24T19:51:48+00:00", "2017-11-24T19:56:42+00:00", "2017-11-24T20:01:36+00:00", "2017-11-24T20:06:30+00:00", "2017-11-24T20:11:24+00:00", "2017-11-24T20:16:17+00:00", "2017-11-24T20:21:11+00:00", "2017-11-24T20:30:59+00:00", "2017-11-24T20:40:47+00:00", "2017-11-24T20:50:34+00:00", "2017-11-24T20:55:28+00:00", "2017-11-24T21:00:22+00:00", "2017-11-24T21:05:16+00:00", "2017-11-24T21:10:09+00:00", "2017-11-24T21:15:03+00:00", "2017-11-24T21:24:51+00:00", "2017-11-24T21:33:50+00:00", "2017-11-24T21:39:33+00:00", "2017-11-24T21:44:26+00:00", "2017-11-24T21:49:20+00:00", "2017-11-24T21:54:13+00:00", "2017-11-24T21:59:08+00:00", "2017-11-24T22:04:02+00:00", "2017-11-24T22:08:55+00:00", "2017-11-24T22:13:49+00:00", "2017-11-24T22:18:43+00:00", "2017-11-24T22:23:37+00:00", "2017-11-24T22:28:31+00:00", "2017-11-24T22:33:50+00:00", "2017-11-24T22:38:18+00:00", "2017-11-24T22:43:15+00:00", "2017-11-24T22:48:09+00:00", "2017-11-24T22:53:03+00:00", "2017-11-24T22:57:57+00:00", "2017-11-24T23:03:50+00:00", "2017-11-24T23:07:45+00:00", "2017-11-24T23:12:39+00:00", "2017-11-24T23:17:33+00:00", "2017-11-24T23:22:26+00:00", "2017-11-24T23:27:20+00:00", "2017-11-24T23:32:14+00:00", "2017-11-24T23:37:08+00:00", "2017-11-24T23:42:02+00:00", "2017-11-24T23:46:56+00:00", "2017-11-24T23:51:50+00:00", "2017-11-24T23:56:44+00:00", "2017-11-25T00:01:38+00:00", "2017-11-25T00:06:32+00:00", "2017-11-25T00:11:25+00:00", "2017-11-25T00:16:19+00:00", "2017-11-25T00:21:13+00:00", "2017-11-25T00:26:07+00:00", "2017-11-25T00:31:01+00:00", "2017-11-25T00:35:55+00:00", "2017-11-25T00:40:49+00:00", "2017-11-25T00:45:43+00:00", "2017-11-25T00:50:37+00:00", "2017-11-25T00:55:30+00:00", "2017-11-25T01:00:25+00:00", "2017-11-25T01:05:19+00:00", "2017-11-25T01:10:12+00:00", "2017-11-25T01:15:06+00:00", "2017-11-25T01:20:00+00:00", "2017-11-25T01:24:53+00:00", "2017-11-25T01:29:47+00:00", "2017-11-25T01:34:41+00:00", "2017-11-25T01:39:35+00:00", "2017-11-25T01:44:29+00:00", "2017-11-25T01:49:23+00:00", "2017-11-25T01:54:17+00:00", "2017-11-25T01:59:11+00:00", "2017-11-25T02:04:05+00:00", "2017-11-25T02:08:59+00:00", "2017-11-25T02:13:52+00:00", "2017-11-25T02:18:46+00:00", "2017-11-25T02:23:40+00:00", "2017-11-25T02:28:33+00:00", "2017-11-25T02:33:54+00:00", "2017-11-25T02:43:15+00:00", "2017-11-25T03:08:19+00:00", "2017-11-25T23:11:22+00:00", "2017-11-26T19:40:55+00:00", "2017-11-26T19:50:42+00:00", "2017-11-26T19:55:36+00:00", "2017-11-26T20:02:36+00:00", "2017-11-26T20:10:17+00:00", "2017-11-26T20:15:11+00:00", "2017-11-26T20:24:59+00:00", "2017-11-26T20:29:52+00:00", "2017-11-26T20:34:46+00:00", "2017-11-26T20:39:40+00:00", "2017-11-26T20:44:34+00:00", "2017-11-26T20:49:28+00:00", "2017-11-26T20:54:21+00:00", "2017-11-26T20:59:15+00:00", "2017-11-26T21:04:09+00:00", "2017-11-26T21:09:03+00:00", "2017-11-26T21:13:56+00:00", "2017-11-26T21:18:51+00:00", "2017-11-26T21:23:44+00:00", "2017-11-26T21:28:37+00:00", "2017-11-26T21:33:32+00:00", "2017-11-26T21:38:25+00:00", "2017-11-26T21:43:19+00:00", "2017-11-26T21:48:13+00:00", "2017-11-26T21:53:06+00:00", "2017-11-26T21:58:00+00:00", "2017-11-26T22:02:54+00:00", "2017-11-26T22:07:47+00:00", "2017-11-26T22:12:40+00:00", "2017-11-26T22:17:34+00:00", "2017-11-26T22:22:28+00:00", "2017-11-26T22:27:21+00:00", "2017-11-26T22:32:39+00:00", "2017-11-26T22:37:10+00:00", "2017-11-26T22:46:57+00:00", "2017-11-26T22:51:51+00:00", "2017-11-26T22:56:45+00:00", "2017-11-26T23:02:39+00:00", "2017-11-26T23:11:27+00:00", "2017-11-26T23:21:15+00:00", "2017-11-26T23:31:02+00:00", "2017-11-26T23:35:56+00:00", "2017-11-26T23:45:43+00:00", "2017-11-26T23:55:31+00:00", "2017-11-27T00:02:41+00:00", "2017-11-27T00:10:13+00:00", "2017-11-27T00:15:07+00:00", "2017-11-27T00:20:00+00:00", "2017-11-27T00:24:54+00:00", "2017-11-27T00:32:42+00:00", "2017-11-27T00:39:36+00:00", "2017-11-27T00:44:29+00:00", "2017-11-27T00:54:17+00:00", "2017-11-27T01:02:42+00:00", "2017-11-27T01:08:58+00:00", "2017-11-27T01:18:46+00:00", "2017-11-27T01:28:34+00:00", "2017-11-27T01:33:28+00:00", "2017-11-27T01:43:15+00:00", "2017-11-27T01:53:03+00:00", "2017-11-27T02:07:44+00:00", "2017-11-27T02:42:01+00:00", "2017-11-27T03:06:29+00:00", "2017-11-27T03:26:03+00:00", "2017-11-27T03:35:51+00:00", "2017-11-27T03:55:26+00:00", "2017-11-27T04:02:45+00:00", "2017-11-27T04:10:07+00:00", "2017-11-27T04:15:00+00:00", "2017-11-27T04:19:54+00:00", "2017-11-27T04:24:47+00:00", "2017-11-27T04:29:42+00:00", "2017-11-27T04:34:35+00:00", "2017-11-27T04:39:29+00:00", "2017-11-27T04:44:23+00:00", "2017-11-27T04:49:16+00:00", "2017-11-27T04:54:10+00:00", "2017-11-27T04:59:03+00:00", "2017-11-27T05:03:57+00:00", "2017-11-27T05:08:51+00:00", "2017-11-27T05:13:45+00:00", "2017-11-27T05:18:39+00:00", "2017-11-27T05:23:32+00:00", "2017-11-27T05:28:26+00:00", "2017-11-27T05:33:20+00:00", "2017-11-27T05:38:13+00:00", "2017-11-27T05:43:07+00:00", "2017-11-27T05:48:01+00:00", "2017-11-27T05:52:54+00:00", "2017-11-27T05:57:48+00:00", "2017-11-27T06:02:47+00:00", "2017-11-27T06:07:36+00:00", "2017-11-27T06:17:23+00:00", "2017-11-27T06:27:11+00:00", "2017-11-27T06:32:47+00:00", "2017-11-27T06:46:46+00:00", "2017-11-27T07:01:27+00:00", "2017-11-27T07:06:21+00:00", "2017-11-27T07:16:08+00:00", "2017-11-27T07:25:55+00:00", "2017-11-27T07:32:48+00:00", "2017-11-27T07:45:30+00:00", "2017-11-27T07:55:17+00:00", "2017-11-27T08:02:48+00:00", "2017-11-27T08:14:53+00:00", "2017-11-27T08:19:47+00:00", "2017-11-27T08:24:41+00:00", "2017-11-27T08:29:34+00:00", "2017-11-27T08:34:28+00:00", "2017-11-27T08:39:22+00:00", "2017-11-27T08:44:16+00:00", "2017-11-27T08:49:10+00:00", "2017-11-27T08:54:04+00:00", "2017-11-27T08:58:58+00:00", "2017-11-27T09:03:52+00:00", "2017-11-27T09:08:45+00:00", "2017-11-27T09:13:39+00:00", "2017-11-27T09:18:32+00:00", "2017-11-27T09:23:26+00:00", "2017-11-27T09:32:49+00:00", "2017-11-27T09:38:07+00:00", "2017-11-27T09:52:48+00:00", "2017-11-27T10:07:28+00:00", "2017-11-27T10:22:09+00:00", "2017-11-27T10:32:50+00:00", "2017-11-27T10:41:45+00:00", "2017-11-27T10:51:32+00:00", "2017-11-27T10:56:25+00:00", "2017-11-27T11:02:50+00:00", "2017-11-27T11:11:06+00:00", "2017-11-27T11:16:00+00:00", "2017-11-27T11:20:53+00:00", "2017-11-27T11:25:47+00:00", "2017-11-27T11:30:41+00:00", "2017-11-27T11:35:34+00:00", "2017-11-27T11:40:27+00:00", "2017-11-27T11:45:21+00:00", "2017-11-27T11:50:14+00:00", "2017-11-27T11:55:08+00:00", "2017-11-27T12:00:01+00:00", "2017-11-27T12:04:55+00:00", "2017-11-27T12:09:49+00:00", "2017-11-27T12:14:42+00:00", "2017-11-27T12:19:36+00:00", "2017-11-27T12:24:30+00:00", "2017-11-27T12:29:23+00:00", "2017-11-27T12:34:17+00:00", "2017-11-27T12:39:10+00:00", "2017-11-27T12:44:04+00:00", "2017-11-27T12:48:58+00:00", "2017-11-27T12:53:52+00:00", "2017-11-27T12:58:45+00:00", "2017-11-27T13:03:39+00:00", "2017-11-27T13:08:33+00:00", "2017-11-27T13:13:27+00:00", "2017-11-27T13:18:20+00:00", "2017-11-27T13:23:14+00:00", "2017-11-27T13:28:54+00:00", "2017-11-27T13:33:01+00:00", "2017-11-27T13:37:55+00:00", "2017-11-27T13:42:48+00:00", "2017-11-27T13:47:42+00:00", "2017-11-27T13:52:36+00:00", "2017-11-27T13:57:29+00:00", "2017-11-27T14:02:53+00:00", "2017-11-27T14:07:17+00:00", "2017-11-27T14:12:11+00:00", "2017-11-27T14:17:05+00:00", "2017-11-27T14:21:58+00:00", "2017-11-27T14:26:52+00:00", "2017-11-27T14:32:54+00:00", "2017-11-27T14:36:39+00:00", "2017-11-27T14:41:33+00:00", "2017-11-27T14:46:27+00:00", "2017-11-27T14:51:21+00:00", "2017-11-27T14:56:15+00:00", "2017-11-27T15:01:09+00:00", "2017-11-27T15:06:02+00:00", "2017-11-27T15:10:56+00:00", "2017-11-27T15:15:50+00:00", "2017-11-27T15:20:44+00:00", "2017-11-27T15:25:38+00:00", "2017-11-27T15:30:31+00:00", "2017-11-27T15:35:25+00:00", "2017-11-27T15:40:18+00:00", "2017-11-27T15:45:12+00:00", "2017-11-27T15:50:06+00:00", "2017-11-27T15:55:00+00:00", "2017-11-27T15:59:54+00:00", "2017-11-27T16:04:47+00:00", "2017-11-27T16:09:41+00:00", "2017-11-27T16:14:35+00:00", "2017-11-27T16:19:29+00:00", "2017-11-27T16:24:23+00:00", "2017-11-27T16:29:17+00:00", "2017-11-27T16:34:11+00:00", "2017-11-27T16:39:05+00:00", "2017-11-27T16:43:59+00:00", "2017-11-27T16:48:53+00:00", "2017-11-27T16:53:47+00:00", "2017-11-27T16:58:41+00:00", "2017-11-27T17:03:35+00:00", "2017-11-27T17:08:29+00:00", "2017-11-27T17:13:23+00:00", "2017-11-27T17:18:17+00:00", "2017-11-27T17:23:11+00:00", "2017-11-27T17:28:04+00:00", "2017-11-27T17:32:58+00:00", "2017-11-27T17:37:52+00:00", "2017-11-27T17:42:45+00:00", "2017-11-27T17:47:38+00:00", "2017-11-27T17:52:32+00:00", "2017-11-27T17:57:26+00:00", "2017-11-27T18:02:57+00:00", "2017-11-27T18:07:14+00:00", "2017-11-27T18:12:08+00:00", "2017-11-27T18:17:01+00:00", "2017-11-27T18:21:56+00:00", "2017-11-27T18:26:49+00:00", "2017-11-27T18:32:57+00:00", "2017-11-27T18:36:37+00:00", "2017-11-27T18:41:31+00:00", "2017-11-27T18:46:25+00:00", "2017-11-27T18:51:18+00:00", "2017-11-27T18:56:12+00:00", "2017-11-27T19:01:06+00:00", "2017-11-27T19:05:59+00:00", "2017-11-27T19:10:54+00:00", "2017-11-27T19:15:47+00:00", "2017-11-27T19:20:41+00:00", "2017-11-27T19:25:35+00:00", "2017-11-27T19:30:29+00:00", "2017-11-27T19:35:23+00:00", "2017-11-27T19:40:17+00:00", "2017-11-27T19:45:10+00:00", "2017-11-27T19:50:04+00:00", "2017-11-27T19:54:58+00:00", "2017-11-27T19:59:52+00:00", "2017-11-27T20:04:46+00:00", "2017-11-27T20:09:40+00:00", "2017-11-27T20:14:34+00:00", "2017-11-27T20:19:27+00:00", "2017-11-27T20:24:21+00:00", "2017-11-27T20:29:15+00:00", "2017-11-27T20:34:08+00:00", "2017-11-27T20:39:01+00:00", "2017-11-27T20:43:55+00:00", "2017-11-27T20:48:48+00:00", "2017-11-27T20:53:42+00:00", "2017-11-27T20:58:35+00:00", "2017-11-27T21:03:29+00:00", "2017-11-27T21:08:22+00:00", "2017-11-27T21:13:16+00:00", "2017-11-27T21:18:10+00:00", "2017-11-27T21:23:04+00:00", "2017-11-27T21:27:57+00:00", "2017-11-27T21:32:59+00:00", "2017-11-27T21:37:45+00:00", "2017-11-27T21:42:39+00:00", "2017-11-27T21:47:32+00:00", "2017-11-27T21:52:26+00:00", "2017-11-27T21:57:20+00:00", "2017-11-27T22:03:00+00:00", "2017-11-27T22:07:08+00:00", "2017-11-27T22:12:01+00:00", "2017-11-27T22:16:55+00:00", "2017-11-27T22:21:48+00:00", "2017-11-27T22:26:42+00:00", "2017-11-27T22:33:00+00:00", "2017-11-27T22:36:29+00:00", "2017-11-27T22:41:23+00:00", "2017-11-27T22:46:17+00:00", "2017-11-27T22:51:10+00:00", "2017-11-27T22:56:04+00:00", "2017-11-27T23:00:58+00:00", "2017-11-27T23:05:51+00:00", "2017-11-27T23:10:45+00:00", "2017-11-27T23:15:38+00:00", "2017-11-27T23:20:32+00:00", "2017-11-27T23:25:25+00:00", "2017-11-27T23:30:19+00:00", "2017-11-27T23:35:12+00:00", "2017-11-27T23:40:06+00:00", "2017-11-27T23:45:00+00:00", "2017-11-27T23:49:54+00:00", "2017-11-27T23:54:48+00:00", "2017-11-27T23:59:42+00:00", "2017-11-28T00:04:36+00:00", "2017-11-28T00:09:30+00:00", "2017-11-28T00:14:23+00:00", "2017-11-28T00:19:17+00:00", "2017-11-28T00:24:11+00:00", "2017-11-28T00:29:05+00:00", "2017-11-28T00:33:59+00:00", "2017-11-28T00:38:53+00:00", "2017-11-28T00:43:47+00:00", "2017-11-28T00:48:40+00:00", "2017-11-28T00:53:34+00:00", "2017-11-28T00:58:28+00:00", "2017-11-28T01:03:22+00:00", "2017-11-28T01:08:15+00:00", "2017-11-28T01:13:09+00:00", "2017-11-28T01:18:03+00:00", "2017-11-28T01:22:57+00:00", "2017-11-28T01:27:51+00:00", "2017-11-28T01:33:04+00:00", "2017-11-28T01:37:38+00:00", "2017-11-28T01:42:32+00:00", "2017-11-28T01:47:26+00:00", "2017-11-28T01:52:19+00:00", "2017-11-28T01:57:13+00:00", "2017-11-28T02:03:05+00:00", "2017-11-28T02:07:01+00:00", "2017-11-28T02:11:54+00:00", "2017-11-28T02:16:48+00:00", "2017-11-28T02:21:42+00:00", "2017-11-28T02:26:36+00:00", "2017-11-28T02:33:05+00:00", "2017-11-28T02:36:24+00:00", "2017-11-28T02:41:18+00:00", "2017-11-28T02:46:12+00:00", "2017-11-28T02:51:05+00:00", "2017-11-28T02:55:59+00:00", "2017-11-28T03:03:06+00:00", "2017-11-28T03:05:46+00:00", "2017-11-28T03:10:40+00:00", "2017-11-28T03:15:34+00:00", "2017-11-28T03:20:28+00:00", "2017-11-28T03:25:22+00:00", "2017-11-28T03:33:06+00:00", "2017-11-28T03:40:04+00:00", "2017-11-28T03:44:58+00:00", "2017-11-28T03:54:45+00:00", "2017-11-28T04:03:07+00:00", "2017-11-28T04:09:26+00:00", "2017-11-28T04:19:13+00:00", "2017-11-28T04:29:00+00:00", "2017-11-28T04:33:54+00:00", "2017-11-28T04:48:35+00:00", "2017-11-28T04:58:22+00:00", "2017-11-28T05:08:10+00:00", "2017-11-28T05:22:52+00:00", "2017-11-28T05:27:45+00:00", "2017-11-28T05:33:08+00:00", "2017-11-28T05:37:33+00:00", "2017-11-28T05:42:26+00:00", "2017-11-28T05:47:20+00:00", "2017-11-28T05:52:13+00:00", "2017-11-28T05:57:07+00:00", "2017-11-28T06:03:08+00:00", "2017-11-28T06:06:55+00:00", "2017-11-28T06:11:48+00:00", "2017-11-28T06:16:42+00:00", "2017-11-28T06:21:36+00:00", "2017-11-28T06:26:30+00:00", "2017-11-28T06:33:08+00:00", "2017-11-28T06:36:17+00:00", "2017-11-28T06:41:11+00:00", "2017-11-28T06:46:05+00:00", "2017-11-28T06:50:58+00:00", "2017-11-28T06:55:52+00:00", "2017-11-28T07:03:09+00:00", "2017-11-28T07:05:39+00:00", "2017-11-28T07:10:33+00:00", "2017-11-28T07:15:27+00:00", "2017-11-28T07:20:21+00:00", "2017-11-28T07:25:14+00:00", "2017-11-28T07:30:08+00:00", "2017-11-28T07:35:01+00:00", "2017-11-28T07:39:55+00:00", "2017-11-28T07:44:49+00:00", "2017-11-28T07:49:43+00:00", "2017-11-28T07:54:37+00:00", "2017-11-28T07:59:30+00:00", "2017-11-28T08:04:24+00:00", "2017-11-28T08:09:18+00:00", "2017-11-28T08:14:12+00:00", "2017-11-28T08:19:05+00:00", "2017-11-28T08:23:59+00:00", "2017-11-28T08:28:52+00:00", "2017-11-28T08:33:46+00:00", "2017-11-28T08:38:39+00:00", "2017-11-28T08:43:33+00:00", "2017-11-28T08:48:27+00:00", "2017-11-28T08:53:21+00:00", "2017-11-28T08:58:14+00:00", "2017-11-28T09:03:10+00:00", "2017-11-28T09:08:02+00:00", "2017-11-28T09:12:56+00:00", "2017-11-28T09:17:50+00:00", "2017-11-28T09:22:43+00:00", "2017-11-28T09:27:37+00:00", "2017-11-28T09:33:10+00:00", "2017-11-28T09:37:25+00:00", "2017-11-28T09:42:19+00:00", "2017-11-28T09:47:12+00:00", "2017-11-28T09:52:06+00:00", "2017-11-28T09:57:00+00:00", "2017-11-28T10:03:11+00:00", "2017-11-28T10:06:47+00:00", "2017-11-28T10:11:41+00:00", "2017-11-28T10:16:34+00:00", "2017-11-28T10:21:28+00:00", "2017-11-28T10:26:21+00:00", "2017-11-28T10:33:12+00:00", "2017-11-28T10:36:08+00:00", "2017-11-28T10:41:02+00:00", "2017-11-28T10:45:55+00:00", "2017-11-28T10:50:48+00:00", "2017-11-28T10:55:42+00:00", "2017-11-28T11:03:12+00:00", "2017-11-28T11:05:29+00:00", "2017-11-28T11:10:22+00:00", "2017-11-28T11:15:16+00:00", "2017-11-28T11:20:09+00:00", "2017-11-28T11:25:03+00:00", "2017-11-28T11:29:56+00:00", "2017-11-28T11:34:50+00:00", "2017-11-28T11:39:44+00:00", "2017-11-28T11:44:37+00:00", "2017-11-28T11:49:31+00:00", "2017-11-28T11:54:25+00:00", "2017-11-28T11:59:18+00:00", "2017-11-28T12:04:12+00:00", "2017-11-28T12:09:06+00:00", "2017-11-28T12:13:59+00:00", "2017-11-28T12:18:53+00:00", "2017-11-28T12:23:46+00:00", "2017-11-28T12:28:40+00:00", "2017-11-28T12:33:34+00:00", "2017-11-28T12:38:27+00:00", "2017-11-28T12:43:21+00:00", "2017-11-28T12:48:15+00:00", "2017-11-28T12:53:09+00:00", "2017-11-28T12:58:02+00:00", "2017-11-28T13:03:14+00:00", "2017-11-28T13:07:49+00:00", "2017-11-28T13:12:43+00:00", "2017-11-28T13:17:37+00:00", "2017-11-28T13:22:30+00:00", "2017-11-28T13:27:24+00:00", "2017-11-28T13:33:15+00:00", "2017-11-28T13:37:11+00:00", "2017-11-28T13:42:05+00:00", "2017-11-28T13:46:59+00:00", "2017-11-28T13:51:53+00:00", "2017-11-28T13:56:47+00:00", "2017-11-28T14:03:15+00:00", "2017-11-28T14:06:35+00:00", "2017-11-28T14:11:29+00:00", "2017-11-28T14:16:22+00:00", "2017-11-28T14:21:16+00:00", "2017-11-28T14:26:10+00:00", "2017-11-28T14:31:04+00:00", "2017-11-28T14:35:58+00:00", "2017-11-28T14:40:52+00:00", "2017-11-28T14:45:46+00:00", "2017-11-28T14:50:40+00:00", "2017-11-28T14:55:34+00:00", "2017-11-28T15:00:28+00:00", "2017-11-28T15:05:21+00:00", "2017-11-28T15:10:15+00:00", "2017-11-28T15:15:09+00:00", "2017-11-28T15:20:02+00:00", "2017-11-28T15:24:56+00:00", "2017-11-28T15:29:50+00:00", "2017-11-28T15:34:44+00:00", "2017-11-28T15:39:37+00:00", "2017-11-28T15:44:31+00:00", "2017-11-28T15:49:25+00:00", "2017-11-28T15:54:19+00:00", "2017-11-28T15:59:13+00:00", "2017-11-28T16:04:07+00:00", "2017-11-28T16:09:01+00:00", "2017-11-28T16:13:55+00:00", "2017-11-28T16:18:48+00:00", "2017-11-28T16:23:42+00:00", "2017-11-28T16:28:36+00:00", "2017-11-28T16:33:30+00:00", "2017-11-28T16:38:23+00:00", "2017-11-28T16:43:17+00:00", "2017-11-28T16:48:11+00:00", "2017-11-28T16:53:05+00:00", "2017-11-28T16:57:59+00:00", "2017-11-28T17:03:19+00:00", "2017-11-28T17:07:47+00:00", "2017-11-28T17:12:41+00:00", "2017-11-28T17:17:35+00:00", "2017-11-28T17:22:28+00:00", "2017-11-28T17:27:23+00:00", "2017-11-28T17:33:19+00:00", "2017-11-28T17:37:10+00:00", "2017-11-28T17:42:03+00:00", "2017-11-28T17:46:56+00:00", "2017-11-28T17:51:50+00:00", "2017-11-28T17:56:43+00:00", "2017-11-28T18:03:19+00:00", "2017-11-28T18:11:24+00:00", "2017-11-28T18:16:18+00:00", "2017-11-28T18:21:12+00:00", "2017-11-28T18:26:06+00:00", "2017-11-28T18:33:19+00:00", "2017-11-28T18:35:54+00:00", "2017-11-28T18:45:41+00:00", "2017-11-28T19:06:36+00:00", "2017-11-29T00:55:52+00:00"], "elevations": [-5.0, -7.0, -7.0, -6.5, -8.0, -6.0, -6.0, -5.0, -6.0, -6.0, -6.0, -6.0, -6.0, -4.5, -3.0, -3.5, -3.0, -2.5, -3.0, -2.5, -6.0, -6.0, -6.0, -6.0, -5.5, -4.5, -6.0, -6.0, -6.0, -4.5, -5.0, -5.0, -5.0, -4.0, -3.0, -4.0, -4.0, -4.0, -4.0, -5.0, -4.0, -5.0, -4.0, -3.5, -4.0, -4.0, -7.0, -9.0, -9.0, -9.5, -9.0, -5.0, -5.0, -6.0, -6.5, -6.0, -6.0, -6.0, -6.0, -5.0, -6.0, -5.0, -5.0, -5.0, -6.0, -9.0, -8.0, -9.0, -9.0, -9.0, -9.0, -9.0, -10.0, -10.0, -11.0, -10.0, -10.0, -9.0, -10.0, -10.0, -9.0, -10.0, -9.5, -10.0, -8.0, -10.0, -10.0, -10.0, -11.0, -8.0, -9.0, -8.5, -9.0, -9.0, -8.5, -10.5, -8.5, -9.0, -9.0, -8.0, -9.0, -10.0, -10.0, -8.5, -9.0, -5.0, -7.0, -8.0, -8.5, -7.0, -10.0, -11.0, -12.0, -11.0, -10.0, -10.0, -11.0, -11.0, -12.0, -11.5, -12.0, -9.5, -9.0, -8.0, -9.0, -9.0, -9.5, -9.0, -9.0, -10.0, -11.0, -11.0, -10.0, -10.0, -9.5, -9.0, -9.0, -9.0, -10.0, -10.0, -9.0, -9.0, -9.0, -5.0, -8.0, -8.0, -8.0, -8.0, -9.0, -8.0, -7.0, -6.5, -6.0, -7.0, -7.0, -8.0, -6.5, -8.0, -8.0, -6.0, -7.0, -6.5, -5.0, -6.0, -7.0, -6.0, -6.0, -5.5, -6.0, -7.0, -7.0, -7.0, -7.0, -8.0, -8.0, -7.0, -8.0, -6.0, -7.5, -8.0, -7.0, -5.0, -6.0, -6.0, -7.0, -5.0, -3.0, -7.5, -8.0, -7.5, -7.0, -7.0, -6.0, -6.5, -7.0, -7.0, -6.0, -6.0, -6.0, -6.0, -6.0, -5.0, -6.0, -5.0, -6.0, -5.5, -6.0, -5.0, -4.0, -4.5, -4.0, -4.0, -3.0, -2.5, -1.5, -4.0, -6.0, -4.0, -5.0, -5.0, -4.0, -5.0, -4.5, -4.5, -5.0, -5.0, -3.0, -4.0, -6.0, -5.0, -5.0, -9.0, -8.0, -8.0, -7.0, -7.5, -7.0, -7.0, -5.0, -6.0, -7.0, -6.0, -7.0, -7.0, -6.0, -4.0, 0.0, -2.0, -2.0, -4.0, -3.0, -3.0, -5.0, -5.0, -6.0, -6.0, -6.0, -6.0, -5.0, -4.5, -5.0, -4.0, -5.0, -7.0, -6.0, -5.0, -5.0, -5.0, -5.0, -5.0, -5.0, -5.0, -6.0, -6.0, -7.0, -6.0, -5.0, -5.0, -5.0, -5.0, -5.0, -6.0, -6.0, -5.5, -5.0, -6.0, -6.0, -7.0, -7.0, -3.5, -4.0, -4.0, -7.0, -4.0, -4.0, -5.0, -5.0, -5.0, -6.0, -4.0, 5.0, -3.0, -3.0, -4.0, -4.0, -4.0, -5.0, -5.0, -4.0, -4.0, -3.0, -3.0, 2.0, 27.0, 20.0, 8.0, -1.0, 0.0, -5.5, -3.0, -3.0, -3.0, -2.0, -6.0, -5.0, -4.0, -4.0, -2.0, -2.0, -4.0, -5.0, -5.5, -4.0, -5.0, -6.0, -7.0, -10.0, -8.0, -7.0, -6.0, -7.0, -6.0, -8.0, -7.0, -9.0, -8.0, -8.0, -9.0, -8.0, -8.0, -9.0, -10.5, -10.0, -10.0, -11.0, -11.0, -9.0, -8.5, -9.0, -8.0, -9.0, -8.0, -8.0, -8.0, -7.0, -8.0, -8.0, -7.0, -7.0, -9.5, -10.0, -8.5, -8.0, -8.0, -8.0, -9.0, -8.5, -8.0, -7.0, -9.0, -9.0, -8.0, -8.0, -8.0, -9.0, -9.0, -9.0, -10.0, -11.0, -7.5, -7.0, -8.0, -8.0, -9.0, -8.0, -9.0, -11.0, -10.0, -8.0, -9.0, -8.0, -4.5, -8.0, -6.0, -8.0, -7.0, -7.0, -6.0, -6.0, -5.0, -4.0, -5.0, -5.0, -6.0, -4.0, -4.0, -3.0, -3.0, -2.0, -2.0, -2.5, -3.0, -2.0, -3.0, -1.0, -3.0, -2.0, -3.0, -4.0, -4.0, -5.0, -6.0, -6.0, -7.0, -4.0, -5.0, -4.0, -2.0, -1.5, -1.0, -3.0, -3.0, -3.0, -4.0, -3.5, -4.0, -5.0, -6.0, -5.0, -3.0, -3.0, -1.0, -1.0, 0.0, 0.0, -1.5, 0.0, 0.0, -1.0, -2.0, -2.0, -2.0, -4.0, -4.0, -3.0, -6.0, -6.0, -5.5, -6.0, -6.0, -6.0, -6.0, -5.0, -6.0, -5.0, -6.0, -6.0, -5.0, -3.0, -2.0, -0.5, -2.0, -2.0, 0.0, -1.0, 0.0, 0.5, 0.0, -2.0, 1.0, 1.0, -1.0, 0.0, 0.0, 1.0, 2.0, 1.0, 0.0, -2.0, -2.0, -3.0, -3.0, -3.0, -3.0, -3.0, -4.0, -2.0, -2.0, -3.0, -5.0, -4.0, -4.0, -3.0, -3.0, -2.0, -3.0, -3.0, -1.5, -3.0, -4.0, -6.0, -5.0, -5.0, -4.0, -4.0, -3.0, -3.0, -3.0, -5.0, -5.0, -4.0, -3.0, 0.0, 0.0, 0.0, 0.0, -1.0, -1.0, -1.0, -1.0, -1.0, -0.5, 0.0, 0.0, -1.0, 0.0, -1.0, 0.0, 0.0, 0.0, -1.0, 1.0, 0.0, 0.0, 0.0, 0.0, 0.0, 1.0, 1.0, 2.0, 1.0, 1.0, 0.0, 0.0, 1.0, 1.0, -0.5, 1.0, 1.0, 3.0, 1.0, 0.0, 0.0, -1.0, 0.0, -1.0, 0.0, -2.0, -2.0, -2.0, -2.0, 0.0, 0.0, 0.0, -1.0, 0.0, 0.0, 0.0, 0.0, 0.0, 0.5, 3.0, 2.0, 3.0, 3.0, 5.0, 1.0, 1.0, 2.0, 1.0, 1.0, 1.0, 1.0, 3.0, 3.0, 3.0, 1.0, 0.0, 0.0, 0.0, -1.0, 0.0, 0.0, 0.0, 0.0, -0.5, -1.0, -1.0, -1.0, -1.0, 0.2, -1.0, -1.0, 0.0, 0.0, 0.0, 0.0, 0.0, 0.0, 0.0, 0.0, 0.0, -1.0, -1.0, 0.0, -1.0, -1.0, 0.0, -1.0, -2.0, -1.0, -2.0, -2.0, -2.0, -1.0, -1.0, -0.5, 0.0, -1.0, 0.0, 2.0, 0.0, 0.0, -2.0, -3.0, -3.0, -3.0, -3.0, -3.0, -3.0, -3.0, -4.0, -3.0, -3.0, -2.0, -2.5, -4.0, -4.0, -4.0, -5.0, -5.0, -5.0, -2.0, -3.0, -5.0, -4.0, -2.0, -3.0, -4.0, -3.0, -4.0, -2.0, -2.0, -1.0, -2.0, -2.0, -3.0, -4.0, -4.0, -4.0, -3.0, -0.8, -0.9, -5.0, -3.5, -5.0, -3.0, -0.5, 1.0, 1.0, 0.0, 0.0, -5.0, 1.0, 0.0, -1.0, -4.0, -0.5, 0.0, 0.0, 0.0, 0.0, 0.0, -0.5, -6.0, -6.0, -8.0, -7.0, -8.0, -9.0, -8.0, -7.0, -6.0, -6.0, -6.0, -6.0, -8.0, -8.5, -7.0, -7.0, -7.0, -5.0, -5.0, -8.0, -4.5, -6.0, -5.5, -6.5, -6.5, -7.0, -7.0, -7.0, -7.5, -6.5, -8.0, -11.0, -11.0, -10.5, -9.0, -10.0, -10.5, -9.5, -8.7, -8.4, -9.2, -6.0, -1.5, -2.6, -3.5, -2.0, -1.0, -1.0, -2.0, -2.0, -2.0, -4.5, -6.0, -6.0, -3.0, -3.0, -4.0, -3.0, -1.0, -2.0, -2.0, -2.0, -2.0, -2.5, -3.0, -4.0, -5.0, -5.0, -5.0, -4.5, -7.0, -4.0, 3.5, 20.0, 22.7, 15.0, 9.5, -4.0, -6.0, -4.3, -7.5, -1.0, -3.7, -3.5, -2.0, -2.0, 0.0, -3.5, -1.0, -1.0, -2.0, -2.0, -2.0, 0.0, -7.0, -7.0, -4.0, -4.0, -2.5, -1.0, 0.0, 3.2, 0.3, -0.7, 0.0, 0.0, 0.0, 0.0, 0.0, 1.0, 0.0, 0.0, 1.0, 2.5, 0.0, -1.0, -1.0, -1.0, -4.0, -2.5, 0.0, -4.0, -4.0, -4.0, -4.0, -3.0, -5.0, -4.0, -3.0, -4.0, -4.0, -2.0, 0.0, 2.0, 2.0, -2.0, -1.5, -3.5, -2.0, -3.0, -2.0, -2.0, 0.0, -0.5, -1.0, 0.0, 0.0, 0.0, 0.0, -0.5, 0.0, -2.0, 0.0, 0.0, -1.0, 0.0, 1.5, 1.0, -2.0, -2.0, -2.0, -3.0, -2.0, 0.0, -1.0, -2.0, 1.0, -1.0, 0.0, 1.0, -1.0, -1.0, -1.0, -2.0, -3.0, -1.0, -1.0, -1.0, -1.0, 0.0, 0.0, 0.0, 1.0, 0.0, 0.0, 0.0, 0.0, 0.0, 0.0, 0.0, 0.0, 0.0, 0.0, 0.0, -1.0, 0.0, -1.0, -1.0, -0.5, -1.0, -1.0, 0.0, 0.0, -2.0, 0.0, -3.5, -2.0, -1.0, -5.0, -4.0, 1.0, 0.5, 2.0, 2.0, 0.0, 0.0, -1.0, 0.0, 0.0, -4.0, -4.0, -4.0, -3.0, -1.5, 0.0, 2.0, 0.0, 1.0, 0.0, 0.5, -2.0, -1.0, 6.0, -5.0, -1.0, -4.0, -3.0, 0.0, 0.0, -4.0, -1.0, -3.0, -4.0, -3.0, -4.0, -5.0, -3.0, -2.5, -2.0, 0.0, -1.0, -1.0, -2.0, -1.0, -3.0, -3.0, -7.0, 0.0, -2.0, -4.0, -4.5, -5.0, 0.0, -1.0, 0.0, -2.0, -1.5, -2.0, -2.0, -2.0, -2.0, -1.0, -0.5, -2.0, -4.0, -2.0, -1.0, -3.0, -0.5, -3.0, -3.0, -2.0, -3.0, -3.0, -3.0, -4.0, -5.0, -5.0, -4.0, -1.0, -4.0, -5.0, -4.0, -4.0, -3.0, -3.0, -3.5, -4.0, -4.0, -2.0, -1.0, -1.0, -2.0, -3.0, -3.0, 1.0, 0.0, 0.0, 0.0, 0.0, 0.0, -0.5, 0.0, 0.0, 0.0, 0.0, 0.3, 0.5, 1.7, 0.7, 6.5, 5.0, 3.0, 2.0, 3.0, 2.0, 2.0, 0.0, 0.0, 0.0, 0.0, 0.0, 0.0, 0.0, 2.5, 4.0, -2.0, 0.0, 0.0, 1.0, 0.5, 0.0, -1.0, 0.0, 0.0, 0.0, 1.0, 1.5, 1.0, 0.0, 0.0, 2.0, 3.0, 3.0, 0.0, -3.0, -4.0, -3.0, -3.0, -3.0, -3.0, -2.0, -1.0, -2.0, -1.0, -1.0, -2.0, -2.0, -1.0, 0.0, 0.0, 0.0, 0.0, 0.0, 1.0, 3.0, 5.0, 4.0, 0.0, 1.0, 2.0, 3.0, 2.0, 2.0, 2.0, 1.0, 0.0, 0.0, 0.0, 0.0, 0.0, 0.0, 0.0, 0.0, -2.0, -2.0, -3.0, -4.0, -4.0, -4.0, -3.0, -5.0, -5.0, -5.0, -5.0, -3.0, -3.0, -2.0, -1.5, 0.0, 0.0, -1.0, -2.0, -2.0, 0.0, 0.0, 1.0, -7.0, -3.0, -2.0, -2.5, -3.0, 0.0, 0.0, 1.0, 0.0, 1.5, 2.0, 0.0, 0.0, 0.0, 0.0, 2.0, 3.0, 2.0, 2.0, 1.0, 2.0, 1.0, 1.0, 1.0, 1.0, 0.0, -2.0, 2.0, -0.5, 0.0, 0.0, 2.0, 2.0, 2.0, 2.0, 1.0, 1.0, 0.0, 0.0, 0.0, 0.0, 0.0, 0.0, 0.0, 2.0, 1.0, 1.0, 1.0, 1.0, 1.0, 1.0, 1.0, 0.0, 0.0, 0.0, 0.0, -1.0, 0.0, -0.5, 0.0, 0.0, -2.0, -2.0, -2.0, -2.0, -4.0, 1.2, 3.0]}