{"type": "Feature", "properties": {"leg_id": 14, "name": "20200626 - Cruising Kauai", "stated_nm": 62.3, "computed_nm": 62.3}, "geometry": {"type": "LineString", "coordinates": [[-159.358944, 21.949775], [-159.355434, 21.950676], [-159.351974, 21.952409], [-159.349792, 21.953623], [-159.348069, 21.953898], [-159.344339, 21.952431], [-159.34185, 21.951274], [-159.340231, 21.950738], [-159.336628, 21.950544], [-159.333612, 21.950918], [-159.331691, 21.951291], [-159.329648, 21.95184], [-159.326962, 21.952177], [-159.324886, 21.953128], [-159.322312, 21.954084], [-159.319807, 21.955346], [-159.318195, 21.956555], [-159.315723, 21.957306], [-159.313628, 21.957656], [-159.309456, 21.958108], [-159.307662, 21.958387], [-159.306088, 21.95971], [-159.305854, 21.961261], [-159.305828, 21.964316], [-159.305853, 21.96723], [-159.305611, 21.970082], [-159.305446, 21.972458], [-159.305202, 21.975373], [-159.3051, 21.978578], [-159.304861, 21.981316], [-159.304653, 21.982972], [-159.304534, 21.985463], [-159.304403, 21.990263], [-159.304107, 21.991978], [-159.303553, 21.995299], [-159.303377, 21.998602], [-159.303361, 22.002414], [-159.303248, 22.004685], [-159.303037, 22.007039], [-159.303113, 22.010906], [-159.303109, 22.013026], [-159.302965, 22.017052], [-159.302756, 22.019172], [-159.302718, 22.022297], [-159.302673, 22.024847], [-159.30264, 22.028498], [-159.302634, 22.03139], [-159.302638, 22.034294], [-159.302611, 22.037201], [-159.302763, 22.03923], [-159.302741, 22.041663], [-159.302766, 22.043613], [-159.302516, 22.046396], [-159.302301, 22.049894], [-159.302292, 22.053002], [-159.302421, 22.055784], [-159.302616, 22.059036], [-159.302602, 22.061212], [-159.302283, 22.063768], [-159.302238, 22.06712], [-159.301618, 22.068381], [-159.300013, 22.069591], [-159.297977, 22.070582], [-159.295799, 22.071502], [-159.292121, 22.073193], [-159.289605, 22.074129], [-159.288061, 22.074809], [-159.286525, 22.075581], [-159.282187, 22.078213], [-159.280291, 22.079202], [-159.278373, 22.080446], [-159.276907, 22.081063], [-159.27508, 22.081622], [-159.273021, 22.082446], [-159.27209, 22.083897], [-159.272149, 22.08629], [-159.272442, 22.088277], [-159.272371, 22.090379], [-159.272448, 22.092395], [-159.272584, 22.093934], [-159.272994, 22.097056], [-159.273342, 22.0995], [-159.273996, 22.102882], [-159.274948, 22.106477], [-159.275857, 22.109829], [-159.276649, 22.112273], [-159.277203, 22.11734], [-159.277513, 22.119321], [-159.278565, 22.123035], [-159.279129, 22.125353], [-159.279561, 22.12715], [-159.280575, 22.130326], [-159.281872, 22.133472], [-159.282591, 22.135729], [-159.28331, 22.137663], [-159.284066, 22.139474], [-159.284846, 22.142098], [-159.285789, 22.144764], [-159.286345, 22.146757], [-159.28686, 22.148916], [-159.287924, 22.151184], [-159.289002, 22.153188], [-159.289987, 22.155438], [-159.290783, 22.157582], [-159.291989, 22.160232], [-159.292586, 22.161478], [-159.293842, 22.163233], [-159.294849, 22.164928], [-159.295515, 22.167163], [-159.296809, 22.169772], [-159.297814, 22.172652], [-159.298482, 22.17401], [-159.299782, 22.176338], [-159.300941, 22.177736], [-159.301866, 22.179726], [-159.303309, 22.181525], [-159.304681, 22.183379], [-159.305861, 22.185152], [-159.307135, 22.187204], [-159.308419, 22.189077], [-159.309574, 22.190683], [-159.310873, 22.192146], [-159.312458, 22.193859], [-159.312901, 22.195188], [-159.313659, 22.196539], [-159.316121, 22.198943], [-159.317995, 22.200584], [-159.319861, 22.202338], [-159.321991, 22.203923], [-159.3236, 22.205298], [-159.325511, 22.206868], [-159.32728, 22.208249], [-159.328906, 22.209335], [-159.330427, 22.210678], [-159.331997, 22.212164], [-159.334806, 22.214062], [-159.336879, 22.215003], [-159.33864, 22.216007], [-159.340429, 22.217197], [-159.342195, 22.218458], [-159.343786, 22.219348], [-159.346557, 22.221049], [-159.349661, 22.222362], [-159.353467, 22.223834], [-159.354961, 22.22451], [-159.35802, 22.2256], [-159.361502, 22.226873], [-159.364206, 22.227871], [-159.36643, 22.228674], [-159.368516, 22.229937], [-159.370198, 22.231063], [-159.372422, 22.232492], [-159.374771, 22.233526], [-159.377357, 22.234235], [-159.379124, 22.234689], [-159.381168, 22.235024], [-159.383101, 22.235431], [-159.384291, 22.236225], [-159.386586, 22.23714], [-159.387942, 22.23734], [-159.389462, 22.237943], [-159.391422, 22.238374], [-159.393383, 22.238815], [-159.395041, 22.239252], [-159.396712, 22.239664], [-159.398852, 22.239964], [-159.400956, 22.240335], [-159.402797, 22.240919], [-159.404932, 22.241109], [-159.407454, 22.241436], [-159.410055, 22.241996], [-159.413379, 22.242148], [-159.415594, 22.242287], [-159.417512, 22.242395], [-159.419298, 22.242542], [-159.421876, 22.242761], [-159.424658, 22.242916], [-159.426686, 22.243069], [-159.429127, 22.242844], [-159.430901, 22.242414], [-159.433393, 22.242351], [-159.435311, 22.242367], [-159.437631, 22.242526], [-159.439436, 22.242588], [-159.441807, 22.242442], [-159.444756, 22.24247], [-159.447567, 22.242547], [-159.450041, 22.242594], [-159.453532, 22.242665], [-159.455348, 22.242395], [-159.458398, 22.242169], [-159.46054, 22.242157], [-159.462533, 22.242125], [-159.465178, 22.242371], [-159.466362, 22.242227], [-159.468419, 22.241923], [-159.470505, 22.241848], [-159.472453, 22.241573], [-159.47425, 22.24174], [-159.476027, 22.241791], [-159.479087, 22.242057], [-159.480377, 22.24282], [-159.481988, 22.242999], [-159.484173, 22.243024], [-159.48584, 22.242625], [-159.487536, 22.242222], [-159.48938, 22.241619], [-159.491051, 22.241016], [-159.493731, 22.240131], [-159.495235, 22.239196], [-159.497357, 22.237237], [-159.49829, 22.235335], [-159.499343, 22.233606], [-159.500133, 22.231742], [-159.50128, 22.229362], [-159.501871, 22.228002], [-159.503021, 22.224972], [-159.503786, 22.223311], [-159.504701, 22.220796], [-159.505141, 22.217616], [-159.505018, 22.21542], [-159.504276, 22.213705], [-159.503331, 22.212071], [-159.501797, 22.211369], [-159.500376, 22.210674], [-159.500741, 22.210203], [-159.509962, 22.224295], [-159.510222, 22.225058], [-159.510574, 22.226022], [-159.510958, 22.227087], [-159.511278, 22.228164], [-159.510527, 22.228636], [-159.50968, 22.229013], [-159.508772, 22.229592], [-159.510042, 22.230136], [-159.510967, 22.230838], [-159.512244, 22.231694], [-159.513154, 22.232277], [-159.513927, 22.233361], [-159.514239, 22.234913], [-159.514877, 22.235978], [-159.515868, 22.236488], [-159.517285, 22.237542], [-159.518288, 22.238382], [-159.519177, 22.23898], [-159.520079, 22.23956], [-159.521179, 22.240243], [-159.522255, 22.240988], [-159.523245, 22.242021], [-159.524669, 22.242829], [-159.525855, 22.243992], [-159.526281, 22.245291], [-159.526904, 22.246102], [-159.528553, 22.246875], [-159.529763, 22.247676], [-159.530852, 22.248146], [-159.532078, 22.248732], [-159.533259, 22.249297], [-159.534223, 22.249734], [-159.536293, 22.250454], [-159.537778, 22.250956], [-159.539429, 22.251377], [-159.540427, 22.251798], [-159.541577, 22.252262], [-159.542945, 22.252809], [-159.543873, 22.253169], [-159.54521, 22.254179], [-159.546763, 22.254772], [-159.547912, 22.255141], [-159.549251, 22.255572], [-159.550534, 22.256119], [-159.551888, 22.256654], [-159.553091, 22.257214], [-159.554472, 22.258173], [-159.555631, 22.258779], [-159.556776, 22.259288], [-159.558237, 22.259772], [-159.559314, 22.26043], [-159.55972, 22.261366], [-159.560785, 22.262022], [-159.561723, 22.262484], [-159.562805, 22.263371], [-159.563763, 22.264239], [-159.565273, 22.264908], [-159.566247, 22.265047], [-159.567261, 22.265287], [-159.56847, 22.266115], [-159.569382, 22.266517], [-159.570448, 22.267067], [-159.57159, 22.267777], [-159.572951, 22.268893], [-159.574132, 22.269542], [-159.575094, 22.27016], [-159.57629, 22.271237], [-159.577391, 22.271861], [-159.578625, 22.272226], [-159.580477, 22.272899], [-159.581501, 22.273236], [-159.583131, 22.273899], [-159.584634, 22.27441], [-159.585817, 22.275113], [-159.587126, 22.275539], [-159.588268, 22.27594], [-159.589633, 22.276547], [-159.59119, 22.277112], [-159.592625, 22.277471], [-159.593533, 22.27777], [-159.594751, 22.277974], [-159.59597, 22.278162], [-159.597464, 22.278812], [-159.598663, 22.27916], [-159.600032, 22.279614], [-159.601172, 22.280334], [-159.602732, 22.280861], [-159.603817, 22.281101], [-159.604709, 22.281428], [-159.605757, 22.282107], [-159.607365, 22.282905], [-159.608261, 22.283224], [-159.609606, 22.283533], [-159.610879, 22.28384], [-159.611826, 22.284217], [-159.613052, 22.284549], [-159.614252, 22.284845], [-159.615136, 22.285313], [-159.615902, 22.28582], [-159.617203, 22.286551], [-159.618311, 22.287161], [-159.619455, 22.287894], [-159.62069, 22.288251], [-159.622085, 22.288934], [-159.622673, 22.289706], [-159.623658, 22.290068], [-159.624602, 22.290859], [-159.625403, 22.291553], [-159.626233, 22.292197], [-159.62752, 22.292559], [-159.629091, 22.293006], [-159.630008, 22.29352], [-159.630986, 22.294115], [-159.631901, 22.294535], [-159.632857, 22.294762], [-159.633934, 22.295006], [-159.63504, 22.29561], [-159.635855, 22.296217], [-159.636947, 22.296836], [-159.637701, 22.29722], [-159.638956, 22.298083], [-159.639851, 22.298389], [-159.641238, 22.29864], [-159.641928, 22.299163], [-159.642399, 22.297898], [-159.642889, 22.297057], [-159.643628, 22.295984], [-159.644406, 22.295015], [-159.64488, 22.294045], [-159.645294, 22.292999], [-159.645623, 22.292174], [-159.645915, 22.291225], [-159.646295, 22.290016], [-159.646667, 22.28904], [-159.646946, 22.28829], [-159.64746, 22.287272], [-159.647653, 22.28638], [-159.648122, 22.285218], [-159.648495, 22.284061], [-159.649053, 22.282924], [-159.649584, 22.281727], [-159.649931, 22.28089], [-159.650459, 22.279577], [-159.650711, 22.278704], [-159.65104, 22.277652], [-159.651402, 22.276761], [-159.651656, 22.275407], [-159.651772, 22.274518], [-159.651959, 22.273337], [-159.652151, 22.272447], [-159.652372, 22.271454], [-159.652551, 22.270591], [-159.652942, 22.26952], [-159.653352, 22.268401], [-159.653509, 22.267448], [-159.65393, 22.266213], [-159.654318, 22.265199], [-159.6548, 22.264158], [-159.655276, 22.263227], [-159.655943, 22.26162], [-159.656328, 22.260729], [-159.65676, 22.259605], [-159.656972, 22.25848], [-159.657313, 22.257513], [-159.657627, 22.25663], [-159.657869, 22.255567], [-159.658064, 22.254717], [-159.65838, 22.25336], [-159.658549, 22.252513], [-159.658728, 22.251588], [-159.658906, 22.250463], [-159.659097, 22.249283], [-159.659226, 22.248279], [-159.65929, 22.247402], [-159.659515, 22.246377], [-159.659902, 22.245292], [-159.660305, 22.244257], [-159.660614, 22.243256], [-159.660836, 22.242165], [-159.660809, 22.241182], [-159.660693, 22.239996], [-159.660786, 22.238966], [-159.661151, 22.237743], [-159.661317, 22.236927], [-159.661696, 22.235597], [-159.662048, 22.234477], [-159.662298, 22.233302], [-159.662752, 22.232459], [-159.663153, 22.231338], [-159.663688, 22.22993], [-159.664005, 22.228841], [-159.664082, 22.227817], [-159.664217, 22.22676], [-159.664769, 22.225655], [-159.665642, 22.223801], [-159.666238, 22.222468], [-159.666685, 22.22131], [-159.666985, 22.220205], [-159.667261, 22.219065], [-159.667672, 22.217557], [-159.668001, 22.216625], [-159.668266, 22.215783], [-159.668823, 22.214207], [-159.669199, 22.213049], [-159.669466, 22.212061], [-159.67, 22.211041], [-159.670628, 22.210067], [-159.671294, 22.209115], [-159.671958, 22.207869], [-159.672782, 22.20688], [-159.67358, 22.205882], [-159.674121, 22.205045], [-159.674895, 22.203822], [-159.675466, 22.202687], [-159.676164, 22.201552], [-159.676729, 22.200621], [-159.677139, 22.199474], [-159.677263, 22.198402], [-159.677341, 22.197416], [-159.677463, 22.195973], [-159.677403, 22.194928], [-159.67753, 22.193928], [-159.677753, 22.192637], [-159.677969, 22.191653], [-159.678131, 22.19061], [-159.678091, 22.18964], [-159.677863, 22.188547], [-159.677861, 22.187673], [-159.678193, 22.185955], [-159.67871, 22.18471], [-159.678772, 22.183521], [-159.678225, 22.182421], [-159.677908, 22.181721], [-159.677124, 22.179552], [-159.676795, 22.178593], [-159.676467, 22.17779], [-159.675705, 22.175747], [-159.675369, 22.174836], [-159.675483, 22.173847], [-159.676607, 22.171932], [-159.677279, 22.170993], [-159.677813, 22.170246], [-159.678287, 22.16961], [-159.678904, 22.168749], [-159.67918, 22.16793], [-159.678309, 22.167729], [-159.676898, 22.168211], [-159.676018, 22.168269], [-159.674746, 22.168206], [-159.67384, 22.168423], [-159.672116, 22.169353], [-159.671338, 22.169576], [-159.669816, 22.169814], [-159.668421, 22.169995], [-159.66747, 22.170497], [-159.666411, 22.171248], [-159.665329, 22.172146], [-159.663933, 22.173026], [-159.662673, 22.173342], [-159.661532, 22.173515], [-159.660978, 22.173611], [-159.659962, 22.174928], [-159.659112, 22.175512], [-159.65829, 22.176212], [-159.657542, 22.176868], [-159.656613, 22.177716], [-159.656068, 22.178231], [-159.655332, 22.17893], [-159.654445, 22.179839], [-159.653775, 22.180489], [-159.653029, 22.181215], [-159.652472, 22.181774], [-159.651653, 22.182531], [-159.650796, 22.183268], [-159.650032, 22.183833], [-159.649404, 22.184253], [-159.648374, 22.18491], [-159.647443, 22.18557], [-159.646578, 22.186238], [-159.645956, 22.186683], [-159.644853, 22.187408], [-159.64402, 22.188058], [-159.643146, 22.18877], [-159.642269, 22.189395], [-159.641464, 22.189997], [-159.640669, 22.190578], [-159.639979, 22.191131], [-159.639097, 22.191846], [-159.638462, 22.192428], [-159.637852, 22.192977], [-159.636979, 22.193628], [-159.635924, 22.194464], [-159.635209, 22.195039], [-159.634641, 22.195517], [-159.63364, 22.196291], [-159.633034, 22.196851], [-159.632149, 22.197512], [-159.631538, 22.198005], [-159.630788, 22.198589], [-159.630024, 22.19919], [-159.629354, 22.199732], [-159.628627, 22.200311], [-159.627851, 22.200928], [-159.627141, 22.201514], [-159.626294, 22.202064], [-159.625534, 22.20257], [-159.624795, 22.203042], [-159.623902, 22.203519], [-159.623236, 22.203939], [-159.622246, 22.204493], [-159.621387, 22.204969], [-159.620517, 22.205456], [-159.619847, 22.205831], [-159.618822, 22.206434], [-159.618027, 22.206838], [-159.61717, 22.207309], [-159.616425, 22.207706], [-159.615574, 22.208202], [-159.61489, 22.208565], [-159.614003, 22.209009], [-159.613239, 22.209397], [-159.612305, 22.209886], [-159.611572, 22.210256], [-159.610655, 22.210706], [-159.609763, 22.211104], [-159.609089, 22.211449], [-159.608247, 22.212019], [-159.607561, 22.212514], [-159.606839, 22.213071], [-159.606078, 22.213604], [-159.605313, 22.214171], [-159.604659, 22.214692], [-159.603896, 22.215339], [-159.603301, 22.215835], [-159.602522, 22.21647], [-159.601942, 22.216969], [-159.601032, 22.217639], [-159.60043, 22.218282], [-159.599603, 22.218788], [-159.59883, 22.219293], [-159.598079, 22.219863], [-159.597219, 22.220548], [-159.596581, 22.22108], [-159.595767, 22.221761], [-159.595104, 22.222314], [-159.594444, 22.222885], [-159.593724, 22.223559], [-159.592901, 22.224312], [-159.592104, 22.225034], [-159.591235, 22.225797], [-159.590569, 22.226371], [-159.589512, 22.227288], [-159.588702, 22.228007], [-159.587922, 22.228732], [-159.586908, 22.229672], [-159.5857, 22.230697], [-159.584351, 22.231782], [-159.583403, 22.232531], [-159.582541, 22.233234], [-159.581405, 22.234125], [-159.580339, 22.234964], [-159.579219, 22.235823], [-159.57847, 22.23642], [-159.577305, 22.237393], [-159.576394, 22.238135], [-159.575465, 22.238656], [-159.574579, 22.239142], [-159.573116, 22.239958], [-159.572148, 22.240338], [-159.57105, 22.240527], [-159.569691, 22.240791], [-159.568799, 22.240923], [-159.567931, 22.240775], [-159.566839, 22.240574], [-159.566066, 22.240444], [-159.564888, 22.240257], [-159.56414, 22.240113], [-159.562995, 22.239899], [-159.561935, 22.239705], [-159.56086, 22.239528], [-159.559991, 22.239397], [-159.558841, 22.239212], [-159.557755, 22.23906], [-159.55683, 22.238888], [-159.555989, 22.238716], [-159.554925, 22.238531], [-159.55408, 22.238375], [-159.553116, 22.238234], [-159.552117, 22.238081], [-159.551377, 22.237955], [-159.550232, 22.237758], [-159.549159, 22.237587], [-159.547635, 22.23737], [-159.546391, 22.237227], [-159.54521, 22.237053], [-159.544045, 22.236894], [-159.542777, 22.236719], [-159.541581, 22.236556], [-159.540617, 22.236421], [-159.53951, 22.236265], [-159.537958, 22.236025], [-159.537259, 22.23559], [-159.535909, 22.234784], [-159.53516, 22.234355], [-159.534, 22.233718], [-159.533123, 22.233235], [-159.531975, 22.23262], [-159.53112, 22.232138], [-159.530106, 22.231578], [-159.529186, 22.23106], [-159.527609, 22.23017], [-159.526781, 22.229692], [-159.525648, 22.229065], [-159.524524, 22.228447], [-159.523524, 22.227901], [-159.522562, 22.227345], [-159.521837, 22.226934], [-159.520857, 22.226388], [-159.520027, 22.225937], [-159.518484, 22.225134], [-159.517423, 22.224574], [-159.51615, 22.223908], [-159.515059, 22.223353], [-159.514133, 22.222849], [-159.513176, 22.22208], [-159.512177, 22.221267], [-159.511266, 22.220486], [-159.510245, 22.219586], [-159.50898, 22.218484], [-159.508037, 22.21766], [-159.506845, 22.216643], [-159.505761, 22.215709], [-159.504283, 22.214406], [-159.502821, 22.213195], [-159.501974, 22.212461], [-159.501902, 22.211465], [-159.501294, 22.210706], [-159.500804, 22.210609]]}, "times": ["2020-06-26T22:25:01+00:00", "2020-06-26T22:46:42+00:00", "2020-06-26T22:48:26+00:00", "2020-06-26T22:50:54+00:00", "2020-06-26T22:51:26+00:00", "2020-06-26T22:53:46+00:00", "2020-06-26T22:56:30+00:00", "2020-06-26T22:57:30+00:00", "2020-06-26T23:01:23+00:00", "2020-06-26T23:02:43+00:00", "2020-06-26T23:04:39+00:00", "2020-06-26T23:06:03+00:00", "2020-06-26T23:08:27+00:00", "2020-06-26T23:10:11+00:00", "2020-06-26T23:13:07+00:00", "2020-06-26T23:15:15+00:00", "2020-06-26T23:16:35+00:00", "2020-06-26T23:18:19+00:00", "2020-06-26T23:20:11+00:00", "2020-06-26T23:22:44+00:00", "2020-06-26T23:24:12+00:00", "2020-06-26T23:26:40+00:00", "2020-06-26T23:27:48+00:00", "2020-06-26T23:29:24+00:00", "2020-06-26T23:34:00+00:00", "2020-06-26T23:34:56+00:00", "2020-06-26T23:37:08+00:00", "2020-06-26T23:38:16+00:00", "2020-06-26T23:41:37+00:00", "2020-06-26T23:42:53+00:00", "2020-06-26T23:44:13+00:00", "2020-06-26T23:46:33+00:00", "2020-06-26T23:50:05+00:00", "2020-06-26T23:51:49+00:00", "2020-06-26T23:53:53+00:00", "2020-06-26T23:57:41+00:00", "2020-06-26T23:59:25+00:00", "2020-06-27T00:01:41+00:00", "2020-06-27T00:04:22+00:00", "2020-06-27T00:06:50+00:00", "2020-06-27T00:09:50+00:00", "2020-06-27T00:12:18+00:00", "2020-06-27T00:13:10+00:00", "2020-06-27T00:16:46+00:00", "2020-06-27T00:18:42+00:00", "2020-06-27T00:20:14+00:00", "2020-06-27T00:23:43+00:00", "2020-06-27T00:24:35+00:00", "2020-06-27T00:28:03+00:00", "2020-06-27T00:29:35+00:00", "2020-06-27T00:31:03+00:00", "2020-06-27T00:32:47+00:00", "2020-06-27T00:36:35+00:00", "2020-06-27T00:38:43+00:00", "2020-06-27T00:40:27+00:00", "2020-06-27T00:44:39+00:00", "2020-06-27T00:46:52+00:00", "2020-06-27T00:49:36+00:00", "2020-06-27T00:52:40+00:00", "2020-06-27T00:54:44+00:00", "2020-06-27T00:56:32+00:00", "2020-06-27T00:57:44+00:00", "2020-06-27T01:00:04+00:00", "2020-06-27T01:00:36+00:00", "2020-06-27T01:06:00+00:00", "2020-06-27T01:06:41+00:00", "2020-06-27T01:07:41+00:00", "2020-06-27T01:08:53+00:00", "2020-06-27T01:12:57+00:00", "2020-06-27T01:14:57+00:00", "2020-06-27T01:16:17+00:00", "2020-06-27T01:17:21+00:00", "2020-06-27T01:19:09+00:00", "2020-06-27T01:21:01+00:00", "2020-06-27T01:22:05+00:00", "2020-06-27T01:24:10+00:00", "2020-06-27T01:25:26+00:00", "2020-06-27T01:26:46+00:00", "2020-06-27T01:28:34+00:00", "2020-06-27T01:29:18+00:00", "2020-06-27T01:31:06+00:00", "2020-06-27T01:32:50+00:00", "2020-06-27T01:35:42+00:00", "2020-06-27T01:36:58+00:00", "2020-06-27T01:40:22+00:00", "2020-06-27T01:42:30+00:00", "2020-06-27T01:45:10+00:00", "2020-06-27T01:46:46+00:00", "2020-06-27T01:50:35+00:00", "2020-06-27T01:51:19+00:00", "2020-06-27T01:52:23+00:00", "2020-06-27T01:54:11+00:00", "2020-06-27T01:58:19+00:00", "2020-06-27T01:58:51+00:00", "2020-06-27T02:00:15+00:00", "2020-06-27T02:02:07+00:00", "2020-06-27T02:04:07+00:00", "2020-06-27T02:06:11+00:00", "2020-06-27T02:07:27+00:00", "2020-06-27T02:08:44+00:00", "2020-06-27T02:11:16+00:00", "2020-06-27T02:13:24+00:00", "2020-06-27T02:14:04+00:00", "2020-06-27T02:16:48+00:00", "2020-06-27T02:18:36+00:00", "2020-06-27T02:19:40+00:00", "2020-06-27T02:21:08+00:00", "2020-06-27T02:22:44+00:00", "2020-06-27T02:24:36+00:00", "2020-06-27T02:27:57+00:00", "2020-06-27T02:29:37+00:00", "2020-06-27T02:30:53+00:00", "2020-06-27T02:33:53+00:00", "2020-06-27T02:35:09+00:00", "2020-06-27T02:36:49+00:00", "2020-06-27T02:39:21+00:00", "2020-06-27T02:41:25+00:00", "2020-06-27T02:43:13+00:00", "2020-06-27T02:46:14+00:00", "2020-06-27T02:48:26+00:00", "2020-06-27T02:50:02+00:00", "2020-06-27T02:51:46+00:00", "2020-06-27T02:54:34+00:00", "2020-06-27T02:55:22+00:00", "2020-06-27T02:57:14+00:00", "2020-06-27T02:59:18+00:00", "2020-06-27T03:02:06+00:00", "2020-06-27T03:04:22+00:00", "2020-06-27T03:07:22+00:00", "2020-06-27T03:09:35+00:00", "2020-06-27T03:12:47+00:00", "2020-06-27T03:14:55+00:00", "2020-06-27T03:16:15+00:00", "2020-06-27T03:18:59+00:00", "2020-06-27T03:19:43+00:00", "2020-06-27T03:25:39+00:00", "2020-06-27T03:27:40+00:00", "2020-06-27T03:28:36+00:00", "2020-06-27T03:30:32+00:00", "2020-06-27T03:31:44+00:00", "2020-06-27T03:32:56+00:00", "2020-06-27T03:36:32+00:00", "2020-06-27T03:38:04+00:00", "2020-06-27T03:40:04+00:00", "2020-06-27T03:41:24+00:00", "2020-06-27T03:42:44+00:00", "2020-06-27T03:46:37+00:00", "2020-06-27T03:48:53+00:00", "2020-06-27T03:50:17+00:00", "2020-06-27T03:51:53+00:00", "2020-06-27T03:53:33+00:00", "2020-06-27T03:54:33+00:00", "2020-06-27T03:57:05+00:00", "2020-06-27T03:58:29+00:00", "2020-06-27T03:59:45+00:00", "2020-06-27T04:00:53+00:00", "2020-06-27T04:02:13+00:00", "2020-06-27T04:03:21+00:00", "2020-06-27T04:05:21+00:00", "2020-06-27T04:06:09+00:00", "2020-06-27T04:07:21+00:00", "2020-06-27T04:09:17+00:00", "2020-06-27T04:10:22+00:00", "2020-06-27T04:11:34+00:00", "2020-06-27T04:13:10+00:00", "2020-06-27T04:14:50+00:00", "2020-06-27T04:16:22+00:00", "2020-06-27T04:17:46+00:00", "2020-06-27T04:19:22+00:00", "2020-06-27T04:21:30+00:00", "2020-06-27T04:23:38+00:00", "2020-06-27T04:24:38+00:00", "2020-06-27T04:26:34+00:00", "2020-06-27T04:27:38+00:00", "2020-06-27T04:28:42+00:00", "2020-06-27T04:30:50+00:00", "2020-06-27T04:31:50+00:00", "2020-06-27T04:33:26+00:00", "2020-06-27T04:35:19+00:00", "2020-06-27T04:36:11+00:00", "2020-06-27T04:37:55+00:00", "2020-06-27T04:38:43+00:00", "2020-06-27T04:40:31+00:00", "2020-06-27T04:41:23+00:00", "2020-06-27T04:42:39+00:00", "2020-06-27T04:44:51+00:00", "2020-06-27T04:46:15+00:00", "2020-06-27T04:46:47+00:00", "2020-06-27T04:49:55+00:00", "2020-06-27T04:50:59+00:00", "2020-06-27T04:52:15+00:00", "2020-06-27T04:53:55+00:00", "2020-06-27T04:54:43+00:00", "2020-06-27T04:56:48+00:00", "2020-06-27T04:57:20+00:00", "2020-06-27T04:58:28+00:00", "2020-06-27T05:00:12+00:00", "2020-06-27T05:01:32+00:00", "2020-06-27T05:02:20+00:00", "2020-06-27T05:03:28+00:00", "2020-06-27T05:05:28+00:00", "2020-06-27T05:06:16+00:00", "2020-06-27T05:07:44+00:00", "2020-06-27T05:08:32+00:00", "2020-06-27T05:09:52+00:00", "2020-06-27T05:11:12+00:00", "2020-06-27T05:12:04+00:00", "2020-06-27T05:13:04+00:00", "2020-06-27T05:14:48+00:00", "2020-06-27T05:16:08+00:00", "2020-06-27T05:18:16+00:00", "2020-06-27T05:19:45+00:00", "2020-06-27T05:21:05+00:00", "2020-06-27T05:22:33+00:00", "2020-06-27T05:24:05+00:00", "2020-06-27T05:25:13+00:00", "2020-06-27T05:26:41+00:00", "2020-06-27T05:28:01+00:00", "2020-06-27T05:30:09+00:00", "2020-06-27T05:31:17+00:00", "2020-06-27T05:32:57+00:00", "2020-06-27T05:34:05+00:00", "2020-06-27T05:35:53+00:00", "2020-06-27T05:37:09+00:00", "2020-06-27T05:38:53+00:00", "2020-06-28T03:05:18+00:00", "2020-07-15T20:17:22+00:00", "2020-07-15T20:18:07+00:00", "2020-07-15T20:18:37+00:00", "2020-07-15T20:19:33+00:00", "2020-07-15T20:20:28+00:00", "2020-07-15T20:21:28+00:00", "2020-07-15T20:22:20+00:00", "2020-07-15T20:23:47+00:00", "2020-07-15T20:24:45+00:00", "2020-07-15T20:25:35+00:00", "2020-07-15T20:26:29+00:00", "2020-07-15T20:27:23+00:00", "2020-07-15T20:28:29+00:00", "2020-07-15T20:29:26+00:00", "2020-07-15T20:30:20+00:00", "2020-07-15T20:30:50+00:00", "2020-07-15T20:31:52+00:00", "2020-07-15T20:32:46+00:00", "2020-07-15T20:33:21+00:00", "2020-07-15T20:34:07+00:00", "2020-07-15T20:34:53+00:00", "2020-07-15T20:35:47+00:00", "2020-07-15T20:36:29+00:00", "2020-07-15T20:37:53+00:00", "2020-07-15T20:38:43+00:00", "2020-07-15T20:39:21+00:00", "2020-07-15T20:39:45+00:00", "2020-07-15T20:41:01+00:00", "2020-07-15T20:41:55+00:00", "2020-07-15T20:42:50+00:00", "2020-07-15T20:43:44+00:00", "2020-07-15T20:44:18+00:00", "2020-07-15T20:45:00+00:00", "2020-07-15T20:46:32+00:00", "2020-07-15T20:47:27+00:00", "2020-07-15T20:48:37+00:00", "2020-07-15T20:49:19+00:00", "2020-07-15T20:50:01+00:00", "2020-07-15T20:50:55+00:00", "2020-07-15T20:51:23+00:00", "2020-07-15T20:52:27+00:00", "2020-07-15T20:53:29+00:00", "2020-07-15T20:54:23+00:00", "2020-07-15T20:55:29+00:00", "2020-07-15T20:56:29+00:00", "2020-07-15T20:57:15+00:00", "2020-07-15T20:57:55+00:00", "2020-07-15T20:59:05+00:00", "2020-07-15T20:59:43+00:00", "2020-07-15T21:00:35+00:00", "2020-07-15T21:01:37+00:00", "2020-07-15T21:02:12+00:00", "2020-07-15T21:02:44+00:00", "2020-07-15T21:03:34+00:00", "2020-07-15T21:04:06+00:00", "2020-07-15T21:04:48+00:00", "2020-07-15T21:05:34+00:00", "2020-07-15T21:06:32+00:00", "2020-07-15T21:07:10+00:00", "2020-07-15T21:07:50+00:00", "2020-07-15T21:08:38+00:00", "2020-07-15T21:09:12+00:00", "2020-07-15T21:10:00+00:00", "2020-07-15T21:10:26+00:00", "2020-07-15T21:11:48+00:00", "2020-07-15T21:12:36+00:00", "2020-07-15T21:13:16+00:00", "2020-07-15T21:14:14+00:00", "2020-07-15T21:14:46+00:00", "2020-07-15T21:15:34+00:00", "2020-07-15T21:16:51+00:00", "2020-07-15T21:17:29+00:00", "2020-07-15T21:18:31+00:00", "2020-07-15T21:19:29+00:00", "2020-07-15T21:20:25+00:00", "2020-07-15T21:21:25+00:00", "2020-07-15T21:22:17+00:00", "2020-07-15T21:22:55+00:00", "2020-07-15T21:24:05+00:00", "2020-07-15T21:24:57+00:00", "2020-07-15T21:25:29+00:00", "2020-07-15T21:26:20+00:00", "2020-07-15T21:27:08+00:00", "2020-07-15T21:28:12+00:00", "2020-07-15T21:29:06+00:00", "2020-07-15T21:29:48+00:00", "2020-07-15T21:30:28+00:00", "2020-07-15T21:31:38+00:00", "2020-07-15T21:32:18+00:00", "2020-07-15T21:32:52+00:00", "2020-07-15T21:33:38+00:00", "2020-07-15T21:34:38+00:00", "2020-07-15T21:35:18+00:00", "2020-07-15T21:36:12+00:00", "2020-07-15T21:36:50+00:00", "2020-07-15T21:37:26+00:00", "2020-07-15T21:38:14+00:00", "2020-07-15T21:39:10+00:00", "2020-07-15T21:39:38+00:00", "2020-07-15T21:40:10+00:00", "2020-07-15T21:41:10+00:00", "2020-07-15T21:41:41+00:00", "2020-07-15T21:42:29+00:00", "2020-07-15T21:43:17+00:00", "2020-07-15T21:44:13+00:00", "2020-07-15T21:44:53+00:00", "2020-07-15T21:45:31+00:00", "2020-07-15T21:46:15+00:00", "2020-07-15T21:46:55+00:00", "2020-07-15T21:47:31+00:00", "2020-07-15T21:48:27+00:00", "2020-07-15T21:49:33+00:00", "2020-07-15T21:50:07+00:00", "2020-07-15T21:51:05+00:00", "2020-07-15T21:51:29+00:00", "2020-07-15T21:52:19+00:00", "2020-07-15T21:53:05+00:00", "2020-07-15T21:54:03+00:00", "2020-07-15T21:54:39+00:00", "2020-07-15T21:55:35+00:00", "2020-07-15T21:55:53+00:00", "2020-07-15T21:56:57+00:00", "2020-07-15T21:57:31+00:00", "2020-07-15T21:58:41+00:00", "2020-07-15T21:59:27+00:00", "2020-07-15T22:00:51+00:00", "2020-07-15T22:01:17+00:00", "2020-07-15T22:02:03+00:00", "2020-07-15T22:02:53+00:00", "2020-07-15T22:03:25+00:00", "2020-07-15T22:04:12+00:00", "2020-07-15T22:04:52+00:00", "2020-07-15T22:05:16+00:00", "2020-07-15T22:06:14+00:00", "2020-07-15T22:06:46+00:00", "2020-07-15T22:07:22+00:00", "2020-07-15T22:07:56+00:00", "2020-07-15T22:08:26+00:00", "2020-07-15T22:09:26+00:00", "2020-07-15T22:09:58+00:00", "2020-07-15T22:10:46+00:00", "2020-07-15T22:11:46+00:00", "2020-07-15T22:12:06+00:00", "2020-07-15T22:13:12+00:00", "2020-07-15T22:13:40+00:00", "2020-07-15T22:14:24+00:00", "2020-07-15T22:14:56+00:00", "2020-07-15T22:15:44+00:00", "2020-07-15T22:16:22+00:00", "2020-07-15T22:17:08+00:00", "2020-07-15T22:17:38+00:00", "2020-07-15T22:18:12+00:00", "2020-07-15T22:18:52+00:00", "2020-07-15T22:19:22+00:00", "2020-07-15T22:20:08+00:00", "2020-07-15T22:20:34+00:00", "2020-07-15T22:21:28+00:00", "2020-07-15T22:22:08+00:00", "2020-07-15T22:22:57+00:00", "2020-07-15T22:23:31+00:00", "2020-07-15T22:24:41+00:00", "2020-07-15T22:25:19+00:00", "2020-07-15T22:26:07+00:00", "2020-07-15T22:26:45+00:00", "2020-07-15T22:27:19+00:00", "2020-07-15T22:27:55+00:00", "2020-07-15T22:28:37+00:00", "2020-07-15T22:29:07+00:00", "2020-07-15T22:29:59+00:00", "2020-07-15T22:30:39+00:00", "2020-07-15T22:31:03+00:00", "2020-07-15T22:31:57+00:00", "2020-07-15T22:32:24+00:00", "2020-07-15T22:33:12+00:00", "2020-07-15T22:33:38+00:00", "2020-07-15T22:34:20+00:00", "2020-07-15T22:35:12+00:00", "2020-07-15T22:35:44+00:00", "2020-07-15T22:36:28+00:00", "2020-07-15T22:37:12+00:00", "2020-07-15T22:37:52+00:00", "2020-07-15T22:38:40+00:00", "2020-07-15T22:39:20+00:00", "2020-07-15T22:39:54+00:00", "2020-07-15T22:40:28+00:00", "2020-07-15T22:41:06+00:00", "2020-07-15T22:41:56+00:00", "2020-07-15T22:42:34+00:00", "2020-07-15T22:43:14+00:00", "2020-07-15T22:43:56+00:00", "2020-07-15T22:44:38+00:00", "2020-07-15T22:45:22+00:00", "2020-07-15T22:45:58+00:00", "2020-07-15T22:46:36+00:00", "2020-07-15T22:47:18+00:00", "2020-07-15T22:48:34+00:00", "2020-07-15T22:49:19+00:00", "2020-07-15T22:50:13+00:00", "2020-07-15T22:50:49+00:00", "2020-07-15T22:51:19+00:00", "2020-07-15T22:52:19+00:00", "2020-07-15T22:53:01+00:00", "2020-07-15T22:53:27+00:00", "2020-07-15T22:54:35+00:00", "2020-07-15T22:55:09+00:00", "2020-07-15T22:55:43+00:00", "2020-07-15T22:56:21+00:00", "2020-07-15T22:56:59+00:00", "2020-07-15T22:57:47+00:00", "2020-07-15T22:58:26+00:00", "2020-07-15T22:59:14+00:00", "2020-07-15T22:59:56+00:00", "2020-07-15T23:00:32+00:00", "2020-07-15T23:01:26+00:00", "2020-07-15T23:01:56+00:00", "2020-07-15T23:02:58+00:00", "2020-07-15T23:03:54+00:00", "2020-07-15T23:04:36+00:00", "2020-07-15T23:05:06+00:00", "2020-07-15T23:05:46+00:00", "2020-07-15T23:06:30+00:00", "2020-07-15T23:07:14+00:00", "2020-07-15T23:07:48+00:00", "2020-07-15T23:08:52+00:00", "2020-07-15T23:09:24+00:00", "2020-07-15T23:10:58+00:00", "2020-07-15T23:12:00+00:00", "2020-07-15T23:12:59+00:00", "2020-07-15T23:13:27+00:00", "2020-07-15T23:14:59+00:00", "2020-07-15T23:16:04+00:00", "2020-07-15T23:16:58+00:00", "2020-07-15T23:17:44+00:00", "2020-07-15T23:18:18+00:00", "2020-07-15T23:20:16+00:00", "2020-07-15T23:20:44+00:00", "2020-07-15T23:21:14+00:00", "2020-07-15T23:23:22+00:00", "2020-07-15T23:23:48+00:00", "2020-07-15T23:24:46+00:00", "2020-07-15T23:26:24+00:00", "2020-07-15T23:27:44+00:00", "2020-07-15T23:28:06+00:00", "2020-07-15T23:29:02+00:00", "2020-07-15T23:29:36+00:00", "2020-07-15T23:30:30+00:00", "2020-07-15T23:31:27+00:00", "2020-07-15T23:32:21+00:00", "2020-07-15T23:32:55+00:00", "2020-07-15T23:33:55+00:00", "2020-07-15T23:34:29+00:00", "2020-07-15T23:36:11+00:00", "2020-07-15T23:36:37+00:00", "2020-07-15T23:37:53+00:00", "2020-07-15T23:38:39+00:00", "2020-07-15T23:39:39+00:00", "2020-07-15T23:40:33+00:00", "2020-07-15T23:41:53+00:00", "2020-07-15T23:43:05+00:00", "2020-07-15T23:44:07+00:00", "2020-07-15T23:44:56+00:00", "2020-07-16T00:30:38+00:00", "2020-07-16T01:07:21+00:00", "2020-07-16T01:08:05+00:00", "2020-07-16T01:08:58+00:00", "2020-07-16T01:09:28+00:00", "2020-07-16T01:10:45+00:00", "2020-07-16T01:11:23+00:00", "2020-07-16T01:12:31+00:00", "2020-07-16T01:13:56+00:00", "2020-07-16T01:14:44+00:00", "2020-07-16T01:15:53+00:00", "2020-07-16T01:16:39+00:00", "2020-07-16T01:17:51+00:00", "2020-07-16T01:18:45+00:00", "2020-07-16T01:19:57+00:00", "2020-07-16T01:20:20+00:00", "2020-07-16T01:21:51+00:00", "2020-07-16T01:23:14+00:00", "2020-07-16T01:24:35+00:00", "2020-07-16T01:25:10+00:00", "2020-07-16T01:26:49+00:00", "2020-07-16T01:28:00+00:00", "2020-07-16T01:29:18+00:00", "2020-07-16T01:30:45+00:00", "2020-07-16T01:31:33+00:00", "2020-07-16T01:32:45+00:00", "2020-07-16T01:33:35+00:00", "2020-07-16T01:34:43+00:00", "2020-07-16T01:36:01+00:00", "2020-07-16T01:37:10+00:00", "2020-07-16T01:37:53+00:00", "2020-07-16T01:39:15+00:00", "2020-07-16T01:40:34+00:00", "2020-07-16T01:41:24+00:00", "2020-07-16T01:42:43+00:00", "2020-07-16T01:43:34+00:00", "2020-07-16T01:44:50+00:00", "2020-07-16T01:45:33+00:00", "2020-07-16T01:46:43+00:00", "2020-07-16T01:47:42+00:00", "2020-07-16T01:48:36+00:00", "2020-07-16T01:49:42+00:00", "2020-07-16T01:50:24+00:00", "2020-07-16T01:51:37+00:00", "2020-07-16T01:52:46+00:00", "2020-07-16T01:53:50+00:00", "2020-07-16T01:54:42+00:00", "2020-07-16T01:55:42+00:00", "2020-07-16T01:56:27+00:00", "2020-07-16T01:57:44+00:00", "2020-07-16T01:58:50+00:00", "2020-07-16T01:59:47+00:00", "2020-07-16T02:00:21+00:00", "2020-07-16T02:01:39+00:00", "2020-07-16T02:02:32+00:00", "2020-07-16T02:03:40+00:00", "2020-07-16T02:04:34+00:00", "2020-07-16T02:05:34+00:00", "2020-07-16T02:06:23+00:00", "2020-07-16T02:07:21+00:00", "2020-07-16T02:08:13+00:00", "2020-07-16T02:09:26+00:00", "2020-07-16T02:10:11+00:00", "2020-07-16T02:11:20+00:00", "2020-07-16T02:12:44+00:00", "2020-07-16T02:13:19+00:00", "2020-07-16T02:14:42+00:00", "2020-07-16T02:15:36+00:00", "2020-07-16T02:16:50+00:00", "2020-07-16T02:18:03+00:00", "2020-07-16T02:18:43+00:00", "2020-07-16T02:19:33+00:00", "2020-07-16T02:20:35+00:00", "2020-07-16T02:21:31+00:00", "2020-07-16T02:22:21+00:00", "2020-07-16T02:23:05+00:00", "2020-07-16T02:24:24+00:00", "2020-07-16T02:25:16+00:00", "2020-07-16T02:26:26+00:00", "2020-07-16T02:27:26+00:00", "2020-07-16T02:28:24+00:00", "2020-07-16T02:29:38+00:00", "2020-07-16T02:30:11+00:00", "2020-07-16T02:31:35+00:00", "2020-07-16T02:32:09+00:00", "2020-07-16T02:32:52+00:00", "2020-07-16T02:34:02+00:00", "2020-07-16T02:35:24+00:00", "2020-07-16T02:36:20+00:00", "2020-07-16T02:37:32+00:00", "2020-07-16T02:38:24+00:00", "2020-07-16T02:39:43+00:00", "2020-07-16T02:41:05+00:00", "2020-07-16T02:41:41+00:00", "2020-07-16T02:43:38+00:00", "2020-07-16T02:44:32+00:00", "2020-07-16T02:46:40+00:00", "2020-07-16T02:47:46+00:00", "2020-07-16T02:48:43+00:00", "2020-07-16T02:50:23+00:00", "2020-07-16T02:51:03+00:00", "2020-07-16T02:52:25+00:00", "2020-07-16T02:53:42+00:00", "2020-07-16T02:54:59+00:00", "2020-07-16T02:56:11+00:00", "2020-07-16T02:57:21+00:00", "2020-07-16T02:57:51+00:00", "2020-07-16T02:59:18+00:00", "2020-07-16T03:00:23+00:00", "2020-07-16T03:01:48+00:00", "2020-07-16T03:02:52+00:00", "2020-07-16T03:03:30+00:00", "2020-07-16T03:04:15+00:00", "2020-07-16T03:05:25+00:00", "2020-07-16T03:06:02+00:00", "2020-07-16T03:07:18+00:00", "2020-07-16T03:08:03+00:00", "2020-07-16T03:08:52+00:00", "2020-07-16T03:10:04+00:00", "2020-07-16T03:10:59+00:00", "2020-07-16T03:11:51+00:00", "2020-07-16T03:13:07+00:00", "2020-07-16T03:14:15+00:00", "2020-07-16T03:15:26+00:00", "2020-07-16T03:16:21+00:00", "2020-07-16T03:17:35+00:00", "2020-07-16T03:18:10+00:00", "2020-07-16T03:19:24+00:00", "2020-07-16T03:20:26+00:00", "2020-07-16T03:21:04+00:00", "2020-07-16T03:22:26+00:00", "2020-07-16T03:23:18+00:00", "2020-07-16T03:24:57+00:00", "2020-07-16T03:25:57+00:00", "2020-07-16T03:27:13+00:00", "2020-07-16T03:28:07+00:00", "2020-07-16T03:29:30+00:00", "2020-07-16T03:30:16+00:00", "2020-07-16T03:31:26+00:00", "2020-07-16T03:32:12+00:00", "2020-07-16T03:33:48+00:00", "2020-07-16T03:34:26+00:00", "2020-07-16T03:35:43+00:00", "2020-07-16T03:36:33+00:00", "2020-07-16T03:37:37+00:00", "2020-07-16T03:38:19+00:00", "2020-07-16T03:39:27+00:00", "2020-07-16T03:39:59+00:00", "2020-07-16T03:41:03+00:00", "2020-07-16T03:41:27+00:00", "2020-07-16T03:43:24+00:00", "2020-07-16T03:43:57+00:00", "2020-07-16T03:45:09+00:00", "2020-07-16T03:46:10+00:00", "2020-07-16T03:46:50+00:00", "2020-07-16T03:47:45+00:00", "2020-07-16T03:48:14+00:00", "2020-07-16T03:49:17+00:00", "2020-07-16T03:49:57+00:00", "2020-07-16T03:51:11+00:00", "2020-07-16T03:52:15+00:00", "2020-07-16T03:52:58+00:00", "2020-07-16T03:54:03+00:00", "2020-07-16T03:54:53+00:00", "2020-07-16T03:55:51+00:00", "2020-07-16T03:56:58+00:00", "2020-07-16T03:57:33+00:00", "2020-07-16T03:58:57+00:00", "2020-07-16T04:00:07+00:00", "2020-07-16T04:00:35+00:00", "2020-07-16T04:01:52+00:00", "2020-07-16T04:02:58+00:00", "2020-07-16T04:04:15+00:00", "2020-07-16T04:05:44+00:00", "2020-07-16T04:06:10+00:00", "2020-07-16T04:07:02+00:00", "2020-07-16T04:07:56+00:00", "2020-07-16T04:58:29+00:00"], "elevations": [47.7, null, null, null, null, null, null, null, null, null, null, null, null, null, null, null, null, null, null, null, null, null, null, null, null, null, null, null, null, null, null, null, null, null, null, null, null, null, null, null, null, null, null, null, null, null, null, null, null, null, null, null, null, null, null, null, null, null, null, null, null, null, null, null, null, null, null, null, null, null, null, null, null, null, null, null, null, null, null, null, null, null, null, null, null, null, null, null, null, null, null, null, null, null, null, null, null, null, null, null, null, null, null, null, null, null, null, null, null, null, null, null, null, null, null, null, null, null, null, null, null, null, null, null, null, null, null, null, null, null, null, null, null, null, null, null, null, null, null, null, null, null, null, null, null, null, null, null, null, null, null, null, null, null, null, null, null, null, null, null, null, null, null, null, null, null, null, null, null, null, null, null, null, null, null, null, null, null, null, null, null, null, null, null, null, null, null, null, null, null, null, null, null, null, null, null, null, null, null, null, null, null, null, null, null, null, null, null, null, null, null, null, null, null, null, null, null, null, null, null, null, null, null, null, null, 15.3, null, null, null, null, null, null, null, null, null, null, null, null, null, null, null, null, null, null, null, null, null, null, null, null, null, null, null, null, null, null, null, null, null, null, null, null, null, null, null, null, null, null, null, null, null, null, null, null, null, null, null, null, null, null, null, null, null, null, null, null, null, null, null, null, null, null, null, null, null, null, null, null, null, null, null, null, null, null, null, null, null, null, null, null, null, null, null, null, null, null, null, null, null, null, null, null, null, null, null, null, null, null, null, null, null, null, null, null, null, null, null, null, null, null, null, null, null, null, null, null, null, null, null, null, null, null, null, null, null, null, null, null, null, null, null, null, null, null, null, null, null, null, null, null, null, null, null, null, null, null, null, null, null, null, null, null, null, null, null, null, null, null, null, null, null, null, null, null, null, null, null, null, null, null, null, null, null, null, null, null, null, null, null, null, null, null, null, null, null, null, null, null, null, null, null, null, null, null, null, null, null, null, null, null, null, null, null, null, null, null, null, null, null, null, null, null, null, null, null, null, null, null, null, null, null, null, null, null, null, null, null, null, null, null, null, null, null, null, null, null, null, null, null, null, null, null, null, null, null, null, null, null, null, null, null, null, null, null, null, null, null, null, null, null, null, null, null, null, null, null, null, null, null, null, null, null, null, null, null, null, null, null, null, null, null, null, null, null, null, null, null, null, null, null, null, null, null, null, null, null, null, null, null, null, null, null, null, null, null, null, null, null, null, null, null, null, null, null, null, null, null, null, null, null, null, null, null, null, null, null, null, null, null, null, null, null, null, null, null, null, null, null, null, null, null, null, null, null, null, null, null, null, null, null, null, null, null, null, null, null, null, null, null, null, null, null, null, null, null, null, null, null, null, null, null, null, null, null, null, null, null, null, null, 26.7, null, null, null, null, null, null, null, null, null, 12.5, null, null, null, null, null, null, null, null, null, null, null, null, null, null, null, null, null, null, 16.5, null, null, null, null, null, null, null, null, null, null, 6.4, null, null, null, null, null, null, null, null, null, 20.6, null, null, null, null, 19.4]}