{"type": "Feature", "properties": {"leg_id": 50, "name": "20230508 - Double Island to Lady Musgrave Island", "stated_nm": 167.2, "computed_nm": 167.2}, "geometry": {"type": "LineString", "coordinates": [[153.167742, -25.946902], [153.164607, -25.949375], [153.162289, -25.949972], [153.160704, -25.949682], [153.159996, -25.945908], [153.159596, -25.943689], [153.159135, -25.940921], [153.158477, -25.937384], [153.157965, -25.934902], [153.157248, -25.931187], [153.156383, -25.92869], [153.155696, -25.927223], [153.155547, -25.924733], [153.155363, -25.922069], [153.15534, -25.919477], [153.155316, -25.916976], [153.155189, -25.914455], [153.155431, -25.91223], [153.155922, -25.909754], [153.156356, -25.91016], [153.15604, -25.909398], [153.156105, -25.90538], [153.156136, -25.902338], [153.156064, -25.900032], [153.155912, -25.897409], [153.155783, -25.895453], [153.155689, -25.893516], [153.1556, -25.891274], [153.155539, -25.889227], [153.155063, -25.887579], [153.155292, -25.885013], [153.154984, -25.883031], [153.154572, -25.880708], [153.154581, -25.878395], [153.15517, -25.876888], [153.155922, -25.875052], [153.15712, -25.873549], [153.157965, -25.871699], [153.159282, -25.86929], [153.160049, -25.867181], [153.161154, -25.865711], [153.163148, -25.864487], [153.164306, -25.862887], [153.165874, -25.8607], [153.168433, -25.8575], [153.16989, -25.856393], [153.17123, -25.855258], [153.172678, -25.853616], [153.173914, -25.851851], [153.175306, -25.850533], [153.17702, -25.848982], [153.1779, -25.84777], [153.179497, -25.846388], [153.181271, -25.845025], [153.183285, -25.84354], [153.185162, -25.841301], [153.185521, -25.839419], [153.186397, -25.837166], [153.187166, -25.835443], [153.188146, -25.833656], [153.188875, -25.831952], [153.189933, -25.830444], [153.190802, -25.827958], [153.191633, -25.826016], [153.192449, -25.823683], [153.193505, -25.821939], [153.194833, -25.820213], [153.195966, -25.818227], [153.197423, -25.816286], [153.198602, -25.815034], [153.198714, -25.813588], [153.199157, -25.811479], [153.199702, -25.80961], [153.200469, -25.807791], [153.201308, -25.806051], [153.202538, -25.804336], [153.203413, -25.802568], [153.204104, -25.800347], [153.204492, -25.797756], [153.204846, -25.795837], [153.205796, -25.794383], [153.206362, -25.792891], [153.206975, -25.791154], [153.207939, -25.789462], [153.209034, -25.787837], [153.209653, -25.786044], [153.21003, -25.784092], [153.210494, -25.782015], [153.210692, -25.78016], [153.210769, -25.778225], [153.211272, -25.776391], [153.211794, -25.774377], [153.211905, -25.771979], [153.212087, -25.769722], [153.212498, -25.767562], [153.213125, -25.765413], [153.214094, -25.762941], [153.215074, -25.760551], [153.215293, -25.758231], [153.21545, -25.756193], [153.215653, -25.754398], [153.215952, -25.751953], [153.216657, -25.749909], [153.217665, -25.748069], [153.218663, -25.746123], [153.21939, -25.743668], [153.219639, -25.741839], [153.219799, -25.740135], [153.220304, -25.73816], [153.220328, -25.73611], [153.219843, -25.734403], [153.219805, -25.732565], [153.220017, -25.730649], [153.220306, -25.728179], [153.220567, -25.726573], [153.221789, -25.723438], [153.222463, -25.721837], [153.223419, -25.719582], [153.224287, -25.717879], [153.22474, -25.715972], [153.224793, -25.713999], [153.225108, -25.711283], [153.225546, -25.709442], [153.22679, -25.707377], [153.227973, -25.705293], [153.228737, -25.703132], [153.228785, -25.70126], [153.228837, -25.699281], [153.229186, -25.697329], [153.229931, -25.695494], [153.230471, -25.693783], [153.231141, -25.691875], [153.231954, -25.689733], [153.2324, -25.687613], [153.232956, -25.684936], [153.233435, -25.683292], [153.234565, -25.681838], [153.235863, -25.679737], [153.236602, -25.677806], [153.236966, -25.675989], [153.237345, -25.673984], [153.237526, -25.671814], [153.237768, -25.669797], [153.238051, -25.667741], [153.238212, -25.66594], [153.238441, -25.663977], [153.238592, -25.66194], [153.239266, -25.660096], [153.240612, -25.657865], [153.241828, -25.656357], [153.243197, -25.6543], [153.243827, -25.652751], [153.244543, -25.651081], [153.245461, -25.649462], [153.246699, -25.648043], [153.248771, -25.646062], [153.250538, -25.64464], [153.252266, -25.64336], [153.253575, -25.641386], [153.254394, -25.639555], [153.255524, -25.637948], [153.25725, -25.636186], [153.258448, -25.63497], [153.259529, -25.633727], [153.260704, -25.632153], [153.26176, -25.630823], [153.262976, -25.629291], [153.264623, -25.627366], [153.265961, -25.625969], [153.266865, -25.62432], [153.26761, -25.622971], [153.268514, -25.621582], [153.269919, -25.620074], [153.271065, -25.618778], [153.272638, -25.617344], [153.273449, -25.615724], [153.274319, -25.614136], [153.275614, -25.612875], [153.2765, -25.611127], [153.277164, -25.609624], [153.278523, -25.60787], [153.279615, -25.605667], [153.280443, -25.60396], [153.280613, -25.602289], [153.280767, -25.600701], [153.281929, -25.598216], [153.283172, -25.595932], [153.284404, -25.594409], [153.285321, -25.592988], [153.285903, -25.591556], [153.286802, -25.58945], [153.28807, -25.587406], [153.289354, -25.585618], [153.290538, -25.583666], [153.291916, -25.582282], [153.29362, -25.580667], [153.294901, -25.578977], [153.295949, -25.577444], [153.297035, -25.575632], [153.298457, -25.573777], [153.299607, -25.571532], [153.300577, -25.569257], [153.301645, -25.567633], [153.302839, -25.566032], [153.303602, -25.563761], [153.303819, -25.561144], [153.304539, -25.559872], [153.305107, -25.557971], [153.305879, -25.5562], [153.306245, -25.554324], [153.3073, -25.552222], [153.308763, -25.550128], [153.309681, -25.5482], [153.310703, -25.545937], [153.311497, -25.544383], [153.312703, -25.54222], [153.313763, -25.54031], [153.314606, -25.538371], [153.31492, -25.537108], [153.315267, -25.535875], [153.316117, -25.533569], [153.316649, -25.532608], [153.317964, -25.530164], [153.318618, -25.528371], [153.319095, -25.525857], [153.319238, -25.524498], [153.319283, -25.522987], [153.320134, -25.521058], [153.32029, -25.519399], [153.321094, -25.517635], [153.322679, -25.515339], [153.324236, -25.513058], [153.325098, -25.511713], [153.325199, -25.510045], [153.325198, -25.508539], [153.325473, -25.506869], [153.32589, -25.504863], [153.32629, -25.50262], [153.326957, -25.500794], [153.327314, -25.498425], [153.327862, -25.496701], [153.328512, -25.494785], [153.328577, -25.493403], [153.328955, -25.491846], [153.329469, -25.489139], [153.329656, -25.487082], [153.330317, -25.484925], [153.33092, -25.483282], [153.331874, -25.481227], [153.332741, -25.478683], [153.333664, -25.475804], [153.333873, -25.474021], [153.334675, -25.471835], [153.33523, -25.469412], [153.335211, -25.467651], [153.335375, -25.46567], [153.335854, -25.463551], [153.336366, -25.461961], [153.336871, -25.460239], [153.337348, -25.45768], [153.337633, -25.455652], [153.33782, -25.453344], [153.338446, -25.451368], [153.338893, -25.449994], [153.339151, -25.448474], [153.340119, -25.445851], [153.340436, -25.444088], [153.340613, -25.441903], [153.340497, -25.440049], [153.340709, -25.437645], [153.340699, -25.435386], [153.340695, -25.433226], [153.340885, -25.431076], [153.341717, -25.429193], [153.342398, -25.427308], [153.34353, -25.42494], [153.343811, -25.423542], [153.344416, -25.421792], [153.345136, -25.420372], [153.34639, -25.417914], [153.347469, -25.416312], [153.348463, -25.414924], [153.349332, -25.413147], [153.350151, -25.411175], [153.350957, -25.409441], [153.352106, -25.406896], [153.35306, -25.405543], [153.353213, -25.40402], [153.353987, -25.402269], [153.355124, -25.400529], [153.356122, -25.399236], [153.357326, -25.397223], [153.358003, -25.3953], [153.358279, -25.393622], [153.358733, -25.392059], [153.359421, -25.389817], [153.359983, -25.388065], [153.360758, -25.386307], [153.361976, -25.384146], [153.363121, -25.382293], [153.364259, -25.380571], [153.365534, -25.379007], [153.366725, -25.377487], [153.367901, -25.375773], [153.368822, -25.374005], [153.369516, -25.372314], [153.370451, -25.370563], [153.371049, -25.369113], [153.371898, -25.367647], [153.372693, -25.366093], [153.37354, -25.364548], [153.374506, -25.36332], [153.375709, -25.361798], [153.37705, -25.360336], [153.378276, -25.358781], [153.379467, -25.356567], [153.379904, -25.355237], [153.380459, -25.353732], [153.381015, -25.352144], [153.381735, -25.350305], [153.382562, -25.348491], [153.383458, -25.347097], [153.384061, -25.345265], [153.38471, -25.343052], [153.385911, -25.341462], [153.386907, -25.33968], [153.387568, -25.338182], [153.388402, -25.336477], [153.389295, -25.334311], [153.390297, -25.332385], [153.391506, -25.331029], [153.392758, -25.329623], [153.393726, -25.328605], [153.395507, -25.327302], [153.396995, -25.32528], [153.398113, -25.323883], [153.399085, -25.322337], [153.400368, -25.319771], [153.401189, -25.317745], [153.401923, -25.315857], [153.402895, -25.313484], [153.404258, -25.311229], [153.405759, -25.309374], [153.407418, -25.307246], [153.40861, -25.305556], [153.409591, -25.304139], [153.410983, -25.302014], [153.412126, -25.300144], [153.41281, -25.298378], [153.413914, -25.296756], [153.415044, -25.294941], [153.416075, -25.293011], [153.417641, -25.290016], [153.418253, -25.288461], [153.419116, -25.286786], [153.420068, -25.285164], [153.421357, -25.283259], [153.422437, -25.281732], [153.424065, -25.279551], [153.425443, -25.27738], [153.426638, -25.275533], [153.427536, -25.273739], [153.428368, -25.272418], [153.429589, -25.270893], [153.431228, -25.26919], [153.432934, -25.267157], [153.434392, -25.2646], [153.435393, -25.262283], [153.436231, -25.260613], [153.437133, -25.258739], [153.438412, -25.256698], [153.439792, -25.254569], [153.441584, -25.252334], [153.442152, -25.251076], [153.44342, -25.248201], [153.444167, -25.246418], [153.445799, -25.242867], [153.446325, -25.241211], [153.446889, -25.239289], [153.447767, -25.237383], [153.448318, -25.235941], [153.448946, -25.23312], [153.449668, -25.231821], [153.450196, -25.229849], [153.450383, -25.228343], [153.451348, -25.226315], [153.452, -25.224772], [153.452901, -25.222803], [153.453663, -25.221428], [153.454554, -25.220011], [153.45524, -25.218624], [153.455407, -25.217081], [153.455611, -25.215641], [153.456134, -25.213925], [153.456464, -25.212189], [153.456814, -25.210142], [153.457128, -25.208599], [153.457474, -25.207042], [153.457962, -25.205263], [153.458551, -25.203424], [153.458769, -25.201967], [153.458866, -25.20024], [153.459164, -25.198639], [153.459306, -25.197209], [153.459696, -25.195457], [153.460075, -25.19419], [153.460727, -25.192676], [153.4615, -25.191019], [153.461937, -25.189319], [153.462697, -25.187654], [153.463077, -25.186158], [153.463623, -25.184535], [153.464224, -25.183103], [153.464761, -25.18178], [153.465213, -25.180154], [153.465703, -25.178626], [153.465857, -25.177118], [153.46542, -25.175025], [153.464982, -25.173086], [153.464787, -25.171287], [153.46487, -25.169306], [153.464287, -25.167399], [153.463447, -25.165301], [153.462749, -25.163551], [153.461902, -25.161697], [153.461352, -25.15946], [153.461006, -25.156628], [153.460819, -25.154656], [153.460544, -25.152655], [153.461048, -25.150897], [153.461315, -25.14904], [153.461326, -25.146959], [153.461041, -25.144861], [153.461027, -25.143032], [153.46068, -25.141406], [153.460363, -25.139962], [153.460729, -25.138379], [153.461488, -25.136597], [153.462327, -25.135239], [153.463771, -25.133453], [153.465211, -25.131849], [153.466204, -25.13029], [153.466885, -25.128249], [153.467614, -25.126047], [153.468583, -25.124585], [153.469329, -25.12314], [153.470238, -25.121115], [153.470712, -25.119646], [153.47134, -25.117765], [153.471968, -25.115706], [153.472348, -25.114396], [153.472558, -25.112827], [153.472946, -25.111225], [153.473478, -25.10973], [153.474178, -25.108152], [153.474815, -25.10679], [153.475466, -25.104886], [153.47668, -25.102427], [153.477539, -25.100649], [153.478181, -25.099244], [153.478742, -25.09734], [153.479217, -25.095743], [153.479854, -25.093823], [153.48056, -25.092075], [153.481175, -25.090274], [153.481393, -25.088468], [153.481393, -25.086648], [153.481597, -25.08481], [153.482315, -25.083118], [153.483273, -25.081912], [153.48441, -25.080532], [153.485435, -25.079352], [153.48611, -25.077846], [153.486651, -25.076409], [153.487387, -25.074826], [153.487942, -25.073434], [153.488558, -25.071923], [153.489415, -25.070379], [153.490452, -25.069084], [153.491376, -25.06767], [153.492352, -25.066155], [153.493496, -25.064544], [153.494166, -25.062727], [153.494831, -25.059721], [153.495749, -25.058126], [153.496553, -25.056832], [153.497283, -25.055653], [153.497915, -25.054195], [153.498618, -25.052917], [153.499473, -25.050401], [153.500214, -25.048348], [153.501032, -25.046288], [153.501924, -25.044972], [153.502794, -25.043071], [153.503686, -25.041586], [153.504468, -25.040202], [153.505208, -25.038541], [153.506281, -25.036471], [153.50738, -25.034784], [153.508216, -25.033138], [153.509124, -25.03128], [153.509673, -25.029613], [153.50998, -25.027646], [153.510318, -25.026173], [153.510963, -25.024318], [153.511692, -25.022869], [153.51212, -25.021437], [153.512721, -25.019496], [153.513173, -25.01753], [153.513752, -25.016016], [153.514511, -25.014414], [153.515079, -25.013042], [153.515983, -25.011286], [153.516415, -25.009728], [153.516812, -25.007841], [153.517075, -25.006244], [153.51769, -25.004697], [153.518305, -25.002616], [153.518763, -25.001352], [153.519328, -24.999747], [153.519769, -24.997163], [153.51986, -24.99581], [153.52038, -24.994244], [153.5213, -24.992497], [153.522024, -24.991036], [153.522598, -24.989118], [153.522911, -24.987634], [153.523541, -24.985869], [153.524603, -24.983549], [153.525446, -24.981913], [153.526176, -24.98041], [153.526917, -24.97891], [153.527608, -24.977463], [153.528431, -24.975994], [153.529243, -24.974293], [153.529813, -24.972505], [153.529871, -24.971025], [153.529517, -24.969436], [153.529371, -24.967631], [153.529244, -24.965837], [153.528884, -24.96401], [153.528572, -24.962414], [153.528388, -24.960547], [153.528551, -24.958606], [153.528528, -24.956609], [153.528586, -24.955103], [153.527888, -24.952669], [153.52746, -24.950848], [153.526888, -24.94886], [153.527219, -24.947064], [153.527479, -24.945485], [153.527472, -24.944049], [153.527116, -24.942258], [153.527009, -24.940393], [153.526911, -24.938789], [153.526951, -24.937365], [153.527325, -24.93493], [153.527181, -24.933238], [153.52708, -24.931559], [153.526861, -24.929902], [153.52643, -24.928111], [153.526349, -24.926704], [153.526139, -24.924773], [153.526097, -24.923086], [153.526445, -24.921077], [153.526822, -24.9196], [153.526939, -24.918071], [153.52706, -24.916631], [153.52718, -24.914536], [153.527009, -24.913299], [153.526879, -24.91148], [153.527047, -24.910224], [153.527376, -24.908172], [153.527874, -24.905794], [153.527715, -24.904274], [153.527551, -24.902553], [153.527493, -24.901053], [153.527074, -24.89948], [153.526726, -24.897697], [153.526461, -24.895724], [153.525862, -24.893724], [153.524923, -24.891889], [153.523559, -24.890832], [153.522367, -24.890921], [153.522007, -24.889332], [153.521316, -24.887824], [153.520932, -24.886513], [153.520414, -24.884786], [153.520204, -24.882944], [153.519896, -24.881257], [153.519622, -24.879763], [153.519538, -24.877842], [153.519007, -24.876331], [153.517879, -24.874751], [153.517687, -24.872807], [153.517654, -24.871302], [153.517369, -24.869222], [153.517274, -24.867222], [153.516678, -24.865417], [153.516225, -24.864189], [153.515539, -24.862644], [153.514926, -24.859864], [153.514588, -24.858084], [153.514338, -24.85607], [153.514057, -24.854341], [153.513725, -24.852773], [153.513375, -24.851432], [153.513193, -24.849556], [153.513005, -24.847874], [153.512929, -24.846329], [153.512673, -24.844698], [153.512315, -24.843159], [153.511944, -24.841811], [153.511653, -24.840507], [153.511344, -24.838958], [153.510818, -24.836663], [153.510304, -24.835451], [153.509141, -24.834815], [153.508061, -24.834466], [153.508726, -24.832221], [153.509143, -24.830559], [153.508697, -24.828734], [153.508108, -24.827242], [153.506768, -24.825481], [153.505761, -24.824167], [153.504755, -24.822519], [153.503761, -24.820469], [153.503134, -24.818402], [153.502928, -24.816852], [153.502593, -24.815402], [153.502154, -24.813843], [153.501627, -24.811489], [153.500921, -24.809577], [153.499883, -24.807961], [153.499226, -24.806089], [153.498508, -24.804774], [153.497783, -24.802787], [153.497215, -24.800832], [153.496469, -24.799134], [153.495511, -24.79728], [153.4946, -24.795959], [153.493584, -24.79469], [153.492885, -24.793199], [153.492356, -24.791458], [153.491717, -24.789933], [153.490933, -24.788034], [153.49029, -24.786587], [153.48955, -24.785135], [153.488651, -24.783758], [153.4881, -24.782227], [153.487339, -24.780375], [153.486717, -24.778418], [153.48605, -24.777012], [153.485984, -24.775629], [153.485734, -24.773886], [153.485306, -24.772183], [153.485193, -24.770322], [153.485026, -24.768576], [153.484876, -24.767069], [153.48465, -24.765235], [153.483697, -24.763537], [153.48252, -24.761937], [153.481542, -24.760029], [153.481107, -24.758608], [153.480836, -24.757132], [153.480026, -24.755498], [153.479119, -24.753826], [153.478175, -24.75215], [153.477574, -24.750621], [153.477152, -24.748978], [153.47649, -24.747062], [153.475651, -24.745752], [153.474798, -24.743943], [153.474298, -24.742077], [153.473431, -24.740214], [153.472896, -24.738739], [153.472189, -24.737172], [153.471814, -24.735671], [153.471024, -24.733721], [153.47073, -24.732277], [153.470071, -24.730699], [153.469864, -24.728646], [153.469292, -24.727075], [153.468324, -24.724695], [153.467633, -24.722897], [153.467004, -24.720973], [153.466495, -24.719361], [153.465943, -24.71719], [153.465054, -24.715797], [153.46429, -24.714036], [153.463879, -24.712534], [153.463218, -24.711157], [153.462156, -24.709049], [153.461663, -24.707555], [153.4612, -24.70568], [153.460393, -24.704205], [153.45926, -24.702839], [153.458315, -24.701166], [153.457257, -24.698579], [153.456443, -24.697286], [153.455859, -24.695568], [153.455216, -24.693498], [153.454278, -24.691415], [153.453657, -24.68951], [153.452937, -24.687641], [153.452294, -24.686146], [153.451785, -24.684639], [153.450744, -24.682809], [153.449658, -24.681335], [153.448918, -24.679875], [153.448236, -24.678038], [153.447468, -24.676585], [153.44621, -24.674799], [153.445449, -24.673], [153.444613, -24.67026], [153.443863, -24.66891], [153.443211, -24.66728], [153.442581, -24.664722], [153.442003, -24.663052], [153.440858, -24.660823], [153.439689, -24.659152], [153.439075, -24.657525], [153.43845, -24.655609], [153.437795, -24.653744], [153.437247, -24.652289], [153.436755, -24.650849], [153.436673, -24.648825], [153.436388, -24.646669], [153.435993, -24.64487], [153.435381, -24.643077], [153.434844, -24.640826], [153.434523, -24.638904], [153.43424, -24.637121], [153.434296, -24.63516], [153.434295, -24.633257], [153.434103, -24.631605], [153.433898, -24.629515], [153.433683, -24.627255], [153.433013, -24.625285], [153.433122, -24.623068], [153.433656, -24.620971], [153.433892, -24.619424], [153.434205, -24.617104], [153.434549, -24.614958], [153.43523, -24.612469], [153.435803, -24.610423], [153.436887, -24.608164], [153.437797, -24.606165], [153.439257, -24.604649], [153.440861, -24.603204], [153.441785, -24.602126], [153.442979, -24.600608], [153.444233, -24.598674], [153.445324, -24.596597], [153.446577, -24.594233], [153.447431, -24.592849], [153.448704, -24.59141], [153.450115, -24.589936], [153.451399, -24.588667], [153.452922, -24.587146], [153.454207, -24.58583], [153.455789, -24.584207], [153.455607, -24.582696], [153.454608, -24.580523], [153.454094, -24.578815], [153.453016, -24.576842], [153.452205, -24.575369], [153.451088, -24.573984], [153.449907, -24.572133], [153.448703, -24.570489], [153.447039, -24.568431], [153.445473, -24.567192], [153.443245, -24.565508], [153.442143, -24.56399], [153.441016, -24.562126], [153.43999, -24.560484], [153.439084, -24.558964], [153.438025, -24.557444], [153.437074, -24.555604], [153.436363, -24.553925], [153.435441, -24.552073], [153.434093, -24.550023], [153.432784, -24.547911], [153.431354, -24.545451], [153.430053, -24.543886], [153.428798, -24.541964], [153.427444, -24.539689], [153.425748, -24.537602], [153.424451, -24.535834], [153.423091, -24.534194], [153.422098, -24.532634], [153.42067, -24.531377], [153.419243, -24.529925], [153.417691, -24.528397], [153.41601, -24.526971], [153.41448, -24.525012], [153.41304, -24.522966], [153.411585, -24.520711], [153.410243, -24.518747], [153.408485, -24.516632], [153.406786, -24.513776], [153.405633, -24.511876], [153.404609, -24.50966], [153.404224, -24.50761], [153.403919, -24.505822], [153.403082, -24.503448], [153.402523, -24.500947], [153.402106, -24.498395], [153.401645, -24.496406], [153.400197, -24.494241], [153.399094, -24.492428], [153.398621, -24.490537], [153.397901, -24.48824], [153.39696, -24.486335], [153.395829, -24.484799], [153.395403, -24.482145], [153.395555, -24.479549], [153.395536, -24.47789], [153.395191, -24.476196], [153.394132, -24.474907], [153.392683, -24.47394], [153.391287, -24.472452], [153.389304, -24.471874], [153.386664, -24.472302], [153.383875, -24.472151], [153.381544, -24.472123], [153.378645, -24.471943], [153.376501, -24.471705], [153.373614, -24.471285], [153.372315, -24.470471], [153.370493, -24.468947], [153.369157, -24.467312], [153.367519, -24.465933], [153.365316, -24.464225], [153.363648, -24.462996], [153.362231, -24.461971], [153.359872, -24.460711], [153.358175, -24.459635], [153.356771, -24.458633], [153.354987, -24.457638], [153.353134, -24.455986], [153.351595, -24.454805], [153.350177, -24.453733], [153.348636, -24.452636], [153.346964, -24.451414], [153.34481, -24.449954], [153.343284, -24.448786], [153.341463, -24.446865], [153.339978, -24.445318], [153.338662, -24.443934], [153.336189, -24.441853], [153.334239, -24.440366], [153.332618, -24.438776], [153.330921, -24.437272], [153.3295, -24.436083], [153.327512, -24.434415], [153.325471, -24.432969], [153.323708, -24.431462], [153.321706, -24.429609], [153.320248, -24.42836], [153.31869, -24.427039], [153.317134, -24.425961], [153.314803, -24.42482], [153.313029, -24.423749], [153.311296, -24.422649], [153.309591, -24.421517], [153.307719, -24.420174], [153.306105, -24.418756], [153.304382, -24.417405], [153.302826, -24.415627], [153.301701, -24.414403], [153.300079, -24.412853], [153.298575, -24.411608], [153.296913, -24.409727], [153.295645, -24.408357], [153.294382, -24.406703], [153.292581, -24.404794], [153.291281, -24.403593], [153.289328, -24.402479], [153.287505, -24.401272], [153.28604, -24.400139], [153.284386, -24.398636], [153.283008, -24.397475], [153.281327, -24.396247], [153.279191, -24.394816], [153.277214, -24.393321], [153.275467, -24.39231], [153.27394, -24.391236], [153.272528, -24.389818], [153.270863, -24.388643], [153.268685, -24.387036], [153.267119, -24.385523], [153.265769, -24.383947], [153.264227, -24.382273], [153.262627, -24.380464], [153.26126, -24.379509], [153.259327, -24.377531], [153.25753, -24.375706], [153.256123, -24.374209], [153.254282, -24.372227], [153.252404, -24.370295], [153.250573, -24.368815], [153.248993, -24.367492], [153.247578, -24.366298], [153.246257, -24.364684], [153.245303, -24.363212], [153.243917, -24.361527], [153.242715, -24.360178], [153.24153, -24.358629], [153.240327, -24.357015], [153.238928, -24.355702], [153.237305, -24.354661], [153.234924, -24.353227], [153.232759, -24.351699], [153.230923, -24.350206], [153.228547, -24.348854], [153.226672, -24.347658], [153.225049, -24.346158], [153.223241, -24.344415], [153.221887, -24.342956], [153.22, -24.341017], [153.21876, -24.340001], [153.217204, -24.338272], [153.215014, -24.336972], [153.212876, -24.335909], [153.211187, -24.334888], [153.209713, -24.333723], [153.207384, -24.33229], [153.20535, -24.331147], [153.203357, -24.330076], [153.201506, -24.329211], [153.198326, -24.327788], [153.196451, -24.327008], [153.194618, -24.326106], [153.192877, -24.325274], [153.19079, -24.324271], [153.188958, -24.323454], [153.186869, -24.322261], [153.185114, -24.321352], [153.182869, -24.320523], [153.180505, -24.319201], [153.177724, -24.31812], [153.175741, -24.317409], [153.173157, -24.31671], [153.170727, -24.315881], [153.168375, -24.314749], [153.16623, -24.313734], [153.164597, -24.312605], [153.162711, -24.311534], [153.160323, -24.310937], [153.158482, -24.309806], [153.156621, -24.309092], [153.154539, -24.308454], [153.152294, -24.307586], [153.149777, -24.306839], [153.147638, -24.306293], [153.145616, -24.305581], [153.143942, -24.304787], [153.141149, -24.303814], [153.138736, -24.303188], [153.136289, -24.302372], [153.133687, -24.301556], [153.13099, -24.300744], [153.128344, -24.299835], [153.125798, -24.298937], [153.123893, -24.298498], [153.121733, -24.298019], [153.119779, -24.297192], [153.118221, -24.296169], [153.115808, -24.294978], [153.113901, -24.293094], [153.1121, -24.291766], [153.110568, -24.290949], [153.108912, -24.289801], [153.107145, -24.288667], [153.105271, -24.28782], [153.1037, -24.286746], [153.101785, -24.285323], [153.100044, -24.284041], [153.098388, -24.282822], [153.096531, -24.281174], [153.09467, -24.279919], [153.092183, -24.278535], [153.090284, -24.27731], [153.088377, -24.276326], [153.086219, -24.275289], [153.084424, -24.274299], [153.082205, -24.273219], [153.080655, -24.271887], [153.078166, -24.271055], [153.076675, -24.26997], [153.075036, -24.2689], [153.072103, -24.267029], [153.070494, -24.265982], [153.068393, -24.265126], [153.066391, -24.263958], [153.064327, -24.263179], [153.062512, -24.261995], [153.061184, -24.260545], [153.05903, -24.259338], [153.057798, -24.257766], [153.056344, -24.256204], [153.05487, -24.254706], [153.053389, -24.253134], [153.051798, -24.251422], [153.050002, -24.249711], [153.047641, -24.248012], [153.045941, -24.246605], [153.043658, -24.245086], [153.042266, -24.24419], [153.040646, -24.242712], [153.038876, -24.241245], [153.037045, -24.240239], [153.035727, -24.238577], [153.034028, -24.237266], [153.032472, -24.236034], [153.030538, -24.234616], [153.028985, -24.233249], [153.027902, -24.231597], [153.026716, -24.230053], [153.024429, -24.227941], [153.022902, -24.226774], [153.021413, -24.225103], [153.020158, -24.223433], [153.018858, -24.22213], [153.017405, -24.220821], [153.015983, -24.219907], [153.014594, -24.218548], [153.012763, -24.216445], [153.011338, -24.215056], [153.00994, -24.213641], [153.00831, -24.211672], [153.006944, -24.210316], [153.005259, -24.208901], [153.003604, -24.20743], [153.002579, -24.205927], [153.0012, -24.204242], [152.999883, -24.203343], [152.997823, -24.201542], [152.99625, -24.199682], [152.995154, -24.198045], [152.994033, -24.196377], [152.992071, -24.195158], [152.990572, -24.193685], [152.989185, -24.19238], [152.987018, -24.191018], [152.985403, -24.189763], [152.983511, -24.188156], [152.981931, -24.187381], [152.979441, -24.185886], [152.977685, -24.183937], [152.975914, -24.182031], [152.974397, -24.181141], [152.97244, -24.179584], [152.97029, -24.177679], [152.968924, -24.176249], [152.967005, -24.174496], [152.965403, -24.173087], [152.963714, -24.171107], [152.961609, -24.169153], [152.9602, -24.168143], [152.958607, -24.166808], [152.957108, -24.16578], [152.95575, -24.164608], [152.954617, -24.163834], [152.953132, -24.162412], [152.951632, -24.16105], [152.949956, -24.15949], [152.94859, -24.158439], [152.946815, -24.156919], [152.945273, -24.155271], [152.943784, -24.154095], [152.942208, -24.152437], [152.940817, -24.151229], [152.938178, -24.150466], [152.936042, -24.149712], [152.933863, -24.149347], [152.931766, -24.149302], [152.929369, -24.149225], [152.927142, -24.149282], [152.925621, -24.149477], [152.922971, -24.149509], [152.920798, -24.149413], [152.919057, -24.14945], [152.916939, -24.149248], [152.915233, -24.14868], [152.913442, -24.147486], [152.911258, -24.146505], [152.908781, -24.145708], [152.906421, -24.144992], [152.904805, -24.144554], [152.902912, -24.14411], [152.900577, -24.143863], [152.898668, -24.143653], [152.896581, -24.143434], [152.894484, -24.143018], [152.891739, -24.142515], [152.889077, -24.142215], [152.88626, -24.142126], [152.882817, -24.141893], [152.88019, -24.141569], [152.877956, -24.14113], [152.875708, -24.140434], [152.874016, -24.139909], [152.872675, -24.139972], [152.870414, -24.140044], [152.868446, -24.139834], [152.86572, -24.139725], [152.863406, -24.139577], [152.860717, -24.139409], [152.857833, -24.139481], [152.855145, -24.139419], [152.853533, -24.139309], [152.85143, -24.13929], [152.849204, -24.139226], [152.847673, -24.13903], [152.844817, -24.138709], [152.842282, -24.138351], [152.839247, -24.13799], [152.836902, -24.137579], [152.833935, -24.137399], [152.831968, -24.137154], [152.829794, -24.137113], [152.827285, -24.137042], [152.824505, -24.136944], [152.821855, -24.13676], [152.819505, -24.136458], [152.81702, -24.135466], [152.814565, -24.134789], [152.812525, -24.13394], [152.809712, -24.132849], [152.807195, -24.131915], [152.80499, -24.131237], [152.801547, -24.130451], [152.799586, -24.129756], [152.797316, -24.128478], [152.795301, -24.127607], [152.793293, -24.126962], [152.791252, -24.12622], [152.789275, -24.125484], [152.78697, -24.124805], [152.785012, -24.124468], [152.782347, -24.124087], [152.779594, -24.123504], [152.7778, -24.12274], [152.775976, -24.121838], [152.774076, -24.121067], [152.772245, -24.120232], [152.769833, -24.119338], [152.767291, -24.118258], [152.765396, -24.117665], [152.762987, -24.117144], [152.760075, -24.116425], [152.758194, -24.115834], [152.755914, -24.114973], [152.753528, -24.113865], [152.750539, -24.112807], [152.748053, -24.111816], [152.746023, -24.111245], [152.743316, -24.110462], [152.741201, -24.109849], [152.739121, -24.109428], [152.736325, -24.10878], [152.733375, -24.108179], [152.731337, -24.107864], [152.729515, -24.107236], [152.726867, -24.106326], [152.724176, -24.105184], [152.721374, -24.104133], [152.7178, -24.103268], [152.714985, -24.103497], [152.713324, -24.104425], [152.711733, -24.105764], [152.710455, -24.107812], [152.710376, -24.108993], [152.712279, -24.107331], [152.712291, -24.107428], [152.707282, -24.106172], [152.706096, -24.10534], [152.704152, -24.103693], [152.701877, -24.102377], [152.700023, -24.10133], [152.697275, -24.099711], [152.693814, -24.098183], [152.691869, -24.097122], [152.689361, -24.095991], [152.686386, -24.094729], [152.684351, -24.093902], [152.681558, -24.092033], [152.679621, -24.09053], [152.677252, -24.089127], [152.675008, -24.088017], [152.673074, -24.087037], [152.670692, -24.085602], [152.669002, -24.084357], [152.66663, -24.082682], [152.664952, -24.081498], [152.663295, -24.080499], [152.660682, -24.079439], [152.65784, -24.078372], [152.656156, -24.077564], [152.654235, -24.076838], [152.652127, -24.075999], [152.650446, -24.075241], [152.648875, -24.074463], [152.64723, -24.073631], [152.645569, -24.073025], [152.643644, -24.072243], [152.641814, -24.07179], [152.639762, -24.071243], [152.637796, -24.070049], [152.63538, -24.068659], [152.633194, -24.067609], [152.631464, -24.066482], [152.629018, -24.065306], [152.62746, -24.064706], [152.625059, -24.063904], [152.6224, -24.062765], [152.619949, -24.062065], [152.617044, -24.060558], [152.615191, -24.060312], [152.613261, -24.059272], [152.610989, -24.057791], [152.609213, -24.056637], [152.607245, -24.055063], [152.605461, -24.053729], [152.603496, -24.051657], [152.601827, -24.049779], [152.599595, -24.048359], [152.597648, -24.047119], [152.595566, -24.045495], [152.59381, -24.043843], [152.592225, -24.042767], [152.59039, -24.041315], [152.588447, -24.03978], [152.586541, -24.038196], [152.58493, -24.036468], [152.582992, -24.033968], [152.581011, -24.032132], [152.578771, -24.031352], [152.577164, -24.030205], [152.574301, -24.028232], [152.571698, -24.026702], [152.569601, -24.025795], [152.567036, -24.024237], [152.565129, -24.022956], [152.56336, -24.021429], [152.561164, -24.020253], [152.558843, -24.018592], [152.557114, -24.017356], [152.554578, -24.016683], [152.552483, -24.015311], [152.550289, -24.014491], [152.547555, -24.013067], [152.545886, -24.012089], [152.54382, -24.010905], [152.541715, -24.009962], [152.539171, -24.009289], [152.535646, -24.007775], [152.532751, -24.006676], [152.530218, -24.00533], [152.528524, -24.003904], [152.526577, -24.001915], [152.524681, -24.001082], [152.52208, -24.00062], [152.520231, -23.999721], [152.518078, -23.998259], [152.516712, -23.996073], [152.515405, -23.994269], [152.513453, -23.992861], [152.511405, -23.991508], [152.50981, -23.990927], [152.50772, -23.989544], [152.505702, -23.988565], [152.503668, -23.987087], [152.501553, -23.985882], [152.499397, -23.984572], [152.497398, -23.983872], [152.495137, -23.982972], [152.492698, -23.981313], [152.490996, -23.980214], [152.488531, -23.97917], [152.48625, -23.977925], [152.483728, -23.976906], [152.481295, -23.975702], [152.478515, -23.973855], [152.476697, -23.972678], [152.474706, -23.97148], [152.473557, -23.969636], [152.471652, -23.967676], [152.470734, -23.966], [152.469218, -23.964881], [152.467573, -23.962919], [152.465877, -23.961411], [152.463651, -23.959911], [152.462163, -23.958545], [152.460004, -23.957152], [152.458046, -23.955682], [152.456356, -23.954275], [152.453676, -23.952604], [152.451785, -23.951893], [152.449977, -23.951306], [152.44816, -23.950339], [152.446493, -23.949257], [152.444464, -23.947893], [152.442689, -23.945672], [152.441037, -23.944221], [152.438981, -23.942898], [152.436915, -23.941745], [152.435338, -23.941016], [152.433026, -23.939932], [152.430679, -23.939115], [152.428093, -23.937876], [152.425965, -23.9369], [152.423102, -23.935438], [152.421122, -23.934723], [152.418412, -23.933796], [152.416239, -23.933176], [152.41385, -23.932367], [152.412016, -23.931489], [152.40944, -23.930366], [152.407281, -23.929383], [152.405166, -23.928677], [152.403422, -23.927637], [152.40108, -23.926315], [152.398158, -23.924595], [152.396308, -23.923219], [152.393875, -23.921925], [152.391553, -23.920952], [152.389156, -23.919731], [152.387245, -23.917764], [152.385955, -23.916379], [152.384673, -23.914061], [152.384104, -23.912015], [152.384216, -23.909612], [152.384661, -23.90715], [152.386277, -23.905273], [152.388144, -23.903446], [152.39004, -23.901147], [152.392128, -23.898581], [152.394708, -23.89656], [152.398288, -23.894015], [152.400536, -23.892686], [152.402662, -23.891253], [152.404496, -23.889972], [152.406702, -23.889498], [152.408454, -23.891518], [152.410014, -23.89357], [152.409908, -23.895124], [152.408202, -23.897207], [152.406951, -23.898796], [152.40543, -23.900669], [152.403633, -23.902813], [152.402859, -23.903378], [152.401202, -23.904882]]}, "times": ["2023-05-08T03:06:49+00:00", "2023-05-09T00:39:40+00:00", "2023-05-09T00:41:44+00:00", "2023-05-09T00:43:08+00:00", "2023-05-09T00:46:05+00:00", "2023-05-09T00:47:21+00:00", "2023-05-09T00:48:47+00:00", "2023-05-09T00:51:19+00:00", "2023-05-09T00:52:34+00:00", "2023-05-09T00:54:31+00:00", "2023-05-09T00:56:47+00:00", "2023-05-09T00:58:04+00:00", "2023-05-09T00:59:35+00:00", "2023-05-09T01:00:48+00:00", "2023-05-09T01:02:49+00:00", "2023-05-09T01:04:49+00:00", "2023-05-09T01:05:50+00:00", "2023-05-09T01:07:30+00:00", "2023-05-09T01:09:34+00:00", "2023-05-09T01:11:45+00:00", "2023-05-09T01:14:15+00:00", "2023-05-09T01:17:45+00:00", "2023-05-09T01:19:24+00:00", "2023-05-09T01:20:52+00:00", "2023-05-09T01:22:43+00:00", "2023-05-09T01:23:45+00:00", "2023-05-09T01:25:25+00:00", "2023-05-09T01:27:43+00:00", "2023-05-09T01:28:58+00:00", "2023-05-09T01:30:23+00:00", "2023-05-09T01:32:07+00:00", "2023-05-09T01:33:23+00:00", "2023-05-09T01:35:15+00:00", "2023-05-09T01:36:47+00:00", "2023-05-09T01:37:45+00:00", "2023-05-09T01:39:21+00:00", "2023-05-09T01:40:47+00:00", "2023-05-09T01:42:13+00:00", "2023-05-09T01:44:18+00:00", "2023-05-09T01:46:02+00:00", "2023-05-09T01:47:22+00:00", "2023-05-09T01:48:42+00:00", "2023-05-09T01:49:47+00:00", "2023-05-09T01:51:52+00:00", "2023-05-09T01:53:43+00:00", "2023-05-09T01:55:44+00:00", "2023-05-09T01:56:48+00:00", "2023-05-09T01:58:49+00:00", "2023-05-09T02:00:06+00:00", "2023-05-09T02:01:37+00:00", "2023-05-09T02:03:07+00:00", "2023-05-09T02:04:07+00:00", "2023-05-09T02:05:26+00:00", "2023-05-09T02:07:08+00:00", "2023-05-09T02:08:55+00:00", "2023-05-09T02:10:45+00:00", "2023-05-09T02:12:48+00:00", "2023-05-09T02:14:49+00:00", "2023-05-09T02:16:17+00:00", "2023-05-09T02:17:45+00:00", "2023-05-09T02:19:48+00:00", "2023-05-09T02:21:48+00:00", "2023-05-09T02:23:34+00:00", "2023-05-09T02:25:10+00:00", "2023-05-09T02:27:34+00:00", "2023-05-09T02:28:45+00:00", "2023-05-09T02:30:47+00:00", "2023-05-09T02:32:36+00:00", "2023-05-09T02:34:46+00:00", "2023-05-09T02:36:01+00:00", "2023-05-09T02:37:37+00:00", "2023-05-09T02:39:21+00:00", "2023-05-09T02:40:53+00:00", "2023-05-09T02:42:26+00:00", "2023-05-09T02:44:38+00:00", "2023-05-09T02:46:15+00:00", "2023-05-09T02:48:07+00:00", "2023-05-09T02:49:45+00:00", "2023-05-09T02:52:27+00:00", "2023-05-09T02:54:32+00:00", "2023-05-09T02:55:45+00:00", "2023-05-09T02:56:52+00:00", "2023-05-09T02:58:47+00:00", "2023-05-09T03:00:47+00:00", "2023-05-09T03:02:21+00:00", "2023-05-09T03:03:48+00:00", "2023-05-09T03:05:02+00:00", "2023-05-09T03:06:49+00:00", "2023-05-09T03:08:49+00:00", "2023-05-09T03:10:38+00:00", "2023-05-09T03:12:49+00:00", "2023-05-09T03:14:43+00:00", "2023-05-09T03:16:49+00:00", "2023-05-09T03:18:45+00:00", "2023-05-09T03:21:45+00:00", "2023-05-09T03:24:41+00:00", "2023-05-09T03:26:47+00:00", "2023-05-09T03:28:45+00:00", "2023-05-09T03:31:10+00:00", "2023-05-09T03:32:58+00:00", "2023-05-09T03:34:53+00:00", "2023-05-09T03:37:45+00:00", "2023-05-09T03:40:46+00:00", "2023-05-09T03:43:25+00:00", "2023-05-09T03:45:01+00:00", "2023-05-09T03:47:30+00:00", "2023-05-09T03:48:50+00:00", "2023-05-09T03:50:48+00:00", "2023-05-09T03:53:38+00:00", "2023-05-09T03:56:27+00:00", "2023-05-09T03:57:56+00:00", "2023-05-09T04:01:49+00:00", "2023-05-09T04:03:33+00:00", "2023-05-09T04:06:18+00:00", "2023-05-09T04:07:49+00:00", "2023-05-09T04:10:59+00:00", "2023-05-09T04:13:43+00:00", "2023-05-09T04:15:47+00:00", "2023-05-09T04:17:47+00:00", "2023-05-09T04:20:19+00:00", "2023-05-09T04:22:28+00:00", "2023-05-09T04:24:52+00:00", "2023-05-09T04:27:09+00:00", "2023-05-09T04:30:01+00:00", "2023-05-09T04:32:42+00:00", "2023-05-09T04:34:52+00:00", "2023-05-09T04:36:43+00:00", "2023-05-09T04:38:23+00:00", "2023-05-09T04:40:40+00:00", "2023-05-09T04:42:53+00:00", "2023-05-09T04:44:41+00:00", "2023-05-09T04:46:53+00:00", "2023-05-09T04:48:45+00:00", "2023-05-09T04:50:59+00:00", "2023-05-09T04:53:51+00:00", "2023-05-09T04:55:52+00:00", "2023-05-09T04:58:41+00:00", "2023-05-09T05:00:59+00:00", "2023-05-09T05:03:52+00:00", "2023-05-09T05:06:51+00:00", "2023-05-09T05:09:59+00:00", "2023-05-09T05:12:07+00:00", "2023-05-09T05:14:59+00:00", "2023-05-09T05:17:00+00:00", "2023-05-09T05:19:00+00:00", "2023-05-09T05:22:05+00:00", "2023-05-09T05:24:58+00:00", "2023-05-09T05:26:46+00:00", "2023-05-09T05:28:58+00:00", "2023-05-09T05:30:59+00:00", "2023-05-09T05:33:59+00:00", "2023-05-09T05:35:59+00:00", "2023-05-09T05:37:59+00:00", "2023-05-09T05:40:09+00:00", "2023-05-09T05:43:00+00:00", "2023-05-09T05:46:04+00:00", "2023-05-09T05:48:04+00:00", "2023-05-09T05:49:28+00:00", "2023-05-09T05:51:48+00:00", "2023-05-09T05:53:53+00:00", "2023-05-09T05:55:04+00:00", "2023-05-09T05:57:37+00:00", "2023-05-09T05:59:00+00:00", "2023-05-09T06:01:05+00:00", "2023-05-09T06:04:05+00:00", "2023-05-09T06:07:23+00:00", "2023-05-09T06:10:56+00:00", "2023-05-09T06:13:03+00:00", "2023-05-09T06:15:21+00:00", "2023-05-09T06:18:03+00:00", "2023-05-09T06:20:22+00:00", "2023-05-09T06:22:26+00:00", "2023-05-09T06:25:03+00:00", "2023-05-09T06:28:03+00:00", "2023-05-09T06:31:03+00:00", "2023-05-09T06:33:08+00:00", "2023-05-09T06:35:49+00:00", "2023-05-09T06:38:03+00:00", "2023-05-09T06:40:03+00:00", "2023-05-09T06:42:03+00:00", "2023-05-09T06:45:03+00:00", "2023-05-09T06:48:46+00:00", "2023-05-09T06:51:03+00:00", "2023-05-09T06:53:04+00:00", "2023-05-09T06:55:05+00:00", "2023-05-09T06:58:05+00:00", "2023-05-09T07:01:05+00:00", "2023-05-09T07:03:05+00:00", "2023-05-09T07:05:05+00:00", "2023-05-09T07:06:45+00:00", "2023-05-09T07:09:30+00:00", "2023-05-09T07:11:42+00:00", "2023-05-09T07:13:05+00:00", "2023-05-09T07:15:35+00:00", "2023-05-09T07:17:07+00:00", "2023-05-09T07:19:12+00:00", "2023-05-09T07:21:12+00:00", "2023-05-09T07:23:08+00:00", "2023-05-09T07:25:08+00:00", "2023-05-09T07:26:45+00:00", "2023-05-09T07:29:00+00:00", "2023-05-09T07:31:06+00:00", "2023-05-09T07:33:02+00:00", "2023-05-09T07:35:06+00:00", "2023-05-09T07:37:07+00:00", "2023-05-09T07:39:17+00:00", "2023-05-09T07:40:33+00:00", "2023-05-09T07:42:07+00:00", "2023-05-09T07:44:04+00:00", "2023-05-09T07:45:32+00:00", "2023-05-09T07:47:29+00:00", "2023-05-09T07:50:07+00:00", "2023-05-09T07:52:06+00:00", "2023-05-09T07:53:42+00:00", "2023-05-09T07:55:07+00:00", "2023-05-09T07:57:15+00:00", "2023-05-09T07:59:00+00:00", "2023-05-09T08:00:24+00:00", "2023-05-09T08:01:28+00:00", "2023-05-09T08:02:24+00:00", "2023-05-09T08:04:56+00:00", "2023-05-09T08:05:32+00:00", "2023-05-09T08:08:01+00:00", "2023-05-09T08:09:34+00:00", "2023-05-09T08:11:46+00:00", "2023-05-09T08:12:42+00:00", "2023-05-09T08:14:10+00:00", "2023-05-09T08:16:10+00:00", "2023-05-09T08:17:10+00:00", "2023-05-09T08:18:36+00:00", "2023-05-09T08:21:12+00:00", "2023-05-09T08:22:57+00:00", "2023-05-09T08:24:05+00:00", "2023-05-09T08:25:21+00:00", "2023-05-09T08:27:12+00:00", "2023-05-09T08:28:38+00:00", "2023-05-09T08:30:59+00:00", "2023-05-09T08:32:51+00:00", "2023-05-09T08:34:12+00:00", "2023-05-09T08:36:12+00:00", "2023-05-09T08:37:25+00:00", "2023-05-09T08:39:09+00:00", "2023-05-09T08:40:41+00:00", "2023-05-09T08:42:05+00:00", "2023-05-09T08:44:10+00:00", "2023-05-09T08:45:38+00:00", "2023-05-09T08:47:38+00:00", "2023-05-09T08:49:00+00:00", "2023-05-09T08:50:35+00:00", "2023-05-09T08:53:07+00:00", "2023-05-09T08:55:09+00:00", "2023-05-09T08:56:28+00:00", "2023-05-09T08:58:57+00:00", "2023-05-09T09:01:11+00:00", "2023-05-09T09:02:11+00:00", "2023-05-09T09:03:38+00:00", "2023-05-09T09:05:39+00:00", "2023-05-09T09:06:19+00:00", "2023-05-09T09:08:12+00:00", "2023-05-09T09:10:12+00:00", "2023-05-09T09:12:12+00:00", "2023-05-09T09:14:04+00:00", "2023-05-09T09:15:13+00:00", "2023-05-09T09:16:13+00:00", "2023-05-09T09:17:15+00:00", "2023-05-09T09:19:20+00:00", "2023-05-09T09:21:17+00:00", "2023-05-09T09:22:41+00:00", "2023-05-09T09:24:13+00:00", "2023-05-09T09:26:13+00:00", "2023-05-09T09:27:50+00:00", "2023-05-09T09:29:58+00:00", "2023-05-09T09:31:13+00:00", "2023-05-09T09:32:31+00:00", "2023-05-09T09:34:13+00:00", "2023-05-09T09:36:13+00:00", "2023-05-09T09:37:13+00:00", "2023-05-09T09:38:36+00:00", "2023-05-09T09:39:36+00:00", "2023-05-09T09:41:13+00:00", "2023-05-09T09:42:32+00:00", "2023-05-09T09:43:37+00:00", "2023-05-09T09:45:05+00:00", "2023-05-09T09:46:53+00:00", "2023-05-09T09:47:57+00:00", "2023-05-09T09:50:01+00:00", "2023-05-09T09:51:10+00:00", "2023-05-09T09:52:15+00:00", "2023-05-09T09:53:18+00:00", "2023-05-09T09:55:02+00:00", "2023-05-09T09:56:15+00:00", "2023-05-09T09:58:15+00:00", "2023-05-09T09:59:15+00:00", "2023-05-09T10:00:15+00:00", "2023-05-09T10:01:16+00:00", "2023-05-09T10:03:07+00:00", "2023-05-09T10:04:16+00:00", "2023-05-09T10:05:16+00:00", "2023-05-09T10:07:17+00:00", "2023-05-09T10:08:17+00:00", "2023-05-09T10:09:25+00:00", "2023-05-09T10:11:13+00:00", "2023-05-09T10:12:17+00:00", "2023-05-09T10:13:27+00:00", "2023-05-09T10:14:46+00:00", "2023-05-09T10:16:17+00:00", "2023-05-09T10:17:43+00:00", "2023-05-09T10:18:39+00:00", "2023-05-09T10:19:56+00:00", "2023-05-09T10:21:09+00:00", "2023-05-09T10:22:15+00:00", "2023-05-09T10:23:15+00:00", "2023-05-09T10:24:28+00:00", "2023-05-09T10:25:40+00:00", "2023-05-09T10:27:08+00:00", "2023-05-09T10:28:56+00:00", "2023-05-09T10:29:40+00:00", "2023-05-09T10:30:53+00:00", "2023-05-09T10:31:57+00:00", "2023-05-09T10:33:17+00:00", "2023-05-09T10:34:33+00:00", "2023-05-09T10:35:29+00:00", "2023-05-09T10:36:54+00:00", "2023-05-09T10:38:42+00:00", "2023-05-09T10:40:17+00:00", "2023-05-09T10:41:43+00:00", "2023-05-09T10:42:31+00:00", "2023-05-09T10:43:51+00:00", "2023-05-09T10:45:36+00:00", "2023-05-09T10:46:56+00:00", "2023-05-09T10:47:52+00:00", "2023-05-09T10:49:00+00:00", "2023-05-09T10:50:09+00:00", "2023-05-09T10:51:16+00:00", "2023-05-09T10:53:21+00:00", "2023-05-09T10:54:16+00:00", "2023-05-09T10:55:16+00:00", "2023-05-09T10:57:19+00:00", "2023-05-09T10:59:06+00:00", "2023-05-09T11:00:19+00:00", "2023-05-09T11:01:47+00:00", "2023-05-09T11:03:48+00:00", "2023-05-09T11:05:08+00:00", "2023-05-09T11:06:52+00:00", "2023-05-09T11:08:08+00:00", "2023-05-09T11:09:15+00:00", "2023-05-09T11:11:17+00:00", "2023-05-09T11:13:09+00:00", "2023-05-09T11:14:02+00:00", "2023-05-09T11:15:20+00:00", "2023-05-09T11:16:38+00:00", "2023-05-09T11:18:21+00:00", "2023-05-09T11:20:27+00:00", "2023-05-09T11:21:40+00:00", "2023-05-09T11:22:40+00:00", "2023-05-09T11:24:25+00:00", "2023-05-09T11:26:17+00:00", "2023-05-09T11:27:18+00:00", "2023-05-09T11:29:13+00:00", "2023-05-09T11:31:18+00:00", "2023-05-09T11:32:19+00:00", "2023-05-09T11:33:22+00:00", "2023-05-09T11:34:19+00:00", "2023-05-09T11:35:59+00:00", "2023-05-09T11:37:19+00:00", "2023-05-09T11:39:15+00:00", "2023-05-09T11:41:20+00:00", "2023-05-09T11:43:24+00:00", "2023-05-09T11:45:17+00:00", "2023-05-09T11:46:23+00:00", "2023-05-09T11:48:17+00:00", "2023-05-09T11:49:54+00:00", "2023-05-09T11:51:34+00:00", "2023-05-09T11:52:34+00:00", "2023-05-09T11:54:54+00:00", "2023-05-09T11:56:20+00:00", "2023-05-09T11:59:08+00:00", "2023-05-09T12:00:24+00:00", "2023-05-09T12:01:36+00:00", "2023-05-09T12:03:17+00:00", "2023-05-09T12:04:09+00:00", "2023-05-09T12:06:25+00:00", "2023-05-09T12:07:20+00:00", "2023-05-09T12:09:10+00:00", "2023-05-09T12:10:20+00:00", "2023-05-09T12:12:22+00:00", "2023-05-09T12:13:22+00:00", "2023-05-09T12:14:59+00:00", "2023-05-09T12:16:07+00:00", "2023-05-09T12:17:24+00:00", "2023-05-09T12:18:24+00:00", "2023-05-09T12:20:00+00:00", "2023-05-09T12:21:08+00:00", "2023-05-09T12:22:24+00:00", "2023-05-09T12:24:01+00:00", "2023-05-09T12:25:21+00:00", "2023-05-09T12:26:37+00:00", "2023-05-09T12:28:01+00:00", "2023-05-09T12:29:15+00:00", "2023-05-09T12:30:49+00:00", "2023-05-09T12:32:14+00:00", "2023-05-09T12:33:30+00:00", "2023-05-09T12:34:43+00:00", "2023-05-09T12:36:03+00:00", "2023-05-09T12:37:21+00:00", "2023-05-09T12:38:19+00:00", "2023-05-09T12:39:20+00:00", "2023-05-09T12:40:52+00:00", "2023-05-09T12:42:29+00:00", "2023-05-09T12:44:00+00:00", "2023-05-09T12:45:12+00:00", "2023-05-09T12:46:25+00:00", "2023-05-09T12:47:33+00:00", "2023-05-09T12:48:53+00:00", "2023-05-09T12:50:22+00:00", "2023-05-09T12:51:25+00:00", "2023-05-09T12:52:50+00:00", "2023-05-09T12:54:35+00:00", "2023-05-09T12:56:27+00:00", "2023-05-09T12:57:19+00:00", "2023-05-09T12:58:52+00:00", "2023-05-09T13:00:28+00:00", "2023-05-09T13:02:37+00:00", "2023-05-09T13:04:09+00:00", "2023-05-09T13:05:29+00:00", "2023-05-09T13:07:13+00:00", "2023-05-09T13:09:28+00:00", "2023-05-09T13:11:06+00:00", "2023-05-09T13:12:58+00:00", "2023-05-09T13:14:27+00:00", "2023-05-09T13:15:39+00:00", "2023-05-09T13:17:30+00:00", "2023-05-09T13:19:24+00:00", "2023-05-09T13:21:01+00:00", "2023-05-09T13:21:53+00:00", "2023-05-09T13:23:13+00:00", "2023-05-09T13:24:33+00:00", "2023-05-09T13:25:54+00:00", "2023-05-09T13:27:14+00:00", "2023-05-09T13:29:23+00:00", "2023-05-09T13:30:33+00:00", "2023-05-09T13:31:33+00:00", "2023-05-09T13:33:33+00:00", "2023-05-09T13:35:36+00:00", "2023-05-09T13:36:41+00:00", "2023-05-09T13:38:21+00:00", "2023-05-09T13:40:22+00:00", "2023-05-09T13:41:18+00:00", "2023-05-09T13:42:31+00:00", "2023-05-09T13:44:43+00:00", "2023-05-09T13:45:51+00:00", "2023-05-09T13:47:27+00:00", "2023-05-09T13:48:31+00:00", "2023-05-09T13:49:48+00:00", "2023-05-09T13:51:08+00:00", "2023-05-09T13:52:21+00:00", "2023-05-09T13:53:34+00:00", "2023-05-09T13:55:34+00:00", "2023-05-09T13:57:21+00:00", "2023-05-09T13:58:34+00:00", "2023-05-09T14:00:10+00:00", "2023-05-09T14:00:58+00:00", "2023-05-09T14:02:42+00:00", "2023-05-09T14:04:19+00:00", "2023-05-09T14:05:34+00:00", "2023-05-09T14:07:34+00:00", "2023-05-09T14:08:27+00:00", "2023-05-09T14:10:07+00:00", "2023-05-09T14:11:34+00:00", "2023-05-09T14:12:36+00:00", "2023-05-09T14:13:52+00:00", "2023-05-09T14:15:04+00:00", "2023-05-09T14:16:13+00:00", "2023-05-09T14:17:33+00:00", "2023-05-09T14:19:05+00:00", "2023-05-09T14:20:34+00:00", "2023-05-09T14:21:42+00:00", "2023-05-09T14:23:06+00:00", "2023-05-09T14:24:18+00:00", "2023-05-09T14:25:38+00:00", "2023-05-09T14:26:50+00:00", "2023-05-09T14:28:27+00:00", "2023-05-09T14:29:30+00:00", "2023-05-09T14:32:32+00:00", "2023-05-09T14:34:20+00:00", "2023-05-09T14:35:34+00:00", "2023-05-09T14:36:36+00:00", "2023-05-09T14:37:57+00:00", "2023-05-09T14:39:01+00:00", "2023-05-09T14:41:36+00:00", "2023-05-09T14:43:34+00:00", "2023-05-09T14:45:03+00:00", "2023-05-09T14:46:27+00:00", "2023-05-09T14:47:56+00:00", "2023-05-09T14:49:20+00:00", "2023-05-09T14:50:40+00:00", "2023-05-09T14:52:36+00:00", "2023-05-09T14:54:09+00:00", "2023-05-09T14:55:36+00:00", "2023-05-09T14:57:06+00:00", "2023-05-09T14:58:36+00:00", "2023-05-09T15:00:00+00:00", "2023-05-09T15:01:34+00:00", "2023-05-09T15:02:50+00:00", "2023-05-09T15:04:11+00:00", "2023-05-09T15:05:39+00:00", "2023-05-09T15:06:43+00:00", "2023-05-09T15:08:11+00:00", "2023-05-09T15:09:52+00:00", "2023-05-09T15:10:59+00:00", "2023-05-09T15:12:16+00:00", "2023-05-09T15:13:40+00:00", "2023-05-09T15:15:00+00:00", "2023-05-09T15:16:05+00:00", "2023-05-09T15:17:46+00:00", "2023-05-09T15:18:54+00:00", "2023-05-09T15:20:06+00:00", "2023-05-09T15:22:03+00:00", "2023-05-09T15:23:03+00:00", "2023-05-09T15:24:07+00:00", "2023-05-09T15:26:20+00:00", "2023-05-09T15:27:08+00:00", "2023-05-09T15:28:24+00:00", "2023-05-09T15:30:00+00:00", "2023-05-09T15:31:01+00:00", "2023-05-09T15:32:38+00:00", "2023-05-09T15:34:03+00:00", "2023-05-09T15:35:03+00:00", "2023-05-09T15:37:04+00:00", "2023-05-09T15:38:19+00:00", "2023-05-09T15:40:00+00:00", "2023-05-09T15:41:05+00:00", "2023-05-09T15:42:05+00:00", "2023-05-09T15:43:29+00:00", "2023-05-09T15:45:05+00:00", "2023-05-09T15:46:29+00:00", "2023-05-09T15:48:02+00:00", "2023-05-09T15:49:06+00:00", "2023-05-09T15:50:46+00:00", "2023-05-09T15:52:27+00:00", "2023-05-09T15:54:15+00:00", "2023-05-09T15:56:00+00:00", "2023-05-09T15:57:52+00:00", "2023-05-09T15:59:05+00:00", "2023-05-09T16:01:05+00:00", "2023-05-09T16:02:22+00:00", "2023-05-09T16:05:05+00:00", "2023-05-09T16:06:15+00:00", "2023-05-09T16:08:32+00:00", "2023-05-09T16:10:04+00:00", "2023-05-09T16:11:56+00:00", "2023-05-09T16:13:12+00:00", "2023-05-09T16:15:05+00:00", "2023-05-09T16:17:05+00:00", "2023-05-09T16:18:05+00:00", "2023-05-09T16:19:14+00:00", "2023-05-09T16:21:54+00:00", "2023-05-09T16:23:05+00:00", "2023-05-09T16:24:31+00:00", "2023-05-09T16:25:59+00:00", "2023-05-09T16:27:27+00:00", "2023-05-09T16:28:48+00:00", "2023-05-09T16:30:12+00:00", "2023-05-09T16:32:06+00:00", "2023-05-09T16:33:36+00:00", "2023-05-09T16:35:06+00:00", "2023-05-09T16:36:13+00:00", "2023-05-09T16:37:29+00:00", "2023-05-09T16:39:26+00:00", "2023-05-09T16:40:34+00:00", "2023-05-09T16:42:06+00:00", "2023-05-09T16:43:14+00:00", "2023-05-09T16:45:11+00:00", "2023-05-09T16:47:19+00:00", "2023-05-09T16:48:31+00:00", "2023-05-09T16:50:00+00:00", "2023-05-09T16:51:16+00:00", "2023-05-09T16:52:36+00:00", "2023-05-09T16:54:12+00:00", "2023-05-09T16:56:25+00:00", "2023-05-09T16:58:08+00:00", "2023-05-09T16:59:50+00:00", "2023-05-09T17:02:07+00:00", "2023-05-09T17:04:07+00:00", "2023-05-09T17:05:56+00:00", "2023-05-09T17:07:12+00:00", "2023-05-09T17:08:20+00:00", "2023-05-09T17:10:00+00:00", "2023-05-09T17:11:45+00:00", "2023-05-09T17:13:02+00:00", "2023-05-09T17:14:10+00:00", "2023-05-09T17:15:42+00:00", "2023-05-09T17:17:02+00:00", "2023-05-09T17:18:10+00:00", "2023-05-09T17:19:58+00:00", "2023-05-09T17:21:18+00:00", "2023-05-09T17:23:10+00:00", "2023-05-09T17:24:38+00:00", "2023-05-09T17:26:10+00:00", "2023-05-09T17:27:10+00:00", "2023-05-09T17:28:31+00:00", "2023-05-09T17:31:11+00:00", "2023-05-09T17:32:17+00:00", "2023-05-09T17:33:53+00:00", "2023-05-09T17:35:09+00:00", "2023-05-09T17:36:10+00:00", "2023-05-09T17:37:17+00:00", "2023-05-09T17:38:50+00:00", "2023-05-09T17:39:54+00:00", "2023-05-09T17:40:59+00:00", "2023-05-09T17:42:10+00:00", "2023-05-09T17:43:10+00:00", "2023-05-09T17:44:36+00:00", "2023-05-09T17:45:48+00:00", "2023-05-09T17:47:16+00:00", "2023-05-09T17:48:53+00:00", "2023-05-09T17:49:41+00:00", "2023-05-09T17:50:45+00:00", "2023-05-09T17:53:17+00:00", "2023-05-09T17:55:30+00:00", "2023-05-09T17:56:59+00:00", "2023-05-09T17:58:31+00:00", "2023-05-09T17:59:48+00:00", "2023-05-09T18:01:45+00:00", "2023-05-09T18:02:54+00:00", "2023-05-09T18:04:11+00:00", "2023-05-09T18:06:11+00:00", "2023-05-09T18:08:11+00:00", "2023-05-09T18:09:11+00:00", "2023-05-09T18:10:19+00:00", "2023-05-09T18:11:24+00:00", "2023-05-09T18:13:48+00:00", "2023-05-09T18:14:44+00:00", "2023-05-09T18:16:12+00:00", "2023-05-09T18:17:52+00:00", "2023-05-09T18:18:37+00:00", "2023-05-09T18:20:33+00:00", "2023-05-09T18:22:13+00:00", "2023-05-09T18:23:13+00:00", "2023-05-09T18:24:34+00:00", "2023-05-09T18:25:50+00:00", "2023-05-09T18:27:14+00:00", "2023-05-09T18:28:22+00:00", "2023-05-09T18:29:55+00:00", "2023-05-09T18:31:03+00:00", "2023-05-09T18:32:23+00:00", "2023-05-09T18:33:51+00:00", "2023-05-09T18:35:04+00:00", "2023-05-09T18:36:13+00:00", "2023-05-09T18:37:36+00:00", "2023-05-09T18:39:01+00:00", "2023-05-09T18:40:25+00:00", "2023-05-09T18:41:41+00:00", "2023-05-09T18:42:33+00:00", "2023-05-09T18:44:13+00:00", "2023-05-09T18:45:38+00:00", "2023-05-09T18:46:54+00:00", "2023-05-09T18:47:54+00:00", "2023-05-09T18:49:06+00:00", "2023-05-09T18:50:23+00:00", "2023-05-09T18:51:55+00:00", "2023-05-09T18:53:16+00:00", "2023-05-09T18:55:16+00:00", "2023-05-09T18:56:12+00:00", "2023-05-09T18:57:16+00:00", "2023-05-09T18:58:28+00:00", "2023-05-09T19:00:01+00:00", "2023-05-09T19:01:13+00:00", "2023-05-09T19:02:30+00:00", "2023-05-09T19:03:50+00:00", "2023-05-09T19:05:10+00:00", "2023-05-09T19:06:18+00:00", "2023-05-09T19:08:03+00:00", "2023-05-09T19:09:27+00:00", "2023-05-09T19:11:11+00:00", "2023-05-09T19:12:15+00:00", "2023-05-09T19:13:16+00:00", "2023-05-09T19:14:40+00:00", "2023-05-09T19:16:16+00:00", "2023-05-09T19:17:28+00:00", "2023-05-09T19:18:48+00:00", "2023-05-09T19:20:25+00:00", "2023-05-09T19:21:29+00:00", "2023-05-09T19:23:54+00:00", "2023-05-09T19:25:16+00:00", "2023-05-09T19:26:38+00:00", "2023-05-09T19:28:15+00:00", "2023-05-09T19:30:03+00:00", "2023-05-09T19:31:03+00:00", "2023-05-09T19:32:36+00:00", "2023-05-09T19:33:52+00:00", "2023-05-09T19:35:16+00:00", "2023-05-09T19:36:56+00:00", "2023-05-09T19:38:09+00:00", "2023-05-09T19:39:25+00:00", "2023-05-09T19:40:50+00:00", "2023-05-09T19:42:17+00:00", "2023-05-09T19:43:30+00:00", "2023-05-09T19:45:39+00:00", "2023-05-09T19:47:07+00:00", "2023-05-09T19:48:23+00:00", "2023-05-09T19:50:15+00:00", "2023-05-09T19:52:17+00:00", "2023-05-09T19:53:20+00:00", "2023-05-09T19:55:17+00:00", "2023-05-09T19:56:24+00:00", "2023-05-09T19:57:40+00:00", "2023-05-09T19:59:24+00:00", "2023-05-09T20:01:17+00:00", "2023-05-09T20:02:25+00:00", "2023-05-09T20:04:22+00:00", "2023-05-09T20:05:30+00:00", "2023-05-09T20:07:51+00:00", "2023-05-09T20:09:17+00:00", "2023-05-09T20:11:19+00:00", "2023-05-09T20:13:17+00:00", "2023-05-09T20:14:44+00:00", "2023-05-09T20:17:45+00:00", "2023-05-09T20:19:15+00:00", "2023-05-09T20:21:33+00:00", "2023-05-09T20:23:17+00:00", "2023-05-09T20:24:33+00:00", "2023-05-09T20:26:26+00:00", "2023-05-09T20:28:20+00:00", "2023-05-09T20:29:14+00:00", "2023-05-09T20:30:15+00:00", "2023-05-09T20:32:22+00:00", "2023-05-09T20:34:11+00:00", "2023-05-09T20:35:43+00:00", "2023-05-09T20:37:12+00:00", "2023-05-09T20:39:15+00:00", "2023-05-09T20:40:44+00:00", "2023-05-09T20:42:17+00:00", "2023-05-09T20:43:37+00:00", "2023-05-09T20:45:16+00:00", "2023-05-09T20:46:16+00:00", "2023-05-09T20:48:17+00:00", "2023-05-09T20:50:15+00:00", "2023-05-09T20:51:38+00:00", "2023-05-09T20:54:18+00:00", "2023-05-09T20:55:19+00:00", "2023-05-09T20:56:27+00:00", "2023-05-09T20:59:07+00:00", "2023-05-09T21:00:28+00:00", "2023-05-09T21:02:48+00:00", "2023-05-09T21:04:21+00:00", "2023-05-09T21:06:21+00:00", "2023-05-09T21:08:21+00:00", "2023-05-09T21:09:37+00:00", "2023-05-09T21:11:26+00:00", "2023-05-09T21:12:50+00:00", "2023-05-09T21:14:31+00:00", "2023-05-09T21:16:23+00:00", "2023-05-09T21:18:23+00:00", "2023-05-09T21:20:15+00:00", "2023-05-09T21:21:43+00:00", "2023-05-09T21:23:44+00:00", "2023-05-09T21:25:04+00:00", "2023-05-09T21:26:12+00:00", "2023-05-09T21:27:56+00:00", "2023-05-09T21:29:22+00:00", "2023-05-09T21:30:49+00:00", "2023-05-09T21:32:17+00:00", "2023-05-09T21:33:50+00:00", "2023-05-09T21:35:10+00:00", "2023-05-09T21:36:39+00:00", "2023-05-09T21:37:43+00:00", "2023-05-09T21:39:16+00:00", "2023-05-09T21:41:21+00:00", "2023-05-09T21:42:45+00:00", "2023-05-09T21:44:41+00:00", "2023-05-09T21:45:53+00:00", "2023-05-09T21:48:21+00:00", "2023-05-09T21:49:54+00:00", "2023-05-09T21:52:14+00:00", "2023-05-09T21:54:22+00:00", "2023-05-09T21:55:25+00:00", "2023-05-09T21:57:25+00:00", "2023-05-09T21:58:51+00:00", "2023-05-09T22:00:15+00:00", "2023-05-09T22:01:57+00:00", "2023-05-09T22:04:02+00:00", "2023-05-09T22:05:31+00:00", "2023-05-09T22:07:35+00:00", "2023-05-09T22:09:23+00:00", "2023-05-09T22:10:44+00:00", "2023-05-09T22:12:24+00:00", "2023-05-09T22:15:09+00:00", "2023-05-09T22:16:24+00:00", "2023-05-09T22:18:18+00:00", "2023-05-09T22:19:26+00:00", "2023-05-09T22:21:25+00:00", "2023-05-09T22:23:03+00:00", "2023-05-09T22:24:35+00:00", "2023-05-09T22:26:25+00:00", "2023-05-09T22:28:25+00:00", "2023-05-09T22:30:15+00:00", "2023-05-09T22:32:25+00:00", "2023-05-09T22:34:17+00:00", "2023-05-09T22:36:26+00:00", "2023-05-09T22:38:26+00:00", "2023-05-09T22:40:10+00:00", "2023-05-09T22:41:26+00:00", "2023-05-09T22:43:26+00:00", "2023-05-09T22:44:43+00:00", "2023-05-09T22:46:51+00:00", "2023-05-09T22:48:55+00:00", "2023-05-09T22:51:26+00:00", "2023-05-09T22:52:26+00:00", "2023-05-09T22:55:15+00:00", "2023-05-09T22:56:45+00:00", "2023-05-09T22:58:15+00:00", "2023-05-09T23:01:05+00:00", "2023-05-09T23:03:26+00:00", "2023-05-09T23:04:27+00:00", "2023-05-09T23:07:27+00:00", "2023-05-09T23:10:16+00:00", "2023-05-09T23:12:04+00:00", "2023-05-09T23:13:35+00:00", "2023-05-09T23:15:52+00:00", "2023-05-09T23:18:17+00:00", "2023-05-09T23:20:30+00:00", "2023-05-09T23:23:01+00:00", "2023-05-09T23:24:54+00:00", "2023-05-09T23:26:34+00:00", "2023-05-09T23:27:30+00:00", "2023-05-09T23:29:30+00:00", "2023-05-09T23:30:39+00:00", "2023-05-09T23:32:35+00:00", "2023-05-09T23:33:23+00:00", "2023-05-09T23:34:51+00:00", "2023-05-09T23:36:07+00:00", "2023-05-09T23:37:30+00:00", "2023-05-09T23:39:12+00:00", "2023-05-09T23:40:20+00:00", "2023-05-09T23:41:16+00:00", "2023-05-09T23:42:31+00:00", "2023-05-09T23:43:33+00:00", "2023-05-09T23:44:31+00:00", "2023-05-09T23:45:31+00:00", "2023-05-09T23:47:01+00:00", "2023-05-09T23:48:09+00:00", "2023-05-09T23:48:57+00:00", "2023-05-09T23:50:01+00:00", "2023-05-09T23:51:10+00:00", "2023-05-09T23:52:32+00:00", "2023-05-09T23:53:32+00:00", "2023-05-09T23:55:18+00:00", "2023-05-09T23:56:14+00:00", "2023-05-09T23:57:06+00:00", "2023-05-09T23:58:32+00:00", "2023-05-10T00:00:23+00:00", "2023-05-10T00:01:19+00:00", "2023-05-10T00:02:31+00:00", "2023-05-10T00:03:32+00:00", "2023-05-10T00:05:04+00:00", "2023-05-10T00:06:24+00:00", "2023-05-10T00:07:33+00:00", "2023-05-10T00:08:57+00:00", "2023-05-10T00:09:45+00:00", "2023-05-10T00:10:54+00:00", "2023-05-10T00:11:54+00:00", "2023-05-10T00:13:22+00:00", "2023-05-10T00:14:32+00:00", "2023-05-10T00:15:30+00:00", "2023-05-10T00:16:26+00:00", "2023-05-10T00:17:39+00:00", "2023-05-10T00:18:33+00:00", "2023-05-10T00:19:59+00:00", "2023-05-10T00:21:15+00:00", "2023-05-10T00:21:59+00:00", "2023-05-10T00:23:23+00:00", "2023-05-10T00:24:12+00:00", "2023-05-10T00:25:36+00:00", "2023-05-10T00:26:33+00:00", "2023-05-10T00:27:36+00:00", "2023-05-10T00:29:12+00:00", "2023-05-10T00:30:00+00:00", "2023-05-10T00:31:09+00:00", "2023-05-10T00:32:13+00:00", "2023-05-10T00:33:09+00:00", "2023-05-10T00:34:25+00:00", "2023-05-10T00:35:13+00:00", "2023-05-10T00:36:29+00:00", "2023-05-10T00:37:50+00:00", "2023-05-10T00:39:06+00:00", "2023-05-10T00:39:54+00:00", "2023-05-10T00:40:46+00:00", "2023-05-10T00:42:02+00:00", "2023-05-10T00:42:50+00:00", "2023-05-10T00:44:14+00:00", "2023-05-10T00:45:34+00:00", "2023-05-10T00:46:39+00:00", "2023-05-10T00:47:31+00:00", "2023-05-10T00:48:51+00:00", "2023-05-10T00:49:33+00:00", "2023-05-10T00:51:27+00:00", "2023-05-10T00:52:33+00:00", "2023-05-10T00:53:28+00:00", "2023-05-10T00:54:52+00:00", "2023-05-10T00:56:32+00:00", "2023-05-10T00:57:32+00:00", "2023-05-10T00:58:33+00:00", "2023-05-10T00:59:33+00:00", "2023-05-10T01:00:34+00:00", "2023-05-10T01:01:34+00:00", "2023-05-10T01:02:42+00:00", "2023-05-10T01:03:43+00:00", "2023-05-10T01:04:51+00:00", "2023-05-10T01:05:59+00:00", "2023-05-10T01:07:00+00:00", "2023-05-10T01:08:08+00:00", "2023-05-10T01:09:36+00:00", "2023-05-10T01:10:44+00:00", "2023-05-10T01:12:02+00:00", "2023-05-10T01:13:30+00:00", "2023-05-10T01:14:43+00:00", "2023-05-10T01:16:04+00:00", "2023-05-10T01:17:24+00:00", "2023-05-10T01:18:16+00:00", "2023-05-10T01:19:40+00:00", "2023-05-10T01:20:32+00:00", "2023-05-10T01:21:45+00:00", "2023-05-10T01:22:53+00:00", "2023-05-10T01:24:17+00:00", "2023-05-10T01:25:25+00:00", "2023-05-10T01:26:01+00:00", "2023-05-10T01:27:42+00:00", "2023-05-10T01:28:50+00:00", "2023-05-10T01:29:58+00:00", "2023-05-10T01:30:50+00:00", "2023-05-10T01:32:34+00:00", "2023-05-10T01:33:34+00:00", "2023-05-10T01:34:34+00:00", "2023-05-10T01:35:34+00:00", "2023-05-10T01:36:36+00:00", "2023-05-10T01:37:34+00:00", "2023-05-10T01:38:52+00:00", "2023-05-10T01:39:44+00:00", "2023-05-10T01:40:56+00:00", "2023-05-10T01:42:34+00:00", "2023-05-10T01:43:49+00:00", "2023-05-10T01:44:49+00:00", "2023-05-10T01:46:14+00:00", "2023-05-10T01:47:30+00:00", "2023-05-10T01:48:38+00:00", "2023-05-10T01:49:54+00:00", "2023-05-10T01:50:51+00:00", "2023-05-10T01:51:59+00:00", "2023-05-10T01:53:33+00:00", "2023-05-10T01:54:36+00:00", "2023-05-10T01:55:33+00:00", "2023-05-10T01:56:34+00:00", "2023-05-10T01:58:09+00:00", "2023-05-10T01:59:29+00:00", "2023-05-10T02:00:33+00:00", "2023-05-10T02:01:33+00:00", "2023-05-10T02:02:26+00:00", "2023-05-10T02:04:06+00:00", "2023-05-10T02:05:39+00:00", "2023-05-10T02:06:47+00:00", "2023-05-10T02:08:11+00:00", "2023-05-10T02:09:35+00:00", "2023-05-10T02:10:39+00:00", "2023-05-10T02:12:31+00:00", "2023-05-10T02:13:24+00:00", "2023-05-10T02:14:36+00:00", "2023-05-10T02:15:39+00:00", "2023-05-10T02:16:40+00:00", "2023-05-10T02:17:47+00:00", "2023-05-10T02:19:39+00:00", "2023-05-10T02:20:39+00:00", "2023-05-10T02:21:22+00:00", "2023-05-10T02:22:22+00:00", "2023-05-10T02:23:35+00:00", "2023-05-10T02:24:39+00:00", "2023-05-10T02:25:27+00:00", "2023-05-10T02:26:44+00:00", "2023-05-10T02:27:42+00:00", "2023-05-10T02:28:52+00:00", "2023-05-10T02:30:16+00:00", "2023-05-10T02:31:24+00:00", "2023-05-10T02:32:56+00:00", "2023-05-10T02:34:08+00:00", "2023-05-10T02:35:09+00:00", "2023-05-10T02:36:37+00:00", "2023-05-10T02:37:21+00:00", "2023-05-10T02:38:45+00:00", "2023-05-10T02:39:41+00:00", "2023-05-10T02:41:30+00:00", "2023-05-10T02:42:17+00:00", "2023-05-10T02:43:25+00:00", "2023-05-10T02:44:54+00:00", "2023-05-10T02:45:54+00:00", "2023-05-10T02:47:18+00:00", "2023-05-10T02:48:34+00:00", "2023-05-10T02:49:38+00:00", "2023-05-10T02:50:46+00:00", "2023-05-10T02:51:42+00:00", "2023-05-10T02:53:03+00:00", "2023-05-10T02:53:51+00:00", "2023-05-10T02:55:04+00:00", "2023-05-10T02:56:24+00:00", "2023-05-10T02:57:20+00:00", "2023-05-10T02:58:45+00:00", "2023-05-10T02:59:47+00:00", "2023-05-10T03:01:04+00:00", "2023-05-10T03:02:36+00:00", "2023-05-10T03:03:40+00:00", "2023-05-10T03:04:28+00:00", "2023-05-10T03:05:47+00:00", "2023-05-10T03:06:47+00:00", "2023-05-10T03:07:53+00:00", "2023-05-10T03:09:02+00:00", "2023-05-10T03:10:22+00:00", "2023-05-10T03:11:22+00:00", "2023-05-10T03:12:34+00:00", "2023-05-10T03:13:39+00:00", "2023-05-10T03:14:43+00:00", "2023-05-10T03:15:47+00:00", "2023-05-10T03:16:55+00:00", "2023-05-10T03:18:11+00:00", "2023-05-10T03:19:31+00:00", "2023-05-10T03:20:28+00:00", "2023-05-10T03:21:16+00:00", "2023-05-10T03:22:32+00:00", "2023-05-10T03:23:20+00:00", "2023-05-10T03:24:29+00:00", "2023-05-10T03:25:47+00:00", "2023-05-10T03:26:47+00:00", "2023-05-10T03:27:48+00:00", "2023-05-10T03:28:57+00:00", "2023-05-10T03:29:48+00:00", "2023-05-10T03:31:14+00:00", "2023-05-10T03:32:18+00:00", "2023-05-10T03:33:18+00:00", "2023-05-10T03:34:26+00:00", "2023-05-10T03:35:06+00:00", "2023-05-10T03:36:48+00:00", "2023-05-10T03:37:48+00:00", "2023-05-10T03:38:48+00:00", "2023-05-10T03:39:48+00:00", "2023-05-10T03:41:03+00:00", "2023-05-10T03:42:04+00:00", "2023-05-10T03:43:00+00:00", "2023-05-10T03:44:20+00:00", "2023-05-10T03:45:36+00:00", "2023-05-10T03:46:48+00:00", "2023-05-10T03:47:50+00:00", "2023-05-10T03:49:24+00:00", "2023-05-10T03:50:49+00:00", "2023-05-10T03:51:49+00:00", "2023-05-10T03:52:50+00:00", "2023-05-10T03:53:53+00:00", "2023-05-10T03:55:41+00:00", "2023-05-10T03:56:29+00:00", "2023-05-10T03:57:50+00:00", "2023-05-10T03:58:46+00:00", "2023-05-10T04:00:10+00:00", "2023-05-10T04:01:39+00:00", "2023-05-10T04:02:23+00:00", "2023-05-10T04:03:35+00:00", "2023-05-10T04:04:28+00:00", "2023-05-10T04:05:20+00:00", "2023-05-10T04:06:12+00:00", "2023-05-10T04:07:20+00:00", "2023-05-10T04:08:10+00:00", "2023-05-10T04:09:34+00:00", "2023-05-10T04:10:15+00:00", "2023-05-10T04:11:45+00:00", "2023-05-10T04:12:47+00:00", "2023-05-10T04:13:43+00:00", "2023-05-10T04:14:43+00:00", "2023-05-10T04:15:47+00:00", "2023-05-10T04:17:07+00:00", "2023-05-10T04:18:12+00:00", "2023-05-10T04:19:16+00:00", "2023-05-10T04:20:36+00:00", "2023-05-10T04:21:45+00:00", "2023-05-10T04:22:51+00:00", "2023-05-10T04:23:36+00:00", "2023-05-10T04:25:04+00:00", "2023-05-10T04:26:21+00:00", "2023-05-10T04:27:29+00:00", "2023-05-10T04:28:53+00:00", "2023-05-10T04:29:37+00:00", "2023-05-10T04:30:51+00:00", "2023-05-10T04:32:14+00:00", "2023-05-10T04:33:51+00:00", "2023-05-10T04:34:54+00:00", "2023-05-10T04:35:51+00:00", "2023-05-10T04:36:51+00:00", "2023-05-10T04:38:15+00:00", "2023-05-10T04:38:51+00:00", "2023-05-10T04:40:15+00:00", "2023-05-10T04:41:27+00:00", "2023-05-10T04:42:56+00:00", "2023-05-10T04:44:28+00:00", "2023-05-10T04:45:49+00:00", "2023-05-10T04:47:49+00:00", "2023-05-10T04:49:09+00:00", "2023-05-10T04:50:49+00:00", "2023-05-10T04:51:45+00:00", "2023-05-10T04:52:50+00:00", "2023-05-10T04:53:30+00:00", "2023-05-10T04:54:52+00:00", "2023-05-10T04:55:53+00:00", "2023-05-10T04:57:31+00:00", "2023-05-10T04:58:53+00:00", "2023-05-10T05:00:29+00:00", "2023-05-10T05:01:45+00:00", "2023-05-10T05:03:33+00:00", "2023-05-10T05:04:05+00:00", "2023-05-10T05:05:21+00:00", "2023-05-10T05:06:50+00:00", "2023-05-10T05:07:46+00:00", "2023-05-10T05:09:27+00:00", "2023-05-10T05:10:50+00:00", "2023-05-10T05:12:19+00:00", "2023-05-10T05:13:52+00:00", "2023-05-10T05:15:04+00:00", "2023-05-10T05:16:20+00:00", "2023-05-10T05:17:37+00:00", "2023-05-10T05:18:57+00:00", "2023-05-10T05:20:29+00:00", "2023-05-10T05:22:10+00:00", "2023-05-10T05:23:30+00:00", "2023-05-10T05:24:52+00:00", "2023-05-10T05:26:18+00:00", "2023-05-10T05:27:34+00:00", "2023-05-10T05:28:54+00:00", "2023-05-10T05:30:56+00:00", "2023-05-10T05:31:55+00:00", "2023-05-10T05:33:53+00:00", "2023-05-10T05:35:00+00:00", "2023-05-10T05:36:53+00:00", "2023-05-10T05:38:05+00:00", "2023-05-10T05:39:01+00:00", "2023-05-10T05:40:22+00:00", "2023-05-10T05:41:38+00:00", "2023-05-10T05:43:02+00:00", "2023-05-10T05:43:54+00:00", "2023-05-10T05:45:39+00:00", "2023-05-10T05:47:07+00:00", "2023-05-10T05:48:16+00:00", "2023-05-10T05:49:28+00:00", "2023-05-10T05:50:48+00:00", "2023-05-10T05:51:45+00:00", "2023-05-10T05:53:06+00:00", "2023-05-10T05:54:54+00:00", "2023-05-10T05:55:54+00:00", "2023-05-10T05:56:54+00:00", "2023-05-10T05:58:54+00:00", "2023-05-10T05:59:54+00:00", "2023-05-10T06:01:04+00:00", "2023-05-10T06:02:54+00:00", "2023-05-10T06:04:40+00:00", "2023-05-10T06:05:57+00:00", "2023-05-10T06:06:57+00:00", "2023-05-10T06:08:53+00:00", "2023-05-10T06:09:57+00:00", "2023-05-10T06:10:57+00:00", "2023-05-10T06:12:49+00:00", "2023-05-10T06:13:57+00:00", "2023-05-10T06:15:22+00:00", "2023-05-10T06:16:18+00:00", "2023-05-10T06:17:57+00:00", "2023-05-10T06:19:14+00:00", "2023-05-10T06:20:43+00:00", "2023-05-10T06:22:54+00:00", "2023-05-10T06:24:11+00:00", "2023-05-10T06:25:56+00:00", "2023-05-10T06:27:44+00:00", "2023-05-10T06:29:36+00:00", "2023-05-10T06:31:45+00:00", "2023-05-10T06:34:21+00:00", "2023-05-10T14:30:07+00:00", "2023-05-10T23:56:54+00:00", "2023-05-10T23:57:34+00:00", "2023-05-10T23:59:07+00:00", "2023-05-11T00:00:07+00:00", "2023-05-11T00:01:11+00:00", "2023-05-11T00:02:55+00:00", "2023-05-11T00:04:16+00:00", "2023-05-11T00:05:24+00:00", "2023-05-11T00:06:52+00:00", "2023-05-11T00:08:04+00:00", "2023-05-11T00:09:24+00:00", "2023-05-11T00:10:59+00:00", "2023-05-11T00:11:59+00:00", "2023-05-11T00:13:54+00:00", "2023-05-11T00:14:55+00:00", "2023-05-11T00:15:47+00:00", "2023-05-11T00:17:03+00:00", "2023-05-11T00:18:23+00:00", "2023-05-11T00:19:39+00:00", "2023-05-11T00:20:56+00:00", "2023-05-11T00:21:36+00:00", "2023-05-11T00:23:02+00:00", "2023-05-11T00:24:16+00:00", "2023-05-11T00:25:29+00:00", "2023-05-11T00:26:37+00:00", "2023-05-11T00:28:01+00:00", "2023-05-11T00:28:41+00:00", "2023-05-11T00:29:41+00:00", "2023-05-11T00:30:49+00:00", "2023-05-11T00:31:49+00:00", "2023-05-11T00:32:54+00:00", "2023-05-11T00:34:00+00:00", "2023-05-11T00:35:26+00:00", "2023-05-11T00:36:38+00:00", "2023-05-11T00:38:06+00:00", "2023-05-11T00:39:47+00:00", "2023-05-11T00:40:51+00:00", "2023-05-11T00:42:27+00:00", "2023-05-11T00:43:19+00:00", "2023-05-11T00:45:05+00:00", "2023-05-11T00:46:32+00:00", "2023-05-11T00:48:06+00:00", "2023-05-11T00:50:06+00:00", "2023-05-11T00:51:45+00:00", "2023-05-11T00:53:05+00:00", "2023-05-11T00:55:06+00:00", "2023-05-11T00:56:06+00:00", "2023-05-11T00:57:42+00:00", "2023-05-11T00:59:06+00:00", "2023-05-11T01:00:26+00:00", "2023-05-11T01:02:08+00:00", "2023-05-11T01:03:31+00:00", "2023-05-11T01:04:59+00:00", "2023-05-11T01:06:08+00:00", "2023-05-11T01:07:52+00:00", "2023-05-11T01:08:56+00:00", "2023-05-11T01:10:08+00:00", "2023-05-11T01:11:21+00:00", "2023-05-11T01:12:41+00:00", "2023-05-11T01:14:00+00:00", "2023-05-11T01:15:29+00:00", "2023-05-11T01:17:08+00:00", "2023-05-11T01:18:21+00:00", "2023-05-11T01:19:13+00:00", "2023-05-11T01:21:08+00:00", "2023-05-11T01:22:30+00:00", "2023-05-11T01:23:54+00:00", "2023-05-11T01:25:08+00:00", "2023-05-11T01:26:19+00:00", "2023-05-11T01:27:31+00:00", "2023-05-11T01:28:48+00:00", "2023-05-11T01:30:09+00:00", "2023-05-11T01:31:09+00:00", "2023-05-11T01:32:29+00:00", "2023-05-11T01:33:25+00:00", "2023-05-11T01:34:45+00:00", "2023-05-11T01:36:09+00:00", "2023-05-11T01:37:09+00:00", "2023-05-11T01:38:42+00:00", "2023-05-11T01:40:06+00:00", "2023-05-11T01:41:09+00:00", "2023-05-11T01:43:09+00:00", "2023-05-11T01:44:11+00:00", "2023-05-11T01:46:09+00:00", "2023-05-11T01:47:09+00:00", "2023-05-11T01:48:16+00:00", "2023-05-11T01:49:36+00:00", "2023-05-11T01:51:12+00:00", "2023-05-11T01:52:09+00:00", "2023-05-11T01:53:12+00:00", "2023-05-11T01:54:42+00:00", "2023-05-11T01:56:10+00:00", "2023-05-11T01:57:26+00:00", "2023-05-11T01:58:42+00:00", "2023-05-11T01:59:22+00:00", "2023-05-11T02:00:51+00:00", "2023-05-11T02:01:51+00:00", "2023-05-11T02:03:16+00:00", "2023-05-11T02:04:29+00:00", "2023-05-11T02:05:57+00:00", "2023-05-11T02:07:01+00:00", "2023-05-11T02:08:11+00:00", "2023-05-11T02:09:25+00:00", "2023-05-11T02:10:21+00:00", "2023-05-11T02:12:11+00:00", "2023-05-11T02:13:22+00:00", "2023-05-11T02:14:27+00:00", "2023-05-11T02:16:11+00:00", "2023-05-11T02:17:39+00:00", "2023-05-11T02:18:52+00:00", "2023-05-11T02:20:08+00:00", "2023-05-11T02:21:11+00:00", "2023-05-11T02:22:12+00:00", "2023-05-11T02:23:40+00:00", "2023-05-11T02:24:32+00:00", "2023-05-11T02:26:12+00:00", "2023-05-11T02:27:13+00:00", "2023-05-11T02:28:57+00:00", "2023-05-11T02:30:05+00:00", "2023-05-11T02:31:11+00:00", "2023-05-11T02:32:14+00:00", "2023-05-11T02:33:30+00:00", "2023-05-11T02:35:24+00:00", "2023-05-11T02:36:14+00:00", "2023-05-11T02:37:31+00:00", "2023-05-11T02:38:23+00:00", "2023-05-11T02:39:51+00:00", "2023-05-11T02:41:11+00:00", "2023-05-11T02:42:28+00:00", "2023-05-11T02:43:56+00:00", "2023-05-11T02:45:04+00:00", "2023-05-11T02:46:21+00:00", "2023-05-11T02:47:12+00:00", "2023-05-11T02:48:57+00:00", "2023-05-11T02:50:26+00:00", "2023-05-11T02:52:02+00:00", "2023-05-11T02:53:12+00:00", "2023-05-11T02:54:54+00:00", "2023-05-11T02:56:12+00:00", "2023-05-11T02:57:38+00:00", "2023-05-11T02:59:15+00:00", "2023-05-11T03:00:47+00:00", "2023-05-11T03:01:51+00:00", "2023-05-11T03:03:44+00:00", "2023-05-11T03:05:16+00:00", "2023-05-11T03:06:40+00:00", "2023-05-11T03:07:52+00:00", "2023-05-11T03:09:52+00:00", "2023-05-11T03:11:09+00:00", "2023-05-11T03:13:04+00:00", "2023-05-11T03:14:15+00:00", "2023-05-11T03:16:12+00:00", "2023-05-11T03:17:18+00:00", "2023-05-11T03:19:18+00:00", "2023-05-11T03:20:06+00:00", "2023-05-11T03:21:26+00:00", "2023-05-11T03:22:43+00:00", "2023-05-11T03:24:15+00:00", "2023-05-11T03:26:15+00:00", "2023-05-11T03:27:16+00:00", "2023-05-11T03:28:56+00:00", "2023-05-11T03:30:20+00:00", "2023-05-11T03:32:01+00:00", "2023-05-11T03:34:15+00:00", "2023-05-11T03:36:37+00:00", "2023-05-11T03:38:14+00:00", "2023-05-11T03:39:30+00:00", "2023-05-11T03:41:27+00:00", "2023-05-11T03:43:11+00:00", "2023-05-11T03:45:12+00:00", "2023-05-11T03:48:16+00:00", "2023-05-11T03:49:17+00:00", "2023-05-11T03:50:37+00:00", "2023-05-11T03:52:01+00:00", "2023-05-11T03:53:35+00:00", "2023-05-11T03:55:35+00:00", "2023-05-11T04:00:31+00:00", "2023-05-11T04:03:11+00:00"], "elevations": [null, null, null, null, null, null, null, null, null, null, null, null, null, null, null, null, null, null, null, null, null, null, null, null, null, null, null, null, null, null, null, null, null, null, null, null, null, null, null, null, null, null, null, null, null, null, null, null, null, null, null, null, null, null, null, null, null, null, null, null, null, null, null, null, null, null, null, null, null, null, null, null, null, null, null, null, null, null, null, null, null, null, null, null, null, null, null, null, null, null, null, null, null, null, null, null, null, null, null, null, null, null, null, null, null, null, null, null, null, null, null, null, null, null, null, null, null, null, null, null, null, null, null, null, null, null, null, null, null, null, null, null, null, null, null, null, null, null, null, null, null, null, null, null, null, null, null, null, null, null, null, null, null, null, null, null, null, null, null, null, null, null, null, null, null, null, null, null, null, null, null, null, null, null, null, null, null, null, null, null, null, null, null, null, null, null, null, null, null, null, null, null, null, null, null, null, null, null, null, null, null, null, null, null, null, null, null, null, null, null, null, null, null, null, null, null, null, null, null, null, null, null, null, null, null, null, null, null, null, null, null, null, null, null, null, null, null, null, null, null, null, null, null, null, null, null, null, null, null, null, null, null, null, null, null, null, null, null, null, null, null, null, null, null, null, null, null, null, null, null, null, null, null, null, null, null, null, null, null, null, null, null, null, null, null, null, null, null, null, null, null, null, null, null, null, null, null, null, null, null, null, null, null, null, null, null, null, null, null, null, null, null, null, null, null, null, null, null, null, null, null, null, null, null, null, null, null, null, null, null, null, null, null, null, null, null, null, null, null, null, null, null, null, null, null, null, null, null, null, null, null, null, null, null, null, null, null, null, null, null, null, null, null, null, null, null, null, null, null, null, null, null, null, null, null, null, null, null, null, null, null, null, null, null, null, null, null, null, null, null, null, null, null, null, null, null, null, null, null, null, null, null, null, null, null, null, null, null, null, null, null, null, null, null, null, null, null, null, null, null, null, null, null, null, null, null, null, null, null, null, null, null, null, null, null, null, null, null, null, null, null, null, null, null, null, null, null, null, null, null, null, null, null, null, null, null, null, null, null, null, null, null, null, null, null, null, null, null, null, null, null, null, null, null, null, null, null, null, null, null, null, null, null, null, null, null, null, null, null, null, null, null, null, null, null, null, null, null, null, null, null, null, null, null, null, null, null, null, null, null, null, null, null, null, null, null, null, null, null, null, null, null, null, null, null, null, null, null, null, null, null, null, null, null, null, null, null, null, null, null, null, null, null, null, null, null, null, null, null, null, null, null, null, null, null, null, null, null, null, null, null, null, null, null, null, null, null, null, null, null, null, null, null, null, null, null, null, null, null, null, null, null, null, null, null, null, null, null, null, null, null, null, null, null, null, null, null, null, null, null, null, null, null, null, null, null, null, null, null, null, null, null, null, null, null, null, null, null, null, null, null, null, null, null, null, null, null, null, null, null, null, null, null, null, null, null, null, null, null, null, null, null, null, null, null, null, null, null, null, null, null, null, null, null, null, null, null, null, null, null, null, null, null, null, null, null, null, null, null, null, null, null, null, null, null, null, null, null, null, null, null, null, null, null, null, null, null, null, null, null, null, null, null, null, null, null, null, null, null, null, null, null, null, null, null, null, null, null, null, null, null, null, null, null, null, null, null, null, null, null, null, null, null, null, null, null, 92.0, 69.0, null, null, null, null, null, null, null, null, null, null, null, null, null, null, null, null, null, null, null, null, null, null, null, null, null, null, null, null, null, null, null, null, null, null, null, null, null, null, null, null, null, null, null, null, null, null, null, null, null, null, null, null, null, null, null, null, null, null, null, null, null, null, null, null, null, null, null, null, null, null, null, null, null, null, null, null, null, null, null, null, null, null, null, null, null, null, null, null, null, null, null, null, null, null, null, null, null, null, null, null, null, null, null, null, null, null, null, null, null, null, null, null, null, null, null, null, null, null, null, null, null, null, null, null, null, null, null, null, null, null, null, null, null, null, null, null, null, null, null, null, null, null, null, null, null, null, null, null, null, null, null, null, null, null, null, null, null, null, null, null, null, null, null, null, null, null, null, null, null, null, null, null, null, null, null, null, null, null, null, null, null, null, null, null, null, null, null, null, null, null, null, null, null, null, null, null, null, null, null, null, null, null, null, null, null, null, null, null, null, null, null, null, null, null, null, null, null, null, null, null, null, null, null, null, null, null, null, null, null, null, null, null, null, null, null, null, null, null, null, null, null, null, null, null, null, null, null, null, null, null, null, null, null, null, null, null, null, null, null, null, null, null, null, null, null, null, null, null, null, null, null, null, null, null, null, null, null, null, null, null, null, null, null, null, null, null, null, null, null, null, 19.0, -8.0, 11.0, 12.0, 11.5, null, 10.7, null, -1.0, -2.0, -2.0, -4.0, 13.0, -4.0, -5.0, -1.0, -5.8, 4.0, 4.0, 5.0, 6.0, 5.0, 4.0, 4.0, 13.0, 12.5, 13.0, 13.0, 26.0, 25.0, 25.0, 5.0, 5.0, 6.4, 10.0, 9.0, 3.0, 37.0, null, 3.0, 3.0, 4.4, 4.0, 13.0, 11.0, null, 9.0, null, 3.0, 2.0, 3.0, 2.7, 3.0, 3.0, 3.0, 14.0, 4.0, 4.0, 3.0, 4.0, 2.3, -6.0, -8.0, 0.0, 2.0, 2.0, 2.0, 7.0, 4.0, 4.4, 4.0, 5.0, 6.0, 13.0, 4.0, 3.0, 5.0, 4.0, 4.4, 3.5, 0.0, -1.5, -3.0, 4.0, 2.3, -2.0, -2.0, 0.0, 0.0, 3.5, 7.0, 2.0, 2.3, -1.0, -1.0, 3.0, 2.0, 2.0, 3.0, 3.0, 2.0, 4.0, 0.0, 0.0, 4.0, 1.0, 1.0, 2.3, null, 2.0, null, 2.0, 2.0, 3.0, 2.3, 2.0, -2.0, 6.0, 6.0, 7.0, 7.5, 6.4, 6.0, 7.0, 5.0, 6.0, 7.0, 7.5, 7.0, 6.4, 7.0, 6.0, 5.0, 4.5, 5.0, 5.0, 4.7, 5.0, 5.0, 5.0, 6.0, 5.0, 5.0, 6.0, 6.2, 6.0, 7.0, 6.0, 6.0, 5.5, null, -0.3, 10.0, 2.0, 0.0, 0.0, 4.5, 6.0, 8.5, null, 5.5, 6.0, 5.0, 5.0, 5.0, 4.4, 5.0, 5.0, 6.0, 6.0, 4.0, 6.0, 6.4, null, 6.0, 6.0, 7.0, 7.0, null, 7.0, 7.0, 6.7, null, 7.0, 7.0, 7.0, 7.0, 7.0, 7.0, 7.0, 6.5, null, 6.0, 4.0, 4.0, 3.5, null, 4.0, 4.7, 5.0, 14.5, 3.0, 3.0, 4.4, 4.0, 4.0, 5.5, 6.0, 6.5, 7.0, 6.0, 6.2, 6.0, 6.0, 6.0, 6.0, 6.0, 6.0, 8.4, 1.0, 3.0, 3.0, 5.0, 3.5, 4.0, null, 4.0, 4.0, -2.0, 7.0, 6.0, 1.0, 2.0, 1.7, 2.0, 2.0, 4.0, 2.0, 1.0, 1.0, 1.0, 0.7, 1.0, 3.0, 4.0, 2.0, 2.0, 2.0, 2.0, 2.7, 3.0, null, 2.0, 2.0, 2.0, 2.0, 3.0, 2.3, 3.0, 3.0, 3.0, 3.0, 4.0, 4.0, 10.0, 7.7, 6.0, 7.0, 7.5, 8.0, 9.0, 8.0, 11.0, 7.7, 7.0, null, 7.5, 8.0, 9.0, 8.0, 8.0, 7.0, null, 7.0, 7.0, 7.0, 7.0, 7.0, 7.0, 6.0, 6.0, 5.0, 5.5, 6.0, 5.0, 6.0, 5.7, 5.0, 6.0, 5.5, 5.0, 2.5, 4.0, 4.2, null, 4.0, 6.0, 3.5, 6.0, 4.7, 5.0, 5.0, 5.5, 5.0, null, 5.0, 4.2, 5.5, 3.0, 8.0, 2.0, 8.0, 9.7, 10.0, 11.0, 15.0, 15.0, 15.5, 8.4, 8.5, 8.0, 9.0, 26.5, 8.0, 2.2, 5.8, 2.0]}