{"type": "Feature", "properties": {"leg_id": 35, "name": "20220705 - Fakarava to Tahiti", "stated_nm": 267.9, "computed_nm": 267.9}, "geometry": {"type": "LineString", "coordinates": [[-145.459723, -16.503495], [-145.461193, -16.503453], [-145.463656, -16.504367], [-145.464764, -16.506002], [-145.465197, -16.507977], [-145.464448, -16.510347], [-145.463434, -16.512951], [-145.463084, -16.515242], [-145.461853, -16.517857], [-145.460593, -16.520035], [-145.457825, -16.523801], [-145.455698, -16.526733], [-145.453417, -16.529878], [-145.452091, -16.530955], [-145.45201, -16.531992], [-145.454229, -16.533646], [-145.4562, -16.535198], [-145.459083, -16.538149], [-145.461271, -16.540804], [-145.463888, -16.543088], [-145.466628, -16.545998], [-145.468843, -16.547517], [-145.471962, -16.55019], [-145.473836, -16.551201], [-145.476132, -16.552532], [-145.478505, -16.553197], [-145.481363, -16.554685], [-145.484125, -16.555924], [-145.486468, -16.556203], [-145.48921, -16.557274], [-145.491572, -16.558245], [-145.493257, -16.559189], [-145.495342, -16.560548], [-145.498345, -16.561628], [-145.499622, -16.562087], [-145.503384, -16.563279], [-145.506913, -16.564122], [-145.509612, -16.565217], [-145.511842, -16.5664], [-145.514635, -16.567923], [-145.520584, -16.571822], [-145.522781, -16.572862], [-145.52472, -16.573994], [-145.527265, -16.575051], [-145.530399, -16.576378], [-145.532722, -16.577215], [-145.536644, -16.578279], [-145.539833, -16.578624], [-145.544347, -16.579444], [-145.546279, -16.579919], [-145.549972, -16.58088], [-145.557833, -16.582081], [-145.560263, -16.58237], [-145.564341, -16.583086], [-145.567582, -16.583386], [-145.569157, -16.583763], [-145.571719, -16.583636], [-145.574426, -16.583119], [-145.57818, -16.583186], [-145.580087, -16.58319], [-145.582446, -16.583708], [-145.585012, -16.584469], [-145.588942, -16.585329], [-145.59133, -16.586173], [-145.59399, -16.58681], [-145.59679, -16.587105], [-145.599939, -16.587839], [-145.602137, -16.588417], [-145.605571, -16.589729], [-145.609722, -16.590954], [-145.612557, -16.591898], [-145.615782, -16.59315], [-145.618366, -16.594264], [-145.620759, -16.595612], [-145.624066, -16.597229], [-145.626295, -16.597628], [-145.630143, -16.59904], [-145.631805, -16.599567], [-145.633643, -16.600403], [-145.635557, -16.601286], [-145.638653, -16.602113], [-145.641748, -16.602573], [-145.644764, -16.603427], [-145.647487, -16.604422], [-145.649405, -16.605179], [-145.653587, -16.60646], [-145.657426, -16.608089], [-145.662955, -16.61018], [-145.665896, -16.611531], [-145.66852, -16.612248], [-145.672698, -16.613098], [-145.674768, -16.613625], [-145.678338, -16.614949], [-145.680716, -16.615796], [-145.683395, -16.616363], [-145.685767, -16.617103], [-145.690224, -16.618759], [-145.692577, -16.619379], [-145.696275, -16.620472], [-145.700732, -16.621039], [-145.703083, -16.621356], [-145.707635, -16.622175], [-145.709381, -16.622786], [-145.711882, -16.624648], [-145.713203, -16.626124], [-145.715425, -16.629733], [-145.716618, -16.630716], [-145.719117, -16.63067], [-145.722519, -16.631075], [-145.72616, -16.631954], [-145.729785, -16.632668], [-145.732673, -16.633046], [-145.736045, -16.633402], [-145.741075, -16.634552], [-145.743159, -16.635092], [-145.746205, -16.635907], [-145.749423, -16.636645], [-145.752836, -16.637614], [-145.755523, -16.638077], [-145.760428, -16.639686], [-145.76233, -16.64057], [-145.76532, -16.641801], [-145.768053, -16.642693], [-145.772602, -16.644686], [-145.774872, -16.645422], [-145.777606, -16.646332], [-145.779294, -16.647065], [-145.781514, -16.647759], [-145.783653, -16.648029], [-145.786614, -16.648587], [-145.789045, -16.649201], [-145.7927, -16.650419], [-145.795657, -16.651275], [-145.797222, -16.651459], [-145.800336, -16.651438], [-145.802025, -16.650556], [-145.803174, -16.649937], [-145.805355, -16.650494], [-145.807948, -16.651053], [-145.809973, -16.65137], [-145.811964, -16.651802], [-145.81426, -16.652505], [-145.816976, -16.653522], [-145.82009, -16.654563], [-145.822364, -16.65514], [-145.825764, -16.656299], [-145.829063, -16.657679], [-145.834103, -16.6597], [-145.836552, -16.660598], [-145.839745, -16.662025], [-145.843159, -16.663423], [-145.845678, -16.664609], [-145.848891, -16.666072], [-145.851751, -16.667482], [-145.853924, -16.668553], [-145.857199, -16.670245], [-145.860189, -16.67179], [-145.86307, -16.673298], [-145.865681, -16.674733], [-145.868371, -16.676123], [-145.870769, -16.677449], [-145.873351, -16.678771], [-145.876626, -16.680422], [-145.878677, -16.68141], [-145.882057, -16.682446], [-145.885195, -16.683375], [-145.888313, -16.684323], [-145.89177, -16.685362], [-145.893628, -16.686014], [-145.895593, -16.686637], [-145.897072, -16.687153], [-145.899357, -16.688536], [-145.902262, -16.690074], [-145.904785, -16.691586], [-145.909268, -16.694174], [-145.911912, -16.695669], [-145.914788, -16.697273], [-145.917358, -16.698723], [-145.920146, -16.700374], [-145.922593, -16.701833], [-145.9254, -16.703434], [-145.928687, -16.705317], [-145.931055, -16.706685], [-145.932985, -16.707306], [-145.935512, -16.707857], [-145.937596, -16.708203], [-145.941239, -16.708486], [-145.944702, -16.70886], [-145.948258, -16.709144], [-145.950928, -16.709292], [-145.953653, -16.709464], [-145.956157, -16.709577], [-145.959444, -16.709723], [-145.961565, -16.709902], [-145.965522, -16.710243], [-145.967214, -16.710372], [-145.969955, -16.710488], [-145.972189, -16.710743], [-145.976261, -16.711011], [-145.979172, -16.711218], [-145.981967, -16.711488], [-145.984249, -16.711568], [-145.987156, -16.711708], [-145.990212, -16.712019], [-145.99246, -16.71218], [-145.996597, -16.712341], [-146.000603, -16.712631], [-146.00424, -16.712871], [-146.007628, -16.71315], [-146.010162, -16.713137], [-146.013185, -16.713317], [-146.017936, -16.713804], [-146.020843, -16.714106], [-146.023301, -16.71419], [-146.026436, -16.714602], [-146.029496, -16.714986], [-146.032735, -16.715299], [-146.036372, -16.715638], [-146.03776, -16.716095], [-146.038991, -16.715694], [-146.040567, -16.715664], [-146.042218, -16.7157], [-146.043788, -16.715163], [-146.044398, -16.714065], [-146.04617, -16.714106], [-146.050038, -16.714692], [-146.05252, -16.715378], [-146.057101, -16.716736], [-146.060725, -16.71784], [-146.064728, -16.718985], [-146.066746, -16.719794], [-146.070416, -16.721231], [-146.073539, -16.722552], [-146.076725, -16.723784], [-146.079092, -16.724719], [-146.082621, -16.726275], [-146.085639, -16.727561], [-146.088654, -16.728798], [-146.091827, -16.730123], [-146.095607, -16.731655], [-146.10384, -16.734653], [-146.106392, -16.735951], [-146.111931, -16.738696], [-146.114228, -16.739525], [-146.117042, -16.740667], [-146.121338, -16.74236], [-146.125439, -16.744042], [-146.130946, -16.746334], [-146.134651, -16.74764], [-146.137642, -16.748894], [-146.142331, -16.750792], [-146.147731, -16.752941], [-146.149748, -16.753832], [-146.154422, -16.7558], [-146.158082, -16.757444], [-146.163717, -16.759918], [-146.166093, -16.760853], [-146.170639, -16.762724], [-146.175829, -16.764862], [-146.180015, -16.766619], [-146.184035, -16.768204], [-146.188232, -16.770134], [-146.190743, -16.771245], [-146.194908, -16.772945], [-146.197119, -16.773865], [-146.200288, -16.775358], [-146.20441, -16.776945], [-146.206609, -16.77787], [-146.209928, -16.779342], [-146.214216, -16.780913], [-146.216307, -16.781826], [-146.219391, -16.783113], [-146.220621, -16.783205], [-146.221767, -16.783824], [-146.224443, -16.785733], [-146.226528, -16.786864], [-146.229161, -16.78854], [-146.232524, -16.786709], [-146.234426, -16.785409], [-146.23613, -16.78484], [-146.238611, -16.784364], [-146.240763, -16.78397], [-146.244471, -16.783503], [-146.247185, -16.783032], [-146.249328, -16.782491], [-146.252318, -16.782037], [-146.256299, -16.781043], [-146.260424, -16.78047], [-146.265374, -16.779809], [-146.267893, -16.779409], [-146.272138, -16.778605], [-146.277962, -16.777185], [-146.279625, -16.775819], [-146.280841, -16.774825], [-146.28267, -16.774854], [-146.285164, -16.774435], [-146.287146, -16.773658], [-146.290861, -16.772778], [-146.292936, -16.771942], [-146.295174, -16.77121], [-146.296615, -16.770806], [-146.300435, -16.769993], [-146.304185, -16.769425], [-146.307327, -16.769216], [-146.310426, -16.768798], [-146.314071, -16.768242], [-146.318859, -16.768286], [-146.320516, -16.768227], [-146.324022, -16.768428], [-146.325796, -16.768437], [-146.327825, -16.768449], [-146.329232, -16.768539], [-146.332583, -16.768875], [-146.335873, -16.769297], [-146.340205, -16.769421], [-146.34239, -16.769609], [-146.345349, -16.769928], [-146.349507, -16.770189], [-146.35203, -16.770189], [-146.355405, -16.770336], [-146.358409, -16.770356], [-146.361034, -16.770339], [-146.363387, -16.770236], [-146.36737, -16.769693], [-146.369438, -16.769188], [-146.371981, -16.769003], [-146.373874, -16.768774], [-146.377496, -16.768859], [-146.379429, -16.76885], [-146.382031, -16.768825], [-146.385125, -16.768865], [-146.389777, -16.76836], [-146.391866, -16.768268], [-146.394388, -16.767961], [-146.398452, -16.768009], [-146.401183, -16.768107], [-146.403224, -16.768051], [-146.406396, -16.767699], [-146.408326, -16.767312], [-146.41001, -16.767162], [-146.41431, -16.767051], [-146.416899, -16.766959], [-146.420419, -16.767157], [-146.422475, -16.767134], [-146.425507, -16.767269], [-146.431458, -16.76672], [-146.434133, -16.76679], [-146.437899, -16.766948], [-146.440687, -16.766894], [-146.443451, -16.766559], [-146.445721, -16.766113], [-146.449039, -16.765937], [-146.451169, -16.765695], [-146.454428, -16.765573], [-146.455973, -16.765443], [-146.458452, -16.765246], [-146.46301, -16.765172], [-146.464886, -16.765185], [-146.468756, -16.765446], [-146.47345, -16.765543], [-146.476146, -16.765586], [-146.479248, -16.765907], [-146.483603, -16.765701], [-146.489324, -16.766169], [-146.491935, -16.766295], [-146.49584, -16.766311], [-146.499022, -16.766071], [-146.501273, -16.765969], [-146.50459, -16.765403], [-146.507867, -16.765276], [-146.510468, -16.765565], [-146.512701, -16.765751], [-146.516517, -16.765376], [-146.523067, -16.764966], [-146.524895, -16.765012], [-146.528139, -16.76483], [-146.531376, -16.764916], [-146.534356, -16.765006], [-146.539337, -16.764877], [-146.54468, -16.764489], [-146.548819, -16.764381], [-146.551535, -16.764533], [-146.554299, -16.764926], [-146.557313, -16.765198], [-146.560707, -16.765177], [-146.563118, -16.76499], [-146.56519, -16.764688], [-146.568963, -16.764404], [-146.571246, -16.764427], [-146.573358, -16.764219], [-146.576923, -16.763822], [-146.579525, -16.763926], [-146.581719, -16.764188], [-146.584304, -16.764443], [-146.586622, -16.764565], [-146.589933, -16.765106], [-146.592032, -16.765343], [-146.59606, -16.76594], [-146.59988, -16.76648], [-146.602178, -16.766614], [-146.606302, -16.766253], [-146.608041, -16.766192], [-146.611816, -16.765903], [-146.614442, -16.765888], [-146.618587, -16.765597], [-146.621751, -16.765166], [-146.625176, -16.764625], [-146.628344, -16.76477], [-146.630672, -16.765156], [-146.633527, -16.765381], [-146.63664, -16.765692], [-146.638154, -16.765874], [-146.641801, -16.765571], [-146.643985, -16.76544], [-146.646701, -16.765356], [-146.648801, -16.765462], [-146.652849, -16.76588], [-146.656016, -16.765909], [-146.659369, -16.766139], [-146.660976, -16.766246], [-146.664894, -16.766293], [-146.667198, -16.766496], [-146.670246, -16.766626], [-146.672211, -16.766553], [-146.674634, -16.766334], [-146.677235, -16.766435], [-146.679989, -16.766305], [-146.682373, -16.766597], [-146.684614, -16.766583], [-146.687301, -16.766828], [-146.690756, -16.766811], [-146.693421, -16.767513], [-146.695907, -16.7678], [-146.698745, -16.767879], [-146.70157, -16.76773], [-146.705802, -16.768214], [-146.708153, -16.768725], [-146.71086, -16.769211], [-146.714616, -16.769507], [-146.716521, -16.769501], [-146.721258, -16.769748], [-146.723285, -16.769801], [-146.725859, -16.769866], [-146.72831, -16.769872], [-146.731497, -16.770301], [-146.733547, -16.770799], [-146.735748, -16.771197], [-146.737925, -16.771425], [-146.739577, -16.771565], [-146.743838, -16.772085], [-146.746849, -16.772474], [-146.749206, -16.772681], [-146.752074, -16.773076], [-146.754784, -16.773567], [-146.757117, -16.773792], [-146.759743, -16.774286], [-146.762084, -16.774752], [-146.766728, -16.775823], [-146.768612, -16.775764], [-146.770804, -16.775834], [-146.77285, -16.776216], [-146.776858, -16.776355], [-146.778984, -16.776711], [-146.781574, -16.777026], [-146.784863, -16.777606], [-146.788442, -16.778149], [-146.790894, -16.778773], [-146.792937, -16.77922], [-146.799211, -16.781124], [-146.8021, -16.781559], [-146.803861, -16.78194], [-146.805333, -16.782194], [-146.807715, -16.782674], [-146.809708, -16.783471], [-146.813015, -16.78481], [-146.817332, -16.785991], [-146.821076, -16.787042], [-146.822867, -16.787527], [-146.825469, -16.78811], [-146.82757, -16.788312], [-146.830559, -16.789067], [-146.832632, -16.789105], [-146.835138, -16.789713], [-146.837619, -16.790406], [-146.84107, -16.791307], [-146.843715, -16.791787], [-146.845822, -16.792175], [-146.847483, -16.79242], [-146.851918, -16.793762], [-146.853709, -16.794385], [-146.855662, -16.796768], [-146.857437, -16.79889], [-146.858502, -16.800488], [-146.86058, -16.802076], [-146.862522, -16.803085], [-146.863804, -16.80411], [-146.866144, -16.805853], [-146.867591, -16.807056], [-146.870257, -16.80904], [-146.871436, -16.810197], [-146.874685, -16.811659], [-146.876748, -16.812541], [-146.879525, -16.814211], [-146.881459, -16.815528], [-146.884206, -16.817201], [-146.886011, -16.818301], [-146.88774, -16.819467], [-146.889905, -16.820892], [-146.891788, -16.822665], [-146.892853, -16.823859], [-146.895274, -16.825646], [-146.896838, -16.826853], [-146.898947, -16.828955], [-146.901971, -16.831217], [-146.903177, -16.832677], [-146.905061, -16.834221], [-146.907312, -16.835918], [-146.909655, -16.837408], [-146.911633, -16.839294], [-146.913723, -16.840509], [-146.915789, -16.842019], [-146.917616, -16.843277], [-146.919505, -16.844672], [-146.920817, -16.845956], [-146.922748, -16.847778], [-146.923895, -16.849237], [-146.926884, -16.852171], [-146.929396, -16.854115], [-146.931152, -16.855629], [-146.933712, -16.857553], [-146.936277, -16.859316], [-146.937826, -16.860597], [-146.940681, -16.862673], [-146.942364, -16.864127], [-146.943377, -16.864982], [-146.946075, -16.867134], [-146.948118, -16.869144], [-146.949309, -16.870433], [-146.951005, -16.871632], [-146.953654, -16.873519], [-146.956389, -16.876138], [-146.95828, -16.877773], [-146.960687, -16.879824], [-146.962373, -16.881671], [-146.965088, -16.884141], [-146.970067, -16.887659], [-146.971497, -16.889219], [-146.973588, -16.890612], [-146.975949, -16.892269], [-146.977918, -16.89339], [-146.980641, -16.894497], [-146.982378, -16.895561], [-146.984558, -16.896827], [-146.986235, -16.897827], [-146.989003, -16.90002], [-146.991564, -16.901416], [-146.99344, -16.90313], [-146.995888, -16.904733], [-146.999207, -16.906599], [-147.002124, -16.907664], [-147.003719, -16.908475], [-147.005349, -16.909568], [-147.008102, -16.911932], [-147.009765, -16.913376], [-147.011985, -16.915017], [-147.014655, -16.91658], [-147.017192, -16.918226], [-147.018838, -16.919513], [-147.021095, -16.920542], [-147.024252, -16.922358], [-147.026438, -16.92369], [-147.028581, -16.925005], [-147.030209, -16.926074], [-147.032602, -16.927746], [-147.034028, -16.929244], [-147.035955, -16.931284], [-147.0376, -16.932273], [-147.039627, -16.933793], [-147.041735, -16.935456], [-147.044511, -16.937057], [-147.046703, -16.938393], [-147.048563, -16.940314], [-147.050104, -16.941593], [-147.051379, -16.943104], [-147.053284, -16.945026], [-147.054793, -16.947186], [-147.056185, -16.948739], [-147.058144, -16.950328], [-147.059735, -16.951818], [-147.061088, -16.952982], [-147.063134, -16.954814], [-147.064424, -16.956415], [-147.066256, -16.958183], [-147.068064, -16.960528], [-147.06882, -16.961594], [-147.070396, -16.96339], [-147.071591, -16.965074], [-147.073106, -16.96659], [-147.074105, -16.967962], [-147.076386, -16.970299], [-147.077474, -16.971963], [-147.078736, -16.974169], [-147.080349, -16.975999], [-147.081605, -16.978316], [-147.082793, -16.980887], [-147.083693, -16.982798], [-147.085432, -16.986898], [-147.086809, -16.987755], [-147.088845, -16.988522], [-147.092451, -16.989592], [-147.095335, -16.990081], [-147.097626, -16.990514], [-147.099974, -16.991419], [-147.103942, -16.992622], [-147.106113, -16.993012], [-147.108002, -16.993216], [-147.110574, -16.993826], [-147.113871, -16.994135], [-147.117089, -16.994811], [-147.119947, -16.995503], [-147.121965, -16.996085], [-147.125623, -16.996935], [-147.127194, -16.997491], [-147.130447, -16.998184], [-147.132034, -16.998654], [-147.133962, -16.999214], [-147.137736, -17.000608], [-147.140546, -17.001], [-147.142364, -17.001922], [-147.144699, -17.002896], [-147.146517, -17.004149], [-147.148504, -17.005082], [-147.149762, -17.00571], [-147.151598, -17.006663], [-147.153566, -17.007012], [-147.156069, -17.007277], [-147.158848, -17.008005], [-147.160686, -17.008271], [-147.162451, -17.008807], [-147.165266, -17.009573], [-147.167034, -17.009853], [-147.169699, -17.010402], [-147.171666, -17.010799], [-147.174402, -17.011464], [-147.17629, -17.01156], [-147.178717, -17.011003], [-147.181792, -17.010924], [-147.185329, -17.01118], [-147.187661, -17.010874], [-147.192316, -17.00959], [-147.194193, -17.008926], [-147.196775, -17.00807], [-147.19942, -17.007562], [-147.202797, -17.007398], [-147.20748, -17.007446], [-147.209809, -17.007312], [-147.213053, -17.006791], [-147.215762, -17.006276], [-147.218478, -17.006235], [-147.224191, -17.006631], [-147.227383, -17.006801], [-147.230838, -17.006957], [-147.234389, -17.007363], [-147.236776, -17.007967], [-147.239402, -17.008645], [-147.240841, -17.009483], [-147.24363, -17.010266], [-147.246613, -17.010554], [-147.250127, -17.01092], [-147.255241, -17.009791], [-147.258662, -17.008945], [-147.261116, -17.008292], [-147.262639, -17.007859], [-147.265036, -17.007104], [-147.268233, -17.006449], [-147.270082, -17.0066], [-147.273008, -17.006735], [-147.275383, -17.007216], [-147.277339, -17.008091], [-147.279988, -17.008874], [-147.283213, -17.010166], [-147.285505, -17.010823], [-147.287538, -17.01153], [-147.289297, -17.012258], [-147.291323, -17.01388], [-147.292476, -17.015127], [-147.29338, -17.016965], [-147.294834, -17.018627], [-147.298089, -17.02053], [-147.301725, -17.022712], [-147.303649, -17.0236], [-147.30805, -17.025381], [-147.310164, -17.026132], [-147.312934, -17.026997], [-147.316735, -17.027811], [-147.319142, -17.028329], [-147.32269, -17.028879], [-147.325384, -17.029597], [-147.327531, -17.030176], [-147.330607, -17.031704], [-147.333561, -17.032924], [-147.336216, -17.033719], [-147.338806, -17.034919], [-147.341889, -17.03571], [-147.344814, -17.036237], [-147.349715, -17.036863], [-147.352971, -17.037221], [-147.355585, -17.0378], [-147.358087, -17.038682], [-147.362775, -17.039853], [-147.36483, -17.040159], [-147.368321, -17.040842], [-147.371194, -17.041852], [-147.373867, -17.042539], [-147.376573, -17.04321], [-147.382218, -17.044647], [-147.384696, -17.045344], [-147.387774, -17.045932], [-147.391369, -17.046249], [-147.395421, -17.046261], [-147.39994, -17.04605], [-147.404358, -17.04607], [-147.40887, -17.046163], [-147.41465, -17.046896], [-147.422814, -17.047281], [-147.428833, -17.047311], [-147.431613, -17.047014], [-147.435074, -17.047038], [-147.43875, -17.047018], [-147.441489, -17.047174], [-147.443288, -17.047389], [-147.447984, -17.048518], [-147.453322, -17.049633], [-147.456107, -17.049691], [-147.457787, -17.049559], [-147.462601, -17.049743], [-147.465215, -17.049768], [-147.468339, -17.049678], [-147.472454, -17.049253], [-147.474683, -17.049076], [-147.476607, -17.049026], [-147.478793, -17.049133], [-147.482567, -17.04925], [-147.486271, -17.04909], [-147.488956, -17.04891], [-147.49193, -17.048761], [-147.495531, -17.049068], [-147.498886, -17.049284], [-147.503414, -17.049373], [-147.505793, -17.049525], [-147.509417, -17.049807], [-147.512996, -17.049464], [-147.517423, -17.049502], [-147.521488, -17.049521], [-147.524077, -17.049643], [-147.52816, -17.050206], [-147.532164, -17.050881], [-147.535331, -17.051008], [-147.537826, -17.051206], [-147.540424, -17.051741], [-147.542787, -17.052201], [-147.545124, -17.05244], [-147.548162, -17.053092], [-147.550504, -17.053353], [-147.554043, -17.054057], [-147.556445, -17.054516], [-147.558707, -17.055121], [-147.561612, -17.055467], [-147.564714, -17.056045], [-147.567461, -17.05687], [-147.571063, -17.058365], [-147.572958, -17.058965], [-147.577115, -17.060467], [-147.579356, -17.061221], [-147.582634, -17.062335], [-147.585593, -17.063102], [-147.589347, -17.064516], [-147.591668, -17.065184], [-147.595656, -17.066497], [-147.598679, -17.067862], [-147.601801, -17.068849], [-147.605704, -17.070022], [-147.609226, -17.070786], [-147.612466, -17.071652], [-147.615641, -17.072795], [-147.621102, -17.075075], [-147.623093, -17.075776], [-147.626926, -17.077146], [-147.629669, -17.077987], [-147.631445, -17.078494], [-147.634349, -17.079509], [-147.637133, -17.080489], [-147.640644, -17.082035], [-147.644652, -17.083654], [-147.648027, -17.084883], [-147.650627, -17.085591], [-147.652825, -17.086374], [-147.65799, -17.08782], [-147.66045, -17.088511], [-147.666168, -17.090987], [-147.667942, -17.091634], [-147.671009, -17.092987], [-147.673435, -17.094069], [-147.675857, -17.094905], [-147.679565, -17.096557], [-147.681497, -17.097272], [-147.685343, -17.098371], [-147.688988, -17.099697], [-147.691543, -17.100592], [-147.696231, -17.102174], [-147.701237, -17.10364], [-147.705205, -17.105299], [-147.708332, -17.106399], [-147.710857, -17.107504], [-147.713326, -17.10861], [-147.715912, -17.109677], [-147.719809, -17.111523], [-147.721911, -17.112239], [-147.724099, -17.112959], [-147.726759, -17.113755], [-147.729602, -17.114806], [-147.732054, -17.115515], [-147.734608, -17.1166], [-147.738174, -17.118452], [-147.741617, -17.120269], [-147.744994, -17.121634], [-147.747892, -17.122608], [-147.751817, -17.123444], [-147.755073, -17.124463], [-147.758023, -17.125488], [-147.762647, -17.12731], [-147.764696, -17.128258], [-147.767598, -17.129912], [-147.771759, -17.131535], [-147.77376, -17.132474], [-147.777863, -17.134802], [-147.779258, -17.135441], [-147.782631, -17.137296], [-147.784535, -17.138929], [-147.788673, -17.141502], [-147.790402, -17.142604], [-147.792554, -17.143796], [-147.79506, -17.145053], [-147.798099, -17.146736], [-147.800572, -17.147671], [-147.804383, -17.149757], [-147.805049, -17.150555], [-147.808449, -17.152336], [-147.809814, -17.153448], [-147.814374, -17.155642], [-147.815965, -17.156193], [-147.818237, -17.15736], [-147.820911, -17.158555], [-147.823542, -17.159643], [-147.825777, -17.160721], [-147.829685, -17.163664], [-147.83151, -17.164767], [-147.834532, -17.166615], [-147.83644, -17.167976], [-147.839821, -17.169833], [-147.844949, -17.172382], [-147.847366, -17.17381], [-147.849945, -17.175114], [-147.853252, -17.177475], [-147.854954, -17.17874], [-147.857731, -17.180475], [-147.859875, -17.181404], [-147.862712, -17.182884], [-147.865341, -17.183903], [-147.867254, -17.184929], [-147.869829, -17.185796], [-147.872509, -17.186938], [-147.875375, -17.188268], [-147.877915, -17.189211], [-147.880108, -17.190719], [-147.881919, -17.192061], [-147.884235, -17.193355], [-147.886607, -17.195136], [-147.888911, -17.196125], [-147.89202, -17.197082], [-147.894873, -17.197725], [-147.897751, -17.198283], [-147.900137, -17.199054], [-147.902495, -17.200056], [-147.905225, -17.20078], [-147.908161, -17.201439], [-147.911509, -17.202215], [-147.913619, -17.203091], [-147.917122, -17.204202], [-147.918963, -17.204401], [-147.922149, -17.205031], [-147.924466, -17.205383], [-147.928413, -17.206183], [-147.931042, -17.206769], [-147.934426, -17.208012], [-147.936446, -17.208963], [-147.938653, -17.209862], [-147.940708, -17.210621], [-147.943316, -17.211862], [-147.946468, -17.212575], [-147.94854, -17.213244], [-147.951507, -17.21481], [-147.953985, -17.216231], [-147.955849, -17.216839], [-147.960765, -17.217841], [-147.963145, -17.218524], [-147.966279, -17.219623], [-147.968593, -17.22051], [-147.971963, -17.221412], [-147.973894, -17.221869], [-147.97664, -17.221709], [-147.980923, -17.22209], [-147.983402, -17.222625], [-147.986235, -17.223092], [-147.989891, -17.222719], [-147.992102, -17.222873], [-147.996618, -17.22389], [-147.999413, -17.224518], [-148.001827, -17.225612], [-148.004559, -17.226153], [-148.00818, -17.226025], [-148.010857, -17.225684], [-148.012689, -17.225318], [-148.014835, -17.225781], [-148.016655, -17.226038], [-148.019646, -17.226624], [-148.023009, -17.227001], [-148.025742, -17.227246], [-148.027434, -17.22744], [-148.029437, -17.227749], [-148.031307, -17.22814], [-148.032778, -17.228739], [-148.035651, -17.228424], [-148.038221, -17.228743], [-148.040114, -17.228476], [-148.043114, -17.22808], [-148.044959, -17.227997], [-148.047566, -17.227917], [-148.049854, -17.228318], [-148.051892, -17.228425], [-148.054548, -17.229541], [-148.057029, -17.230693], [-148.061149, -17.232156], [-148.064125, -17.233142], [-148.067276, -17.23386], [-148.070683, -17.234571], [-148.074761, -17.235614], [-148.077934, -17.236302], [-148.081665, -17.237011], [-148.085029, -17.237108], [-148.089813, -17.238191], [-148.09318, -17.239154], [-148.096305, -17.239778], [-148.098955, -17.240233], [-148.100691, -17.240397], [-148.103188, -17.241322], [-148.105346, -17.241344], [-148.107227, -17.240693], [-148.109073, -17.239966], [-148.110306, -17.238442], [-148.111665, -17.237561], [-148.114179, -17.236178], [-148.115691, -17.235932], [-148.118452, -17.235572], [-148.120646, -17.23481], [-148.122467, -17.234321], [-148.126765, -17.232892], [-148.130256, -17.23147], [-148.135666, -17.230342], [-148.144271, -17.228519], [-148.149405, -17.22665], [-148.155472, -17.224567], [-148.160567, -17.222984], [-148.163519, -17.222293], [-148.167333, -17.221616], [-148.170083, -17.221301], [-148.173421, -17.221219], [-148.176267, -17.221071], [-148.180999, -17.220847], [-148.182721, -17.220707], [-148.186836, -17.220296], [-148.188891, -17.22024], [-148.191915, -17.220431], [-148.194184, -17.220502], [-148.197461, -17.220408], [-148.199307, -17.220394], [-148.201484, -17.22043], [-148.204828, -17.220334], [-148.207407, -17.220359], [-148.210047, -17.220276], [-148.212325, -17.220451], [-148.214599, -17.219909], [-148.216388, -17.219483], [-148.218481, -17.21894], [-148.22121, -17.219188], [-148.223621, -17.219017], [-148.225565, -17.218837], [-148.227736, -17.218859], [-148.229768, -17.218739], [-148.232528, -17.218655], [-148.234985, -17.218975], [-148.236924, -17.219811], [-148.239762, -17.220929], [-148.242293, -17.221229], [-148.245317, -17.221086], [-148.24707, -17.220811], [-148.249317, -17.220601], [-148.25374, -17.220598], [-148.256303, -17.221132], [-148.258437, -17.221687], [-148.260565, -17.222181], [-148.263763, -17.222102], [-148.266207, -17.222915], [-148.267669, -17.223744], [-148.269149, -17.224571], [-148.270789, -17.22526], [-148.272601, -17.2256], [-148.275615, -17.2259], [-148.277243, -17.226367], [-148.279046, -17.226579], [-148.280832, -17.226041], [-148.282488, -17.225232], [-148.283935, -17.224542], [-148.28649, -17.222845], [-148.287869, -17.222213], [-148.289556, -17.221768], [-148.290818, -17.220878], [-148.292993, -17.220498], [-148.294933, -17.219792], [-148.296431, -17.219905], [-148.297382, -17.219258], [-148.298751, -17.218911], [-148.299933, -17.219088], [-148.301243, -17.220045], [-148.302312, -17.220589], [-148.3034, -17.221402], [-148.307351, -17.221957], [-148.310546, -17.222675], [-148.315498, -17.223791], [-148.319359, -17.224685], [-148.323987, -17.2258], [-148.329454, -17.226849], [-148.332946, -17.227699], [-148.337052, -17.228567], [-148.341037, -17.229455], [-148.345784, -17.230675], [-148.352402, -17.232298], [-148.357189, -17.233417], [-148.360552, -17.234245], [-148.368543, -17.236235], [-148.370574, -17.236815], [-148.376389, -17.238363], [-148.380894, -17.23966], [-148.384923, -17.240773], [-148.387329, -17.241498], [-148.392963, -17.243169], [-148.398583, -17.244855], [-148.403012, -17.246289], [-148.405532, -17.246948], [-148.409928, -17.248376], [-148.41461, -17.249905], [-148.420759, -17.251855], [-148.423148, -17.252668], [-148.427598, -17.254248], [-148.429314, -17.255001], [-148.431601, -17.256369], [-148.43384, -17.258043], [-148.437011, -17.260138], [-148.439934, -17.262223], [-148.442498, -17.264204], [-148.445138, -17.266448], [-148.447228, -17.268674], [-148.448533, -17.270246], [-148.450692, -17.273004], [-148.45274, -17.2756], [-148.455185, -17.278643], [-148.457709, -17.281883], [-148.45926, -17.283856], [-148.461777, -17.286843], [-148.463876, -17.289383], [-148.465489, -17.291207], [-148.467201, -17.29318], [-148.469597, -17.295467], [-148.472091, -17.297801], [-148.474501, -17.300165], [-148.477268, -17.302797], [-148.480006, -17.305413], [-148.482968, -17.308211], [-148.485043, -17.310117], [-148.486546, -17.311514], [-148.48954, -17.314331], [-148.492086, -17.316708], [-148.494515, -17.319005], [-148.496178, -17.320517], [-148.498971, -17.322981], [-148.501014, -17.32472], [-148.503456, -17.326966], [-148.50589, -17.329123], [-148.508542, -17.331607], [-148.511185, -17.334063], [-148.514056, -17.336682], [-148.516264, -17.338728], [-148.51787, -17.340232], [-148.520508, -17.342795], [-148.522101, -17.343882], [-148.526296, -17.346453], [-148.528236, -17.347491], [-148.532178, -17.349535], [-148.534032, -17.350391], [-148.537511, -17.35203], [-148.540685, -17.353631], [-148.54246, -17.35432], [-148.546029, -17.355448], [-148.549185, -17.356421], [-148.552372, -17.357419], [-148.556069, -17.358658], [-148.560467, -17.360003], [-148.567094, -17.362243], [-148.571284, -17.363659], [-148.57347, -17.364313], [-148.578232, -17.366086], [-148.581491, -17.367283], [-148.584907, -17.368612], [-148.587497, -17.36943], [-148.589975, -17.370478], [-148.594574, -17.37237], [-148.597971, -17.373699], [-148.599459, -17.37418], [-148.60263, -17.374583], [-148.605657, -17.374767], [-148.607982, -17.375208], [-148.610138, -17.37562], [-148.611938, -17.376152], [-148.613934, -17.376535], [-148.616055, -17.376864], [-148.617678, -17.377515], [-148.618797, -17.378352], [-148.619328, -17.379954], [-148.619533, -17.381233], [-148.619779, -17.382522], [-148.620232, -17.383522], [-148.621061, -17.384401], [-148.622586, -17.385059], [-148.623671, -17.385792], [-148.624436, -17.386966], [-148.62551, -17.387891], [-148.626664, -17.388378], [-148.627949, -17.389103], [-148.628664, -17.389835], [-148.629395, -17.39098], [-148.630751, -17.391582], [-148.630956, -17.39263], [-148.631919, -17.393446], [-148.633323, -17.394081], [-148.634573, -17.3948], [-148.635193, -17.396051], [-148.635973, -17.396483], [-148.636913, -17.396128], [-148.637235, -17.394955], [-148.637886, -17.394154], [-148.639787, -17.393731], [-148.641325, -17.393998], [-148.642076, -17.394379], [-148.642469, -17.393547], [-148.642838, -17.391766], [-148.643747, -17.391008], [-148.647255, -17.390477], [-148.653143, -17.390174], [-148.656273, -17.389937], [-148.662049, -17.390613], [-148.665662, -17.391075], [-148.669999, -17.391674], [-148.674553, -17.392329], [-148.679863, -17.393065], [-148.685249, -17.393786], [-148.69046, -17.394779], [-148.695709, -17.395625], [-148.700038, -17.396361], [-148.703834, -17.396672], [-148.709153, -17.397042], [-148.714561, -17.397439], [-148.720677, -17.397956], [-148.730659, -17.398595], [-148.734176, -17.398825], [-148.738631, -17.398919], [-148.744329, -17.399022], [-148.74984, -17.399116], [-148.755714, -17.399273], [-148.761209, -17.399422], [-148.76348, -17.399465], [-148.76986, -17.399535], [-148.775687, -17.39962], [-148.781425, -17.399662], [-148.787222, -17.399668], [-148.791542, -17.399674], [-148.795974, -17.399812], [-148.801794, -17.400028], [-148.807662, -17.400257], [-148.812997, -17.400452], [-148.815657, -17.400611], [-148.822396, -17.401067], [-148.82839, -17.401453], [-148.831287, -17.401696], [-148.837188, -17.4022], [-148.846128, -17.402823], [-148.85175, -17.403109], [-148.860842, -17.403748], [-148.866638, -17.404156], [-148.872459, -17.404584], [-148.878411, -17.405001], [-148.884293, -17.405411], [-148.891358, -17.405892], [-148.895468, -17.406133], [-148.901795, -17.406647], [-148.907578, -17.407072], [-148.913437, -17.40753], [-148.91688, -17.407832], [-148.922982, -17.408183], [-148.930028, -17.408668], [-148.932804, -17.408876], [-148.939706, -17.409385], [-148.945558, -17.409838], [-148.951333, -17.410291], [-148.959999, -17.410668], [-148.965848, -17.410853], [-148.971702, -17.411077], [-148.977589, -17.411309], [-148.983429, -17.411541], [-148.986929, -17.41167], [-148.992339, -17.411948], [-148.998253, -17.412209], [-149.004203, -17.412436], [-149.0101, -17.412643], [-149.016121, -17.412893], [-149.022378, -17.413143], [-149.02505, -17.413342], [-149.030967, -17.413708], [-149.036853, -17.414034], [-149.045754, -17.414656], [-149.051808, -17.415157], [-149.057557, -17.415672], [-149.063514, -17.416061], [-149.069377, -17.416517], [-149.075211, -17.416918], [-149.080992, -17.417432], [-149.085529, -17.417805], [-149.089608, -17.418086], [-149.095313, -17.418489], [-149.101005, -17.418852], [-149.106637, -17.419241], [-149.112889, -17.419632], [-149.120697, -17.420186], [-149.125456, -17.420496], [-149.132347, -17.420977], [-149.137993, -17.42134], [-149.141723, -17.42159], [-149.146576, -17.421952], [-149.152291, -17.42237], [-149.156818, -17.422673], [-149.159563, -17.422923], [-149.166463, -17.423486], [-149.172203, -17.424027], [-149.177941, -17.424551], [-149.186607, -17.425385], [-149.190729, -17.425733], [-149.19529, -17.42628], [-149.201049, -17.426904], [-149.206788, -17.4276], [-149.212555, -17.428262], [-149.218345, -17.428845], [-149.224144, -17.429482], [-149.227464, -17.429819], [-149.2341, -17.430631], [-149.238379, -17.431119], [-149.244026, -17.431802], [-149.249725, -17.432502], [-149.255378, -17.433158], [-149.26104, -17.433811], [-149.266062, -17.434394], [-149.268625, -17.434743], [-149.275133, -17.435687], [-149.280804, -17.436472], [-149.286385, -17.437273], [-149.292046, -17.438032], [-149.297773, -17.438843], [-149.303451, -17.439659], [-149.309089, -17.440451], [-149.313209, -17.441078], [-149.317528, -17.441619], [-149.323124, -17.442345], [-149.328559, -17.443114], [-149.335708, -17.444076], [-149.340137, -17.444688], [-149.35323, -17.4463], [-149.360398, -17.447182], [-149.366085, -17.447912], [-149.371765, -17.448592], [-149.375129, -17.449053], [-149.380223, -17.449568], [-149.385902, -17.450107], [-149.390523, -17.45054], [-149.393142, -17.450851], [-149.399704, -17.451619], [-149.403886, -17.452168], [-149.410636, -17.452972], [-149.415357, -17.453557], [-149.41676, -17.453711], [-149.423461, -17.454281], [-149.43077, -17.454998], [-149.436667, -17.45552], [-149.44268, -17.455995], [-149.448761, -17.456523], [-149.459489, -17.457582], [-149.464096, -17.458036], [-149.46742, -17.458397], [-149.471106, -17.458561], [-149.472629, -17.459055], [-149.47982, -17.4624], [-149.482497, -17.463702], [-149.488484, -17.466656], [-149.490898, -17.46775], [-149.494711, -17.46949], [-149.499688, -17.471946], [-149.505058, -17.474553], [-149.508847, -17.476473], [-149.513322, -17.478786], [-149.518692, -17.481611], [-149.524105, -17.484457], [-149.529565, -17.487276], [-149.535096, -17.490138], [-149.539472, -17.492419], [-149.540906, -17.493192], [-149.547317, -17.496647], [-149.551362, -17.49887], [-149.556954, -17.501956], [-149.560935, -17.504083], [-149.56558, -17.506675], [-149.567933, -17.508022], [-149.571755, -17.51117], [-149.577133, -17.515586], [-149.578044, -17.516547], [-149.580385, -17.52049], [-149.581981, -17.523075], [-149.584608, -17.527195], [-149.585785, -17.530165], [-149.586258, -17.532595], [-149.585805, -17.535158], [-149.584633, -17.537412], [-149.582818, -17.539005], [-149.580072, -17.540778], [-149.577849, -17.541653], [-149.575843, -17.541423], [-149.573446, -17.540258], [-149.571685, -17.539801], [-149.576692, -17.541673], [-149.579362, -17.542299], [-149.584498, -17.543033], [-149.586566, -17.543036], [-149.589235, -17.543193], [-149.592294, -17.542869], [-149.594685, -17.543198], [-149.597058, -17.544074], [-149.599351, -17.544972], [-149.603095, -17.546297], [-149.60596, -17.547165], [-149.609772, -17.548749], [-149.612106, -17.549398], [-149.616073, -17.550068], [-149.617547, -17.551079], [-149.619278, -17.553187], [-149.620555, -17.552463], [-149.620784, -17.551676], [-149.620558, -17.551861], [-149.61989, -17.554413], [-149.621211, -17.557212], [-149.621965, -17.559608], [-149.622539, -17.562318], [-149.622544, -17.564803], [-149.622049, -17.567074], [-149.622068, -17.569665], [-149.622544, -17.572226], [-149.622616, -17.574068], [-149.621856, -17.576024], [-149.62003, -17.576954], [-149.619645, -17.577554], [-149.619354, -17.577828], [-149.621899, -17.575927], [-149.622314, -17.573419], [-149.621732, -17.570271], [-149.621493, -17.567674], [-149.622121, -17.565618], [-149.622378, -17.563637], [-149.621773, -17.560856], [-149.621003, -17.558537], [-149.619908, -17.556358], [-149.617103, -17.552174], [-149.615755, -17.550704], [-149.613125, -17.549229], [-149.609747, -17.548624], [-149.606474, -17.547867], [-149.602732, -17.546589], [-149.599962, -17.545482], [-149.598018, -17.544809], [-149.594472, -17.543197], [-149.592607, -17.542967], [-149.587945, -17.543378], [-149.585735, -17.54327], [-149.583806, -17.542976], [-149.580142, -17.541789], [-149.577773, -17.541029], [-149.575418, -17.540588], [-149.572529, -17.539688], [-149.570367, -17.539334], [-149.569041, -17.53926]]}, "times": ["2022-07-05T18:12:45+00:00", "2022-07-05T18:13:33+00:00", "2022-07-05T18:15:09+00:00", "2022-07-05T18:17:02+00:00", "2022-07-05T18:17:58+00:00", "2022-07-05T18:19:45+00:00", "2022-07-05T18:21:46+00:00", "2022-07-05T18:23:51+00:00", "2022-07-05T18:26:53+00:00", "2022-07-05T18:29:44+00:00", "2022-07-05T18:36:43+00:00", "2022-07-05T18:40:45+00:00", "2022-07-05T18:44:47+00:00", "2022-07-05T18:46:36+00:00", "2022-07-05T18:48:47+00:00", "2022-07-05T18:50:29+00:00", "2022-07-05T18:51:42+00:00", "2022-07-05T18:53:34+00:00", "2022-07-05T18:55:19+00:00", "2022-07-05T18:57:44+00:00", "2022-07-05T18:59:52+00:00", "2022-07-05T19:00:56+00:00", "2022-07-05T19:03:13+00:00", "2022-07-05T19:05:05+00:00", "2022-07-05T19:06:53+00:00", "2022-07-05T19:07:46+00:00", "2022-07-05T19:10:10+00:00", "2022-07-05T19:11:55+00:00", "2022-07-05T19:13:07+00:00", "2022-07-05T19:14:54+00:00", "2022-07-05T19:16:44+00:00", "2022-07-05T19:17:40+00:00", "2022-07-05T19:18:44+00:00", "2022-07-05T19:20:29+00:00", "2022-07-05T19:21:26+00:00", "2022-07-05T19:23:02+00:00", "2022-07-05T19:26:45+00:00", "2022-07-05T19:27:35+00:00", "2022-07-05T19:29:04+00:00", "2022-07-05T19:30:45+00:00", "2022-07-05T19:36:02+00:00", "2022-07-05T19:36:49+00:00", "2022-07-05T19:38:18+00:00", "2022-07-05T19:40:35+00:00", "2022-07-05T19:42:49+00:00", "2022-07-05T19:43:31+00:00", "2022-07-05T19:46:12+00:00", "2022-07-05T19:48:28+00:00", "2022-07-05T19:52:37+00:00", "2022-07-05T19:53:42+00:00", "2022-07-05T19:56:53+00:00", "2022-07-05T20:02:53+00:00", "2022-07-05T20:03:20+00:00", "2022-07-05T20:07:45+00:00", "2022-07-05T20:10:49+00:00", "2022-07-05T20:12:52+00:00", "2022-07-05T20:14:58+00:00", "2022-07-05T20:17:31+00:00", "2022-07-05T20:21:24+00:00", "2022-07-05T20:22:54+00:00", "2022-07-05T20:24:56+00:00", "2022-07-05T20:27:17+00:00", "2022-07-05T20:31:18+00:00", "2022-07-05T20:33:43+00:00", "2022-07-05T20:35:27+00:00", "2022-07-05T20:38:16+00:00", "2022-07-05T20:41:00+00:00", "2022-07-05T20:42:23+00:00", "2022-07-05T20:45:46+00:00", "2022-07-05T20:49:46+00:00", "2022-07-05T20:51:55+00:00", "2022-07-05T20:54:43+00:00", "2022-07-05T20:56:44+00:00", "2022-07-05T20:58:58+00:00", "2022-07-05T21:00:05+00:00", "2022-07-05T21:02:46+00:00", "2022-07-05T21:04:46+00:00", "2022-07-05T21:06:39+00:00", "2022-07-05T21:07:43+00:00", "2022-07-05T21:09:04+00:00", "2022-07-05T21:11:00+00:00", "2022-07-05T21:13:04+00:00", "2022-07-05T21:15:06+00:00", "2022-07-05T21:17:06+00:00", "2022-07-05T21:18:34+00:00", "2022-07-05T21:21:30+00:00", "2022-07-05T21:25:11+00:00", "2022-07-05T21:27:55+00:00", "2022-07-05T21:30:12+00:00", "2022-07-05T21:32:20+00:00", "2022-07-05T21:36:12+00:00", "2022-07-05T21:37:40+00:00", "2022-07-05T21:41:00+00:00", "2022-07-05T21:41:57+00:00", "2022-07-05T21:43:56+00:00", "2022-07-05T21:46:46+00:00", "2022-07-05T21:50:22+00:00", "2022-07-05T21:51:42+00:00", "2022-07-05T21:55:11+00:00", "2022-07-05T22:00:16+00:00", "2022-07-05T22:01:00+00:00", "2022-07-05T22:04:32+00:00", "2022-07-05T22:05:45+00:00", "2022-07-05T22:08:57+00:00", "2022-07-05T22:09:37+00:00", "2022-07-05T22:12:58+00:00", "2022-07-05T22:14:43+00:00", "2022-07-05T22:15:47+00:00", "2022-07-05T22:17:47+00:00", "2022-07-05T22:20:04+00:00", "2022-07-05T22:23:25+00:00", "2022-07-05T22:25:56+00:00", "2022-07-05T22:26:38+00:00", "2022-07-05T22:31:00+00:00", "2022-07-05T22:32:53+00:00", "2022-07-05T22:35:32+00:00", "2022-07-05T22:36:48+00:00", "2022-07-05T22:38:56+00:00", "2022-07-05T22:41:45+00:00", "2022-07-05T22:45:37+00:00", "2022-07-05T22:47:31+00:00", "2022-07-05T22:49:31+00:00", "2022-07-05T22:52:03+00:00", "2022-07-05T22:55:55+00:00", "2022-07-05T22:57:32+00:00", "2022-07-05T22:59:32+00:00", "2022-07-05T23:01:32+00:00", "2022-07-05T23:03:32+00:00", "2022-07-05T23:05:17+00:00", "2022-07-05T23:08:29+00:00", "2022-07-05T23:10:38+00:00", "2022-07-05T23:14:22+00:00", "2022-07-05T23:16:49+00:00", "2022-07-05T23:17:54+00:00", "2022-07-05T23:20:20+00:00", "2022-07-05T23:21:39+00:00", "2022-07-05T23:22:19+00:00", "2022-07-05T23:23:55+00:00", "2022-07-05T23:25:48+00:00", "2022-07-05T23:26:44+00:00", "2022-07-05T23:28:04+00:00", "2022-07-05T23:30:16+00:00", "2022-07-05T23:33:09+00:00", "2022-07-05T23:35:59+00:00", "2022-07-05T23:37:15+00:00", "2022-07-05T23:40:32+00:00", "2022-07-05T23:45:23+00:00", "2022-07-05T23:51:15+00:00", "2022-07-05T23:53:15+00:00", "2022-07-05T23:59:17+00:00", "2022-07-06T00:02:21+00:00", "2022-07-06T00:07:16+00:00", "2022-07-06T00:13:15+00:00", "2022-07-06T00:17:23+00:00", "2022-07-06T00:21:15+00:00", "2022-07-06T00:27:18+00:00", "2022-07-06T00:33:19+00:00", "2022-07-06T00:39:20+00:00", "2022-07-06T00:45:21+00:00", "2022-07-06T00:51:15+00:00", "2022-07-06T00:57:58+00:00", "2022-07-06T01:05:20+00:00", "2022-07-06T01:09:20+00:00", "2022-07-06T01:13:20+00:00", "2022-07-06T01:19:20+00:00", "2022-07-06T01:23:21+00:00", "2022-07-06T01:29:29+00:00", "2022-07-06T01:33:20+00:00", "2022-07-06T01:35:55+00:00", "2022-07-06T01:39:23+00:00", "2022-07-06T01:43:25+00:00", "2022-07-06T01:47:23+00:00", "2022-07-06T01:51:42+00:00", "2022-07-06T01:57:29+00:00", "2022-07-06T02:03:22+00:00", "2022-07-06T02:09:23+00:00", "2022-07-06T02:13:24+00:00", "2022-07-06T02:19:25+00:00", "2022-07-06T02:25:26+00:00", "2022-07-06T02:31:15+00:00", "2022-07-06T02:37:26+00:00", "2022-07-06T02:41:15+00:00", "2022-07-06T02:45:27+00:00", "2022-07-06T02:49:29+00:00", "2022-07-06T02:53:21+00:00", "2022-07-06T02:55:29+00:00", "2022-07-06T03:01:30+00:00", "2022-07-06T03:05:35+00:00", "2022-07-06T03:13:28+00:00", "2022-07-06T03:17:35+00:00", "2022-07-06T03:23:35+00:00", "2022-07-06T03:27:35+00:00", "2022-07-06T03:33:38+00:00", "2022-07-06T03:37:41+00:00", "2022-07-06T03:45:39+00:00", "2022-07-06T03:47:39+00:00", "2022-07-06T03:52:00+00:00", "2022-07-06T03:57:38+00:00", "2022-07-06T04:03:41+00:00", "2022-07-06T04:07:41+00:00", "2022-07-06T04:13:02+00:00", "2022-07-06T04:17:41+00:00", "2022-07-06T04:21:30+00:00", "2022-07-06T04:27:40+00:00", "2022-07-06T04:29:40+00:00", "2022-07-06T04:33:18+00:00", "2022-07-06T04:38:56+00:00", "2022-07-06T04:41:45+00:00", "2022-07-06T04:46:09+00:00", "2022-07-06T04:48:50+00:00", "2022-07-06T04:51:45+00:00", "2022-07-06T04:57:51+00:00", "2022-07-06T05:00:21+00:00", "2022-07-06T05:03:26+00:00", "2022-07-06T05:07:45+00:00", "2022-07-06T05:10:16+00:00", "2022-07-06T05:15:49+00:00", "2022-07-06T05:18:03+00:00", "2022-07-06T05:19:40+00:00", "2022-07-06T05:21:33+00:00", "2022-07-06T05:23:50+00:00", "2022-07-06T05:26:47+00:00", "2022-07-06T05:29:04+00:00", "2022-07-06T05:31:45+00:00", "2022-07-06T05:35:23+00:00", "2022-07-06T05:40:45+00:00", "2022-07-06T05:41:45+00:00", "2022-07-06T05:51:45+00:00", "2022-07-06T05:55:59+00:00", "2022-07-06T06:02:59+00:00", "2022-07-06T06:05:59+00:00", "2022-07-06T06:11:45+00:00", "2022-07-06T06:17:59+00:00", "2022-07-06T06:22:00+00:00", "2022-07-06T06:26:00+00:00", "2022-07-06T06:32:00+00:00", "2022-07-06T06:37:14+00:00", "2022-07-06T06:41:57+00:00", "2022-07-06T06:46:05+00:00", "2022-07-06T06:50:04+00:00", "2022-07-06T06:55:25+00:00", "2022-07-06T06:58:11+00:00", "2022-07-06T07:01:33+00:00", "2022-07-06T07:02:54+00:00", "2022-07-06T07:06:05+00:00", "2022-07-06T07:10:05+00:00", "2022-07-06T07:14:05+00:00", "2022-07-06T07:17:36+00:00", "2022-07-06T07:21:53+00:00", "2022-07-06T07:26:04+00:00", "2022-07-06T07:32:00+00:00", "2022-07-06T07:36:19+00:00", "2022-07-06T07:38:08+00:00", "2022-07-06T07:44:09+00:00", "2022-07-06T07:48:17+00:00", "2022-07-06T07:52:14+00:00", "2022-07-06T07:54:13+00:00", "2022-07-06T07:58:17+00:00", "2022-07-06T08:04:10+00:00", "2022-07-06T08:08:17+00:00", "2022-07-06T08:10:33+00:00", "2022-07-06T08:16:17+00:00", "2022-07-06T08:17:14+00:00", "2022-07-06T08:22:15+00:00", "2022-07-06T08:23:15+00:00", "2022-07-06T08:26:19+00:00", "2022-07-06T08:30:44+00:00", "2022-07-06T08:32:15+00:00", "2022-07-06T08:34:37+00:00", "2022-07-06T08:38:37+00:00", "2022-07-06T08:39:48+00:00", "2022-07-06T08:43:18+00:00", "2022-07-06T08:45:59+00:00", "2022-07-06T08:48:40+00:00", "2022-07-06T08:52:08+00:00", "2022-07-06T08:53:45+00:00", "2022-07-06T08:56:01+00:00", "2022-07-06T08:59:38+00:00", "2022-07-06T09:01:14+00:00", "2022-07-06T09:02:15+00:00", "2022-07-06T09:04:15+00:00", "2022-07-06T09:06:27+00:00", "2022-07-06T09:09:15+00:00", "2022-07-06T09:11:23+00:00", "2022-07-06T09:12:15+00:00", "2022-07-06T09:14:36+00:00", "2022-07-06T09:18:04+00:00", "2022-07-06T09:22:15+00:00", "2022-07-06T09:26:17+00:00", "2022-07-06T09:27:42+00:00", "2022-07-06T09:32:15+00:00", "2022-07-06T09:35:19+00:00", "2022-07-06T09:36:17+00:00", "2022-07-06T09:37:20+00:00", "2022-07-06T09:38:24+00:00", "2022-07-06T09:40:17+00:00", "2022-07-06T09:41:36+00:00", "2022-07-06T09:43:45+00:00", "2022-07-06T09:45:45+00:00", "2022-07-06T09:46:49+00:00", "2022-07-06T09:47:53+00:00", "2022-07-06T09:50:42+00:00", "2022-07-06T09:53:23+00:00", "2022-07-06T09:55:39+00:00", "2022-07-06T09:58:21+00:00", "2022-07-06T09:59:32+00:00", "2022-07-06T10:04:15+00:00", "2022-07-06T10:04:37+00:00", "2022-07-06T10:06:46+00:00", "2022-07-06T10:08:06+00:00", "2022-07-06T10:09:43+00:00", "2022-07-06T10:10:47+00:00", "2022-07-06T10:14:15+00:00", "2022-07-06T10:15:20+00:00", "2022-07-06T10:19:29+00:00", "2022-07-06T10:20:19+00:00", "2022-07-06T10:22:20+00:00", "2022-07-06T10:25:31+00:00", "2022-07-06T10:28:20+00:00", "2022-07-06T10:30:21+00:00", "2022-07-06T10:32:26+00:00", "2022-07-06T10:34:15+00:00", "2022-07-06T10:35:57+00:00", "2022-07-06T10:38:22+00:00", "2022-07-06T10:40:21+00:00", "2022-07-06T10:41:59+00:00", "2022-07-06T10:42:39+00:00", "2022-07-06T10:45:35+00:00", "2022-07-06T10:47:27+00:00", "2022-07-06T10:48:21+00:00", "2022-07-06T10:50:40+00:00", "2022-07-06T10:55:13+00:00", "2022-07-06T10:56:21+00:00", "2022-07-06T10:58:34+00:00", "2022-07-06T11:02:30+00:00", "2022-07-06T11:03:55+00:00", "2022-07-06T11:05:23+00:00", "2022-07-06T11:07:40+00:00", "2022-07-06T11:09:40+00:00", "2022-07-06T11:10:22+00:00", "2022-07-06T11:14:45+00:00", "2022-07-06T11:16:22+00:00", "2022-07-06T11:18:54+00:00", "2022-07-06T11:20:22+00:00", "2022-07-06T11:22:54+00:00", "2022-07-06T11:28:15+00:00", "2022-07-06T11:30:26+00:00", "2022-07-06T11:32:56+00:00", "2022-07-06T11:35:45+00:00", "2022-07-06T11:38:28+00:00", "2022-07-06T11:40:26+00:00", "2022-07-06T11:42:51+00:00", "2022-07-06T11:44:29+00:00", "2022-07-06T11:46:36+00:00", "2022-07-06T11:47:32+00:00", "2022-07-06T11:50:35+00:00", "2022-07-06T11:53:49+00:00", "2022-07-06T11:54:30+00:00", "2022-07-06T11:57:42+00:00", "2022-07-06T12:02:35+00:00", "2022-07-06T12:03:11+00:00", "2022-07-06T12:05:51+00:00", "2022-07-06T12:10:32+00:00", "2022-07-06T12:14:27+00:00", "2022-07-06T12:16:58+00:00", "2022-07-06T12:20:58+00:00", "2022-07-06T12:22:29+00:00", "2022-07-06T12:24:27+00:00", "2022-07-06T12:27:24+00:00", "2022-07-06T12:30:30+00:00", "2022-07-06T12:32:37+00:00", "2022-07-06T12:33:58+00:00", "2022-07-06T12:38:31+00:00", "2022-07-06T12:43:35+00:00", "2022-07-06T12:45:04+00:00", "2022-07-06T12:47:52+00:00", "2022-07-06T12:50:31+00:00", "2022-07-06T12:52:31+00:00", "2022-07-06T12:58:32+00:00", "2022-07-06T13:01:23+00:00", "2022-07-06T13:06:20+00:00", "2022-07-06T13:09:33+00:00", "2022-07-06T13:12:22+00:00", "2022-07-06T13:15:10+00:00", "2022-07-06T13:18:32+00:00", "2022-07-06T13:20:32+00:00", "2022-07-06T13:22:32+00:00", "2022-07-06T13:26:40+00:00", "2022-07-06T13:28:32+00:00", "2022-07-06T13:30:57+00:00", "2022-07-06T13:34:26+00:00", "2022-07-06T13:36:34+00:00", "2022-07-06T13:39:54+00:00", "2022-07-06T13:42:11+00:00", "2022-07-06T13:44:03+00:00", "2022-07-06T13:47:16+00:00", "2022-07-06T13:48:35+00:00", "2022-07-06T13:54:30+00:00", "2022-07-06T13:56:13+00:00", "2022-07-06T13:57:42+00:00", "2022-07-06T14:01:58+00:00", "2022-07-06T14:02:22+00:00", "2022-07-06T14:05:43+00:00", "2022-07-06T14:08:41+00:00", "2022-07-06T14:12:24+00:00", "2022-07-06T14:16:43+00:00", "2022-07-06T14:19:21+00:00", "2022-07-06T14:22:34+00:00", "2022-07-06T14:24:42+00:00", "2022-07-06T14:26:44+00:00", "2022-07-06T14:30:03+00:00", "2022-07-06T14:32:44+00:00", "2022-07-06T14:36:44+00:00", "2022-07-06T14:37:08+00:00", "2022-07-06T14:40:05+00:00", "2022-07-06T14:41:17+00:00", "2022-07-06T14:45:26+00:00", "2022-07-06T14:47:18+00:00", "2022-07-06T14:50:31+00:00", "2022-07-06T14:52:15+00:00", "2022-07-06T14:56:16+00:00", "2022-07-06T14:58:32+00:00", "2022-07-06T15:00:47+00:00", "2022-07-06T15:01:45+00:00", "2022-07-06T15:04:18+00:00", "2022-07-06T15:06:02+00:00", "2022-07-06T15:08:47+00:00", "2022-07-06T15:11:31+00:00", "2022-07-06T15:12:47+00:00", "2022-07-06T15:14:45+00:00", "2022-07-06T15:18:12+00:00", "2022-07-06T15:20:12+00:00", "2022-07-06T15:22:47+00:00", "2022-07-06T15:25:25+00:00", "2022-07-06T15:28:06+00:00", "2022-07-06T15:33:19+00:00", "2022-07-06T15:34:47+00:00", "2022-07-06T15:36:48+00:00", "2022-07-06T15:40:40+00:00", "2022-07-06T15:41:29+00:00", "2022-07-06T15:46:17+00:00", "2022-07-06T15:47:22+00:00", "2022-07-06T15:49:06+00:00", "2022-07-06T15:52:43+00:00", "2022-07-06T15:54:45+00:00", "2022-07-06T15:55:55+00:00", "2022-07-06T15:58:11+00:00", "2022-07-06T15:59:16+00:00", "2022-07-06T16:00:52+00:00", "2022-07-06T16:04:45+00:00", "2022-07-06T16:05:49+00:00", "2022-07-06T16:08:55+00:00", "2022-07-06T16:10:38+00:00", "2022-07-06T16:12:55+00:00", "2022-07-06T16:14:15+00:00", "2022-07-06T16:15:51+00:00", "2022-07-06T16:16:55+00:00", "2022-07-06T16:20:24+00:00", "2022-07-06T16:21:37+00:00", "2022-07-06T16:22:55+00:00", "2022-07-06T16:24:34+00:00", "2022-07-06T16:27:22+00:00", "2022-07-06T16:28:51+00:00", "2022-07-06T16:30:55+00:00", "2022-07-06T16:32:55+00:00", "2022-07-06T16:34:45+00:00", "2022-07-06T16:37:16+00:00", "2022-07-06T16:38:53+00:00", "2022-07-06T16:42:45+00:00", "2022-07-06T16:44:38+00:00", "2022-07-06T16:46:14+00:00", "2022-07-06T16:47:10+00:00", "2022-07-06T16:48:57+00:00", "2022-07-06T16:50:39+00:00", "2022-07-06T16:53:27+00:00", "2022-07-06T16:58:32+00:00", "2022-07-06T16:59:20+00:00", "2022-07-06T17:01:28+00:00", "2022-07-06T17:03:00+00:00", "2022-07-06T17:04:50+00:00", "2022-07-06T17:06:34+00:00", "2022-07-06T17:09:05+00:00", "2022-07-06T17:10:43+00:00", "2022-07-06T17:11:39+00:00", "2022-07-06T17:15:00+00:00", "2022-07-06T17:17:00+00:00", "2022-07-06T17:18:37+00:00", "2022-07-06T17:19:09+00:00", "2022-07-06T17:23:02+00:00", "2022-07-06T17:25:00+00:00", "2022-07-06T17:27:04+00:00", "2022-07-06T17:29:36+00:00", "2022-07-06T17:31:04+00:00", "2022-07-06T17:33:05+00:00", "2022-07-06T17:34:58+00:00", "2022-07-06T17:35:30+00:00", "2022-07-06T17:37:54+00:00", "2022-07-06T17:39:04+00:00", "2022-07-06T17:41:39+00:00", "2022-07-06T17:43:39+00:00", "2022-07-06T17:46:52+00:00", "2022-07-06T17:48:12+00:00", "2022-07-06T17:50:29+00:00", "2022-07-06T17:52:53+00:00", "2022-07-06T17:55:00+00:00", "2022-07-06T17:56:06+00:00", "2022-07-06T17:57:05+00:00", "2022-07-06T17:59:51+00:00", "2022-07-06T18:01:36+00:00", "2022-07-06T18:02:57+00:00", "2022-07-06T18:04:57+00:00", "2022-07-06T18:06:57+00:00", "2022-07-06T18:08:18+00:00", "2022-07-06T18:11:30+00:00", "2022-07-06T18:13:10+00:00", "2022-07-06T18:15:00+00:00", "2022-07-06T18:17:12+00:00", "2022-07-06T18:19:16+00:00", "2022-07-06T18:21:04+00:00", "2022-07-06T18:23:04+00:00", "2022-07-06T18:25:00+00:00", "2022-07-06T18:26:38+00:00", "2022-07-06T18:28:06+00:00", "2022-07-06T18:29:05+00:00", "2022-07-06T18:31:08+00:00", "2022-07-06T18:32:07+00:00", "2022-07-06T18:35:20+00:00", "2022-07-06T18:37:20+00:00", "2022-07-06T18:39:10+00:00", "2022-07-06T18:41:10+00:00", "2022-07-06T18:43:53+00:00", "2022-07-06T18:45:00+00:00", "2022-07-06T18:47:38+00:00", "2022-07-06T18:50:03+00:00", "2022-07-06T18:51:07+00:00", "2022-07-06T18:53:39+00:00", "2022-07-06T18:55:48+00:00", "2022-07-06T18:57:13+00:00", "2022-07-06T18:58:12+00:00", "2022-07-06T19:01:09+00:00", "2022-07-06T19:05:00+00:00", "2022-07-06T19:07:13+00:00", "2022-07-06T19:09:13+00:00", "2022-07-06T19:11:20+00:00", "2022-07-06T19:15:00+00:00", "2022-07-06T19:19:14+00:00", "2022-07-06T19:21:17+00:00", "2022-07-06T19:23:15+00:00", "2022-07-06T19:25:15+00:00", "2022-07-06T19:27:14+00:00", "2022-07-06T19:30:12+00:00", "2022-07-06T19:33:15+00:00", "2022-07-06T19:34:21+00:00", "2022-07-06T19:35:17+00:00", "2022-07-06T19:38:46+00:00", "2022-07-06T19:41:50+00:00", "2022-07-06T19:44:15+00:00", "2022-07-06T19:47:15+00:00", "2022-07-06T19:49:04+00:00", "2022-07-06T19:51:36+00:00", "2022-07-06T19:53:04+00:00", "2022-07-06T19:54:57+00:00", "2022-07-06T19:59:15+00:00", "2022-07-06T20:01:07+00:00", "2022-07-06T20:03:15+00:00", "2022-07-06T20:05:15+00:00", "2022-07-06T20:07:32+00:00", "2022-07-06T20:10:20+00:00", "2022-07-06T20:11:57+00:00", "2022-07-06T20:15:15+00:00", "2022-07-06T20:17:17+00:00", "2022-07-06T20:19:35+00:00", "2022-07-06T20:20:31+00:00", "2022-07-06T20:23:19+00:00", "2022-07-06T20:25:14+00:00", "2022-07-06T20:27:28+00:00", "2022-07-06T20:29:13+00:00", "2022-07-06T20:32:18+00:00", "2022-07-06T20:34:34+00:00", "2022-07-06T20:37:16+00:00", "2022-07-06T20:39:47+00:00", "2022-07-06T20:41:39+00:00", "2022-07-06T20:43:17+00:00", "2022-07-06T20:45:00+00:00", "2022-07-06T20:47:17+00:00", "2022-07-06T20:49:17+00:00", "2022-07-06T20:52:13+00:00", "2022-07-06T20:53:42+00:00", "2022-07-06T20:56:38+00:00", "2022-07-06T20:57:34+00:00", "2022-07-06T21:01:18+00:00", "2022-07-06T21:03:03+00:00", "2022-07-06T21:05:12+00:00", "2022-07-06T21:07:44+00:00", "2022-07-06T21:09:19+00:00", "2022-07-06T21:11:19+00:00", "2022-07-06T21:13:46+00:00", "2022-07-06T21:16:02+00:00", "2022-07-06T21:17:20+00:00", "2022-07-06T21:19:54+00:00", "2022-07-06T21:22:35+00:00", "2022-07-06T21:24:19+00:00", "2022-07-06T21:27:21+00:00", "2022-07-06T21:29:22+00:00", "2022-07-06T21:32:44+00:00", "2022-07-06T21:35:15+00:00", "2022-07-06T21:39:10+00:00", "2022-07-06T21:41:26+00:00", "2022-07-06T21:43:26+00:00", "2022-07-06T21:48:24+00:00", "2022-07-06T21:51:27+00:00", "2022-07-06T21:54:01+00:00", "2022-07-06T21:55:30+00:00", "2022-07-06T21:59:46+00:00", "2022-07-06T22:02:35+00:00", "2022-07-06T22:04:59+00:00", "2022-07-06T22:06:51+00:00", "2022-07-06T22:09:48+00:00", "2022-07-06T22:13:34+00:00", "2022-07-06T22:14:53+00:00", "2022-07-06T22:18:06+00:00", "2022-07-06T22:21:10+00:00", "2022-07-06T22:22:47+00:00", "2022-07-06T22:26:07+00:00", "2022-07-06T22:27:44+00:00", "2022-07-06T22:29:36+00:00", "2022-07-06T22:34:01+00:00", "2022-07-06T22:37:40+00:00", "2022-07-06T22:40:42+00:00", "2022-07-06T22:43:30+00:00", "2022-07-06T22:45:30+00:00", "2022-07-06T22:49:15+00:00", "2022-07-06T22:50:59+00:00", "2022-07-06T22:53:41+00:00", "2022-07-06T22:57:00+00:00", "2022-07-06T22:59:40+00:00", "2022-07-06T23:02:21+00:00", "2022-07-06T23:04:53+00:00", "2022-07-06T23:06:37+00:00", "2022-07-06T23:11:20+00:00", "2022-07-06T23:11:39+00:00", "2022-07-06T23:15:37+00:00", "2022-07-06T23:16:57+00:00", "2022-07-06T23:19:43+00:00", "2022-07-06T23:21:14+00:00", "2022-07-06T23:23:45+00:00", "2022-07-06T23:25:45+00:00", "2022-07-06T23:29:15+00:00", "2022-07-06T23:31:46+00:00", "2022-07-06T23:36:28+00:00", "2022-07-06T23:37:46+00:00", "2022-07-06T23:39:46+00:00", "2022-07-06T23:43:41+00:00", "2022-07-06T23:45:45+00:00", "2022-07-06T23:50:06+00:00", "2022-07-06T23:53:52+00:00", "2022-07-06T23:55:45+00:00", "2022-07-06T23:57:52+00:00", "2022-07-07T00:00:01+00:00", "2022-07-07T00:07:53+00:00", "2022-07-07T00:08:50+00:00", "2022-07-07T00:11:53+00:00", "2022-07-07T00:16:03+00:00", "2022-07-07T00:19:48+00:00", "2022-07-07T00:23:56+00:00", "2022-07-07T00:26:05+00:00", "2022-07-07T00:30:06+00:00", "2022-07-07T00:33:59+00:00", "2022-07-07T00:39:52+00:00", "2022-07-07T00:47:51+00:00", "2022-07-07T00:51:59+00:00", "2022-07-07T00:57:01+00:00", "2022-07-07T00:58:05+00:00", "2022-07-07T01:01:26+00:00", "2022-07-07T01:05:59+00:00", "2022-07-07T01:08:07+00:00", "2022-07-07T01:13:12+00:00", "2022-07-07T01:17:29+00:00", "2022-07-07T01:19:05+00:00", "2022-07-07T01:22:34+00:00", "2022-07-07T01:27:55+00:00", "2022-07-07T01:31:16+00:00", "2022-07-07T01:32:04+00:00", "2022-07-07T01:34:36+00:00", "2022-07-07T01:36:45+00:00", "2022-07-07T01:37:57+00:00", "2022-07-07T01:39:57+00:00", "2022-07-07T01:41:43+00:00", "2022-07-07T01:45:45+00:00", "2022-07-07T01:49:13+00:00", "2022-07-07T01:49:57+00:00", "2022-07-07T01:54:51+00:00", "2022-07-07T01:56:00+00:00", "2022-07-07T02:00:03+00:00", "2022-07-07T02:04:04+00:00", "2022-07-07T02:05:26+00:00", "2022-07-07T02:09:50+00:00", "2022-07-07T02:12:23+00:00", "2022-07-07T02:14:04+00:00", "2022-07-07T02:17:13+00:00", "2022-07-07T02:20:18+00:00", "2022-07-07T02:22:51+00:00", "2022-07-07T02:25:31+00:00", "2022-07-07T02:28:07+00:00", "2022-07-07T02:30:07+00:00", "2022-07-07T02:36:00+00:00", "2022-07-07T02:37:50+00:00", "2022-07-07T02:40:23+00:00", "2022-07-07T02:42:39+00:00", "2022-07-07T02:46:48+00:00", "2022-07-07T02:48:41+00:00", "2022-07-07T02:51:29+00:00", "2022-07-07T02:54:09+00:00", "2022-07-07T02:56:00+00:00", "2022-07-07T02:58:09+00:00", "2022-07-07T03:04:17+00:00", "2022-07-07T03:04:52+00:00", "2022-07-07T03:07:09+00:00", "2022-07-07T03:11:10+00:00", "2022-07-07T03:16:15+00:00", "2022-07-07T03:20:17+00:00", "2022-07-07T03:24:17+00:00", "2022-07-07T03:28:32+00:00", "2022-07-07T03:34:15+00:00", "2022-07-07T03:42:13+00:00", "2022-07-07T03:45:26+00:00", "2022-07-07T03:48:07+00:00", "2022-07-07T03:52:14+00:00", "2022-07-07T03:54:32+00:00", "2022-07-07T03:57:05+00:00", "2022-07-07T03:58:42+00:00", "2022-07-07T04:04:03+00:00", "2022-07-07T04:08:12+00:00", "2022-07-07T04:11:00+00:00", "2022-07-07T04:12:15+00:00", "2022-07-07T04:18:15+00:00", "2022-07-07T04:20:15+00:00", "2022-07-07T04:22:22+00:00", "2022-07-07T04:28:15+00:00", "2022-07-07T04:29:51+00:00", "2022-07-07T04:30:55+00:00", "2022-07-07T04:32:23+00:00", "2022-07-07T04:36:32+00:00", "2022-07-07T04:40:19+00:00", "2022-07-07T04:42:41+00:00", "2022-07-07T04:44:57+00:00", "2022-07-07T04:48:15+00:00", "2022-07-07T04:52:16+00:00", "2022-07-07T04:54:51+00:00", "2022-07-07T04:58:15+00:00", "2022-07-07T04:59:15+00:00", "2022-07-07T05:02:36+00:00", "2022-07-07T05:08:15+00:00", "2022-07-07T05:09:25+00:00", "2022-07-07T05:11:49+00:00", "2022-07-07T05:16:18+00:00", "2022-07-07T05:19:11+00:00", "2022-07-07T05:22:18+00:00", "2022-07-07T05:24:16+00:00", "2022-07-07T05:26:18+00:00", "2022-07-07T05:28:18+00:00", "2022-07-07T05:29:53+00:00", "2022-07-07T05:32:42+00:00", "2022-07-07T05:34:34+00:00", "2022-07-07T05:38:15+00:00", "2022-07-07T05:38:51+00:00", "2022-07-07T05:40:44+00:00", "2022-07-07T05:43:16+00:00", "2022-07-07T05:45:57+00:00", "2022-07-07T05:48:21+00:00", "2022-07-07T05:52:22+00:00", "2022-07-07T05:53:18+00:00", "2022-07-07T05:57:19+00:00", "2022-07-07T05:58:30+00:00", "2022-07-07T06:02:33+00:00", "2022-07-07T06:04:01+00:00", "2022-07-07T06:07:53+00:00", "2022-07-07T06:08:58+00:00", "2022-07-07T06:12:50+00:00", "2022-07-07T06:15:31+00:00", "2022-07-07T06:18:30+00:00", "2022-07-07T06:21:00+00:00", "2022-07-07T06:24:13+00:00", "2022-07-07T06:26:41+00:00", "2022-07-07T06:28:30+00:00", "2022-07-07T06:34:42+00:00", "2022-07-07T06:36:16+00:00", "2022-07-07T06:38:41+00:00", "2022-07-07T06:40:41+00:00", "2022-07-07T06:41:46+00:00", "2022-07-07T06:44:40+00:00", "2022-07-07T06:47:39+00:00", "2022-07-07T06:50:36+00:00", "2022-07-07T06:54:41+00:00", "2022-07-07T06:56:37+00:00", "2022-07-07T06:58:37+00:00", "2022-07-07T07:00:41+00:00", "2022-07-07T07:07:04+00:00", "2022-07-07T07:07:43+00:00", "2022-07-07T07:13:53+00:00", "2022-07-07T07:15:29+00:00", "2022-07-07T07:18:30+00:00", "2022-07-07T07:19:30+00:00", "2022-07-07T07:21:47+00:00", "2022-07-07T07:26:20+00:00", "2022-07-07T07:26:46+00:00", "2022-07-07T07:30:21+00:00", "2022-07-07T07:34:46+00:00", "2022-07-07T07:35:19+00:00", "2022-07-07T07:40:24+00:00", "2022-07-07T07:43:04+00:00", "2022-07-07T07:47:22+00:00", "2022-07-07T07:50:46+00:00", "2022-07-07T07:52:46+00:00", "2022-07-07T07:54:46+00:00", "2022-07-07T07:56:46+00:00", "2022-07-07T08:00:44+00:00", "2022-07-07T08:02:46+00:00", "2022-07-07T08:04:47+00:00", "2022-07-07T08:06:47+00:00", "2022-07-07T08:09:19+00:00", "2022-07-07T08:11:43+00:00", "2022-07-07T08:14:08+00:00", "2022-07-07T08:18:45+00:00", "2022-07-07T08:21:21+00:00", "2022-07-07T08:26:10+00:00", "2022-07-07T08:26:46+00:00", "2022-07-07T08:30:50+00:00", "2022-07-07T08:34:53+00:00", "2022-07-07T08:35:31+00:00", "2022-07-07T08:41:25+00:00", "2022-07-07T08:43:58+00:00", "2022-07-07T08:45:35+00:00", "2022-07-07T08:50:24+00:00", "2022-07-07T08:50:49+00:00", "2022-07-07T08:55:54+00:00", "2022-07-07T08:57:06+00:00", "2022-07-07T09:00:43+00:00", "2022-07-07T09:02:51+00:00", "2022-07-07T09:06:28+00:00", "2022-07-07T09:09:17+00:00", "2022-07-07T09:10:49+00:00", "2022-07-07T09:12:51+00:00", "2022-07-07T09:15:43+00:00", "2022-07-07T09:18:56+00:00", "2022-07-07T09:22:52+00:00", "2022-07-07T09:23:12+00:00", "2022-07-07T09:27:45+00:00", "2022-07-07T09:29:30+00:00", "2022-07-07T09:35:40+00:00", "2022-07-07T09:37:33+00:00", "2022-07-07T09:39:57+00:00", "2022-07-07T09:43:05+00:00", "2022-07-07T09:46:31+00:00", "2022-07-07T09:48:24+00:00", "2022-07-07T09:53:14+00:00", "2022-07-07T09:55:03+00:00", "2022-07-07T09:58:19+00:00", "2022-07-07T10:00:36+00:00", "2022-07-07T10:05:03+00:00", "2022-07-07T10:08:54+00:00", "2022-07-07T10:11:05+00:00", "2022-07-07T10:13:52+00:00", "2022-07-07T10:19:00+00:00", "2022-07-07T10:19:30+00:00", "2022-07-07T10:23:07+00:00", "2022-07-07T10:25:05+00:00", "2022-07-07T10:27:24+00:00", "2022-07-07T10:29:57+00:00", "2022-07-07T10:32:13+00:00", "2022-07-07T10:35:10+00:00", "2022-07-07T10:39:00+00:00", "2022-07-07T10:40:56+00:00", "2022-07-07T10:43:21+00:00", "2022-07-07T10:47:05+00:00", "2022-07-07T10:49:00+00:00", "2022-07-07T10:51:47+00:00", "2022-07-07T10:55:32+00:00", "2022-07-07T10:58:05+00:00", "2022-07-07T11:01:05+00:00", "2022-07-07T11:03:05+00:00", "2022-07-07T11:05:35+00:00", "2022-07-07T11:09:00+00:00", "2022-07-07T11:11:06+00:00", "2022-07-07T11:14:58+00:00", "2022-07-07T11:17:06+00:00", "2022-07-07T11:20:03+00:00", "2022-07-07T11:22:36+00:00", "2022-07-07T11:27:01+00:00", "2022-07-07T11:28:30+00:00", "2022-07-07T11:31:50+00:00", "2022-07-07T11:33:50+00:00", "2022-07-07T11:39:00+00:00", "2022-07-07T11:40:39+00:00", "2022-07-07T11:45:04+00:00", "2022-07-07T11:47:06+00:00", "2022-07-07T11:49:00+00:00", "2022-07-07T11:51:06+00:00", "2022-07-07T11:54:20+00:00", "2022-07-07T11:58:37+00:00", "2022-07-07T12:00:45+00:00", "2022-07-07T12:05:06+00:00", "2022-07-07T12:07:12+00:00", "2022-07-07T12:09:00+00:00", "2022-07-07T12:14:33+00:00", "2022-07-07T12:17:06+00:00", "2022-07-07T12:19:00+00:00", "2022-07-07T12:21:06+00:00", "2022-07-07T12:25:00+00:00", "2022-07-07T12:27:06+00:00", "2022-07-07T12:29:10+00:00", "2022-07-07T12:33:35+00:00", "2022-07-07T12:35:35+00:00", "2022-07-07T12:38:48+00:00", "2022-07-07T12:42:42+00:00", "2022-07-07T12:44:03+00:00", "2022-07-07T12:49:00+00:00", "2022-07-07T12:50:21+00:00", "2022-07-07T12:53:11+00:00", "2022-07-07T12:56:00+00:00", "2022-07-07T12:59:00+00:00", "2022-07-07T13:01:06+00:00", "2022-07-07T13:03:15+00:00", "2022-07-07T13:05:15+00:00", "2022-07-07T13:07:40+00:00", "2022-07-07T13:10:36+00:00", "2022-07-07T13:13:06+00:00", "2022-07-07T13:15:06+00:00", "2022-07-07T13:17:10+00:00", "2022-07-07T13:19:42+00:00", "2022-07-07T13:22:47+00:00", "2022-07-07T13:23:52+00:00", "2022-07-07T13:26:33+00:00", "2022-07-07T13:29:14+00:00", "2022-07-07T13:31:11+00:00", "2022-07-07T13:34:44+00:00", "2022-07-07T13:37:12+00:00", "2022-07-07T13:39:57+00:00", "2022-07-07T13:41:58+00:00", "2022-07-07T13:44:38+00:00", "2022-07-07T13:47:59+00:00", "2022-07-07T13:51:15+00:00", "2022-07-07T13:57:16+00:00", "2022-07-07T14:01:18+00:00", "2022-07-07T14:05:18+00:00", "2022-07-07T14:09:15+00:00", "2022-07-07T14:15:20+00:00", "2022-07-07T14:19:15+00:00", "2022-07-07T14:25:21+00:00", "2022-07-07T14:29:29+00:00", "2022-07-07T14:35:27+00:00", "2022-07-07T14:39:27+00:00", "2022-07-07T14:45:28+00:00", "2022-07-07T14:47:47+00:00", "2022-07-07T14:49:30+00:00", "2022-07-07T14:53:41+00:00", "2022-07-07T14:57:26+00:00", "2022-07-07T14:59:27+00:00", "2022-07-07T15:01:28+00:00", "2022-07-07T15:03:36+00:00", "2022-07-07T15:04:49+00:00", "2022-07-07T15:06:42+00:00", "2022-07-07T15:08:02+00:00", "2022-07-07T15:10:51+00:00", "2022-07-07T15:12:19+00:00", "2022-07-07T15:12:59+00:00", "2022-07-07T15:15:57+00:00", "2022-07-07T15:18:22+00:00", "2022-07-07T15:23:35+00:00", "2022-07-07T15:27:28+00:00", "2022-07-07T15:33:32+00:00", "2022-07-07T15:37:32+00:00", "2022-07-07T15:41:33+00:00", "2022-07-07T15:42:34+00:00", "2022-07-07T15:46:03+00:00", "2022-07-07T15:48:28+00:00", "2022-07-07T15:51:33+00:00", "2022-07-07T15:53:33+00:00", "2022-07-07T15:59:04+00:00", "2022-07-07T15:59:30+00:00", "2022-07-07T16:05:07+00:00", "2022-07-07T16:05:41+00:00", "2022-07-07T16:09:30+00:00", "2022-07-07T16:11:41+00:00", "2022-07-07T16:16:43+00:00", "2022-07-07T16:19:27+00:00", "2022-07-07T16:20:44+00:00", "2022-07-07T16:25:36+00:00", "2022-07-07T16:29:30+00:00", "2022-07-07T16:31:39+00:00", "2022-07-07T16:35:37+00:00", "2022-07-07T16:39:30+00:00", "2022-07-07T16:41:43+00:00", "2022-07-07T16:44:32+00:00", "2022-07-07T16:49:05+00:00", "2022-07-07T16:52:34+00:00", "2022-07-07T16:55:39+00:00", "2022-07-07T16:58:36+00:00", "2022-07-07T17:01:40+00:00", "2022-07-07T17:04:38+00:00", "2022-07-07T17:07:41+00:00", "2022-07-07T17:09:27+00:00", "2022-07-07T17:10:31+00:00", "2022-07-07T17:11:47+00:00", "2022-07-07T17:15:21+00:00", "2022-07-07T17:16:33+00:00", "2022-07-07T17:19:30+00:00", "2022-07-07T17:22:11+00:00", "2022-07-07T17:24:20+00:00", "2022-07-07T17:26:52+00:00", "2022-07-07T17:28:21+00:00", "2022-07-07T17:31:41+00:00", "2022-07-07T17:33:58+00:00", "2022-07-07T17:36:07+00:00", "2022-07-07T17:38:07+00:00", "2022-07-07T17:40:24+00:00", "2022-07-07T17:42:40+00:00", "2022-07-07T17:46:33+00:00", "2022-07-07T17:48:25+00:00", "2022-07-07T17:53:06+00:00", "2022-07-07T17:54:26+00:00", "2022-07-07T17:58:21+00:00", "2022-07-07T17:59:45+00:00", "2022-07-07T18:05:44+00:00", "2022-07-07T18:07:45+00:00", "2022-07-07T18:10:51+00:00", "2022-07-07T18:14:20+00:00", "2022-07-07T18:18:22+00:00", "2022-07-07T18:23:28+00:00", "2022-07-07T18:28:18+00:00", "2022-07-07T18:33:50+00:00", "2022-07-07T18:44:26+00:00", "2022-07-07T18:53:55+00:00", "2022-07-07T19:00:33+00:00", "2022-07-07T19:07:31+00:00", "2022-07-07T19:12:45+00:00", "2022-07-07T19:22:17+00:00", "2022-07-07T19:27:56+00:00", "2022-07-07T19:33:58+00:00", "2022-07-07T19:37:58+00:00", "2022-07-07T19:43:21+00:00", "2022-07-07T19:46:18+00:00", "2022-07-07T19:50:00+00:00", "2022-07-07T19:54:14+00:00", "2022-07-07T19:56:04+00:00", "2022-07-07T20:02:11+00:00", "2022-07-07T20:08:03+00:00", "2022-07-07T20:12:09+00:00", "2022-07-07T20:13:32+00:00", "2022-07-07T20:21:08+00:00", "2022-07-07T20:23:30+00:00", "2022-07-07T20:28:11+00:00", "2022-07-07T20:32:02+00:00", "2022-07-07T20:35:12+00:00", "2022-07-07T20:38:04+00:00", "2022-07-07T20:44:06+00:00", "2022-07-07T20:48:09+00:00", "2022-07-07T20:52:10+00:00", "2022-07-07T20:52:45+00:00", "2022-07-07T20:58:10+00:00", "2022-07-07T21:02:17+00:00", "2022-07-07T21:06:25+00:00", "2022-07-07T21:08:09+00:00", "2022-07-07T21:12:28+00:00", "2022-07-07T21:14:12+00:00", "2022-07-07T21:16:29+00:00", "2022-07-07T21:22:11+00:00", "2022-07-07T21:27:46+00:00", "2022-07-07T21:32:17+00:00", "2022-07-07T21:36:17+00:00", "2022-07-07T21:40:15+00:00", "2022-07-07T21:47:06+00:00", "2022-07-07T21:50:15+00:00", "2022-07-07T21:56:20+00:00", "2022-07-07T22:00:15+00:00", "2022-07-07T22:06:09+00:00", "2022-07-07T22:10:15+00:00", "2022-07-07T22:12:17+00:00", "2022-07-07T22:18:17+00:00", "2022-07-07T22:21:49+00:00", "2022-07-07T22:24:18+00:00", "2022-07-07T22:27:01+00:00", "2022-07-07T22:32:18+00:00", "2022-07-07T22:38:19+00:00", "2022-07-07T22:42:20+00:00", "2022-07-07T22:48:20+00:00", "2022-07-07T22:54:23+00:00", "2022-07-07T23:02:35+00:00", "2022-07-07T23:06:04+00:00", "2022-07-07T23:10:29+00:00", "2022-07-07T23:18:29+00:00", "2022-07-07T23:24:35+00:00", "2022-07-07T23:28:35+00:00", "2022-07-07T23:32:35+00:00", "2022-07-07T23:38:35+00:00", "2022-07-07T23:41:37+00:00", "2022-07-07T23:48:39+00:00", "2022-07-07T23:52:39+00:00", "2022-07-07T23:58:47+00:00", "2022-07-08T00:04:40+00:00", "2022-07-08T00:12:40+00:00", "2022-07-08T00:18:39+00:00", "2022-07-08T00:22:40+00:00", "2022-07-08T00:29:43+00:00", "2022-07-08T00:32:40+00:00", "2022-07-08T00:40:25+00:00", "2022-07-08T00:42:47+00:00", "2022-07-08T00:49:15+00:00", "2022-07-08T00:52:42+00:00", "2022-07-08T00:58:43+00:00", "2022-07-08T01:04:29+00:00", "2022-07-08T01:06:44+00:00", "2022-07-08T01:12:45+00:00", "2022-07-08T01:16:46+00:00", "2022-07-08T01:20:45+00:00", "2022-07-08T01:24:48+00:00", "2022-07-08T01:30:41+00:00", "2022-07-08T01:36:46+00:00", "2022-07-08T01:40:45+00:00", "2022-07-08T01:41:39+00:00", "2022-07-08T01:48:47+00:00", "2022-07-08T01:52:47+00:00", "2022-07-08T01:56:50+00:00", "2022-07-08T01:59:03+00:00", "2022-07-08T02:03:33+00:00", "2022-07-08T02:08:49+00:00", "2022-07-08T02:12:49+00:00", "2022-07-08T02:14:10+00:00", "2022-07-08T02:18:49+00:00", "2022-07-08T02:22:04+00:00", "2022-07-08T02:26:52+00:00", "2022-07-08T02:30:45+00:00", "2022-07-08T02:34:52+00:00", "2022-07-08T02:40:45+00:00", "2022-07-08T02:47:11+00:00", "2022-07-08T02:53:28+00:00", "2022-07-08T03:01:15+00:00", "2022-07-08T03:20:44+00:00", "2022-07-08T03:33:17+00:00", "2022-07-08T03:40:24+00:00", "2022-07-08T03:53:20+00:00", "2022-07-08T04:01:15+00:00", "2022-07-08T04:13:26+00:00", "2022-07-08T04:19:54+00:00", "2022-07-08T04:31:26+00:00", "2022-07-08T04:44:16+00:00", "2022-07-08T04:53:15+00:00", "2022-07-08T05:01:32+00:00", "2022-07-08T05:11:34+00:00", "2022-07-08T05:24:17+00:00", "2022-07-08T05:33:23+00:00", "2022-07-08T05:43:30+00:00", "2022-07-08T05:53:30+00:00", "2022-07-08T06:05:06+00:00", "2022-07-08T06:09:39+00:00", "2022-07-08T06:17:38+00:00", "2022-07-08T06:49:40+00:00", "2022-07-08T07:11:34+00:00", "2022-07-08T07:25:35+00:00", "2022-07-08T07:55:09+00:00", "2022-07-08T08:13:13+00:00", "2022-07-08T08:21:15+00:00", "2022-07-08T08:33:33+00:00", "2022-07-08T08:58:03+00:00", "2022-07-08T09:20:00+00:00", "2022-07-08T09:24:11+00:00", "2022-07-08T09:28:04+00:00", "2022-07-08T09:32:28+00:00", "2022-07-08T09:33:33+00:00", "2022-07-08T09:38:51+00:00", "2022-07-08T09:40:51+00:00", "2022-07-08T09:43:50+00:00", "2022-07-08T09:48:11+00:00", "2022-07-08T09:52:11+00:00", "2022-07-08T09:56:13+00:00", "2022-07-08T10:00:15+00:00", "2022-07-08T10:04:15+00:00", "2022-07-08T10:06:35+00:00", "2022-07-08T10:10:15+00:00", "2022-07-08T10:14:15+00:00", "2022-07-08T10:18:15+00:00", "2022-07-08T10:23:19+00:00", "2022-07-08T10:30:15+00:00", "2022-07-08T10:31:45+00:00", "2022-07-08T10:36:16+00:00", "2022-07-08T10:40:15+00:00", "2022-07-08T10:44:16+00:00", "2022-07-08T10:48:23+00:00", "2022-07-08T10:52:06+00:00", "2022-07-08T10:53:31+00:00", "2022-07-08T10:58:17+00:00", "2022-07-08T11:02:23+00:00", "2022-07-08T11:06:23+00:00", "2022-07-08T11:10:15+00:00", "2022-07-08T11:12:18+00:00", "2022-07-08T11:16:23+00:00", "2022-07-08T11:20:15+00:00", "2022-07-08T11:24:23+00:00", "2022-07-08T11:27:32+00:00", "2022-07-08T11:28:23+00:00", "2022-07-08T11:34:23+00:00", "2022-07-08T11:38:22+00:00", "2022-07-08T11:40:15+00:00", "2022-07-08T11:44:23+00:00", "2022-07-08T11:50:15+00:00", "2022-07-08T11:54:01+00:00", "2022-07-08T12:00:15+00:00", "2022-07-08T12:04:25+00:00", "2022-07-08T12:08:25+00:00", "2022-07-08T12:12:30+00:00", "2022-07-08T12:16:35+00:00", "2022-07-08T12:20:23+00:00", "2022-07-08T12:23:03+00:00", "2022-07-08T12:28:35+00:00", "2022-07-08T12:32:27+00:00", "2022-07-08T12:36:29+00:00", "2022-07-08T12:37:30+00:00", "2022-07-08T12:43:32+00:00", "2022-07-08T12:47:07+00:00", "2022-07-08T12:48:30+00:00", "2022-07-08T12:54:31+00:00", "2022-07-08T12:58:32+00:00", "2022-07-08T13:02:32+00:00", "2022-07-08T13:08:32+00:00", "2022-07-08T13:12:32+00:00", "2022-07-08T13:16:32+00:00", "2022-07-08T13:20:30+00:00", "2022-07-08T13:24:32+00:00", "2022-07-08T13:25:33+00:00", "2022-07-08T13:30:30+00:00", "2022-07-08T13:34:33+00:00", "2022-07-08T13:38:33+00:00", "2022-07-08T13:42:33+00:00", "2022-07-08T13:46:40+00:00", "2022-07-08T13:49:46+00:00", "2022-07-08T13:52:33+00:00", "2022-07-08T13:56:34+00:00", "2022-07-08T14:00:20+00:00", "2022-07-08T14:06:34+00:00", "2022-07-08T14:10:30+00:00", "2022-07-08T14:14:35+00:00", "2022-07-08T14:18:36+00:00", "2022-07-08T14:22:36+00:00", "2022-07-08T14:26:36+00:00", "2022-07-08T14:30:30+00:00", "2022-07-08T14:32:49+00:00", "2022-07-08T14:36:37+00:00", "2022-07-08T14:40:30+00:00", "2022-07-08T14:44:40+00:00", "2022-07-08T14:48:40+00:00", "2022-07-08T14:53:32+00:00", "2022-07-08T14:58:39+00:00", "2022-07-08T15:01:00+00:00", "2022-07-08T15:06:57+00:00", "2022-07-08T15:10:59+00:00", "2022-07-08T15:12:25+00:00", "2022-07-08T15:17:05+00:00", "2022-07-08T15:21:00+00:00", "2022-07-08T15:23:23+00:00", "2022-07-08T15:25:05+00:00", "2022-07-08T15:31:00+00:00", "2022-07-08T15:35:05+00:00", "2022-07-08T15:39:05+00:00", "2022-07-08T15:45:05+00:00", "2022-07-08T15:46:47+00:00", "2022-07-08T15:51:00+00:00", "2022-07-08T15:55:05+00:00", "2022-07-08T15:59:05+00:00", "2022-07-08T16:03:05+00:00", "2022-07-08T16:07:06+00:00", "2022-07-08T16:11:00+00:00", "2022-07-08T16:12:04+00:00", "2022-07-08T16:17:05+00:00", "2022-07-08T16:21:00+00:00", "2022-07-08T16:25:06+00:00", "2022-07-08T16:29:07+00:00", "2022-07-08T16:33:07+00:00", "2022-07-08T16:37:07+00:00", "2022-07-08T16:40:10+00:00", "2022-07-08T16:41:00+00:00", "2022-07-08T16:47:08+00:00", "2022-07-08T16:51:00+00:00", "2022-07-08T16:55:08+00:00", "2022-07-08T16:59:08+00:00", "2022-07-08T17:03:09+00:00", "2022-07-08T17:07:09+00:00", "2022-07-08T17:11:00+00:00", "2022-07-08T17:13:01+00:00", "2022-07-08T17:17:09+00:00", "2022-07-08T17:21:00+00:00", "2022-07-08T17:25:18+00:00", "2022-07-08T17:29:11+00:00", "2022-07-08T17:33:17+00:00", "2022-07-08T17:41:15+00:00", "2022-07-08T17:47:17+00:00", "2022-07-08T17:51:15+00:00", "2022-07-08T17:55:17+00:00", "2022-07-08T17:56:15+00:00", "2022-07-08T18:01:15+00:00", "2022-07-08T18:05:19+00:00", "2022-07-08T18:07:53+00:00", "2022-07-08T18:09:19+00:00", "2022-07-08T18:15:19+00:00", "2022-07-08T18:17:23+00:00", "2022-07-08T18:23:16+00:00", "2022-07-08T18:25:57+00:00", "2022-07-08T18:27:23+00:00", "2022-07-08T18:31:15+00:00", "2022-07-08T18:37:23+00:00", "2022-07-08T18:41:15+00:00", "2022-07-08T18:45:23+00:00", "2022-07-08T18:49:23+00:00", "2022-07-08T18:55:24+00:00", "2022-07-08T18:59:26+00:00", "2022-07-08T19:00:12+00:00", "2022-07-08T19:02:52+00:00", "2022-07-08T19:03:30+00:00", "2022-07-08T19:09:25+00:00", "2022-07-08T19:11:15+00:00", "2022-07-08T19:16:22+00:00", "2022-07-08T19:17:26+00:00", "2022-07-08T19:20:14+00:00", "2022-07-08T19:25:27+00:00", "2022-07-08T19:29:27+00:00", "2022-07-08T19:31:04+00:00", "2022-07-08T19:35:27+00:00", "2022-07-08T19:39:27+00:00", "2022-07-08T19:43:27+00:00", "2022-07-08T19:47:27+00:00", "2022-07-08T19:51:15+00:00", "2022-07-08T19:53:47+00:00", "2022-07-08T19:55:35+00:00", "2022-07-08T19:59:26+00:00", "2022-07-08T20:03:26+00:00", "2022-07-08T20:07:35+00:00", "2022-07-08T20:09:18+00:00", "2022-07-08T20:14:00+00:00", "2022-07-08T20:14:40+00:00", "2022-07-08T20:19:30+00:00", "2022-07-08T20:22:10+00:00", "2022-07-08T20:22:34+00:00", "2022-07-08T20:25:48+00:00", "2022-07-08T20:27:31+00:00", "2022-07-08T20:30:46+00:00", "2022-07-08T20:33:27+00:00", "2022-07-08T20:34:23+00:00", "2022-07-08T20:35:43+00:00", "2022-07-08T20:37:52+00:00", "2022-07-08T20:40:25+00:00", "2022-07-08T20:42:34+00:00", "2022-07-08T20:43:54+00:00", "2022-07-08T20:46:03+00:00", "2022-07-08T20:47:39+00:00", "2022-07-08T20:49:40+00:00", "2022-07-08T20:54:54+00:00", "2022-07-08T20:55:34+00:00", "2022-07-08T20:59:27+00:00", "2022-07-08T21:01:30+00:00", "2022-07-08T21:04:08+00:00", "2022-07-08T21:06:49+00:00", "2022-07-08T21:07:53+00:00", "2022-07-08T21:10:02+00:00", "2022-07-08T21:13:22+00:00", "2022-07-08T21:15:15+00:00", "2022-07-08T21:17:31+00:00", "2022-07-08T21:20:36+00:00", "2022-07-08T21:23:41+00:00", "2022-07-08T21:25:25+00:00", "2022-07-08T21:27:10+00:00", "2022-07-08T21:29:18+00:00", "2022-07-08T21:30:06+00:00", "2022-07-08T23:01:31+00:00", "2022-07-09T02:23:42+00:00", "2022-07-09T02:27:27+00:00", "2022-07-09T02:30:39+00:00", "2022-07-09T02:33:04+00:00", "2022-07-09T02:35:36+00:00", "2022-07-09T02:38:25+00:00", "2022-07-09T02:40:17+00:00", "2022-07-09T02:42:42+00:00", "2022-07-09T02:45:22+00:00", "2022-07-09T02:47:41+00:00", "2022-07-09T02:49:39+00:00", "2022-07-09T02:51:42+00:00", "2022-07-09T03:01:50+00:00", "2022-07-09T13:33:01+00:00", "2022-07-09T22:23:56+00:00", "2022-07-09T22:26:20+00:00", "2022-07-09T22:28:36+00:00", "2022-07-09T22:29:41+00:00", "2022-07-09T22:31:33+00:00", "2022-07-09T22:33:09+00:00", "2022-07-09T22:34:15+00:00", "2022-07-09T22:36:05+00:00", "2022-07-09T22:38:05+00:00", "2022-07-09T22:41:27+00:00", "2022-07-09T22:41:59+00:00", "2022-07-09T22:43:43+00:00", "2022-07-09T22:46:40+00:00", "2022-07-09T22:48:08+00:00", "2022-07-09T22:50:24+00:00", "2022-07-09T22:52:16+00:00", "2022-07-09T22:53:55+00:00", "2022-07-09T22:56:25+00:00", "2022-07-09T22:56:57+00:00", "2022-07-09T23:00:02+00:00", "2022-07-09T23:01:40+00:00", "2022-07-09T23:03:00+00:00", "2022-07-09T23:05:49+00:00", "2022-07-09T23:07:41+00:00", "2022-07-09T23:08:45+00:00", "2022-07-09T23:10:54+00:00", "2022-07-09T23:12:21+00:00", "2022-07-09T23:16:21+00:00"], "elevations": [null, 48.0, 28.0, null, 28.0, 26.7, 19.0, null, 38.5, 24.3, 8.5, 10.2, 9.0, 9.0, 16.0, null, 4.2, 19.0, 13.0, null, null, 2.7, null, 3.0, 4.0, null, null, 8.4, -2.0, 3.0, null, null, 6.0, null, 4.7, null, 1.0, 7.0, null, 6.7, 7.0, 7.0, 6.0, null, 2.1, -3.0, 7.0, 7.0, 6.4, 7.0, 6.5, 7.2, 8.0, 9.0, 8.4, 8.0, 4.0, 6.5, 10.5, 9.0, 5.0, 7.0, 6.4, 7.0, 7.0, 7.0, 7.0, 7.0, 7.0, 7.0, 7.0, 7.0, 7.0, 8.0, 8.4, null, 7.0, 7.0, null, 7.0, 8.4, 8.0, 8.0, 8.0, 8.0, -1.7, -0.5, 0.0, 0.3, 1.0, -18.0, 1.0, 13.2, -1.0, 8.0, null, -2.0, 0.4, null, 0.0, 0.3, null, 0.0, 3.0, 3.2, null, 8.0, 3.0, 3.0, 2.3, 3.0, 3.5, 5.0, 4.7, 7.0, 5.0, 5.0, 4.4, null, 3.0, 4.0, 12.7, 4.0, 4.0, 4.0, 4.5, 0.0, 1.0, 4.0, 6.0, 6.0, 4.0, 4.0, 3.0, 3.0, 2.3, 7.0, null, null, 17.0, 18.0, 20.3, 22.0, 19.0, 11.0, 0.3, 6.0, 11.2, 10.0, 18.0, 24.7, 3.7, 1.7, -1.7, -3.9, -1.7, 5.4, 18.5, 2.7, -9.3, -7.5, 8.7, 8.5, 8.0, 4.5, 5.5, 4.0, 20.7, 6.5, 9.0, 12.2, 12.0, 4.4, 3.0, 6.7, 9.5, 16.8, 38.9, 18.7, 30.9, 19.5, 18.8, null, 4.0, null, 2.0, 6.0, -1.0, 3.5, 11.3, 7.2, -8.7, -2.4, 7.2, 9.5, 7.0, 4.4, 7.3, 8.7, 4.3, 14.5, 4.5, 0.7, 2.0, 7.2, 4.0, 1.5, 2.8, 5.0, 2.0, 7.2, 4.0, 7.0, 4.4, 3.5, 5.0, 4.7, -1.0, 7.0, 2.3, 5.0, 1.5, 7.0, 6.4, 3.5, 2.0, 3.2, 2.7, 0.0, -1.7, -3.0, -0.9, 6.0, -1.3, -1.5, -2.7, -3.0, -5.5, -2.0, 1.0, null, 5.0, null, 5.7, 5.5, 9.5, 3.7, 1.0, -1.7, 2.5, 0.7, 3.0, 0.0, -0.8, -0.5, 2.3, 5.0, 3.0, 3.7, 4.0, 5.0, 4.0, 2.0, 3.0, 1.0, 2.0, 1.0, 3.4, null, 7.0, 15.0, 14.5, 5.0, 5.0, 6.0, 0.7, 2.0, 0.0, 2.0, 2.3, 1.0, 4.0, 2.0, 3.0, 2.2, 4.0, 3.0, 1.7, 1.5, null, 6.2, 5.0, 6.0, null, -5.0, -1.0, 0.3, null, null, 4.0, 1.0, 3.0, 0.3, 0.0, 0.5, 1.0, 6.7, null, null, 4.0, null, 9.0, 21.2, 2.0, 1.0, 2.0, 0.2, 0.0, 1.0, 2.0, 0.0, 14.5, -7.0, 0.0, 4.0, null, 5.2, null, 0.0, -0.5, 7.0, 4.4, 5.0, -1.0, 0.5, null, 2.7, 2.0, null, 4.0, 4.4, 4.5, null, 4.5, 4.4, null, 4.0, 4.4, 5.0, 3.0, 4.0, 2.0, 1.0, null, -2.0, 1.0, 11.0, 7.7, 0.0, 12.5, 8.4, 4.0, 10.0, 6.0, 6.0, 5.0, 6.0, 8.0, 1.0, 2.5, 5.0, 8.4, 6.0, 45.0, 26.7, 15.0, 16.0, 18.3, 18.0, 20.0, 20.0, 3.0, 5.0, 4.4, 4.0, 5.0, 3.7, 0.0, 0.0, 2.5, 4.4, 4.0, 2.0, 4.0, 3.2, 4.0, 4.0, 11.3, null, 12.0, 14.0, 13.3, 16.0, 21.0, 21.0, 5.7, 5.0, 7.0, 5.7, 4.5, null, 5.0, 1.7, -1.0, null, 0.0, 2.3, 10.0, 15.0, 13.0, -1.7, 11.0, 12.5, null, -2.4, -1.0, -1.0, 0.0, 9.0, 10.2, 27.0, null, 55.6, 55.0, 46.0, 18.0, 34.0, null, 7.0, -0.5, -7.8, 1.5, null, -9.0, 9.2, 4.0, null, 4.0, -17.0, -14.4, null, -15.0, null, -12.5, null, -11.8, 14.0, null, -4.0, -7.0, -5.8, -6.0, -8.0, -8.0, -12.0, -13.9, -5.0, -5.0, -12.0, -3.7, null, 6.0, 3.0, 29.0, 4.0, 3.7, null, -1.0, -13.0, -1.7, 6.0, 0.0, null, -8.0, -1.7, 1.0, null, 2.5, 8.0, 0.3, 0.0, 3.0, 0.0, 3.0, null, -0.8, null, -0.5, null, 1.0, 0.3, -2.0, 0.0, null, 5.2, null, 4.0, null, 14.0, 14.0, 16.5, 18.0, 14.0, 0.0, null, 40.9, 41.0, null, -2.0, 5.0, 12.5, null, 17.0, 20.0, 22.0, 8.0, 16.5, null, 29.0, 41.0, null, 25.5, 4.0, null, 6.0, 5.0, 36.9, 31.0, 34.0, 4.0, 5.7, 9.0, 12.0, 12.0, 6.7, 4.0, 6.0, 4.4, null, -3.0, null, -6.5, -6.0, 2.0, 0.0, 0.0, -5.0, -1.5, 2.0, 4.0, 1.0, 4.0, 2.0, null, 6.5, 9.0, null, 10.0, 3.0, 4.2, 1.0, 2.0, null, 5.0, 5.0, 4.0, 5.0, 9.0, 9.0, 12.7, 13.0, 14.0, -3.0, 6.4, 7.0, 6.5, null, 6.4, null, 0.0, 5.0, 8.0, 20.6, null, 5.0, -4.0, 4.0, null, 0.5, -7.0, 2.0, -1.7, -6.0, 5.5, null, 4.2, null, 2.0, 23.1, -8.0, -3.0, 0.0, -2.8, 2.0, null, 2.0, 6.2, 4.0, 3.0, 4.4, null, 5.0, 3.0, 4.4, 1.0, 5.0, 2.3, -1.0, 0.0, 2.0, 0.2, null, 5.5, 1.0, 4.4, 5.0, null, 0.3, -5.0, null, 3.0, null, 2.3, 15.0, 22.0, 14.0, 15.3, 17.0, 14.5, 2.3, 3.0, 12.0, 18.0, 8.5, 6.0, 10.0, 5.4, 1.0, 10.0, 6.2, null, 2.7, null, 6.0, 4.0, 8.7, 9.5, 14.5, 0.0, 5.7, 7.0, 4.4, 2.0, 4.5, 6.4, 4.0, 10.0, 7.7, 2.5, 3.0, 8.4, 8.0, 12.0, 13.0, 2.3, 0.0, 5.0, 6.0, 12.2, 0.0, 7.0, 9.0, 6.4, 9.0, 10.0, 14.5, 13.0, 37.0, 19.2, 0.0, 1.0, 0.0, 18.0, 14.3, 17.0, 7.6, -9.0, -3.0, -11.0, null, null, null, 25.0, -19.9, 1.0, 2.0, 2.3, 1.0, 3.0, 6.7, -0.5, 1.5, 2.2, 5.5, 8.0, 5.0, 5.0, 1.0, null, 4.0, 8.2, 7.0, 6.4, 7.0, 7.0, 7.2, 7.5, 7.0, 7.7, null, 7.0, 7.0, 9.0, 6.2, 6.0, 7.0, 5.7, 5.0, 5.0, 4.4, 4.0, 3.0, 4.2, 3.0, 11.0, 4.0, -1.7, -2.0, null, 0.5, 0.8, 0.0, 0.0, 0.0, 1.7, 0.0, 15.0, 11.0, 13.0, 10.5, 3.0, 17.5, -10.0, 24.7, 0.0, 0.0, 2.0, -37.4, -1.0, 0.0, 0.2, 0.0, 28.0, -9.0, -26.4, -6.0, null, -5.8, -5.0, -6.0, -4.0, null, -3.7, 35.0, 76.0, 75.5, null, null, null, null, null, null, null, null, null, null, null, null, null, null, null, null, null, null, null, null, 32.0, 5.0, 7.0, 7.2, 7.0, 4.0, 7.0, 7.7, 7.0, 5.0, 8.2, 4.0, 4.0, 4.4, 0.0, 8.0, 4.0, 4.4, -14.0, 4.0, 4.0, 4.4, null, null, null, null, null, -7.0, -7.8, -7.0, null, null, -3.4, -3.0, -2.0, -1.7, -4.5, null, -5.5, -7.0, -1.0, -1.7, 0.0, 1.0, 0.3, 0.0, 6.0, -1.4, 0.0, -1.0, 0.5, 0.3, 0.0, 2.0, 1.0, 1.2, 3.0, 1.5, 2.0, 4.2, 4.0, 4.0, 5.0, 5.7, -4.0, 4.0, 4.4, 4.0, null, 5.5, 6.0, 4.0, 7.0, 6.7, 6.0, 5.5, 7.2, 7.0, 4.0, 6.0, 8.4, 5.5, 7.0, 6.0, 5.2, 4.5, 6.0, 3.7, 3.0, 2.5, 4.4, 2.0, 6.0, 5.0, 4.7, 4.0, 7.0, 6.4, 2.0, 1.0, 1.7, 0.0, 2.0, 1.0, 0.2, 1.0, 0.0, 2.0, 1.0, 2.3, 0.5, 2.0, 2.0, 0.3, 1.0, 3.0, -11.0, 2.3, 0.5, 5.0, 5.0, 5.0, 1.0, 4.0, 4.0, 4.1, 5.0, 5.2, 5.0, 5.7, 1.5, 4.1, 3.5, -1.0, 3.0, 1.3, 0.5, 0.0, -1.0, 1.0, null, 0.0, 1.0, 3.0, null, 2.0, null, -7.0, 4.0, 7.0, null, 16.0, 10.0, -6.0, 17.5, -1.5, -1.9, 0.0, -1.0, -2.0, -3.4, -5.0, -3.0, -3.9, -6.0, -4.0, -7.8, -8.0, -4.0, -3.9, -4.0, 1.5, -1.4, -2.0, -2.0, -3.9, -4.0, 1.5, 0.0, 0.3, -1.5, -1.9, -3.0, -3.0, 1.0, null, null, 2.0, null, 5.0, 6.7, null, 7.5, null, 4.5, -2.0, -3.0, -2.0, -6.0, 6.0, 5.0, 7.0, 8.0, 9.2, 7.0, -3.0, 18.6, 15.5, 6.0, -7.3, 0.5, -1.4, 4.0, 10.3, 7.5, 3.0, 9.0, 11.6, 9.2, 3.4, -7.0, 1.0, 1.0, 8.0, 10.5, 7.0, 7.2, 4.0, 0.0, 2.2, 1.0, 8.4, 7.0, 6.4, 7.0, 6.0, 10.7, 4.0, 5.5, 3.2, 3.0, 40.2, 6.0, 3.5, 8.2, 6.0, 0.7, -5.0, 1.0, null, 4.0, 4.0, 9.2, 34.0, 1.7, 2.0, -1.9, 3.0, -5.3, 7.5, 5.2, 6.5, 13.5, 6.4, 5.3, 9.0, 8.2, 5.0, -0.6, 5.8, 8.0, -1.3, null, 2.5, 4.0, 3.7, 5.0, 2.1, 3.0, 3.7, 3.5, 4.8, 4.8, 0.3, 1.2, 2.0, 8.8, 10.0, 20.4, 16.0, 4.8, 3.0, 3.7, 8.0, 12.0, 3.3, 4.5, 6.5, 8.2, 15.5, 20.0, 17.0, 12.8, 12.0, 7.0, 8.7, 8.5, 12.0, 24.4, 13.0, -6.9, 12.0, 8.0, 12.5, 8.0, 25.8, 17.5, 40.9, 55.0, 60.4, 19.8, 9.4, 7.1, 12.7, 8.4, 9.4, 7.1, 6.7, 5.0, 2.7, 6.8, 5.8, 6.9, 10.1, 6.5, 7.3, 5.7, 14.5, 8.8, 20.8, 20.1, 8.7, 4.3, 7.7, 5.7, 4.8, 21.6, 6.4, 22.7, -1.0, 0.0, 1.2, null, -0.5, 0.2, -4.0, 0.5, 1.5, -5.0, 5.0, 13.5, 3.0, 2.2, -3.5, 1.5, 4.4, 3.7, 4.0, 3.5, 3.2, 1.5, 1.5, 0.3, 1.0, 6.0, 3.2, 11.0, 7.7, 3.0, 6.0, 7.2, 8.5, 9.0, 9.7, 12.5, 18.0, 12.5, 8.0, 10.2, 5.0, 8.2, 4.5, 7.5, 7.0, 3.5, 4.0, -7.0, 11.0, 7.7, 5.5, 1.0, 2.5, 4.0, 4.2, 6.5, 1.5, 7.2, 1.5, -0.3, 1.5, 2.2, 1.0, 3.0, 3.7, 1.5, 2.0, 4.7, -1.0, null, 7.2, 19.5, 9.0, 6.0, 7.2, 17.5, 8.0, 7.2, 5.0, 9.7, 6.0, 12.0, 10.7, 8.5, 5.0, 9.2, 12.5, 6.4, 0.5, 0.5, -1.0, 3.0, 12.8, 0.0, 13.0, 5.2, 3.0, -9.5, -6.0, -5.0, -4.4, -6.0, 6.5, -0.8, 4.0, 5.2, 2.0, 8.0, 8.7, 9.0, 10.5, 9.2, 7.5, 4.0, 0.7, 18.0, -0.4, 15.5, 9.5, 5.2, 11.5, 10.2, 10.0, 5.0, 4.7, 4.5, 8.0, 5.7, 10.5, 10.5, 21.3, 24.0, 31.0, 24.2, 17.5, 16.0, 12.2, 21.0, 20.0, 15.2, 23.0, 11.0, 12.5, 23.0, 26.3, 10.5, 3.5, 14.0, 8.5, 10.5, null, 10.0, null, 15.2, 7.0, 10.5, 16.5, 15.0, 10.0, 12.5, 10.0, 10.5, 17.3, 16.5, 16.3, 10.0, 9.0, 16.0, 7.5, 13.5, 13.0, 12.5, null, 14.0, 16.5, 10.0, 23.0, 18.0, null, 20.6, 20.5, 24.0, null, 20.0, 16.5, 11.0, 3.0, 6.0, 8.7, 11.0, 9.5, null, 12.7, 15.0, 11.0, 7.0, 24.7, null, 19.0, 23.0, 6.4, 7.5, 4.0, 26.0, null, 12.8, 15.5, 15.8, 12.0, 11.0, 9.5, 8.4, 27.0, 15.0, 39.0, 4.4, 3.0, 44.0, 8.0, 18.8, 11.9, -1.7, null, 0.0, 1.0, 13.0, null, 10.7, 12.0, 17.0, -10.0, null, 22.6, 22.0, 18.0, 24.0, null, 16.3, 17.0, 19.0, null, 18.0, 17.0, 16.5, 9.0, -28.0, 21.0, 37.0, 40.1]}