{"type": "Feature", "properties": {"leg_id": 6, "name": "20191119 - Loreto to La Paz", "stated_nm": 170.2, "computed_nm": 170.2}, "geometry": {"type": "LineString", "coordinates": [[-111.235299, 25.723391], [-111.221219, 25.726591], [-111.208719, 25.715523], [-111.195911, 25.705258], [-111.195008, 25.704563], [-111.183325, 25.695019], [-111.170951, 25.684002], [-111.16062, 25.671106], [-111.159196, 25.669341], [-111.15033, 25.65836], [-111.140317, 25.645488], [-111.130198, 25.632757], [-111.12819, 25.63016], [-111.120316, 25.619754], [-111.110622, 25.606012], [-111.100732, 25.591985], [-111.097955, 25.58822], [-111.090611, 25.57807], [-111.080221, 25.564794], [-111.072601, 25.550617], [-111.070746, 25.545111], [-111.067368, 25.534796], [-111.070303, 25.519094], [-111.070682, 25.518014], [-111.070024, 25.518259], [-111.055251, 25.524164], [-111.045543, 25.526286], [-111.038025, 25.52638], [-111.035279, 25.526602], [-111.027709, 25.527338], [-111.016105, 25.528215], [-111.011677, 25.526156], [-111.007186, 25.524874], [-110.999402, 25.523956], [-110.998442, 25.518442], [-110.988015, 25.507], [-110.980548, 25.496147], [-110.97569, 25.485588], [-110.97525, 25.4843], [-110.966831, 25.473577], [-110.953609, 25.465657], [-110.944533, 25.456083], [-110.944327, 25.455959], [-110.93309, 25.447588], [-110.923234, 25.441533], [-110.91194, 25.43402], [-110.911575, 25.433768], [-110.90027, 25.425727], [-110.889302, 25.419028], [-110.885731, 25.407848], [-110.886255, 25.406688], [-110.890881, 25.396862], [-110.896081, 25.38555], [-110.899788, 25.373299], [-110.900223, 25.370971], [-110.902191, 25.360041], [-110.907355, 25.347172], [-110.902361, 25.335993], [-110.900823, 25.332681], [-110.896233, 25.321898], [-110.887738, 25.308611], [-110.881456, 25.294168], [-110.880116, 25.289336], [-110.876697, 25.278804], [-110.869664, 25.264646], [-110.862974, 25.252469], [-110.860611, 25.247665], [-110.856312, 25.239873], [-110.852276, 25.228821], [-110.848328, 25.215888], [-110.846406, 25.210865], [-110.843674, 25.203011], [-110.840348, 25.188952], [-110.836919, 25.175382], [-110.835593, 25.167865], [-110.833508, 25.161343], [-110.828944, 25.14903], [-110.8263, 25.136447], [-110.824326, 25.12864], [-110.823866, 25.12209], [-110.821577, 25.107862], [-110.820948, 25.094315], [-110.820228, 25.087516], [-110.821427, 25.083117], [-110.822509, 25.068111], [-110.821856, 25.052679], [-110.824681, 25.047106], [-110.824018, 25.047397], [-110.806123, 25.049507], [-110.794726, 25.05075], [-110.789158, 25.04827], [-110.776447, 25.043641], [-110.762259, 25.036822], [-110.750228, 25.028127], [-110.749633, 25.027595], [-110.741049, 25.017608], [-110.733355, 25.006811], [-110.726014, 24.995861], [-110.725085, 24.994518], [-110.718573, 24.98475], [-110.711082, 24.973667], [-110.703052, 24.962441], [-110.701503, 24.960218], [-110.694557, 24.950766], [-110.685791, 24.939133], [-110.674609, 24.928653], [-110.6729, 24.925188], [-110.668224, 24.914959], [-110.661825, 24.901102], [-110.655359, 24.887026], [-110.653353, 24.882691], [-110.64905, 24.873812], [-110.642546, 24.861212], [-110.635525, 24.848258], [-110.632881, 24.843103], [-110.62925, 24.835175], [-110.624, 24.821893], [-110.607284, 24.818794], [-110.599108, 24.817858], [-110.589224, 24.817601], [-110.57067, 24.818526], [-110.567481, 24.819287], [-110.569625, 24.817496], [-110.576705, 24.809525], [-110.576934, 24.7957], [-110.579045, 24.785488], [-110.579461, 24.78107], [-110.584961, 24.766182], [-110.591155, 24.750875], [-110.594708, 24.739495], [-110.595642, 24.735835], [-110.597957, 24.72387], [-110.585667, 24.713884], [-110.574431, 24.707006], [-110.572202, 24.705693], [-110.559158, 24.697827], [-110.548198, 24.688218], [-110.538746, 24.67952], [-110.537657, 24.678511], [-110.526846, 24.669078], [-110.521281, 24.658188], [-110.522375, 24.64611], [-110.522407, 24.645683], [-110.523288, 24.632988], [-110.527211, 24.618788], [-110.530218, 24.60458], [-110.530315, 24.604128], [-110.532051, 24.591088], [-110.52394, 24.578988], [-110.513655, 24.566879], [-110.512568, 24.565645], [-110.503181, 24.554949], [-110.493154, 24.543718], [-110.482905, 24.532191], [-110.481111, 24.530271], [-110.47308, 24.520818], [-110.463431, 24.50925], [-110.454011, 24.497653], [-110.451715, 24.494833], [-110.444777, 24.486033], [-110.435241, 24.473594], [-110.428305, 24.464836], [-110.425819, 24.461971], [-110.418283, 24.453678], [-110.415606, 24.451031], [-110.406933, 24.442401], [-110.404684, 24.440073], [-110.39599, 24.431813], [-110.393726, 24.429861], [-110.38511, 24.42264], [-110.383389, 24.421107], [-110.376613, 24.41323], [-110.375514, 24.411976], [-110.36949, 24.402813], [-110.36876, 24.401623], [-110.364896, 24.393113], [-110.364615, 24.392276], [-110.361421, 24.383768], [-110.36117, 24.383069], [-110.358095, 24.373201], [-110.358021, 24.372584], [-110.357386, 24.363438], [-110.357423, 24.363141], [-110.356571, 24.350616], [-110.354061, 24.333236], [-110.354102, 24.333351], [-110.349775, 24.316706], [-110.34947, 24.316198], [-110.34163, 24.301566], [-110.341036, 24.300706], [-110.33133, 24.299039], [-110.331869, 24.299044], [-110.34477, 24.288786], [-110.344769, 24.288219], [-110.344511, 24.271523], [-110.344509, 24.271334], [-110.343634, 24.254767], [-110.343546, 24.254571], [-110.335788, 24.240055], [-110.335415, 24.239508], [-110.32481, 24.226779], [-110.323935, 24.22627], [-110.312031, 24.21592], [-110.310588, 24.215798], [-110.303764, 24.207493], [-110.30385, 24.206121], [-110.304394, 24.194891], [-110.304665, 24.19331], [-110.307642, 24.183051], [-110.30842, 24.181283], [-110.314998, 24.17235], [-110.316553, 24.17048], [-110.323442, 24.160892], [-110.324302, 24.15887], [-110.317273, 24.169787], [-110.31503, 24.172378], [-110.307053, 24.181091], [-110.305653, 24.184288], [-110.303864, 24.195718], [-110.302906, 24.199811], [-110.303307, 24.21076], [-110.304408, 24.214886], [-110.315031, 24.218955], [-110.317776, 24.222633], [-110.323663, 24.230666], [-110.326466, 24.234626], [-110.33226, 24.242608], [-110.3352, 24.246773], [-110.340188, 24.253894], [-110.342473, 24.258595], [-110.344854, 24.266248], [-110.345048, 24.271556], [-110.345746, 24.279229], [-110.346208, 24.28487], [-110.344799, 24.292572], [-110.340285, 24.297316], [-110.331955, 24.297869], [-110.33185, 24.297654], [-110.342824, 24.293173], [-110.344683, 24.290363], [-110.346185, 24.278706], [-110.346078, 24.27514], [-110.345499, 24.26343], [-110.345241, 24.259518], [-110.34224, 24.248536], [-110.340671, 24.244476], [-110.335135, 24.233591], [-110.331895, 24.229413], [-110.322965, 24.221573], [-110.317861, 24.219145], [-110.30728, 24.216077], [-110.304, 24.211796], [-110.303085, 24.202402], [-110.303635, 24.197505], [-110.305167, 24.189631], [-110.306146, 24.184535], [-110.309828, 24.177505], [-110.313141, 24.17298], [-110.31863, 24.167135], [-110.322646, 24.162186], [-110.323929, 24.159006], [-110.319808, 24.166113], [-110.315695, 24.171241], [-110.311622, 24.176314], [-110.308763, 24.179738], [-110.305475, 24.185144], [-110.304923, 24.189363], [-110.303867, 24.195851], [-110.303013, 24.200466], [-110.303008, 24.207533], [-110.303485, 24.212548], [-110.309577, 24.217554], [-110.315588, 24.218706], [-110.322913, 24.222882], [-110.328611, 24.226258], [-110.335868, 24.231415], [-110.338611, 24.235786], [-110.340598, 24.242773], [-110.341723, 24.247651], [-110.343547, 24.254643], [-110.344835, 24.25925], [-110.346666, 24.265979], [-110.347323, 24.270826], [-110.347592, 24.277672], [-110.347258, 24.282425], [-110.345807, 24.289115], [-110.34447, 24.293893], [-110.33867, 24.298033], [-110.332232, 24.299291], [-110.33146, 24.299292], [-110.340412, 24.301024], [-110.343268, 24.305845], [-110.344659, 24.313785], [-110.341401, 24.318451], [-110.333438, 24.319952], [-110.329687, 24.319607], [-110.331649, 24.321407], [-110.336938, 24.330456], [-110.339977, 24.338392], [-110.341916, 24.343728], [-110.344826, 24.35155], [-110.347023, 24.357246], [-110.349975, 24.364893], [-110.352364, 24.370942], [-110.35525, 24.37819], [-110.357751, 24.38466], [-110.360597, 24.391779], [-110.36331, 24.398735], [-110.365968, 24.405763], [-110.36861, 24.413133], [-110.370985, 24.419891], [-110.373545, 24.42764], [-110.375759, 24.43404], [-110.378308, 24.442058], [-110.380273, 24.448035], [-110.380046, 24.456606], [-110.379562, 24.462349], [-110.382256, 24.46989], [-110.386851, 24.472921], [-110.391826, 24.480618], [-110.393206, 24.485828], [-110.395688, 24.495306], [-110.3971, 24.499881], [-110.40013, 24.509855], [-110.401471, 24.514326], [-110.404358, 24.523716], [-110.40556, 24.527546], [-110.4085, 24.53703], [-110.409584, 24.540524], [-110.41264, 24.550335], [-110.413154, 24.553564], [-110.403435, 24.559196], [-110.39909, 24.560537], [-110.397927, 24.560818]]}, "times": ["2019-11-19T03:48:09+00:00", "2019-11-19T22:41:11+00:00", "2019-11-19T22:50:57+00:00", "2019-11-19T23:00:45+00:00", "2019-11-19T23:01:15+00:00", "2019-11-19T23:10:32+00:00", "2019-11-19T23:20:18+00:00", "2019-11-19T23:30:05+00:00", "2019-11-19T23:31:15+00:00", "2019-11-19T23:39:53+00:00", "2019-11-19T23:49:40+00:00", "2019-11-19T23:59:27+00:00", "2019-11-20T00:01:15+00:00", "2019-11-20T00:09:14+00:00", "2019-11-20T00:19:02+00:00", "2019-11-20T00:28:48+00:00", "2019-11-20T00:31:15+00:00", "2019-11-20T00:38:36+00:00", "2019-11-20T00:48:23+00:00", "2019-11-20T00:58:09+00:00", "2019-11-20T01:01:15+00:00", "2019-11-20T01:07:56+00:00", "2019-11-20T01:17:43+00:00", "2019-11-20T05:46:32+00:00", "2019-11-20T13:38:21+00:00", "2019-11-20T16:51:26+00:00", "2019-11-20T17:01:13+00:00", "2019-11-20T17:08:00+00:00", "2019-11-20T17:11:00+00:00", "2019-11-20T17:20:47+00:00", "2019-11-20T17:30:34+00:00", "2019-11-20T17:40:21+00:00", "2019-11-20T17:50:08+00:00", "2019-11-20T17:59:55+00:00", "2019-11-20T18:09:42+00:00", "2019-11-20T18:19:29+00:00", "2019-11-20T18:29:16+00:00", "2019-11-20T18:38:00+00:00", "2019-11-20T18:39:03+00:00", "2019-11-20T18:48:50+00:00", "2019-11-20T18:58:37+00:00", "2019-11-20T19:08:00+00:00", "2019-11-20T19:08:24+00:00", "2019-11-20T19:18:11+00:00", "2019-11-20T19:27:58+00:00", "2019-11-20T19:37:45+00:00", "2019-11-20T19:38:00+00:00", "2019-11-20T19:47:32+00:00", "2019-11-20T19:57:19+00:00", "2019-11-20T20:07:06+00:00", "2019-11-20T20:08:00+00:00", "2019-11-20T20:16:52+00:00", "2019-11-20T20:26:39+00:00", "2019-11-20T20:36:26+00:00", "2019-11-20T20:38:00+00:00", "2019-11-20T20:46:13+00:00", "2019-11-20T20:56:00+00:00", "2019-11-20T21:05:47+00:00", "2019-11-20T21:08:00+00:00", "2019-11-20T21:15:35+00:00", "2019-11-20T21:25:21+00:00", "2019-11-20T21:35:08+00:00", "2019-11-20T21:38:00+00:00", "2019-11-20T21:44:55+00:00", "2019-11-20T21:54:42+00:00", "2019-11-20T22:04:29+00:00", "2019-11-20T22:08:00+00:00", "2019-11-20T22:14:16+00:00", "2019-11-20T22:24:03+00:00", "2019-11-20T22:33:50+00:00", "2019-11-20T22:38:00+00:00", "2019-11-20T22:43:38+00:00", "2019-11-20T22:53:24+00:00", "2019-11-20T23:03:12+00:00", "2019-11-20T23:08:00+00:00", "2019-11-20T23:12:58+00:00", "2019-11-20T23:22:45+00:00", "2019-11-20T23:32:32+00:00", "2019-11-20T23:38:00+00:00", "2019-11-20T23:42:20+00:00", "2019-11-20T23:52:07+00:00", "2019-11-21T00:01:54+00:00", "2019-11-21T00:08:00+00:00", "2019-11-21T00:11:41+00:00", "2019-11-21T00:21:28+00:00", "2019-11-21T00:31:15+00:00", "2019-11-21T06:00:23+00:00", "2019-11-21T15:20:15+00:00", "2019-11-21T15:30:54+00:00", "2019-11-21T15:40:40+00:00", "2019-11-21T15:50:15+00:00", "2019-11-21T16:00:15+00:00", "2019-11-21T16:10:02+00:00", "2019-11-21T16:19:48+00:00", "2019-11-21T16:20:15+00:00", "2019-11-21T16:29:35+00:00", "2019-11-21T16:39:22+00:00", "2019-11-21T16:49:09+00:00", "2019-11-21T16:50:15+00:00", "2019-11-21T16:58:56+00:00", "2019-11-21T17:08:43+00:00", "2019-11-21T17:18:30+00:00", "2019-11-21T17:20:15+00:00", "2019-11-21T17:28:17+00:00", "2019-11-21T17:38:04+00:00", "2019-11-21T17:47:51+00:00", "2019-11-21T17:50:15+00:00", "2019-11-21T17:57:38+00:00", "2019-11-21T18:07:25+00:00", "2019-11-21T18:17:12+00:00", "2019-11-21T18:20:15+00:00", "2019-11-21T18:26:59+00:00", "2019-11-21T18:36:46+00:00", "2019-11-21T18:46:33+00:00", "2019-11-21T18:50:15+00:00", "2019-11-21T18:56:19+00:00", "2019-11-21T19:06:07+00:00", "2019-11-21T19:15:53+00:00", "2019-11-21T19:20:15+00:00", "2019-11-21T19:25:41+00:00", "2019-11-21T19:35:28+00:00", "2019-11-22T02:30:05+00:00", "2019-11-22T16:02:30+00:00", "2019-11-22T16:15:57+00:00", "2019-11-22T16:25:44+00:00", "2019-11-22T16:32:30+00:00", "2019-11-22T16:35:31+00:00", "2019-11-22T16:45:18+00:00", "2019-11-22T16:55:05+00:00", "2019-11-22T17:02:30+00:00", "2019-11-22T17:04:52+00:00", "2019-11-22T17:14:39+00:00", "2019-11-22T17:24:26+00:00", "2019-11-22T17:32:30+00:00", "2019-11-22T17:34:13+00:00", "2019-11-22T17:44:00+00:00", "2019-11-22T17:53:48+00:00", "2019-11-22T18:02:30+00:00", "2019-11-22T18:03:35+00:00", "2019-11-22T18:13:22+00:00", "2019-11-22T18:23:09+00:00", "2019-11-22T18:32:30+00:00", "2019-11-22T18:32:56+00:00", "2019-11-22T18:42:43+00:00", "2019-11-22T18:52:30+00:00", "2019-11-22T19:02:17+00:00", "2019-11-22T19:02:30+00:00", "2019-11-22T19:12:04+00:00", "2019-11-22T19:21:51+00:00", "2019-11-22T19:31:38+00:00", "2019-11-22T19:32:30+00:00", "2019-11-22T19:41:25+00:00", "2019-11-22T19:51:12+00:00", "2019-11-22T20:00:59+00:00", "2019-11-22T20:02:30+00:00", "2019-11-22T20:10:46+00:00", "2019-11-22T20:20:34+00:00", "2019-11-22T20:30:20+00:00", "2019-11-22T20:32:30+00:00", "2019-11-22T20:40:07+00:00", "2019-11-22T20:49:54+00:00", "2019-11-22T20:57:00+00:00", "2019-11-22T20:59:41+00:00", "2019-11-22T21:07:00+00:00", "2019-11-22T21:09:28+00:00", "2019-11-22T21:17:00+00:00", "2019-11-22T21:19:15+00:00", "2019-11-22T21:27:00+00:00", "2019-11-22T21:29:02+00:00", "2019-11-22T21:37:00+00:00", "2019-11-22T21:38:48+00:00", "2019-11-22T21:47:00+00:00", "2019-11-22T21:48:35+00:00", "2019-11-22T21:57:00+00:00", "2019-11-22T21:58:22+00:00", "2019-11-22T22:07:00+00:00", "2019-11-22T22:08:09+00:00", "2019-11-22T22:17:00+00:00", "2019-11-22T22:17:56+00:00", "2019-11-22T22:27:00+00:00", "2019-11-22T22:27:44+00:00", "2019-11-22T22:37:00+00:00", "2019-11-22T22:37:31+00:00", "2019-11-22T22:47:00+00:00", "2019-11-22T22:57:00+00:00", "2019-11-22T22:57:13+00:00", "2019-11-22T23:06:52+00:00", "2019-11-22T23:07:00+00:00", "2019-11-22T23:16:38+00:00", "2019-11-22T23:17:00+00:00", "2019-11-22T23:45:59+00:00", "2019-11-23T14:37:14+00:00", "2019-11-23T17:59:00+00:00", "2019-11-23T17:59:20+00:00", "2019-11-23T18:09:00+00:00", "2019-11-23T18:09:08+00:00", "2019-11-23T18:18:55+00:00", "2019-11-23T18:19:00+00:00", "2019-11-23T18:28:41+00:00", "2019-11-23T18:29:00+00:00", "2019-11-23T18:38:29+00:00", "2019-11-23T18:39:00+00:00", "2019-11-23T18:48:16+00:00", "2019-11-23T18:49:00+00:00", "2019-11-23T18:58:03+00:00", "2019-11-23T18:59:00+00:00", "2019-11-23T19:07:50+00:00", "2019-11-23T19:09:00+00:00", "2019-11-23T19:17:37+00:00", "2019-11-23T19:19:00+00:00", "2019-11-23T19:27:24+00:00", "2019-11-23T19:29:00+00:00", "2019-11-23T19:37:11+00:00", "2019-11-23T20:23:45+00:00", "2019-12-01T18:44:27+00:00", "2019-12-01T18:46:30+00:00", "2019-12-01T18:54:14+00:00", "2019-12-01T18:56:30+00:00", "2019-12-01T19:04:01+00:00", "2019-12-01T19:06:30+00:00", "2019-12-01T19:13:48+00:00", "2019-12-01T19:16:30+00:00", "2019-12-01T19:23:35+00:00", "2019-12-01T19:26:30+00:00", "2019-12-01T19:33:22+00:00", "2019-12-01T19:36:30+00:00", "2019-12-01T19:43:10+00:00", "2019-12-01T19:46:30+00:00", "2019-12-01T19:52:57+00:00", "2019-12-01T19:56:30+00:00", "2019-12-01T20:02:44+00:00", "2019-12-01T20:06:30+00:00", "2019-12-01T20:12:31+00:00", "2019-12-01T20:16:30+00:00", "2019-12-01T20:22:19+00:00", "2019-12-01T20:26:30+00:00", "2019-12-01T20:36:30+00:00", "2019-12-02T06:57:05+00:00", "2019-12-02T23:54:00+00:00", "2019-12-02T23:56:00+00:00", "2019-12-03T00:03:47+00:00", "2019-12-03T00:06:00+00:00", "2019-12-03T00:13:34+00:00", "2019-12-03T00:16:00+00:00", "2019-12-03T00:23:21+00:00", "2019-12-03T00:26:00+00:00", "2019-12-03T00:33:07+00:00", "2019-12-03T00:36:00+00:00", "2019-12-03T00:42:54+00:00", "2019-12-03T00:46:00+00:00", "2019-12-03T00:52:41+00:00", "2019-12-03T00:56:00+00:00", "2019-12-03T01:02:28+00:00", "2019-12-03T01:06:00+00:00", "2019-12-03T01:12:15+00:00", "2019-12-03T01:16:00+00:00", "2019-12-03T01:22:03+00:00", "2019-12-03T01:26:00+00:00", "2019-12-03T01:31:49+00:00", "2019-12-03T01:36:00+00:00", "2019-12-03T01:56:00+00:00", "2019-12-07T22:10:20+00:00", "2019-12-07T22:16:30+00:00", "2019-12-07T22:22:30+00:00", "2019-12-07T22:26:30+00:00", "2019-12-07T22:32:29+00:00", "2019-12-07T22:36:30+00:00", "2019-12-07T22:42:29+00:00", "2019-12-07T22:46:30+00:00", "2019-12-07T22:52:29+00:00", "2019-12-07T22:56:30+00:00", "2019-12-07T23:02:28+00:00", "2019-12-07T23:06:30+00:00", "2019-12-07T23:12:29+00:00", "2019-12-07T23:16:30+00:00", "2019-12-07T23:22:29+00:00", "2019-12-07T23:26:30+00:00", "2019-12-07T23:32:30+00:00", "2019-12-07T23:36:30+00:00", "2019-12-07T23:42:36+00:00", "2019-12-07T23:46:30+00:00", "2019-12-07T23:52:29+00:00", "2019-12-07T23:56:30+00:00", "2019-12-08T00:02:29+00:00", "2019-12-08T00:06:30+00:00", "2019-12-08T00:12:28+00:00", "2019-12-08T00:16:30+00:00", "2019-12-08T00:22:29+00:00", "2019-12-08T00:32:29+00:00", "2019-12-08T10:34:33+00:00", "2019-12-08T17:06:16+00:00", "2019-12-08T17:10:00+00:00", "2019-12-08T17:16:02+00:00", "2019-12-08T17:20:00+00:00", "2019-12-08T17:25:49+00:00", "2019-12-08T19:06:30+00:00", "2019-12-08T20:00:00+00:00", "2019-12-08T20:10:00+00:00", "2019-12-08T20:16:14+00:00", "2019-12-08T20:20:00+00:00", "2019-12-08T20:26:01+00:00", "2019-12-08T20:30:00+00:00", "2019-12-08T20:35:48+00:00", "2019-12-08T20:40:15+00:00", "2019-12-08T20:45:35+00:00", "2019-12-08T20:50:15+00:00", "2019-12-08T20:55:22+00:00", "2019-12-08T21:00:15+00:00", "2019-12-08T21:05:09+00:00", "2019-12-08T21:10:15+00:00", "2019-12-08T21:14:56+00:00", "2019-12-08T21:20:15+00:00", "2019-12-08T21:24:43+00:00", "2019-12-08T21:30:15+00:00", "2019-12-08T21:34:30+00:00", "2019-12-08T21:40:15+00:00", "2019-12-08T21:44:17+00:00", "2019-12-08T21:50:15+00:00", "2019-12-08T21:54:04+00:00", "2019-12-08T22:00:15+00:00", "2019-12-08T22:03:51+00:00", "2019-12-08T22:10:15+00:00", "2019-12-08T22:13:39+00:00", "2019-12-08T22:20:15+00:00", "2019-12-08T22:23:26+00:00", "2019-12-08T22:30:15+00:00", "2019-12-08T22:33:12+00:00", "2019-12-08T22:40:15+00:00", "2019-12-08T22:42:59+00:00", "2019-12-08T22:50:15+00:00", "2019-12-08T22:52:46+00:00", "2019-12-08T23:00:15+00:00", "2019-12-08T23:10:15+00:00", "2019-12-09T03:40:21+00:00"], "elevations": [-2.2, -7.0, -5.0, -1.0, -1.7, -3.0, -3.0, -5.0, -5.8, -8.0, -7.0, -5.0, -5.8, -6.0, -5.0, -1.0, -1.7, -2.0, -4.0, -2.0, -3.7, -2.0, 2.0, -1.2, -1.0, -5.0, -4.0, -3.7, -3.0, -3.0, -4.0, -2.8, -1.0, 0.0, -3.4, -5.0, -4.0, -5.8, -5.0, -2.0, 0.0, 0.3, 1.0, -2.0, 0.0, -1.0, -1.7, -1.0, -2.0, -1.0, -1.7, -1.0, -2.0, -2.0, -1.7, -1.0, 0.0, -3.0, -3.7, -2.0, -3.0, -3.0, -3.7, -3.0, -4.0, -4.0, -3.7, -5.0, -5.0, -6.0, -5.8, -4.0, -4.0, -5.0, -7.8, -7.0, -7.0, -2.0, -3.7, -3.0, -4.0, -4.0, -5.8, -5.0, -5.0, -6.0, -2.9, -2.2, -2.0, -2.0, 2.3, 1.0, 1.0, 0.0, 0.3, 0.0, 0.0, 0.0, -1.7, -1.0, -2.0, -1.0, -1.7, -4.0, -4.0, 0.0, -5.8, -3.0, -2.0, -2.0, -3.7, -2.0, -1.0, 0.0, 0.3, 0.0, 1.0, 1.0, 0.3, 1.0, -4.0, -1.2, -1.2, 3.0, 1.0, 2.3, 2.0, 2.0, 1.0, 0.3, 0.0, 2.0, 4.0, 4.4, 4.0, 4.0, 0.0, -1.7, -1.0, -1.0, 0.0, -3.7, -2.0, 1.0, -1.0, -2.0, -1.7, -2.0, 0.0, 0.0, 0.3, 0.0, 0.0, -1.0, -1.7, 0.0, 0.0, -3.0, -1.7, -1.0, -1.0, -5.8, -4.0, -5.8, -5.0, -5.8, -5.0, -5.8, -4.0, -3.7, -2.0, -3.7, -3.0, -3.7, -4.0, -5.8, -6.0, -5.8, -6.0, -5.8, -4.0, -3.7, -3.0, -3.7, -5.8, -4.0, -3.0, -3.7, -3.0, -3.7, -3.5, -10.8, -1.7, 0.0, 0.3, 0.0, -1.0, -1.7, 0.0, -1.7, 3.0, 4.4, 1.0, 2.3, 1.0, 0.3, 1.0, 0.3, 1.0, -1.7, -3.0, -5.8, -2.0, 1.6, 0.0, 0.3, 1.0, 2.3, 3.0, 2.3, 2.0, 2.3, 3.0, 2.3, 3.0, 2.3, 3.0, 2.3, -1.0, -3.7, -4.0, -5.8, -5.0, -5.8, -9.0, -9.8, -7.4, -7.2, -2.0, -3.7, -3.0, -3.7, -3.0, -3.7, -3.0, -3.7, -3.0, -3.7, -8.0, -1.7, 0.0, -3.7, -3.0, -5.8, -4.0, -3.7, -3.0, 2.3, 2.0, 2.3, -0.2, 1.0, 2.3, 2.0, 2.3, 5.0, 2.3, 2.0, 0.3, 1.0, -1.7, -1.0, -1.7, -2.0, 26.7, -8.0, 4.4, 45.0, null, 4.0, 0.3, 0.0, 0.3, 0.0, 0.3, 1.0, -7.8, -5.0, -1.9, -0.9, 2.0, 4.4, -1.0, 2.3, 2.0, 1.2, -4.8, -9.8, -8.0, -7.8, -7.0, -7.8, -7.0, -7.0, -7.0, -7.8, -5.0, -5.8, -4.0, 0.3, -1.0, -3.7, -5.0, -5.8, -3.0, -7.8, -7.0, -5.8, -5.0, -5.8, -3.0, -3.7, -3.0, -3.7, -3.0, -3.7, -3.0, -3.7, -1.0, -1.7, -1.0, -1.7, -2.4, 19.3]}