{"type": "Feature", "properties": {"leg_id": 27, "name": "20220106 - Santa Cruz Island to Los Angeles", "stated_nm": 46.9, "computed_nm": 46.9}, "geometry": {"type": "LineString", "coordinates": [[-119.366541, 34.039615], [-119.356455, 34.037961], [-119.346413, 34.035816], [-119.336435, 34.033456], [-119.326693, 34.031095], [-119.316758, 34.028971], [-119.308218, 34.027373], [-119.299121, 34.025345], [-119.290538, 34.023478], [-119.281418, 34.021493], [-119.272663, 34.019423], [-119.264488, 34.01748], [-119.256076, 34.015323], [-119.247986, 34.013231], [-119.052615, 33.996323], [-119.045211, 33.99553], [-119.03678, 33.99451], [-118.499801, 33.960145], [-118.49079, 33.958593], [-118.489184, 33.958845], [-118.48338, 33.960268], [-118.475808, 33.962955], [-118.4733, 33.963983], [-118.470657, 33.964215], [-118.466234, 33.964463], [-118.464727, 33.964559], [-118.46326, 33.962862], [-118.462003, 33.961899], [-118.457622, 33.962975], [-118.455013, 33.964045], [-118.452898, 33.965088], [-118.45016, 33.966416], [-118.447341, 33.967956], [-118.447138, 33.971897], [-118.446943, 33.974463], [-118.44662, 33.975576], [-118.44686, 33.976256]]}, "times": ["2022-01-06T15:39:30+00:00", "2022-01-06T15:44:30+00:00", "2022-01-06T15:49:30+00:00", "2022-01-06T15:54:45+00:00", "2022-01-06T16:00:00+00:00", "2022-01-06T16:05:30+00:00", "2022-01-06T16:10:30+00:00", "2022-01-06T16:16:00+00:00", "2022-01-06T16:21:00+00:00", "2022-01-06T16:26:30+00:00", "2022-01-06T16:32:00+00:00", "2022-01-06T16:37:00+00:00", "2022-01-06T16:42:30+00:00", "2022-01-06T16:47:30+00:00", "2022-01-06T18:47:45+00:00", "2022-01-06T18:52:45+00:00", "2022-01-06T18:58:00+00:00", "2022-01-07T00:22:00+00:00", "2022-01-07T00:27:07+00:00", "2022-01-07T00:28:26+00:00", "2022-01-07T00:31:22+00:00", "2022-01-07T00:36:01+00:00", "2022-01-07T00:37:48+00:00", "2022-01-07T00:39:59+00:00", "2022-01-07T00:41:29+00:00", "2022-01-07T00:42:47+00:00", "2022-01-07T00:44:58+00:00", "2022-01-07T00:45:27+00:00", "2022-01-07T00:48:44+00:00", "2022-01-07T00:51:13+00:00", "2022-01-07T00:52:32+00:00", "2022-01-07T00:53:09+00:00", "2022-01-07T00:56:17+00:00", "2022-01-07T00:58:32+00:00", "2022-01-07T01:01:16+00:00", "2022-01-07T01:02:11+00:00", "2022-01-07T01:05:00+00:00"], "elevations": [16.5, -5.8, 0.3, -1.7, -3.7, -3.7, -3.7, -3.7, 8.4, 10.5, 0.3, 2.3, 2.3, 26.7, 67.4, null, null, null, null, null, null, null, null, null, null, null, null, null, null, null, null, null, null, null, null, null, null]}