{"type": "Feature", "properties": {"leg_id": 22, "name": "20210709 - Vancouver to Sydney", "stated_nm": 47.7, "computed_nm": 47.7}, "geometry": {"type": "LineString", "coordinates": [[-123.126847, 49.269977], [-123.130678, 49.271318], [-123.133698, 49.27281], [-123.13469, 49.273403], [-123.140237, 49.278482], [-123.144998, 49.281065], [-123.154415, 49.283588], [-123.165481, 49.285283], [-123.172333, 49.285877], [-123.19236, 49.28827], [-123.197724, 49.288166], [-123.210415, 49.288822], [-123.215813, 49.289263], [-123.222498, 49.290328], [-123.230503, 49.292969], [-123.235533, 49.294419], [-123.239718, 49.294956], [-123.251174, 49.295108], [-123.260293, 49.294017], [-123.267172, 49.292894], [-123.279238, 49.291747], [-123.282926, 49.289847], [-123.290794, 49.285845], [-123.295896, 49.283176], [-123.299552, 49.280897], [-123.30186, 49.277504], [-123.30257, 49.271603], [-123.299435, 49.261927], [-123.296348, 49.250122], [-123.295804, 49.248553], [-123.2956, 49.24147], [-123.296933, 49.232573], [-123.299177, 49.219415], [-123.300625, 49.212235], [-123.302115, 49.203428], [-123.305788, 49.185847], [-123.307108, 49.180864], [-123.30906, 49.173422], [-123.31018, 49.168353], [-123.312168, 49.16061], [-123.313136, 49.15733], [-123.318393, 49.139025], [-123.32166, 49.126855], [-123.324968, 49.117613], [-123.324544, 49.115265], [-123.325952, 49.111572], [-123.325582, 49.109088], [-123.325123, 49.104539], [-123.324184, 49.099262], [-123.32442, 49.092133], [-123.324512, 49.085427], [-123.324397, 49.081487], [-123.323725, 49.077108], [-123.317855, 49.068418], [-123.31564, 49.066705], [-123.313062, 49.05552], [-123.313943, 49.051848], [-123.31659, 49.045075], [-123.317639, 49.040628], [-123.319047, 49.034553], [-123.319753, 49.029611], [-123.320912, 49.021583], [-123.321216, 49.018921], [-123.324197, 48.992067], [-123.324365, 48.982587], [-123.324677, 48.975765], [-123.324605, 48.965533], [-123.324883, 48.94989], [-123.325637, 48.942383], [-123.323942, 48.939978], [-123.31963, 48.933218], [-123.315823, 48.92684], [-123.312616, 48.921692], [-123.312598, 48.920283], [-123.311087, 48.914885], [-123.308187, 48.90622], [-123.306646, 48.903376], [-123.303672, 48.898567], [-123.303032, 48.8933], [-123.304142, 48.887248], [-123.30578, 48.877362], [-123.30582, 48.872925], [-123.310127, 48.862645], [-123.312704, 48.860788], [-123.317326, 48.860191], [-123.321927, 48.860193], [-123.332773, 48.859777], [-123.34218, 48.859846], [-123.346212, 48.859388], [-123.349178, 48.857197], [-123.348973, 48.851363], [-123.349137, 48.845161], [-123.348822, 48.840531], [-123.348238, 48.836599], [-123.347186, 48.831843], [-123.345643, 48.825438], [-123.34636, 48.82003], [-123.350407, 48.810338], [-123.350603, 48.809153], [-123.35143, 48.794473], [-123.352117, 48.788902], [-123.350568, 48.78243], [-123.349093, 48.774135], [-123.348363, 48.767313], [-123.347803, 48.762197], [-123.347238, 48.755322], [-123.346963, 48.749132], [-123.346163, 48.743072], [-123.343808, 48.728542], [-123.343587, 48.724728], [-123.343603, 48.718262], [-123.344668, 48.714213], [-123.347572, 48.709325], [-123.35141, 48.703635], [-123.353349, 48.699238], [-123.354466, 48.693847], [-123.356177, 48.687342], [-123.360241, 48.682939], [-123.363771, 48.680863], [-123.368415, 48.677427], [-123.374862, 48.673494], [-123.378395, 48.671701], [-123.383798, 48.6663], [-123.38683, 48.660195], [-123.390762, 48.653257], [-123.391994, 48.652937], [-123.394705, 48.653939], [-123.394221, 48.653826]]}, "times": ["2021-07-09T17:33:29+00:00", "2021-07-09T17:34:57+00:00", "2021-07-09T17:37:22+00:00", "2021-07-09T17:39:38+00:00", "2021-07-09T18:38:11+00:00", "2021-07-09T18:41:35+00:00", "2021-07-09T18:46:52+00:00", "2021-07-09T18:51:05+00:00", "2021-07-09T18:53:49+00:00", "2021-07-09T19:04:50+00:00", "2021-07-09T19:10:19+00:00", "2021-07-09T19:15:28+00:00", "2021-07-09T19:20:17+00:00", "2021-07-09T19:25:18+00:00", "2021-07-09T19:30:59+00:00", "2021-07-09T19:34:36+00:00", "2021-07-09T19:38:45+00:00", "2021-07-09T19:45:34+00:00", "2021-07-09T19:50:39+00:00", "2021-07-09T19:55:32+00:00", "2021-07-09T20:01:21+00:00", "2021-07-09T20:05:46+00:00", "2021-07-09T20:11:32+00:00", "2021-07-09T20:15:17+00:00", "2021-07-09T20:17:25+00:00", "2021-07-09T20:21:54+00:00", "2021-07-09T20:25:47+00:00", "2021-07-09T20:33:22+00:00", "2021-07-09T20:42:17+00:00", "2021-07-09T20:43:29+00:00", "2021-07-09T20:49:23+00:00", "2021-07-09T20:56:56+00:00", "2021-07-09T21:08:35+00:00", "2021-07-09T21:14:55+00:00", "2021-07-09T21:22:33+00:00", "2021-07-09T21:37:00+00:00", "2021-07-09T21:43:29+00:00", "2021-07-09T21:46:30+00:00", "2021-07-09T21:50:12+00:00", "2021-07-09T21:55:45+00:00", "2021-07-09T21:58:46+00:00", "2021-07-09T22:11:22+00:00", "2021-07-09T22:20:20+00:00", "2021-07-09T22:27:28+00:00", "2021-07-09T22:29:26+00:00", "2021-07-09T22:32:24+00:00", "2021-07-09T22:33:45+00:00", "2021-07-09T22:38:36+00:00", "2021-07-09T22:41:50+00:00", "2021-07-09T22:46:12+00:00", "2021-07-09T22:55:50+00:00", "2021-07-09T22:59:33+00:00", "2021-07-09T23:01:58+00:00", "2021-07-09T23:12:01+00:00", "2021-07-09T23:14:46+00:00", "2021-07-09T23:23:56+00:00", "2021-07-09T23:28:15+00:00", "2021-07-09T23:33:10+00:00", "2021-07-09T23:37:32+00:00", "2021-07-09T23:42:15+00:00", "2021-07-09T23:47:18+00:00", "2021-07-09T23:52:49+00:00", "2021-07-09T23:55:39+00:00", "2021-07-10T00:14:08+00:00", "2021-07-10T00:21:32+00:00", "2021-07-10T00:26:51+00:00", "2021-07-10T00:34:43+00:00", "2021-07-10T00:46:54+00:00", "2021-07-10T00:52:43+00:00", "2021-07-10T00:54:48+00:00", "2021-07-10T01:00:20+00:00", "2021-07-10T01:06:41+00:00", "2021-07-10T01:15:19+00:00", "2021-07-10T01:17:31+00:00", "2021-07-10T01:22:37+00:00", "2021-07-10T01:29:25+00:00", "2021-07-10T01:32:39+00:00", "2021-07-10T01:37:05+00:00", "2021-07-10T01:39:27+00:00", "2021-07-10T01:44:46+00:00", "2021-07-10T01:50:33+00:00", "2021-07-10T01:53:07+00:00", "2021-07-10T01:58:58+00:00", "2021-07-10T02:00:37+00:00", "2021-07-10T02:03:18+00:00", "2021-07-10T02:04:51+00:00", "2021-07-10T02:09:09+00:00", "2021-07-10T02:13:16+00:00", "2021-07-10T02:13:56+00:00", "2021-07-10T02:16:18+00:00", "2021-07-10T02:21:13+00:00", "2021-07-10T02:24:59+00:00", "2021-07-10T02:28:53+00:00", "2021-07-10T02:31:39+00:00", "2021-07-10T02:36:14+00:00", "2021-07-10T02:39:40+00:00", "2021-07-10T02:43:18+00:00", "2021-07-10T02:48:25+00:00", "2021-07-10T02:49:18+00:00", "2021-07-10T03:00:28+00:00", "2021-07-10T03:04:27+00:00", "2021-07-10T03:09:05+00:00", "2021-07-10T03:14:37+00:00", "2021-07-10T03:20:24+00:00", "2021-07-10T03:22:33+00:00", "2021-07-10T03:27:24+00:00", "2021-07-10T03:31:38+00:00", "2021-07-10T03:35:43+00:00", "2021-07-10T03:44:58+00:00", "2021-07-10T03:47:15+00:00", "2021-07-10T03:51:05+00:00", "2021-07-10T03:53:31+00:00", "2021-07-10T03:56:41+00:00", "2021-07-10T04:00:26+00:00", "2021-07-10T04:04:00+00:00", "2021-07-10T04:07:10+00:00", "2021-07-10T04:10:44+00:00", "2021-07-10T04:14:26+00:00", "2021-07-10T04:16:10+00:00", "2021-07-10T04:19:39+00:00", "2021-07-10T04:23:20+00:00", "2021-07-10T04:24:56+00:00", "2021-07-10T04:29:41+00:00", "2021-07-10T04:32:58+00:00", "2021-07-10T04:37:51+00:00", "2021-07-10T04:38:35+00:00", "2021-07-10T04:42:19+00:00", "2021-07-10T16:59:12+00:00"], "elevations": [null, null, null, null, null, null, null, null, null, null, null, null, null, null, null, null, null, null, null, null, null, null, null, null, null, null, null, null, null, null, null, null, null, null, null, null, null, null, null, null, null, null, null, null, null, null, null, null, null, null, null, null, null, null, null, null, null, null, null, null, null, null, null, null, null, null, null, null, null, null, null, null, null, null, null, null, null, null, null, null, null, null, null, null, null, null, null, null, null, null, null, null, null, null, null, null, null, null, null, null, null, null, null, null, null, null, null, null, null, null, null, null, null, null, null, null, null, null, null, null, null, null, null, null, null, null, null, null]}