{"type": "Feature", "properties": {"leg_id": 9, "name": "20200113 - San Blas to La Cruz", "stated_nm": 108.5, "computed_nm": 108.5}, "geometry": {"type": "LineString", "coordinates": [[-105.292638, 21.544103], [-105.288848, 21.534555], [-105.28788, 21.530397], [-105.285545, 21.519685], [-105.28309, 21.517085], [-105.273378, 21.51108], [-105.270504, 21.509602], [-105.25986, 21.506295], [-105.256871, 21.506675], [-105.246126, 21.510715], [-105.243778, 21.515831], [-105.242345, 21.51874], [-105.242813, 21.51497], [-105.247025, 21.497822], [-105.247221, 21.49694], [-105.250232, 21.484385], [-105.250503, 21.483196], [-105.253398, 21.471139], [-105.253723, 21.469635], [-105.260248, 21.459368], [-105.26134, 21.457865], [-105.267034, 21.447527], [-105.267906, 21.44556], [-105.272748, 21.435159], [-105.273785, 21.4329], [-105.278755, 21.423038], [-105.280008, 21.42055], [-105.284934, 21.411069], [-105.286338, 21.408351], [-105.291131, 21.399246], [-105.292733, 21.396346], [-105.297377, 21.38789], [-105.299063, 21.384791], [-105.303728, 21.376732], [-105.30565, 21.37344], [-105.310147, 21.365847], [-105.312173, 21.362356], [-105.316356, 21.355083], [-105.318438, 21.351488], [-105.322571, 21.344473], [-105.325287, 21.339926], [-105.329726, 21.331905], [-105.332515, 21.326908], [-105.337001, 21.319168], [-105.340046, 21.31396], [-105.344247, 21.306613], [-105.347278, 21.301073], [-105.351338, 21.294114], [-105.354616, 21.288328], [-105.358536, 21.281739], [-105.36202, 21.275796], [-105.365932, 21.269564], [-105.369508, 21.263426], [-105.372865, 21.257402], [-105.37631, 21.250831], [-105.379431, 21.245117], [-105.382898, 21.238406], [-105.385539, 21.232981], [-105.389098, 21.22595], [-105.391616, 21.220776], [-105.395, 21.213323], [-105.397388, 21.208433], [-105.400921, 21.20077], [-105.402923, 21.196061], [-105.406415, 21.187873], [-105.408386, 21.183334], [-105.412188, 21.174603], [-105.414119, 21.170348], [-105.418066, 21.16117], [-105.419847, 21.157188], [-105.423925, 21.147876], [-105.425537, 21.144251], [-105.429481, 21.134476], [-105.43097, 21.130995], [-105.43534, 21.12083], [-105.436719, 21.117616], [-105.441391, 21.106925], [-105.44268, 21.104061], [-105.447635, 21.093181], [-105.448791, 21.090588], [-105.453945, 21.079233], [-105.454995, 21.076928], [-105.460145, 21.065426], [-105.461117, 21.063517], [-105.466583, 21.051821], [-105.467233, 21.050133], [-105.47199, 21.038163], [-105.472555, 21.036834], [-105.477761, 21.02427], [-105.478225, 21.023206], [-105.483148, 21.010355], [-105.483466, 21.009617], [-105.489198, 20.996568], [-105.489441, 20.996073], [-105.495121, 20.982825], [-105.495203, 20.982613], [-105.500763, 20.969611], [-105.502862, 20.965038], [-105.508247, 20.952799], [-105.508575, 20.952055], [-105.51371, 20.940015], [-105.514111, 20.939008], [-105.51915, 20.927179], [-105.519583, 20.92579], [-105.523871, 20.914817], [-105.523616, 20.913226], [-105.525991, 20.901], [-105.526213, 20.898871], [-105.528292, 20.886974], [-105.528831, 20.884526], [-105.53149, 20.872771], [-105.532156, 20.869946], [-105.534129, 20.858383], [-105.534796, 20.855236], [-105.537585, 20.841108], [-105.537693, 20.840441], [-105.541491, 20.825508], [-105.547756, 20.810885], [-105.554425, 20.796517], [-105.554623, 20.79609], [-105.558307, 20.780895], [-105.558443, 20.780221], [-105.562541, 20.764307], [-105.56267, 20.763816], [-105.559161, 20.749593], [-105.558528, 20.749258], [-105.54289, 20.744608], [-105.542263, 20.74472], [-105.528428, 20.749237], [-105.527886, 20.749611], [-105.520204, 20.760882], [-105.520432, 20.76381], [-105.520719, 20.765138], [-105.519877, 20.764724], [-105.499585, 20.75445], [-105.484006, 20.746306], [-105.46875, 20.738603], [-105.45403, 20.730846], [-105.439245, 20.72324], [-105.425105, 20.717103], [-105.370731, 20.747563], [-105.374202, 20.741751], [-105.374535, 20.734853], [-105.37277, 20.728916], [-105.373631, 20.724729], [-105.374721, 20.718851], [-105.376358, 20.713125], [-105.378413, 20.706793], [-105.379941, 20.701089], [-105.381825, 20.694411], [-105.383345, 20.689193], [-105.385645, 20.682728], [-105.38713, 20.678309], [-105.389185, 20.672116], [-105.390668, 20.667795], [-105.393305, 20.660563], [-105.396969, 20.651485], [-105.398261, 20.648685], [-105.401334, 20.639673], [-105.402381, 20.63698], [-105.405735, 20.627789], [-105.406608, 20.625125], [-105.409631, 20.615947], [-105.410341, 20.61327], [-105.412351, 20.605027], [-105.412853, 20.602745], [-105.415619, 20.595058], [-105.417036, 20.592703], [-105.42053, 20.585346], [-105.421521, 20.583186], [-105.424618, 20.576169], [-105.425748, 20.574001], [-105.429089, 20.566566], [-105.430061, 20.56425], [-105.434331, 20.554733], [-105.437893, 20.546386], [-105.44137, 20.537696], [-105.44461, 20.528758], [-105.447013, 20.519843], [-105.448643, 20.511765], [-105.451289, 20.503457], [-105.448604, 20.497006], [-105.445222, 20.489919], [-105.445314, 20.489909], [-105.371141, 20.745729], [-105.373204, 20.744434], [-105.376978, 20.741852], [-105.385273, 20.735988], [-105.386821, 20.734837], [-105.390128, 20.732208], [-105.391727, 20.731078], [-105.396632, 20.728397], [-105.399064, 20.727085], [-105.401209, 20.725657], [-105.403831, 20.724819], [-105.406966, 20.725005], [-105.410159, 20.725168], [-105.416677, 20.725298], [-105.420077, 20.726023], [-105.423625, 20.726673], [-105.429592, 20.727812], [-105.430566, 20.727424], [-105.437301, 20.72866], [-105.444066, 20.730631], [-105.450039, 20.732276], [-105.452799, 20.733501], [-105.45825, 20.735755], [-105.460204, 20.736494], [-105.462891, 20.737366], [-105.465198, 20.73773], [-105.468382, 20.738303], [-105.470119, 20.738526], [-105.472646, 20.738816], [-105.475768, 20.739348], [-105.482278, 20.740532], [-105.48434, 20.740937], [-105.486617, 20.741564], [-105.488486, 20.742], [-105.491076, 20.742903], [-105.492343, 20.743786], [-105.493132, 20.74481], [-105.498282, 20.749446], [-105.507373, 20.75813], [-105.508756, 20.759502], [-105.51224, 20.764085], [-105.513043, 20.766446], [-105.513372, 20.76754]]}, "times": ["2020-01-13T14:35:16+00:00", "2020-01-13T20:43:30+00:00", "2020-01-13T20:46:13+00:00", "2020-01-13T20:53:30+00:00", "2020-01-13T20:56:00+00:00", "2020-01-13T21:03:30+00:00", "2020-01-13T21:05:47+00:00", "2020-01-13T21:13:30+00:00", "2020-01-13T21:15:34+00:00", "2020-01-13T21:23:30+00:00", "2020-01-13T21:33:30+00:00", "2020-01-14T01:17:52+00:00", "2020-01-14T13:53:13+00:00", "2020-01-14T14:02:59+00:00", "2020-01-14T14:03:30+00:00", "2020-01-14T14:12:47+00:00", "2020-01-14T14:13:30+00:00", "2020-01-14T14:22:33+00:00", "2020-01-14T14:23:30+00:00", "2020-01-14T14:32:21+00:00", "2020-01-14T14:33:30+00:00", "2020-01-14T14:42:08+00:00", "2020-01-14T14:43:30+00:00", "2020-01-14T14:51:54+00:00", "2020-01-14T14:53:30+00:00", "2020-01-14T15:01:41+00:00", "2020-01-14T15:03:30+00:00", "2020-01-14T15:11:28+00:00", "2020-01-14T15:13:30+00:00", "2020-01-14T15:21:15+00:00", "2020-01-14T15:23:30+00:00", "2020-01-14T15:31:02+00:00", "2020-01-14T15:33:30+00:00", "2020-01-14T15:40:49+00:00", "2020-01-14T15:43:30+00:00", "2020-01-14T15:50:35+00:00", "2020-01-14T15:53:30+00:00", "2020-01-14T16:00:23+00:00", "2020-01-14T16:03:30+00:00", "2020-01-14T16:10:09+00:00", "2020-01-14T16:13:45+00:00", "2020-01-14T16:19:56+00:00", "2020-01-14T16:23:45+00:00", "2020-01-14T16:29:43+00:00", "2020-01-14T16:33:45+00:00", "2020-01-14T16:39:30+00:00", "2020-01-14T16:43:45+00:00", "2020-01-14T16:49:17+00:00", "2020-01-14T16:53:45+00:00", "2020-01-14T16:59:04+00:00", "2020-01-14T17:03:45+00:00", "2020-01-14T17:08:51+00:00", "2020-01-14T17:13:45+00:00", "2020-01-14T17:18:38+00:00", "2020-01-14T17:23:45+00:00", "2020-01-14T17:28:25+00:00", "2020-01-14T17:33:45+00:00", "2020-01-14T17:38:11+00:00", "2020-01-14T17:43:45+00:00", "2020-01-14T17:47:58+00:00", "2020-01-14T17:53:45+00:00", "2020-01-14T17:57:45+00:00", "2020-01-14T18:03:45+00:00", "2020-01-14T18:07:32+00:00", "2020-01-14T18:13:45+00:00", "2020-01-14T18:17:19+00:00", "2020-01-14T18:23:45+00:00", "2020-01-14T18:27:05+00:00", "2020-01-14T18:33:45+00:00", "2020-01-14T18:36:53+00:00", "2020-01-14T18:43:45+00:00", "2020-01-14T18:46:40+00:00", "2020-01-14T18:53:45+00:00", "2020-01-14T18:56:28+00:00", "2020-01-14T19:03:45+00:00", "2020-01-14T19:06:15+00:00", "2020-01-14T19:13:45+00:00", "2020-01-14T19:16:02+00:00", "2020-01-14T19:23:45+00:00", "2020-01-14T19:25:49+00:00", "2020-01-14T19:33:45+00:00", "2020-01-14T19:35:36+00:00", "2020-01-14T19:43:45+00:00", "2020-01-14T19:45:23+00:00", "2020-01-14T19:53:45+00:00", "2020-01-14T19:55:10+00:00", "2020-01-14T20:03:45+00:00", "2020-01-14T20:04:57+00:00", "2020-01-14T20:13:45+00:00", "2020-01-14T20:14:44+00:00", "2020-01-14T20:23:45+00:00", "2020-01-14T20:24:30+00:00", "2020-01-14T20:33:45+00:00", "2020-01-14T20:34:21+00:00", "2020-01-14T20:43:45+00:00", "2020-01-14T20:44:08+00:00", "2020-01-14T20:53:55+00:00", "2020-01-14T21:04:00+00:00", "2020-01-14T21:13:28+00:00", "2020-01-14T21:14:00+00:00", "2020-01-14T21:23:16+00:00", "2020-01-14T21:24:00+00:00", "2020-01-14T21:33:02+00:00", "2020-01-14T21:34:00+00:00", "2020-01-14T21:42:49+00:00", "2020-01-14T21:44:00+00:00", "2020-01-14T21:52:36+00:00", "2020-01-14T21:54:00+00:00", "2020-01-14T22:02:23+00:00", "2020-01-14T22:04:00+00:00", "2020-01-14T22:12:10+00:00", "2020-01-14T22:14:00+00:00", "2020-01-14T22:21:57+00:00", "2020-01-14T22:24:00+00:00", "2020-01-14T22:33:39+00:00", "2020-01-14T22:34:00+00:00", "2020-01-14T22:44:00+00:00", "2020-01-14T22:54:00+00:00", "2020-01-14T23:03:50+00:00", "2020-01-14T23:04:00+00:00", "2020-01-14T23:13:46+00:00", "2020-01-14T23:14:00+00:00", "2020-01-14T23:23:53+00:00", "2020-01-14T23:24:00+00:00", "2020-01-14T23:33:46+00:00", "2020-01-14T23:34:00+00:00", "2020-01-14T23:43:46+00:00", "2020-01-14T23:44:00+00:00", "2020-01-14T23:53:44+00:00", "2020-01-14T23:54:00+00:00", "2020-01-15T00:03:46+00:00", "2020-01-15T00:13:53+00:00", "2020-01-15T10:19:47+00:00", "2020-01-15T17:14:50+00:00", "2020-01-16T18:34:00+00:00", "2020-01-16T18:44:00+00:00", "2020-01-16T18:54:00+00:00", "2020-01-16T19:04:00+00:00", "2020-01-16T19:14:15+00:00", "2020-01-16T19:24:15+00:00", "2020-01-16T22:07:00+00:00", "2020-01-28T19:01:02+00:00", "2020-01-28T19:13:07+00:00", "2020-01-28T19:18:00+00:00", "2020-01-28T19:22:55+00:00", "2020-01-28T19:28:00+00:00", "2020-01-28T19:32:48+00:00", "2020-01-28T19:38:00+00:00", "2020-01-28T19:42:35+00:00", "2020-01-28T19:48:00+00:00", "2020-01-28T19:52:21+00:00", "2020-01-28T19:58:00+00:00", "2020-01-28T20:02:08+00:00", "2020-01-28T20:08:00+00:00", "2020-01-28T20:11:55+00:00", "2020-01-28T20:18:00+00:00", "2020-01-28T20:25:58+00:00", "2020-01-28T20:28:00+00:00", "2020-01-28T20:35:59+00:00", "2020-01-28T20:38:00+00:00", "2020-01-28T20:45:59+00:00", "2020-01-28T20:48:00+00:00", "2020-01-28T20:55:58+00:00", "2020-01-28T20:58:00+00:00", "2020-01-28T21:05:58+00:00", "2020-01-28T21:08:00+00:00", "2020-01-28T21:15:57+00:00", "2020-01-28T21:18:00+00:00", "2020-01-28T21:25:59+00:00", "2020-01-28T21:28:00+00:00", "2020-01-28T21:35:57+00:00", "2020-01-28T21:38:00+00:00", "2020-01-28T21:45:59+00:00", "2020-01-28T21:48:00+00:00", "2020-01-28T21:58:00+00:00", "2020-01-28T22:08:15+00:00", "2020-01-28T22:18:15+00:00", "2020-01-28T22:28:15+00:00", "2020-01-28T22:38:15+00:00", "2020-01-28T22:48:15+00:00", "2020-01-28T22:58:15+00:00", "2020-01-28T23:08:15+00:00", "2020-01-29T01:08:18+00:00", "2020-01-29T06:48:18+00:00", "2020-03-21T21:21:32+00:00", "2020-03-21T21:22:59+00:00", "2020-03-21T21:29:30+00:00", "2020-03-21T21:35:21+00:00", "2020-03-21T21:38:17+00:00", "2020-03-21T21:41:26+00:00", "2020-03-21T21:41:58+00:00", "2020-03-21T21:48:58+00:00", "2020-03-21T21:50:15+00:00", "2020-03-21T21:51:11+00:00", "2020-03-21T21:53:43+00:00", "2020-03-21T21:55:37+00:00", "2020-03-21T21:59:30+00:00", "2020-03-21T22:04:00+00:00", "2020-03-21T22:07:16+00:00", "2020-03-21T22:09:30+00:00", "2020-03-21T22:14:29+00:00", "2020-03-21T22:18:45+00:00", "2020-03-21T22:29:26+00:00", "2020-03-21T22:35:35+00:00", "2020-03-21T22:40:03+00:00", "2020-03-21T22:45:25+00:00", "2020-03-21T22:49:16+00:00", "2020-03-21T22:52:00+00:00", "2020-03-21T22:53:04+00:00", "2020-03-21T22:56:12+00:00", "2020-03-21T22:57:37+00:00", "2020-03-21T22:58:49+00:00", "2020-03-21T22:59:57+00:00", "2020-03-21T23:03:17+00:00", "2020-03-21T23:05:45+00:00", "2020-03-21T23:07:22+00:00", "2020-03-21T23:09:18+00:00", "2020-03-21T23:09:46+00:00", "2020-03-21T23:12:06+00:00", "2020-03-21T23:13:06+00:00", "2020-03-21T23:14:06+00:00", "2020-03-21T23:20:31+00:00", "2020-03-21T23:29:30+00:00", "2020-03-21T23:32:00+00:00", "2020-03-21T23:35:24+00:00", "2020-03-21T23:38:36+00:00", "2020-03-21T23:39:56+00:00"], "elevations": [2.6, -1.7, 0.0, 0.3, 0.0, 0.3, 1.0, 0.3, 1.0, -3.7, -0.3, -0.3, 1.5, -1.0, -1.7, -2.0, -1.7, -3.0, -3.7, -4.0, -5.8, 0.0, 0.3, 2.0, 2.3, 1.0, 0.3, 1.0, 0.3, 0.0, 0.3, 0.0, 0.3, 1.0, 0.3, 0.0, 0.3, 0.0, 0.3, 0.0, 0.0, 2.0, 2.3, 1.0, 0.3, 2.0, 2.3, 2.0, 2.3, 2.0, 2.3, 3.0, 2.3, 3.0, 2.3, 3.0, 2.3, 3.0, 0.3, 1.0, 0.3, 2.0, -1.7, -2.0, -3.7, -6.0, -7.8, -6.0, -5.8, -4.0, -3.7, -2.0, -1.7, -1.0, -1.7, -1.0, -1.7, -1.0, -1.7, -1.0, 0.3, 0.0, 0.3, 0.0, 0.3, 0.0, 0.3, 0.0, 0.3, 1.0, 2.3, 2.0, 0.3, -5.0, 0.3, 0.0, 4.0, 2.7, 3.0, 2.3, 1.0, 2.3, 2.0, 2.3, 1.0, 0.3, 0.0, 0.3, 0.0, 0.3, 0.0, 0.3, 0.0, -1.7, 7.0, -1.7, 0.3, -3.7, -2.0, -3.7, -4.0, 10.5, -4.0, -1.7, -1.0, -13.9, -12.0, -7.8, 10.0, -3.7, -3.0, 5.4, -0.3, 11.3, -1.7, -1.7, -1.7, -1.7, -3.7, -1.7, 0.3, -2.9, -1.4, -1.7, 0.0, 0.3, 1.0, 0.3, 1.0, 0.3, 1.0, 20.6, -2.0, -9.8, -5.0, -5.8, -4.0, -3.7, 33.0, 16.5, 10.0, 6.4, -2.0, -3.7, -3.0, -5.8, -4.0, -3.7, -2.0, -1.7, -2.0, -1.7, -1.0, -1.7, -1.7, -9.8, -9.8, -9.8, 0.3, 26.7, 3.7, -11.5, -2.0, 2.8, null, 1.0, 18.6, null, 2.0, -1.7, null, 0.0, -5.8, null, null, -6.0, 12.5, null, 6.0, -1.7, null, -2.4, -2.0, 2.0, null, 1.0, null, 0.3, null, 10.0, null, 8.4, null, null, null, null, null, 51.1, null, null, 27.0, 2.3, 2.3, null, null, null, 3.4]}