{"type": "Feature", "properties": {"leg_id": 52, "name": "20230531 - Gladstone to Keppel Island", "stated_nm": 57.5, "computed_nm": 57.5}, "geometry": {"type": "LineString", "coordinates": [[151.322052, -23.775851], [151.321212, -23.771168], [151.322223, -23.769359], [151.32432, -23.766819], [151.324571, -23.764724], [151.324126, -23.76276], [151.323264, -23.759103], [151.322295, -23.755143], [151.321631, -23.75212], [151.321023, -23.748657], [151.320776, -23.745228], [151.320458, -23.741017], [151.320133, -23.737455], [151.31971, -23.734182], [151.319152, -23.730599], [151.318497, -23.727574], [151.317828, -23.72438], [151.317466, -23.721559], [151.317283, -23.718047], [151.317138, -23.714832], [151.316948, -23.711659], [151.316728, -23.708466], [151.316438, -23.705553], [151.315857, -23.702171], [151.315257, -23.698816], [151.31461, -23.695178], [151.313927, -23.691551], [151.313304, -23.688199], [151.312592, -23.683975], [151.312057, -23.680917], [151.3113, -23.677357], [151.310005, -23.673527], [151.308783, -23.67006], [151.307357, -23.666196], [151.306259, -23.663268], [151.305057, -23.660077], [151.304015, -23.657291], [151.302712, -23.653644], [151.3014, -23.650059], [151.300011, -23.646237], [151.298888, -23.643061], [151.297455, -23.63807], [151.296593, -23.635029], [151.295684, -23.632002], [151.294646, -23.628359], [151.2936, -23.624858], [151.291835, -23.620349], [151.290762, -23.6175], [151.289039, -23.612872], [151.288047, -23.610241], [151.28672, -23.606977], [151.285522, -23.604033], [151.284354, -23.601074], [151.28318, -23.598155], [151.282044, -23.59522], [151.280909, -23.592659], [151.279679, -23.590221], [151.278106, -23.586453], [151.276893, -23.583569], [151.275566, -23.580554], [151.274253, -23.577494], [151.272468, -23.573465], [151.271471, -23.5719], [151.26997, -23.56954], [151.269132, -23.567471], [151.268064, -23.565211], [151.26671, -23.562116], [151.265216, -23.558742], [151.263801, -23.555586], [151.262322, -23.552452], [151.261173, -23.549876], [151.260455, -23.549474], [151.259022, -23.544957], [151.25788, -23.542075], [151.257012, -23.539035], [151.256012, -23.535693], [151.255141, -23.532411], [151.254397, -23.529745], [151.253438, -23.526278], [151.252373, -23.522549], [151.251558, -23.519613], [151.251053, -23.516495], [151.250591, -23.513326], [151.250084, -23.510134], [151.249588, -23.506881], [151.2491, -23.503577], [151.248556, -23.500821], [151.247577, -23.49708], [151.246448, -23.49338], [151.245528, -23.490074], [151.24454, -23.487364], [151.24307, -23.48481], [151.240902, -23.482139], [151.238311, -23.480501], [151.236062, -23.479761], [151.233575, -23.479648], [151.231393, -23.480346], [151.23088, -23.482936], [151.231793, -23.484086], [151.231873, -23.483997], [151.227904, -23.48531], [151.226063, -23.486978], [151.223642, -23.489567], [151.221439, -23.491614], [151.218974, -23.493411], [151.216304, -23.49542], [151.21397, -23.497326], [151.212582, -23.49812], [151.213564, -23.500241], [151.21596, -23.502806], [151.218463, -23.50504], [151.220941, -23.506645], [151.221889, -23.508177], [151.22162, -23.509861], [151.221738, -23.510089], [151.220556, -23.506244], [151.218526, -23.504884], [151.216577, -23.503485], [151.215068, -23.501347], [151.213948, -23.498423], [151.214185, -23.49661], [151.211945, -23.49295], [151.209817, -23.490292], [151.20737, -23.487171], [151.205186, -23.484468], [151.202529, -23.481336], [151.201087, -23.479552], [151.198904, -23.476884], [151.196319, -23.473745], [151.194631, -23.471654], [151.192124, -23.468675], [151.189949, -23.466144], [151.188077, -23.463986], [151.1857, -23.460992], [151.183744, -23.458658], [151.179973, -23.454425], [151.178409, -23.452596], [151.176776, -23.450688], [151.174742, -23.448425], [151.175546, -23.448988], [151.176001, -23.448337], [151.173856, -23.446839], [151.172016, -23.445305], [151.169618, -23.44344], [151.167017, -23.441263], [151.164948, -23.439121], [151.162673, -23.436269], [151.160494, -23.433582], [151.158507, -23.430947], [151.155948, -23.427802], [151.153895, -23.425192], [151.151458, -23.422437], [151.150061, -23.42079], [151.147643, -23.418005], [151.145748, -23.415484], [151.143366, -23.412366], [151.141945, -23.410347], [151.140143, -23.407997], [151.138359, -23.405061], [151.136554, -23.401973], [151.134742, -23.398927], [151.132898, -23.395802], [151.131106, -23.39261], [151.129174, -23.389374], [151.127394, -23.386172], [151.126092, -23.383651], [151.124795, -23.381111], [151.123592, -23.378713], [151.122208, -23.375904], [151.120602, -23.372903], [151.119178, -23.370281], [151.117642, -23.36721], [151.116636, -23.365277], [151.115129, -23.362346], [151.113679, -23.359199], [151.112347, -23.356456], [151.11055, -23.352978], [151.109116, -23.350161], [151.107579, -23.347451], [151.10623, -23.345448], [151.104877, -23.342479], [151.103942, -23.340109], [151.102568, -23.336614], [151.101396, -23.333663], [151.100154, -23.330209], [151.099152, -23.327394], [151.097948, -23.324205], [151.09668, -23.320673], [151.095553, -23.317502], [151.095338, -23.316042], [151.094323, -23.312652], [151.093184, -23.309314], [151.091981, -23.305601], [151.090942, -23.302137], [151.090139, -23.299894], [151.08936, -23.297415], [151.088192, -23.294775], [151.087403, -23.292836], [151.086183, -23.290589], [151.084999, -23.28844], [151.083832, -23.286477], [151.082304, -23.2837], [151.08092, -23.281105], [151.079662, -23.278619], [151.078153, -23.275818], [151.077271, -23.274085], [151.076273, -23.272043], [151.074976, -23.26981], [151.073714, -23.267645], [151.072574, -23.265634], [151.071212, -23.263244], [151.06932, -23.259978], [151.067973, -23.257499], [151.066902, -23.255468], [151.065772, -23.25324], [151.064647, -23.251132], [151.062773, -23.2477], [151.061506, -23.24528], [151.060328, -23.243034], [151.059257, -23.240857], [151.057955, -23.238159], [151.056586, -23.235549], [151.055387, -23.233376], [151.053709, -23.229996], [151.052348, -23.227443], [151.051252, -23.225223], [151.050391, -23.22337], [151.049255, -23.221172], [151.048209, -23.218936], [151.046787, -23.216127], [151.045769, -23.214049], [151.04453, -23.211504], [151.043387, -23.209375], [151.042223, -23.207245], [151.041235, -23.205215], [151.04004, -23.202951], [151.038793, -23.200753], [151.037391, -23.19837], [151.036147, -23.196061], [151.035061, -23.193927], [151.033602, -23.190998], [151.032652, -23.189331], [151.031018, -23.186431], [151.029927, -23.184396], [151.028398, -23.1817], [151.026868, -23.178863], [151.025544, -23.176689], [151.024172, -23.174319], [151.022919, -23.172131], [151.021645, -23.169944], [151.0203, -23.167599], [151.019043, -23.165509], [151.017801, -23.163529], [151.016182, -23.160876], [151.014821, -23.158964], [151.013913, -23.157563], [151.012012, -23.156432], [151.008922, -23.154553], [151.006921, -23.153883], [151.003591, -23.152887], [151.001487, -23.152013], [150.999103, -23.151148], [150.996844, -23.150481], [150.994371, -23.149757], [150.991975, -23.149155], [150.989779, -23.148482], [150.987766, -23.147654], [150.985475, -23.146942], [150.983553, -23.146249], [150.981162, -23.14552], [150.978125, -23.145201], [150.975744, -23.145663], [150.973098, -23.14628], [150.969371, -23.147215], [150.965862, -23.148149], [150.962296, -23.149211], [150.958523, -23.150373], [150.956419, -23.151435], [150.954522, -23.153428], [150.953807, -23.155106], [150.953814, -23.157266], [150.954588, -23.159395], [150.954577, -23.159332], [150.951969, -23.15602], [150.949443, -23.153555], [150.94551, -23.14988], [150.94312, -23.147758], [150.940179, -23.145357], [150.938222, -23.143592], [150.936036, -23.141727], [150.934027, -23.140093], [150.932143, -23.138499], [150.929581, -23.136373], [150.927742, -23.134739], [150.925765, -23.13285], [150.92339, -23.130621], [150.921565, -23.128904], [150.919815, -23.127346], [150.917159, -23.124747], [150.914597, -23.122458], [150.912344, -23.120362], [150.909432, -23.117823], [150.906723, -23.11545], [150.905063, -23.113729], [150.903141, -23.111533], [150.901571, -23.109627], [150.899592, -23.10746], [150.897938, -23.105474], [150.895982, -23.102418], [150.894274, -23.100043], [150.891637, -23.097193], [150.889704, -23.094501], [150.88768, -23.091045], [150.885996, -23.088371], [150.883781, -23.085721], [150.881906, -23.083567], [150.879896, -23.080847], [150.878081, -23.077375], [150.876803, -23.074787], [150.875639, -23.071806], [150.876706, -23.069249], [150.878348, -23.066997], [150.881439, -23.065508], [150.884405, -23.064248]]}, "times": ["2023-05-31T06:54:45+00:00", "2023-05-31T23:59:28+00:00", "2023-06-01T00:00:03+00:00", "2023-06-01T00:02:01+00:00", "2023-06-01T00:03:06+00:00", "2023-06-01T00:03:49+00:00", "2023-06-01T00:06:06+00:00", "2023-06-01T00:08:06+00:00", "2023-06-01T00:09:06+00:00", "2023-06-01T00:11:06+00:00", "2023-06-01T00:13:12+00:00", "2023-06-01T00:16:03+00:00", "2023-06-01T00:17:41+00:00", "2023-06-01T00:20:05+00:00", "2023-06-01T00:22:02+00:00", "2023-06-01T00:24:06+00:00", "2023-06-01T00:25:31+00:00", "2023-06-01T00:27:00+00:00", "2023-06-01T00:30:05+00:00", "2023-06-01T00:32:06+00:00", "2023-06-01T00:34:06+00:00", "2023-06-01T00:36:08+00:00", "2023-06-01T00:37:06+00:00", "2023-06-01T00:40:08+00:00", "2023-06-01T00:42:04+00:00", "2023-06-01T00:44:08+00:00", "2023-06-01T00:46:13+00:00", "2023-06-01T00:48:08+00:00", "2023-06-01T00:51:58+00:00", "2023-06-01T00:53:58+00:00", "2023-06-01T00:55:31+00:00", "2023-06-01T00:58:57+00:00", "2023-06-01T01:01:05+00:00", "2023-06-01T01:03:57+00:00", "2023-06-01T01:05:57+00:00", "2023-06-01T01:07:58+00:00", "2023-06-01T01:10:03+00:00", "2023-06-01T01:12:57+00:00", "2023-06-01T01:14:58+00:00", "2023-06-01T01:17:56+00:00", "2023-06-01T01:18:58+00:00", "2023-06-01T01:22:57+00:00", "2023-06-01T01:24:58+00:00", "2023-06-01T01:27:05+00:00", "2023-06-01T01:28:57+00:00", "2023-06-01T01:30:59+00:00", "2023-06-01T01:34:53+00:00", "2023-06-01T01:36:05+00:00", "2023-06-01T01:40:00+00:00", "2023-06-01T01:41:00+00:00", "2023-06-01T01:44:01+00:00", "2023-06-01T01:46:01+00:00", "2023-06-01T01:48:00+00:00", "2023-06-01T01:50:02+00:00", "2023-06-01T01:52:02+00:00", "2023-06-01T01:53:17+00:00", "2023-06-01T01:55:02+00:00", "2023-06-01T01:58:00+00:00", "2023-06-01T02:00:03+00:00", "2023-06-01T02:02:06+00:00", "2023-06-01T02:04:11+00:00", "2023-06-01T02:06:47+00:00", "2023-06-01T02:07:47+00:00", "2023-06-01T02:09:06+00:00", "2023-06-01T02:11:06+00:00", "2023-06-01T02:12:07+00:00", "2023-06-01T02:15:07+00:00", "2023-06-01T02:17:07+00:00", "2023-06-01T02:19:07+00:00", "2023-06-01T02:21:09+00:00", "2023-06-01T02:23:09+00:00", "2023-06-01T02:24:10+00:00", "2023-06-01T02:28:00+00:00", "2023-06-01T02:29:43+00:00", "2023-06-01T02:32:10+00:00", "2023-06-01T02:34:10+00:00", "2023-06-01T02:36:10+00:00", "2023-06-01T02:38:10+00:00", "2023-06-01T02:40:13+00:00", "2023-06-01T02:43:14+00:00", "2023-06-01T02:44:43+00:00", "2023-06-01T02:47:16+00:00", "2023-06-01T02:49:16+00:00", "2023-06-01T02:51:17+00:00", "2023-06-01T02:53:17+00:00", "2023-06-01T02:55:17+00:00", "2023-06-01T02:56:17+00:00", "2023-06-01T02:59:02+00:00", "2023-06-01T03:01:22+00:00", "2023-06-01T03:03:25+00:00", "2023-06-01T03:04:27+00:00", "2023-06-01T03:06:25+00:00", "2023-06-01T03:08:15+00:00", "2023-06-01T03:10:05+00:00", "2023-06-01T03:11:21+00:00", "2023-06-01T03:12:22+00:00", "2023-06-01T03:13:30+00:00", "2023-06-01T03:15:38+00:00", "2023-06-01T03:17:55+00:00", "2023-06-01T09:32:25+00:00", "2023-06-01T21:09:27+00:00", "2023-06-01T21:11:27+00:00", "2023-06-01T21:13:29+00:00", "2023-06-01T21:15:27+00:00", "2023-06-01T21:17:15+00:00", "2023-06-01T21:19:31+00:00", "2023-06-01T21:21:43+00:00", "2023-06-01T21:23:20+00:00", "2023-06-01T21:26:16+00:00", "2023-06-01T21:27:49+00:00", "2023-06-01T21:30:29+00:00", "2023-06-01T21:32:25+00:00", "2023-06-01T21:33:29+00:00", "2023-06-01T21:36:29+00:00", "2023-06-02T11:49:11+00:00", "2023-06-02T21:21:36+00:00", "2023-06-02T21:22:53+00:00", "2023-06-02T21:24:33+00:00", "2023-06-02T21:26:25+00:00", "2023-06-02T21:28:18+00:00", "2023-06-02T21:29:54+00:00", "2023-06-02T21:32:51+00:00", "2023-06-02T21:34:59+00:00", "2023-06-02T21:36:52+00:00", "2023-06-02T21:38:45+00:00", "2023-06-02T21:41:13+00:00", "2023-06-02T21:42:54+00:00", "2023-06-02T21:44:54+00:00", "2023-06-02T21:47:54+00:00", "2023-06-02T21:48:45+00:00", "2023-06-02T21:51:55+00:00", "2023-06-02T21:53:55+00:00", "2023-06-02T21:54:55+00:00", "2023-06-02T21:57:55+00:00", "2023-06-02T21:58:50+00:00", "2023-06-02T22:02:55+00:00", "2023-06-02T22:04:09+00:00", "2023-06-02T22:05:09+00:00", "2023-06-02T22:07:24+00:00", "2023-06-02T22:10:01+00:00", "2023-06-02T22:13:58+00:00", "2023-06-02T22:15:54+00:00", "2023-06-02T22:16:55+00:00", "2023-06-02T22:18:45+00:00", "2023-06-02T22:20:55+00:00", "2023-06-02T22:22:55+00:00", "2023-06-02T22:24:56+00:00", "2023-06-02T22:26:05+00:00", "2023-06-02T22:27:56+00:00", "2023-06-02T22:30:23+00:00", "2023-06-02T22:31:59+00:00", "2023-06-02T22:34:32+00:00", "2023-06-02T22:35:56+00:00", "2023-06-02T22:37:56+00:00", "2023-06-02T22:39:56+00:00", "2023-06-02T22:41:46+00:00", "2023-06-02T22:43:11+00:00", "2023-06-02T22:44:39+00:00", "2023-06-02T22:46:56+00:00", "2023-06-02T22:48:45+00:00", "2023-06-02T22:50:56+00:00", "2023-06-02T22:52:33+00:00", "2023-06-02T22:54:45+00:00", "2023-06-02T22:56:57+00:00", "2023-06-02T22:58:45+00:00", "2023-06-02T23:00:57+00:00", "2023-06-02T23:02:57+00:00", "2023-06-02T23:04:30+00:00", "2023-06-02T23:06:56+00:00", "2023-06-02T23:08:45+00:00", "2023-06-02T23:10:57+00:00", "2023-06-02T23:13:38+00:00", "2023-06-02T23:14:57+00:00", "2023-06-02T23:17:19+00:00", "2023-06-02T23:19:55+00:00", "2023-06-02T23:21:57+00:00", "2023-06-02T23:25:55+00:00", "2023-06-02T23:27:17+00:00", "2023-06-02T23:29:57+00:00", "2023-06-02T23:31:58+00:00", "2023-06-02T23:34:34+00:00", "2023-06-02T23:36:55+00:00", "2023-06-02T23:39:00+00:00", "2023-06-02T23:41:59+00:00", "2023-06-02T23:43:59+00:00", "2023-06-02T23:45:59+00:00", "2023-06-02T23:49:00+00:00", "2023-06-02T23:51:00+00:00", "2023-06-02T23:53:15+00:00", "2023-06-02T23:54:00+00:00", "2023-06-02T23:57:00+00:00", "2023-06-02T23:59:00+00:00", "2023-06-03T00:02:06+00:00", "2023-06-03T00:04:59+00:00", "2023-06-03T00:06:42+00:00", "2023-06-03T00:09:00+00:00", "2023-06-03T00:11:00+00:00", "2023-06-03T00:13:00+00:00", "2023-06-03T00:14:11+00:00", "2023-06-03T00:16:35+00:00", "2023-06-03T00:18:00+00:00", "2023-06-03T00:20:01+00:00", "2023-06-03T00:22:02+00:00", "2023-06-03T00:24:02+00:00", "2023-06-03T00:26:03+00:00", "2023-06-03T00:28:13+00:00", "2023-06-03T00:30:03+00:00", "2023-06-03T00:32:03+00:00", "2023-06-03T00:33:23+00:00", "2023-06-03T00:35:03+00:00", "2023-06-03T00:37:03+00:00", "2023-06-03T00:40:03+00:00", "2023-06-03T00:42:03+00:00", "2023-06-03T00:43:53+00:00", "2023-06-03T00:45:21+00:00", "2023-06-03T00:47:05+00:00", "2023-06-03T00:50:05+00:00", "2023-06-03T00:52:06+00:00", "2023-06-03T00:54:05+00:00", "2023-06-03T00:56:05+00:00", "2023-06-03T00:58:06+00:00", "2023-06-03T01:00:07+00:00", "2023-06-03T01:01:37+00:00", "2023-06-03T01:05:02+00:00", "2023-06-03T01:07:02+00:00", "2023-06-03T01:09:00+00:00", "2023-06-03T01:11:03+00:00", "2023-06-03T01:13:03+00:00", "2023-06-03T01:15:03+00:00", "2023-06-03T01:17:03+00:00", "2023-06-03T01:19:00+00:00", "2023-06-03T01:21:04+00:00", "2023-06-03T01:22:41+00:00", "2023-06-03T01:24:05+00:00", "2023-06-03T01:25:18+00:00", "2023-06-03T01:27:05+00:00", "2023-06-03T01:29:00+00:00", "2023-06-03T01:30:05+00:00", "2023-06-03T01:32:03+00:00", "2023-06-03T01:33:40+00:00", "2023-06-03T01:35:16+00:00", "2023-06-03T01:36:52+00:00", "2023-06-03T01:39:00+00:00", "2023-06-03T01:40:40+00:00", "2023-06-03T01:42:26+00:00", "2023-06-03T01:44:47+00:00", "2023-06-03T01:46:05+00:00", "2023-06-03T01:48:06+00:00", "2023-06-03T01:49:40+00:00", "2023-06-03T01:51:06+00:00", "2023-06-03T01:53:06+00:00", "2023-06-03T01:55:06+00:00", "2023-06-03T01:57:07+00:00", "2023-06-03T01:59:46+00:00", "2023-06-03T02:01:38+00:00", "2023-06-03T02:03:07+00:00", "2023-06-03T02:05:07+00:00", "2023-06-03T02:07:44+00:00", "2023-06-03T02:09:00+00:00", "2023-06-03T02:11:08+00:00", "2023-06-03T02:13:09+00:00", "2023-06-03T02:14:58+00:00", "2023-06-03T02:16:42+00:00", "2023-06-03T02:18:09+00:00", "2023-06-03T02:19:47+00:00", "2023-06-03T02:21:09+00:00", "2023-06-03T02:22:40+00:00", "2023-06-03T02:24:09+00:00", "2023-06-03T02:25:09+00:00", "2023-06-03T02:27:09+00:00", "2023-06-03T02:28:29+00:00", "2023-06-03T02:30:09+00:00", "2023-06-03T02:31:50+00:00", "2023-06-03T02:34:09+00:00", "2023-06-03T02:36:09+00:00", "2023-06-03T02:39:00+00:00", "2023-06-03T02:41:09+00:00", "2023-06-03T02:42:09+00:00", "2023-06-03T02:44:12+00:00", "2023-06-03T02:46:05+00:00", "2023-06-03T02:47:38+00:00", "2023-06-03T02:49:54+00:00", "2023-06-03T15:54:14+00:00", "2023-06-04T02:38:45+00:00", "2023-06-04T02:40:17+00:00", "2023-06-04T02:44:11+00:00", "2023-06-04T02:45:11+00:00", "2023-06-04T02:47:43+00:00", "2023-06-04T02:49:11+00:00", "2023-06-04T02:51:00+00:00", "2023-06-04T02:52:12+00:00", "2023-06-04T02:54:13+00:00", "2023-06-04T02:56:13+00:00", "2023-06-04T02:57:22+00:00", "2023-06-04T02:59:13+00:00", "2023-06-04T03:01:14+00:00", "2023-06-04T03:02:48+00:00", "2023-06-04T03:04:14+00:00", "2023-06-04T03:06:14+00:00", "2023-06-04T03:08:41+00:00", "2023-06-04T03:10:38+00:00", "2023-06-04T03:13:14+00:00", "2023-06-04T03:16:03+00:00", "2023-06-04T03:17:03+00:00", "2023-06-04T03:18:36+00:00", "2023-06-04T03:20:13+00:00", "2023-06-04T03:22:14+00:00", "2023-06-04T03:23:14+00:00", "2023-06-04T03:26:14+00:00", "2023-06-04T03:27:27+00:00", "2023-06-04T03:30:14+00:00", "2023-06-04T03:32:15+00:00", "2023-06-04T03:35:16+00:00", "2023-06-04T03:36:37+00:00", "2023-06-04T03:39:19+00:00", "2023-06-04T03:40:19+00:00", "2023-06-04T03:42:19+00:00", "2023-06-04T03:45:03+00:00", "2023-06-04T03:46:19+00:00", "2023-06-04T03:48:19+00:00", "2023-06-04T03:49:28+00:00", "2023-06-04T03:51:15+00:00", "2023-06-04T03:53:23+00:00", "2023-06-04T03:56:15+00:00"], "elevations": [16.6, 14.0, 3.5, 2.0, 5.0, 4.0, 4.5, 5.7, 5.0, 5.0, 6.0, 6.0, 6.7, 3.5, 4.0, 4.0, 6.0, 6.2, 6.0, 6.0, 7.0, 7.0, 3.7, 18.0, 8.0, 0.3, 4.0, 4.1, 5.0, 4.5, 5.0, 5.5, 5.5, 1.0, -1.0, -0.5, 2.5, 5.0, 5.5, 6.5, 7.5, 5.5, 4.5, 4.0, 4.8, 5.0, 5.0, 4.7, 4.5, 3.5, 2.5, 1.5, 2.7, 8.5, 3.5, -1.0, 1.7, 4.2, 3.5, 4.0, 3.0, 3.0, -0.9, -1.0, 4.0, -6.0, -1.0, -1.0, -10.0, -1.5, 11.0, 4.7, 0.2, 0.5, 1.0, -4.0, -9.5, 1.4, -1.3, -2.0, -3.0, -4.0, -9.9, -9.5, -6.0, -8.5, -8.0, 2.3, 23.0, 27.0, 20.0, 20.0, 16.5, 0.0, 0.0, -4.0, -3.0, null, 22.3, 15.0, 8.0, 8.0, 8.0, 8.0, 8.4, 8.0, 8.0, 8.0, 3.5, 9.2, 10.0, 38.0, 9.0, 10.0, -6.5, -1.0, 8.5, 7.0, 2.0, 2.7, 2.0, 9.5, 7.5, 7.0, 6.8, 7.0, 7.0, 7.0, 7.0, 6.7, 24.5, 16.0, 9.5, 6.5, 3.2, 24.0, 14.5, 9.5, 11.0, 9.0, 8.0, 7.0, 7.0, 3.7, 7.0, 9.5, 9.0, 9.0, 8.7, 10.0, 9.5, 9.0, 9.0, 9.0, 8.2, 7.0, 7.0, 6.0, 2.5, 1.2, 2.0, 2.0, 2.0, 2.0, 2.1, 2.0, 3.0, 9.5, 3.5, 5.8, 3.0, 5.0, 8.0, 14.0, 3.1, 4.5, 5.0, 5.0, 5.0, 5.0, 5.0, 5.5, 6.5, 7.0, 7.0, 6.0, 5.2, 5.0, -10.0, 8.0, 5.5, 3.2, 11.5, 10.0, 7.0, 9.7, 15.0, 6.0, 6.0, 6.0, 6.0, 5.8, 5.0, 5.3, 5.0, 5.0, 6.2, 6.0, 9.5, 11.5, 17.0, 10.2, 10.0, 11.0, 10.0, 12.0, 17.6, 13.0, 11.7, 10.0, 9.1, 9.0, 6.0, 4.5, 2.7, 2.3, 2.0, 2.0, 2.3, 2.0, 2.2, 1.0, 2.0, 2.0, 2.0, 4.0, 2.7, 2.0, 2.0, -5.0, 1.5, 2.0, 2.7, 2.5, 3.0, 0.5, 7.0, 1.0, 4.2, 3.5, 3.0, 0.0, 4.0, 1.7, 3.0, 3.0, 2.3, 3.5, -1.7, -2.0, -0.5, 1.5, 1.5, 1.0, 1.2, 2.0, 4.0, 3.0, 3.0, 1.5, -4.4, 15.0, 6.5, -3.0, -13.5, -1.8, 6.5, 1.5, -6.0, 3.0, 10.0, -9.4, 39.0, 0.0, -2.3, -1.5, -1.5, 0.3, 8.7, -1.0, 0.0, 1.0, 1.0, 1.0, 1.0, 1.3, 2.0, 2.0, 3.5, 9.5, 3.5, 1.5, 3.0, 4.2, 5.0, 4.0, 4.0, 2.0, 0.0, 0.0, 0.0, 0.3, 1.5, 2.2, 2.0, 2.0, 2.0, 2.0, 2.1, 4.0, 2.0, -8.0, 3.3, 2.2]}