{"type": "Feature", "properties": {"leg_id": 83, "name": "20250813 - Honolulu to Hale&apos;iwa", "stated_nm": 49.3, "computed_nm": 49.3}, "geometry": {"type": "LineString", "coordinates": [[-157.842553, 21.287157], [-157.846097, 21.27874], [-157.848227, 21.277832], [-157.87131, 21.27534], [-157.873177, 21.274943], [-157.91489, 21.272167], [-157.926437, 21.271508], [-157.945137, 21.27107], [-157.97333, 21.26983], [-157.995468, 21.269108], [-158.008927, 21.268378], [-158.02426, 21.267805], [-158.038108, 21.26743], [-158.0453, 21.267567], [-158.061705, 21.267398], [-158.081457, 21.266857], [-158.094272, 21.266762], [-158.09573, 21.267063], [-158.104362, 21.269837], [-158.109838, 21.271758], [-158.128233, 21.279243], [-158.13568, 21.282135], [-158.14204, 21.284352], [-158.154448, 21.288073], [-158.15982, 21.289895], [-158.172697, 21.29481], [-158.176471, 21.297664], [-158.180177, 21.3011], [-158.185065, 21.30754], [-158.201913, 21.331273], [-158.220112, 21.358567], [-158.220752, 21.359642], [-158.229562, 21.38094], [-158.241187, 21.406087], [-158.24534, 21.415465], [-158.253277, 21.434543], [-158.254873, 21.438135], [-158.259633, 21.44694], [-158.26532, 21.4585], [-158.269318, 21.467152], [-158.273402, 21.476393], [-158.276125, 21.483027], [-158.279307, 21.491835], [-158.280813, 21.495603], [-158.283553, 21.501153], [-158.290937, 21.513788], [-158.292775, 21.518013], [-158.29492, 21.527563], [-158.29527, 21.52938], [-158.29703, 21.548055], [-158.296696, 21.550662], [-158.296297, 21.558177], [-158.29752, 21.571168], [-158.297253, 21.575797], [-158.297169, 21.579149], [-158.294431, 21.58255], [-158.287392, 21.587902], [-158.277217, 21.5961], [-158.27356, 21.59732], [-158.265597, 21.597767], [-158.238633, 21.601177], [-158.20673, 21.60436], [-158.183217, 21.607282], [-158.182102, 21.607405], [-158.14587, 21.605187], [-158.13443, 21.60463], [-158.1243, 21.604635], [-158.12342, 21.60454], [-158.110435, 21.600467], [-158.10779, 21.598646], [-158.106073, 21.595457]]}, "times": ["2025-08-13T07:28:40+00:00", "2025-08-13T19:55:39+00:00", "2025-08-13T19:58:30+00:00", "2025-08-13T20:11:37+00:00", "2025-08-13T20:12:42+00:00", "2025-08-13T20:37:24+00:00", "2025-08-13T20:44:17+00:00", "2025-08-13T20:55:13+00:00", "2025-08-13T21:11:31+00:00", "2025-08-13T21:24:12+00:00", "2025-08-13T21:32:12+00:00", "2025-08-13T21:41:48+00:00", "2025-08-13T21:50:34+00:00", "2025-08-13T21:55:20+00:00", "2025-08-13T22:05:10+00:00", "2025-08-13T22:16:24+00:00", "2025-08-13T22:23:29+00:00", "2025-08-13T22:24:17+00:00", "2025-08-13T22:28:58+00:00", "2025-08-13T22:31:54+00:00", "2025-08-13T22:41:47+00:00", "2025-08-13T22:45:55+00:00", "2025-08-13T22:49:31+00:00", "2025-08-13T22:56:43+00:00", "2025-08-13T23:00:04+00:00", "2025-08-13T23:08:12+00:00", "2025-08-13T23:13:00+00:00", "2025-08-13T23:14:20+00:00", "2025-08-13T23:19:33+00:00", "2025-08-13T23:38:20+00:00", "2025-08-14T00:00:48+00:00", "2025-08-14T00:01:39+00:00", "2025-08-14T00:17:44+00:00", "2025-08-14T00:38:12+00:00", "2025-08-14T00:46:02+00:00", "2025-08-14T01:02:04+00:00", "2025-08-14T01:05:02+00:00", "2025-08-14T01:12:36+00:00", "2025-08-14T01:21:53+00:00", "2025-08-14T01:28:48+00:00", "2025-08-14T01:36:06+00:00", "2025-08-14T01:41:14+00:00", "2025-08-14T01:48:13+00:00", "2025-08-14T01:51:32+00:00", "2025-08-14T01:56:30+00:00", "2025-08-14T02:08:06+00:00", "2025-08-14T02:11:50+00:00", "2025-08-14T02:20:25+00:00", "2025-08-14T02:22:08+00:00", "2025-08-14T02:38:46+00:00", "2025-08-14T02:40:07+00:00", "2025-08-14T02:47:09+00:00", "2025-08-14T02:58:38+00:00", "2025-08-14T03:03:58+00:00", "2025-08-14T03:08:38+00:00", "2025-08-14T03:16:39+00:00", "2025-08-14T03:26:32+00:00", "2025-08-14T03:45:37+00:00", "2025-08-14T03:51:06+00:00", "2025-08-14T04:00:34+00:00", "2025-08-14T04:29:55+00:00", "2025-08-14T05:01:57+00:00", "2025-08-14T05:23:26+00:00", "2025-08-14T05:24:22+00:00", "2025-08-14T05:50:42+00:00", "2025-08-14T05:58:26+00:00", "2025-08-14T06:04:51+00:00", "2025-08-14T06:05:23+00:00", "2025-08-14T06:13:47+00:00", "2025-08-14T06:18:44+00:00", "2025-08-14T06:22:52+00:00"], "elevations": [null, null, null, null, null, null, null, null, null, null, null, null, null, null, null, null, null, null, null, null, null, null, null, null, null, null, null, null, null, null, null, null, null, null, null, null, null, null, null, null, null, null, null, null, null, null, null, null, null, null, null, null, null, null, null, null, null, null, null, null, null, null, null, null, null, null, null, null, null, null, null]}