{"type": "Feature", "properties": {"leg_id": 39, "name": "20220823 - American Samoa to Western Samoa", "stated_nm": 84.2, "computed_nm": 84.2}, "geometry": {"type": "LineString", "coordinates": [[-170.690149, -14.273309], [-170.688642, -14.273564], [-170.687485, -14.273607], [-170.686121, -14.273634], [-170.684137, -14.273631], [-170.683068, -14.273638], [-170.681893, -14.273636], [-170.680791, -14.273649], [-170.679182, -14.273624], [-170.67783, -14.273955], [-170.676542, -14.274562], [-170.675399, -14.275159], [-170.674015, -14.276408], [-170.672775, -14.27778], [-170.671756, -14.279275], [-170.671011, -14.280504], [-170.67016, -14.281945], [-170.669574, -14.283002], [-170.669164, -14.284063], [-170.668628, -14.28545], [-170.668095, -14.286781], [-170.667369, -14.288811], [-170.667545, -14.290063], [-170.66776, -14.29127], [-170.668042, -14.29249], [-170.668323, -14.293739], [-170.66862, -14.294964], [-170.668844, -14.296005], [-170.669157, -14.297358], [-170.669533, -14.298923], [-170.669784, -14.299917], [-170.670093, -14.301114], [-170.670322, -14.302159], [-170.670594, -14.303457], [-170.670976, -14.305052], [-170.671237, -14.30609], [-170.67174, -14.307308], [-170.671976, -14.308462], [-170.670979, -14.308613], [-170.669332, -14.308487], [-170.669095, -14.309433], [-170.669707, -14.310701], [-170.670024, -14.311558], [-170.670615, -14.312915], [-170.671192, -14.313957], [-170.671833, -14.314894], [-170.672492, -14.315763], [-170.673274, -14.316837], [-170.674108, -14.317961], [-170.674803, -14.318991], [-170.675627, -14.320129], [-170.676336, -14.321122], [-170.67697, -14.322003], [-170.677729, -14.322889], [-170.678457, -14.323574], [-170.679189, -14.324326], [-170.67992, -14.325], [-170.680805, -14.325876], [-170.681732, -14.32675], [-170.682645, -14.327635], [-170.683443, -14.328522], [-170.684244, -14.329381], [-170.685003, -14.330157], [-170.685802, -14.330995], [-170.686474, -14.331678], [-170.687145, -14.332285], [-170.688131, -14.333211], [-170.688701, -14.333736], [-170.68944, -14.334464], [-170.690249, -14.335244], [-170.691406, -14.336343], [-170.6922, -14.337175], [-170.693203, -14.338093], [-170.694082, -14.338931], [-170.694981, -14.339767], [-170.695878, -14.340667], [-170.696594, -14.34146], [-170.697381, -14.342261], [-170.698251, -14.343103], [-170.699078, -14.343984], [-170.699656, -14.344748], [-170.700162, -14.345675], [-170.700869, -14.346428], [-170.701605, -14.347178], [-170.702619, -14.348126], [-170.703518, -14.348986], [-170.70435, -14.349876], [-170.705087, -14.35077], [-170.706107, -14.351991], [-170.707644, -14.35366], [-170.708724, -14.355155], [-170.709767, -14.356668], [-170.710595, -14.357918], [-170.71139, -14.359414], [-170.7126, -14.360917], [-170.714037, -14.362468], [-170.715377, -14.363937], [-170.716401, -14.365262], [-170.71805, -14.366763], [-170.719052, -14.367782], [-170.720811, -14.3696], [-170.722376, -14.371094], [-170.723348, -14.372386], [-170.724649, -14.37389], [-170.725992, -14.376012], [-170.727017, -14.377483], [-170.728323, -14.378836], [-170.729768, -14.380138], [-170.731131, -14.38135], [-170.732853, -14.382604], [-170.734056, -14.383756], [-170.735249, -14.385414], [-170.736702, -14.387241], [-170.737893, -14.388669], [-170.739232, -14.390112], [-170.740898, -14.391916], [-170.742059, -14.393017], [-170.743271, -14.394447], [-170.744354, -14.396012], [-170.745562, -14.397807], [-170.746432, -14.399034], [-170.747648, -14.400328], [-170.748778, -14.401729], [-170.750071, -14.403114], [-170.751139, -14.404782], [-170.752528, -14.406174], [-170.753497, -14.407648], [-170.754525, -14.409132], [-170.75664, -14.411767], [-170.757307, -14.412786], [-170.759304, -14.414341], [-170.761337, -14.413803], [-170.762396, -14.413808], [-170.76352, -14.413104], [-170.764601, -14.412339], [-170.766158, -14.410743], [-170.767532, -14.409193], [-170.769834, -14.407377], [-170.772138, -14.405586], [-170.773596, -14.40445], [-170.775467, -14.403065], [-170.777785, -14.400444], [-170.778593, -14.399567], [-170.779634, -14.398354], [-170.780802, -14.396871], [-170.782847, -14.395233], [-170.784264, -14.394065], [-170.785566, -14.393076], [-170.78909, -14.390368], [-170.791986, -14.388064], [-170.793104, -14.38719], [-170.794967, -14.385676], [-170.79757, -14.383549], [-170.799366, -14.382078], [-170.800742, -14.380959], [-170.802085, -14.379746], [-170.803236, -14.377823], [-170.803969, -14.376421], [-170.804711, -14.375168], [-170.805811, -14.374021], [-170.806847, -14.372649], [-170.80778, -14.371156], [-170.808616, -14.369828], [-170.809393, -14.368828], [-170.815917, -14.364153], [-170.817132, -14.363359], [-170.819357, -14.361827], [-170.821053, -14.360576], [-170.827417, -14.355868], [-170.828638, -14.354858], [-170.831323, -14.352713], [-170.833647, -14.350814], [-170.834837, -14.349808], [-170.837796, -14.347397], [-170.839173, -14.346153], [-170.840822, -14.344525], [-170.842726, -14.342449], [-170.843785, -14.341253], [-170.844573, -14.340355], [-170.851812, -14.333857], [-170.853617, -14.332513], [-170.85768, -14.329635], [-170.8607, -14.327752], [-170.863652, -14.325718], [-170.866251, -14.323978], [-170.87152, -14.31953], [-170.873064, -14.317826], [-170.875419, -14.314171], [-170.876199, -14.312831], [-170.877956, -14.309499], [-170.87908, -14.307323], [-170.88048, -14.304479], [-170.881377, -14.302804], [-170.882058, -14.301411], [-170.883268, -14.29879], [-170.884, -14.297215], [-170.884751, -14.29551], [-170.885563, -14.293737], [-170.886245, -14.292235], [-170.887124, -14.290323], [-170.887769, -14.28891], [-170.888499, -14.287225], [-170.890468, -14.283103], [-170.891181, -14.28124], [-170.892246, -14.279007], [-170.893249, -14.276809], [-170.894892, -14.273708], [-170.895718, -14.271962], [-170.896455, -14.270476], [-170.897238, -14.268989], [-170.898166, -14.267198], [-170.899472, -14.264399], [-170.90207, -14.259293], [-170.902876, -14.2578], [-170.904075, -14.25546], [-170.906335, -14.251032], [-170.907714, -14.248609], [-170.908527, -14.246945], [-170.909927, -14.244301], [-170.910948, -14.24251], [-170.912466, -14.239748], [-170.913955, -14.237041], [-170.915878, -14.233605], [-170.916913, -14.231872], [-170.918289, -14.229474], [-170.919335, -14.227759], [-170.920529, -14.225708], [-170.921705, -14.223706], [-170.923606, -14.220687], [-170.925613, -14.217424], [-170.927433, -14.214202], [-170.929314, -14.211084], [-170.930374, -14.209312], [-170.932289, -14.206151], [-170.933672, -14.203881], [-170.934549, -14.202539], [-170.935518, -14.200966], [-170.936479, -14.199484], [-170.937376, -14.198021], [-170.93914, -14.195147], [-170.940829, -14.192383], [-170.942209, -14.19064], [-170.943652, -14.188696], [-170.944772, -14.187098], [-170.945568, -14.185958], [-170.946761, -14.184228], [-170.947691, -14.182902], [-170.948766, -14.181436], [-170.950025, -14.179685], [-170.951348, -14.177874], [-170.952227, -14.176634], [-170.953648, -14.174643], [-170.954813, -14.173069], [-170.95578, -14.171749], [-170.957167, -14.169833], [-170.957892, -14.168801], [-170.959539, -14.166417], [-170.960237, -14.165446], [-170.961932, -14.163142], [-170.963338, -14.161263], [-170.96453, -14.159733], [-170.966378, -14.157385], [-170.96776, -14.15544], [-170.968933, -14.153923], [-170.970178, -14.152435], [-170.971225, -14.151101], [-170.972507, -14.14954], [-170.97369, -14.14814], [-170.974783, -14.146693], [-170.976106, -14.145098], [-170.977571, -14.144246], [-170.978752, -14.143605], [-170.980312, -14.142788], [-170.981423, -14.14224], [-170.986227, -14.139917], [-170.989684, -14.138455], [-170.99102, -14.137907], [-170.992492, -14.137287], [-170.994371, -14.136652], [-170.996389, -14.135517], [-170.998451, -14.134257], [-171.000578, -14.132946], [-171.002604, -14.131687], [-171.005933, -14.129664], [-171.007075, -14.128921], [-171.011015, -14.126427], [-171.013676, -14.124678], [-171.016828, -14.122689], [-171.018713, -14.121459], [-171.02013, -14.120551], [-171.021412, -14.119703], [-171.022563, -14.118952], [-171.024109, -14.117908], [-171.027198, -14.115871], [-171.031555, -14.113017], [-171.034978, -14.11101], [-171.036353, -14.110056], [-171.039034, -14.108399], [-171.040697, -14.107283], [-171.04346, -14.105487], [-171.046707, -14.103494], [-171.047582, -14.10293], [-171.050136, -14.101296], [-171.051185, -14.10064], [-171.052937, -14.099526], [-171.056008, -14.097662], [-171.058024, -14.096331], [-171.059612, -14.095274], [-171.062223, -14.093534], [-171.063441, -14.092673], [-171.069863, -14.088278], [-171.071131, -14.087488], [-171.073585, -14.085853], [-171.075932, -14.084256], [-171.077538, -14.083173], [-171.083877, -14.079718], [-171.085313, -14.078845], [-171.090335, -14.076205], [-171.093251, -14.074541], [-171.094635, -14.073851], [-171.096802, -14.072757], [-171.100107, -14.070953], [-171.101561, -14.070141], [-171.105062, -14.068287], [-171.106511, -14.067461], [-171.112483, -14.064155], [-171.11358, -14.063609], [-171.115377, -14.062645], [-171.117272, -14.061575], [-171.118501, -14.060931], [-171.120797, -14.059712], [-171.12223, -14.058918], [-171.124362, -14.057852], [-171.125969, -14.057029], [-171.128597, -14.055689], [-171.13005, -14.054861], [-171.131937, -14.053929], [-171.133947, -14.052874], [-171.137195, -14.051226], [-171.138334, -14.0507], [-171.141174, -14.049264], [-171.142297, -14.048686], [-171.145485, -14.047138], [-171.146967, -14.046268], [-171.150713, -14.044222], [-171.15291, -14.043121], [-171.155177, -14.041894], [-171.158291, -14.040239], [-171.162625, -14.03787], [-171.164415, -14.037047], [-171.167797, -14.035251], [-171.170309, -14.033947], [-171.172347, -14.032906], [-171.173543, -14.032205], [-171.182637, -14.027768], [-171.184178, -14.02695], [-171.190033, -14.023989], [-171.194008, -14.021994], [-171.196966, -14.020455], [-171.201262, -14.018221], [-171.206822, -14.015205], [-171.208626, -14.014114], [-171.211955, -14.012231], [-171.213734, -14.01119], [-171.216818, -14.009474], [-171.218368, -14.008546], [-171.220111, -14.007542], [-171.223346, -14.005627], [-171.225348, -14.004436], [-171.228242, -14.002829], [-171.229332, -14.002188], [-171.230736, -14.001505], [-171.233756, -13.999924], [-171.235275, -13.999131], [-171.237313, -13.998069], [-171.23881, -13.997215], [-171.241647, -13.995705], [-171.243402, -13.994777], [-171.244876, -13.993984], [-171.247694, -13.992431], [-171.24892, -13.99182], [-171.255255, -13.988393], [-171.256318, -13.987809], [-171.25962, -13.986045], [-171.261682, -13.984938], [-171.264224, -13.983675], [-171.266051, -13.982652], [-171.267637, -13.981823], [-171.269788, -13.980683], [-171.272428, -13.979271], [-171.274303, -13.978249], [-171.277388, -13.976701], [-171.278814, -13.975985], [-171.280591, -13.975117], [-171.282362, -13.974216], [-171.284103, -13.973311], [-171.285961, -13.972342], [-171.287574, -13.971497], [-171.28919, -13.970677], [-171.291422, -13.969521], [-171.294918, -13.96766], [-171.297371, -13.9664], [-171.299167, -13.965478], [-171.306418, -13.961917], [-171.308235, -13.960978], [-171.311162, -13.959536], [-171.314526, -13.957924], [-171.318417, -13.956142], [-171.320931, -13.95489], [-171.322777, -13.954029], [-171.325778, -13.952532], [-171.32954, -13.95079], [-171.330917, -13.950151], [-171.333103, -13.949152], [-171.335368, -13.948101], [-171.340922, -13.94532], [-171.342992, -13.944412], [-171.346797, -13.942716], [-171.348177, -13.942116], [-171.352915, -13.939941], [-171.358989, -13.937077], [-171.361296, -13.936035], [-171.365331, -13.934079], [-171.367654, -13.932979], [-171.368993, -13.932341], [-171.372612, -13.930465], [-171.376487, -13.928573], [-171.378019, -13.927832], [-171.380627, -13.926683], [-171.384563, -13.924761], [-171.38593, -13.924073], [-171.389282, -13.922422], [-171.39075, -13.921713], [-171.392148, -13.921033], [-171.397622, -13.918307], [-171.399597, -13.917408], [-171.401549, -13.916508], [-171.403381, -13.915618], [-171.405941, -13.91442], [-171.407143, -13.913885], [-171.410619, -13.912208], [-171.412473, -13.911339], [-171.413739, -13.910812], [-171.416437, -13.909548], [-171.41909, -13.908385], [-171.420823, -13.907532], [-171.422238, -13.906917], [-171.424441, -13.905926], [-171.427011, -13.904752], [-171.42933, -13.903659], [-171.431896, -13.902411], [-171.434082, -13.901318], [-171.437211, -13.899799], [-171.440999, -13.898124], [-171.442793, -13.897321], [-171.446558, -13.895608], [-171.448469, -13.894757], [-171.450279, -13.893903], [-171.454179, -13.892099], [-171.456335, -13.891068], [-171.457784, -13.890347], [-171.460627, -13.88892], [-171.464766, -13.886834], [-171.46701, -13.885773], [-171.468689, -13.884962], [-171.470538, -13.884026], [-171.472355, -13.883126], [-171.476128, -13.881314], [-171.47828, -13.880189], [-171.480669, -13.878963], [-171.48273, -13.877958], [-171.485413, -13.87667], [-171.48772, -13.875637], [-171.488889, -13.875092], [-171.491749, -13.873747], [-171.493168, -13.873072], [-171.494973, -13.872147], [-171.496587, -13.871376], [-171.498943, -13.870256], [-171.501019, -13.86927], [-171.502867, -13.868358], [-171.504718, -13.867467], [-171.50683, -13.866524], [-171.508443, -13.865903], [-171.511487, -13.864784], [-171.51382, -13.863873], [-171.516458, -13.862991], [-171.518513, -13.862675], [-171.519765, -13.862016], [-171.522552, -13.860254], [-171.525013, -13.859672], [-171.526387, -13.859341], [-171.528065, -13.85893], [-171.531484, -13.858139], [-171.534028, -13.857577], [-171.540163, -13.855921], [-171.542466, -13.855262], [-171.544299, -13.854809], [-171.54659, -13.854265], [-171.549577, -13.853629], [-171.551942, -13.853117], [-171.554177, -13.852581], [-171.556302, -13.8521], [-171.558064, -13.851701], [-171.559621, -13.851374], [-171.563799, -13.850489], [-171.566069, -13.849913], [-171.567883, -13.849525], [-171.569473, -13.849076], [-171.570768, -13.848711], [-171.57485, -13.847815], [-171.576385, -13.847423], [-171.579097, -13.846879], [-171.580923, -13.84649], [-171.582712, -13.846115], [-171.585298, -13.845544], [-171.587244, -13.845091], [-171.588587, -13.844833], [-171.590768, -13.844391], [-171.592028, -13.844148], [-171.594301, -13.843756], [-171.596739, -13.843296], [-171.599006, -13.842795], [-171.602129, -13.842202], [-171.603984, -13.841817], [-171.605091, -13.841599], [-171.606486, -13.841308], [-171.608019, -13.840955], [-171.609083, -13.840733], [-171.610668, -13.840427], [-171.612618, -13.840115], [-171.614073, -13.839804], [-171.615225, -13.839529], [-171.616711, -13.839312], [-171.617776, -13.839041], [-171.61899, -13.838813], [-171.621042, -13.838432], [-171.622857, -13.838099], [-171.623895, -13.837979], [-171.62517, -13.837756], [-171.626105, -13.837572], [-171.627289, -13.837356], [-171.628994, -13.837035], [-171.629891, -13.836841], [-171.631044, -13.8366], [-171.632363, -13.83637], [-171.634031, -13.836084], [-171.636003, -13.835653], [-171.63702, -13.835426], [-171.638428, -13.835141], [-171.639311, -13.834911], [-171.640813, -13.834597], [-171.642015, -13.834268], [-171.643357, -13.833995], [-171.645532, -13.833683], [-171.646676, -13.833405], [-171.648106, -13.833113], [-171.649415, -13.832818], [-171.650847, -13.832551], [-171.652151, -13.832275], [-171.653331, -13.832009], [-171.655258, -13.831638], [-171.656755, -13.831334], [-171.658082, -13.831106], [-171.659254, -13.83086], [-171.660505, -13.830655], [-171.661362, -13.830481], [-171.662585, -13.830204], [-171.664483, -13.829831], [-171.666151, -13.829527], [-171.667077, -13.829369], [-171.668149, -13.829164], [-171.669213, -13.828983], [-171.670643, -13.82865], [-171.672178, -13.828366], [-171.673366, -13.828095], [-171.674681, -13.827881], [-171.676509, -13.827585], [-171.678035, -13.827239], [-171.679641, -13.82691], [-171.681033, -13.826526], [-171.682198, -13.826344], [-171.683539, -13.826131], [-171.684631, -13.825959], [-171.685636, -13.825757], [-171.688075, -13.825354], [-171.68924, -13.825098], [-171.690414, -13.824896], [-171.691835, -13.824579], [-171.693074, -13.824351], [-171.694389, -13.824142], [-171.696068, -13.823853], [-171.697519, -13.823569], [-171.699294, -13.823244], [-171.700707, -13.823016], [-171.703083, -13.822467], [-171.704841, -13.822193], [-171.706374, -13.821867], [-171.708238, -13.821495], [-171.709611, -13.821208], [-171.710907, -13.82094], [-171.714587, -13.820338], [-171.716998, -13.81982], [-171.72045, -13.819103], [-171.723434, -13.818638], [-171.724731, -13.818355], [-171.726919, -13.818269], [-171.729224, -13.817783], [-171.731881, -13.817227], [-171.734157, -13.816815], [-171.735933, -13.816472], [-171.738585, -13.815864], [-171.740204, -13.815506], [-171.742289, -13.815143], [-171.744146, -13.814746], [-171.745665, -13.814539], [-171.747275, -13.81446], [-171.749869, -13.814388], [-171.752588, -13.814102], [-171.754437, -13.814019], [-171.756512, -13.813961], [-171.757744, -13.814308], [-171.7618, -13.816262], [-171.763045, -13.817189], [-171.764528, -13.821365], [-171.764182, -13.826909], [-171.762469, -13.829077], [-171.762263, -13.829351], [-171.759733, -13.827732], [-171.763448, -13.828539], [-171.762814, -13.82947]]}, "times": ["2022-08-23T08:14:08+00:00", "2022-08-23T08:14:49+00:00", "2022-08-23T08:15:43+00:00", "2022-08-23T08:16:09+00:00", "2022-08-23T08:17:52+00:00", "2022-08-23T08:18:36+00:00", "2022-08-23T08:19:26+00:00", "2022-08-23T08:20:15+00:00", "2022-08-23T08:21:07+00:00", "2022-08-23T08:22:08+00:00", "2022-08-23T08:23:28+00:00", "2022-08-23T08:24:00+00:00", "2022-08-23T08:25:13+00:00", "2022-08-23T08:26:33+00:00", "2022-08-23T08:27:58+00:00", "2022-08-23T08:28:52+00:00", "2022-08-23T08:30:17+00:00", "2022-08-23T08:31:01+00:00", "2022-08-23T08:31:54+00:00", "2022-08-23T08:32:26+00:00", "2022-08-23T08:33:51+00:00", "2022-08-23T08:35:26+00:00", "2022-08-23T08:36:24+00:00", "2022-08-23T08:36:58+00:00", "2022-08-23T08:38:01+00:00", "2022-08-23T08:38:56+00:00", "2022-08-23T08:39:44+00:00", "2022-08-23T08:40:29+00:00", "2022-08-23T08:41:19+00:00", "2022-08-23T08:43:00+00:00", "2022-08-23T08:43:26+00:00", "2022-08-23T08:44:02+00:00", "2022-08-23T08:44:55+00:00", "2022-08-23T08:46:01+00:00", "2022-08-23T08:46:58+00:00", "2022-08-23T08:47:48+00:00", "2022-08-23T08:48:41+00:00", "2022-08-23T08:49:49+00:00", "2022-08-23T08:51:10+00:00", "2022-08-23T08:53:52+00:00", "2022-08-23T08:55:00+00:00", "2022-08-23T08:56:07+00:00", "2022-08-23T08:56:41+00:00", "2022-08-23T08:58:06+00:00", "2022-08-23T08:58:52+00:00", "2022-08-23T08:59:53+00:00", "2022-08-23T09:00:33+00:00", "2022-08-23T09:01:32+00:00", "2022-08-23T09:02:41+00:00", "2022-08-23T09:03:33+00:00", "2022-08-23T09:04:42+00:00", "2022-08-23T09:05:19+00:00", "2022-08-23T09:06:01+00:00", "2022-08-23T09:06:58+00:00", "2022-08-23T09:07:27+00:00", "2022-08-23T09:08:19+00:00", "2022-08-23T09:09:05+00:00", "2022-08-23T09:10:01+00:00", "2022-08-23T09:11:06+00:00", "2022-08-23T09:11:54+00:00", "2022-08-23T09:12:51+00:00", "2022-08-23T09:13:29+00:00", "2022-08-23T09:14:22+00:00", "2022-08-23T09:15:19+00:00", "2022-08-23T09:16:12+00:00", "2022-08-23T09:16:43+00:00", "2022-08-23T09:18:01+00:00", "2022-08-23T09:19:00+00:00", "2022-08-23T09:19:43+00:00", "2022-08-23T09:20:39+00:00", "2022-08-23T09:22:12+00:00", "2022-08-23T09:22:53+00:00", "2022-08-23T09:24:01+00:00", "2022-08-23T09:24:55+00:00", "2022-08-23T09:26:05+00:00", "2022-08-23T09:27:06+00:00", "2022-08-23T09:27:51+00:00", "2022-08-23T09:28:38+00:00", "2022-08-23T09:29:42+00:00", "2022-08-23T09:30:23+00:00", "2022-08-23T09:31:24+00:00", "2022-08-23T09:32:08+00:00", "2022-08-23T09:32:57+00:00", "2022-08-23T09:33:53+00:00", "2022-08-23T09:35:07+00:00", "2022-08-23T09:36:12+00:00", "2022-08-23T09:37:17+00:00", "2022-08-23T09:38:07+00:00", "2022-08-23T09:39:19+00:00", "2022-08-23T09:41:08+00:00", "2022-08-23T09:42:26+00:00", "2022-08-23T09:44:00+00:00", "2022-08-23T09:44:53+00:00", "2022-08-23T09:46:31+00:00", "2022-08-23T09:47:32+00:00", "2022-08-23T09:49:30+00:00", "2022-08-23T09:51:06+00:00", "2022-08-23T09:52:03+00:00", "2022-08-23T09:53:53+00:00", "2022-08-23T09:54:46+00:00", "2022-08-23T09:57:19+00:00", "2022-08-23T09:58:16+00:00", "2022-08-23T09:59:05+00:00", "2022-08-23T10:00:42+00:00", "2022-08-23T10:02:36+00:00", "2022-08-23T10:03:28+00:00", "2022-08-23T10:05:38+00:00", "2022-08-23T10:06:50+00:00", "2022-08-23T10:08:11+00:00", "2022-08-23T10:09:56+00:00", "2022-08-23T10:11:10+00:00", "2022-08-23T10:12:32+00:00", "2022-08-23T10:14:05+00:00", "2022-08-23T10:15:05+00:00", "2022-08-23T10:17:14+00:00", "2022-08-23T10:19:12+00:00", "2022-08-23T10:19:52+00:00", "2022-08-23T10:21:10+00:00", "2022-08-23T10:22:31+00:00", "2022-08-23T10:24:08+00:00", "2022-08-23T10:25:21+00:00", "2022-08-23T10:26:30+00:00", "2022-08-23T10:28:12+00:00", "2022-08-23T10:29:16+00:00", "2022-08-23T10:30:41+00:00", "2022-08-23T10:31:59+00:00", "2022-08-23T10:33:16+00:00", "2022-08-23T10:35:05+00:00", "2022-08-23T10:36:58+00:00", "2022-08-23T10:37:58+00:00", "2022-08-23T10:40:57+00:00", "2022-08-23T10:43:19+00:00", "2022-08-23T10:44:41+00:00", "2022-08-23T10:45:57+00:00", "2022-08-23T10:47:06+00:00", "2022-08-23T10:49:23+00:00", "2022-08-23T10:50:41+00:00", "2022-08-23T10:52:30+00:00", "2022-08-23T10:56:08+00:00", "2022-08-23T10:57:21+00:00", "2022-08-23T10:59:30+00:00", "2022-08-23T11:01:40+00:00", "2022-08-23T11:02:37+00:00", "2022-08-23T11:04:14+00:00", "2022-08-23T11:05:11+00:00", "2022-08-23T11:07:48+00:00", "2022-08-23T11:09:05+00:00", "2022-08-23T11:10:02+00:00", "2022-08-23T11:14:13+00:00", "2022-08-23T11:16:59+00:00", "2022-08-23T11:18:03+00:00", "2022-08-23T11:20:33+00:00", "2022-08-23T11:22:25+00:00", "2022-08-23T11:24:54+00:00", "2022-08-23T11:26:07+00:00", "2022-08-23T11:27:57+00:00", "2022-08-23T11:29:54+00:00", "2022-08-23T11:31:03+00:00", "2022-08-23T11:32:09+00:00", "2022-08-23T11:34:42+00:00", "2022-08-23T11:35:26+00:00", "2022-08-23T11:37:39+00:00", "2022-08-23T11:40:00+00:00", "2022-08-23T11:41:14+00:00", "2022-08-23T11:50:01+00:00", "2022-08-23T11:50:54+00:00", "2022-08-23T11:55:16+00:00", "2022-08-23T11:59:14+00:00", "2022-08-23T12:06:33+00:00", "2022-08-23T12:08:34+00:00", "2022-08-23T12:11:08+00:00", "2022-08-23T12:18:41+00:00", "2022-08-23T12:22:27+00:00", "2022-08-23T12:27:09+00:00", "2022-08-23T12:29:51+00:00", "2022-08-23T12:36:49+00:00", "2022-08-23T12:41:08+00:00", "2022-08-23T12:46:09+00:00", "2022-08-23T12:48:35+00:00", "2022-08-23T12:55:31+00:00", "2022-08-23T12:57:48+00:00", "2022-08-23T13:00:22+00:00", "2022-08-23T13:02:43+00:00", "2022-08-23T13:04:24+00:00", "2022-08-23T13:07:13+00:00", "2022-08-23T13:11:28+00:00", "2022-08-23T13:15:54+00:00", "2022-08-23T13:20:29+00:00", "2022-08-23T13:23:18+00:00", "2022-08-23T13:27:50+00:00", "2022-08-23T13:32:49+00:00", "2022-08-23T13:36:16+00:00", "2022-08-23T13:39:46+00:00", "2022-08-23T13:43:09+00:00", "2022-08-23T13:47:43+00:00", "2022-08-23T13:51:55+00:00", "2022-08-23T13:57:09+00:00", "2022-08-23T14:01:27+00:00", "2022-08-23T14:03:44+00:00", "2022-08-23T14:08:31+00:00", "2022-08-23T14:11:16+00:00", "2022-08-23T14:16:48+00:00", "2022-08-23T14:25:37+00:00", "2022-08-23T14:30:04+00:00", "2022-08-23T14:36:43+00:00", "2022-08-23T14:38:15+00:00", "2022-08-23T14:46:02+00:00", "2022-08-23T14:49:39+00:00", "2022-08-23T14:52:00+00:00", "2022-08-23T14:54:34+00:00", "2022-08-23T14:57:50+00:00", "2022-08-23T15:04:58+00:00", "2022-08-23T15:10:49+00:00", "2022-08-23T15:14:31+00:00", "2022-08-23T15:18:48+00:00", "2022-08-23T15:24:03+00:00", "2022-08-23T15:27:13+00:00", "2022-08-23T15:29:47+00:00", "2022-08-23T15:33:28+00:00", "2022-08-23T15:34:37+00:00", "2022-08-23T15:40:05+00:00", "2022-08-23T15:46:32+00:00", "2022-08-23T15:49:01+00:00", "2022-08-23T15:51:46+00:00", "2022-08-23T15:54:48+00:00", "2022-08-23T15:55:48+00:00", "2022-08-23T15:58:25+00:00", "2022-08-23T16:00:59+00:00", "2022-08-23T16:02:20+00:00", "2022-08-23T16:07:54+00:00", "2022-08-23T16:10:35+00:00", "2022-08-23T16:13:25+00:00", "2022-08-23T16:16:00+00:00", "2022-08-23T16:17:58+00:00", "2022-08-23T16:21:47+00:00", "2022-08-23T16:23:04+00:00", "2022-08-23T16:25:21+00:00", "2022-08-23T16:26:18+00:00", "2022-08-23T16:29:07+00:00", "2022-08-23T16:31:13+00:00", "2022-08-23T16:35:51+00:00", "2022-08-23T16:38:44+00:00", "2022-08-23T16:40:37+00:00", "2022-08-23T16:42:42+00:00", "2022-08-23T16:43:35+00:00", "2022-08-23T16:46:05+00:00", "2022-08-23T16:47:13+00:00", "2022-08-23T16:49:14+00:00", "2022-08-23T16:51:07+00:00", "2022-08-23T16:53:24+00:00", "2022-08-23T16:55:41+00:00", "2022-08-23T16:57:38+00:00", "2022-08-23T16:59:12+00:00", "2022-08-23T17:00:49+00:00", "2022-08-23T17:03:35+00:00", "2022-08-23T17:04:40+00:00", "2022-08-23T17:07:21+00:00", "2022-08-23T17:08:26+00:00", "2022-08-23T17:11:11+00:00", "2022-08-23T17:13:52+00:00", "2022-08-23T17:15:26+00:00", "2022-08-23T17:18:00+00:00", "2022-08-23T17:21:50+00:00", "2022-08-23T17:24:31+00:00", "2022-08-23T17:27:08+00:00", "2022-08-23T17:28:41+00:00", "2022-08-23T17:31:30+00:00", "2022-08-23T17:34:07+00:00", "2022-08-23T17:36:08+00:00", "2022-08-23T17:39:08+00:00", "2022-08-23T17:40:37+00:00", "2022-08-23T17:42:42+00:00", "2022-08-23T17:45:36+00:00", "2022-08-23T17:46:45+00:00", "2022-08-23T17:52:37+00:00", "2022-08-23T17:56:22+00:00", "2022-08-23T17:58:36+00:00", "2022-08-23T17:59:28+00:00", "2022-08-23T18:01:54+00:00", "2022-08-23T18:04:20+00:00", "2022-08-23T18:07:02+00:00", "2022-08-23T18:10:49+00:00", "2022-08-23T18:12:42+00:00", "2022-08-23T18:16:07+00:00", "2022-08-23T18:17:03+00:00", "2022-08-23T18:22:22+00:00", "2022-08-23T18:23:43+00:00", "2022-08-23T18:29:10+00:00", "2022-08-23T18:31:47+00:00", "2022-08-23T18:32:47+00:00", "2022-08-23T18:34:21+00:00", "2022-08-23T18:35:33+00:00", "2022-08-23T18:37:10+00:00", "2022-08-23T18:42:03+00:00", "2022-08-23T18:46:04+00:00", "2022-08-23T18:50:06+00:00", "2022-08-23T18:51:46+00:00", "2022-08-23T18:56:03+00:00", "2022-08-23T18:57:20+00:00", "2022-08-23T19:00:26+00:00", "2022-08-23T19:03:43+00:00", "2022-08-23T19:05:04+00:00", "2022-08-23T19:07:53+00:00", "2022-08-23T19:09:06+00:00", "2022-08-23T19:11:15+00:00", "2022-08-23T19:14:32+00:00", "2022-08-23T19:17:49+00:00", "2022-08-23T19:19:01+00:00", "2022-08-23T19:22:07+00:00", "2022-08-23T19:24:28+00:00", "2022-08-23T19:32:07+00:00", "2022-08-23T19:33:20+00:00", "2022-08-23T19:36:54+00:00", "2022-08-23T19:39:36+00:00", "2022-08-23T19:41:17+00:00", "2022-08-23T19:48:28+00:00", "2022-08-23T19:50:13+00:00", "2022-08-23T19:55:23+00:00", "2022-08-23T19:58:17+00:00", "2022-08-23T20:00:02+00:00", "2022-08-23T20:03:00+00:00", "2022-08-23T20:05:44+00:00", "2022-08-23T20:07:57+00:00", "2022-08-23T20:11:15+00:00", "2022-08-23T20:12:16+00:00", "2022-08-23T20:19:46+00:00", "2022-08-23T20:20:50+00:00", "2022-08-23T20:22:56+00:00", "2022-08-23T20:25:21+00:00", "2022-08-23T20:26:01+00:00", "2022-08-23T20:29:14+00:00", "2022-08-23T20:30:55+00:00", "2022-08-23T20:33:57+00:00", "2022-08-23T20:35:09+00:00", "2022-08-23T20:39:02+00:00", "2022-08-23T20:39:58+00:00", "2022-08-23T20:41:59+00:00", "2022-08-23T20:44:53+00:00", "2022-08-23T20:47:58+00:00", "2022-08-23T20:49:30+00:00", "2022-08-23T20:52:35+00:00", "2022-08-23T20:53:40+00:00", "2022-08-23T20:57:26+00:00", "2022-08-23T20:58:46+00:00", "2022-08-23T21:02:28+00:00", "2022-08-23T21:04:09+00:00", "2022-08-23T21:06:50+00:00", "2022-08-23T21:11:20+00:00", "2022-08-23T21:15:36+00:00", "2022-08-23T21:16:12+00:00", "2022-08-23T21:22:26+00:00", "2022-08-23T21:24:55+00:00", "2022-08-23T21:26:32+00:00", "2022-08-23T21:27:41+00:00", "2022-08-23T21:37:18+00:00", "2022-08-23T21:37:46+00:00", "2022-08-23T21:47:17+00:00", "2022-08-23T21:50:02+00:00", "2022-08-23T21:51:51+00:00", "2022-08-23T22:00:50+00:00", "2022-08-23T22:02:27+00:00", "2022-08-23T22:05:16+00:00", "2022-08-23T22:08:30+00:00", "2022-08-23T22:09:26+00:00", "2022-08-23T22:13:40+00:00", "2022-08-23T22:15:33+00:00", "2022-08-23T22:17:34+00:00", "2022-08-23T22:20:06+00:00", "2022-08-23T22:22:08+00:00", "2022-08-23T22:25:33+00:00", "2022-08-23T22:26:17+00:00", "2022-08-23T22:27:57+00:00", "2022-08-23T22:30:51+00:00", "2022-08-23T22:32:24+00:00", "2022-08-23T22:34:37+00:00", "2022-08-23T22:35:03+00:00", "2022-08-23T22:38:58+00:00", "2022-08-23T22:41:19+00:00", "2022-08-23T22:42:32+00:00", "2022-08-23T22:46:14+00:00", "2022-08-23T22:46:38+00:00", "2022-08-23T22:53:13+00:00", "2022-08-23T22:54:21+00:00", "2022-08-23T22:57:38+00:00", "2022-08-23T23:00:48+00:00", "2022-08-23T23:02:05+00:00", "2022-08-23T23:05:06+00:00", "2022-08-23T23:07:31+00:00", "2022-08-23T23:08:07+00:00", "2022-08-23T23:12:20+00:00", "2022-08-23T23:14:25+00:00", "2022-08-23T23:17:14+00:00", "2022-08-23T23:18:43+00:00", "2022-08-23T23:21:32+00:00", "2022-08-23T23:22:56+00:00", "2022-08-23T23:24:05+00:00", "2022-08-23T23:27:07+00:00", "2022-08-23T23:28:24+00:00", "2022-08-23T23:30:28+00:00", "2022-08-23T23:34:47+00:00", "2022-08-23T23:37:00+00:00", "2022-08-23T23:39:42+00:00", "2022-08-23T23:41:35+00:00", "2022-08-23T23:48:53+00:00", "2022-08-23T23:51:30+00:00", "2022-08-23T23:52:54+00:00", "2022-08-23T23:58:13+00:00", "2022-08-24T00:01:38+00:00", "2022-08-24T00:03:43+00:00", "2022-08-24T00:05:32+00:00", "2022-08-24T00:07:38+00:00", "2022-08-24T00:14:04+00:00", "2022-08-24T00:15:09+00:00", "2022-08-24T00:17:11+00:00", "2022-08-24T00:19:56+00:00", "2022-08-24T00:24:58+00:00", "2022-08-24T00:27:11+00:00", "2022-08-24T00:30:24+00:00", "2022-08-24T00:31:44+00:00", "2022-08-24T00:39:07+00:00", "2022-08-24T00:42:33+00:00", "2022-08-24T00:46:49+00:00", "2022-08-24T00:48:33+00:00", "2022-08-24T00:51:15+00:00", "2022-08-24T00:51:59+00:00", "2022-08-24T00:55:36+00:00", "2022-08-24T00:59:05+00:00", "2022-08-24T01:01:09+00:00", "2022-08-24T01:02:49+00:00", "2022-08-24T01:06:13+00:00", "2022-08-24T01:07:22+00:00", "2022-08-24T01:10:00+00:00", "2022-08-24T01:11:40+00:00", "2022-08-24T01:13:29+00:00", "2022-08-24T01:17:44+00:00", "2022-08-24T01:19:40+00:00", "2022-08-24T01:21:12+00:00", "2022-08-24T01:23:08+00:00", "2022-08-24T01:25:12+00:00", "2022-08-24T01:25:58+00:00", "2022-08-24T01:28:44+00:00", "2022-08-24T01:30:53+00:00", "2022-08-24T01:31:41+00:00", "2022-08-24T01:33:05+00:00", "2022-08-24T01:36:25+00:00", "2022-08-24T01:38:17+00:00", "2022-08-24T01:39:29+00:00", "2022-08-24T01:41:54+00:00", "2022-08-24T01:43:50+00:00", "2022-08-24T01:44:18+00:00", "2022-08-24T01:47:38+00:00", "2022-08-24T01:48:27+00:00", "2022-08-24T01:52:35+00:00", "2022-08-24T01:55:11+00:00", "2022-08-24T01:57:31+00:00", "2022-08-24T02:00:08+00:00", "2022-08-24T02:02:24+00:00", "2022-08-24T02:04:12+00:00", "2022-08-24T02:06:45+00:00", "2022-08-24T02:09:17+00:00", "2022-08-24T02:10:33+00:00", "2022-08-24T02:14:52+00:00", "2022-08-24T02:17:21+00:00", "2022-08-24T02:18:33+00:00", "2022-08-24T02:20:05+00:00", "2022-08-24T02:21:21+00:00", "2022-08-24T02:22:37+00:00", "2022-08-24T02:26:38+00:00", "2022-08-24T02:29:46+00:00", "2022-08-24T02:30:35+00:00", "2022-08-24T02:31:31+00:00", "2022-08-24T02:34:55+00:00", "2022-08-24T02:36:39+00:00", "2022-08-24T02:37:23+00:00", "2022-08-24T02:39:27+00:00", "2022-08-24T02:40:52+00:00", "2022-08-24T02:42:44+00:00", "2022-08-24T02:43:52+00:00", "2022-08-24T02:44:56+00:00", "2022-08-24T02:47:00+00:00", "2022-08-24T02:48:40+00:00", "2022-08-24T02:50:17+00:00", "2022-08-24T02:52:17+00:00", "2022-08-24T02:52:49+00:00", "2022-08-24T02:55:45+00:00", "2022-08-24T02:57:42+00:00", "2022-08-24T02:58:26+00:00", "2022-08-24T03:00:30+00:00", "2022-08-24T03:01:30+00:00", "2022-08-24T03:04:19+00:00", "2022-08-24T03:06:03+00:00", "2022-08-24T03:06:47+00:00", "2022-08-24T03:07:47+00:00", "2022-08-24T03:10:31+00:00", "2022-08-24T03:13:24+00:00", "2022-08-24T03:17:09+00:00", "2022-08-24T03:19:17+00:00", "2022-08-24T03:20:33+00:00", "2022-08-24T03:22:21+00:00", "2022-08-24T03:23:45+00:00", "2022-08-24T03:25:54+00:00", "2022-08-24T03:27:38+00:00", "2022-08-24T03:29:10+00:00", "2022-08-24T03:30:27+00:00", "2022-08-24T03:31:31+00:00", "2022-08-24T03:34:19+00:00", "2022-08-24T03:36:39+00:00", "2022-08-24T03:37:11+00:00", "2022-08-24T03:38:23+00:00", "2022-08-24T03:39:08+00:00", "2022-08-24T03:42:16+00:00", "2022-08-24T03:43:12+00:00", "2022-08-24T03:45:36+00:00", "2022-08-24T03:47:13+00:00", "2022-08-24T03:47:45+00:00", "2022-08-24T03:49:29+00:00", "2022-08-24T03:51:21+00:00", "2022-08-24T03:52:05+00:00", "2022-08-24T03:53:46+00:00", "2022-08-24T03:54:42+00:00", "2022-08-24T03:56:18+00:00", "2022-08-24T03:57:24+00:00", "2022-08-24T03:59:25+00:00", "2022-08-24T04:02:24+00:00", "2022-08-24T04:02:48+00:00", "2022-08-24T04:03:32+00:00", "2022-08-24T04:04:33+00:00", "2022-08-24T04:05:37+00:00", "2022-08-24T04:06:25+00:00", "2022-08-24T04:07:42+00:00", "2022-08-24T04:08:50+00:00", "2022-08-24T04:10:06+00:00", "2022-08-24T04:10:26+00:00", "2022-08-24T04:11:18+00:00", "2022-08-24T04:12:10+00:00", "2022-08-24T04:13:11+00:00", "2022-08-24T04:14:39+00:00", "2022-08-24T04:15:35+00:00", "2022-08-24T04:16:12+00:00", "2022-08-24T04:17:08+00:00", "2022-08-24T04:17:44+00:00", "2022-08-24T04:18:20+00:00", "2022-08-24T04:19:36+00:00", "2022-08-24T04:20:08+00:00", "2022-08-24T04:20:57+00:00", "2022-08-24T04:21:53+00:00", "2022-08-24T04:23:46+00:00", "2022-08-24T04:24:42+00:00", "2022-08-24T04:25:14+00:00", "2022-08-24T04:26:19+00:00", "2022-08-24T04:26:55+00:00", "2022-08-24T04:28:03+00:00", "2022-08-24T04:28:43+00:00", "2022-08-24T04:29:31+00:00", "2022-08-24T04:31:16+00:00", "2022-08-24T04:32:28+00:00", "2022-08-24T04:33:32+00:00", "2022-08-24T04:34:12+00:00", "2022-08-24T04:35:12+00:00", "2022-08-24T04:36:12+00:00", "2022-08-24T04:36:41+00:00", "2022-08-24T04:38:13+00:00", "2022-08-24T04:39:37+00:00", "2022-08-24T04:40:33+00:00", "2022-08-24T04:41:10+00:00", "2022-08-24T04:42:14+00:00", "2022-08-24T04:42:46+00:00", "2022-08-24T04:43:42+00:00", "2022-08-24T04:45:54+00:00", "2022-08-24T04:46:23+00:00", "2022-08-24T04:47:03+00:00", "2022-08-24T04:47:47+00:00", "2022-08-24T04:48:23+00:00", "2022-08-24T04:49:36+00:00", "2022-08-24T04:50:28+00:00", "2022-08-24T04:51:33+00:00", "2022-08-24T04:52:33+00:00", "2022-08-24T04:53:41+00:00", "2022-08-24T04:54:10+00:00", "2022-08-24T04:55:34+00:00", "2022-08-24T04:56:39+00:00", "2022-08-24T04:57:24+00:00", "2022-08-24T04:58:24+00:00", "2022-08-24T04:59:00+00:00", "2022-08-24T04:59:28+00:00", "2022-08-24T05:01:36+00:00", "2022-08-24T05:02:25+00:00", "2022-08-24T05:02:53+00:00", "2022-08-24T05:04:01+00:00", "2022-08-24T05:05:02+00:00", "2022-08-24T05:05:50+00:00", "2022-08-24T05:06:50+00:00", "2022-08-24T05:08:02+00:00", "2022-08-24T05:09:11+00:00", "2022-08-24T05:10:15+00:00", "2022-08-24T05:12:28+00:00", "2022-08-24T05:13:04+00:00", "2022-08-24T05:13:49+00:00", "2022-08-24T05:15:29+00:00", "2022-08-24T05:16:18+00:00", "2022-08-24T05:17:10+00:00", "2022-08-24T05:19:47+00:00", "2022-08-24T05:21:43+00:00", "2022-08-24T05:23:56+00:00", "2022-08-24T05:25:49+00:00", "2022-08-24T05:26:45+00:00", "2022-08-24T05:28:34+00:00", "2022-08-24T05:30:07+00:00", "2022-08-24T05:32:21+00:00", "2022-08-24T05:33:37+00:00", "2022-08-24T05:34:05+00:00", "2022-08-24T05:36:13+00:00", "2022-08-24T05:37:30+00:00", "2022-08-24T05:39:10+00:00", "2022-08-24T05:40:26+00:00", "2022-08-24T05:41:18+00:00", "2022-08-24T05:42:22+00:00", "2022-08-24T05:45:21+00:00", "2022-08-24T05:46:25+00:00", "2022-08-24T05:47:29+00:00", "2022-08-24T05:48:54+00:00", "2022-08-24T05:49:34+00:00", "2022-08-24T05:53:15+00:00", "2022-08-24T05:54:11+00:00", "2022-08-24T05:57:24+00:00", "2022-08-24T06:01:33+00:00", "2022-08-24T06:05:34+00:00", "2022-08-24T14:58:36+00:00", "2022-08-27T18:15:22+00:00", "2022-08-28T00:50:02+00:00", "2022-08-28T02:47:04+00:00"], "elevations": [null, null, null, null, null, null, null, null, null, null, null, null, null, null, null, null, null, null, null, null, null, null, null, null, null, null, null, null, null, null, null, null, null, null, null, null, null, null, null, null, null, null, null, null, null, null, null, null, null, null, null, null, null, null, null, null, null, null, null, null, null, null, null, null, null, null, null, null, null, null, null, null, null, null, null, null, null, null, null, null, null, null, null, null, null, null, null, null, null, null, null, null, null, null, null, null, null, null, null, null, null, null, null, null, null, null, null, null, null, null, null, null, null, null, null, null, null, null, null, null, null, null, null, null, null, null, null, null, null, null, null, null, null, null, null, null, null, null, null, null, null, null, null, null, null, null, null, null, null, null, null, null, null, null, null, null, null, null, null, null, null, null, null, null, null, null, null, null, null, null, null, null, null, null, null, null, null, null, null, null, null, null, null, null, null, null, null, null, null, null, null, null, null, null, null, null, null, null, null, null, null, null, null, null, null, null, null, null, null, null, null, null, null, null, null, null, null, null, null, null, null, null, null, null, null, null, null, null, null, null, null, null, null, null, null, null, null, null, null, null, null, null, null, null, null, null, null, null, null, null, null, null, null, null, null, null, null, null, null, null, null, null, null, null, null, null, null, null, null, null, null, null, null, null, null, null, null, null, null, null, null, null, null, null, null, null, null, null, null, null, null, null, null, null, null, null, null, null, null, null, null, null, null, null, null, null, null, null, null, null, null, null, null, null, null, null, null, null, null, null, null, null, null, null, null, null, null, null, null, null, null, null, null, null, null, null, null, null, null, null, null, null, null, null, null, null, null, null, null, null, null, null, null, null, null, null, null, null, null, null, null, null, null, null, null, null, null, null, null, null, null, null, null, null, null, null, null, null, null, null, null, null, null, null, null, null, null, null, null, null, null, null, null, null, null, null, null, null, null, null, null, null, null, null, null, null, null, null, null, null, null, null, null, null, null, null, null, null, null, null, null, null, null, null, null, null, null, null, null, null, null, null, null, null, null, null, null, null, null, null, null, null, null, null, null, null, null, null, null, null, null, null, null, null, null, null, null, null, null, null, null, null, null, null, null, null, null, null, null, null, null, null, null, null, null, null, null, null, null, null, null, null, null, null, null, null, null, null, null, null, null, null, null, null, null, null, null, null, null, null, null, null, null, null, null, null, null, null, null, null, null, null, null, null, null, null, null, null, null, null, null, null, null, null, null, null, null, null, null, null, null, null, null, null, null, null, null, null, null, null, null, null, null, null, null, null, null, null, null, null, null, null, null, null, null, null, null, null, null, null, null, null, null, null, null, null, null, null, null, null, null, null, null, null, null, null, null, null, null, null, null, null, null, null, null, null, null, null, null, null, null, null, null, null, null, null, null, null, null, null, null, null, null, null, null, null, null, null, null, null, null, null, null, null, null, null, null, null, null, null, null, null, null, null, null, null, null, null, null, null, null]}