{"type": "Feature", "properties": {"leg_id": 77, "name": "20250218 - Whangarei to Opua", "stated_nm": 89.0, "computed_nm": 89.0}, "geometry": {"type": "LineString", "coordinates": [[174.342148, -35.737959], [174.345024, -35.735872], [174.348404, -35.73667], [174.348945, -35.740423], [174.349099, -35.743414], [174.349325, -35.745918], [174.349922, -35.749786], [174.350212, -35.752898], [174.350608, -35.756317], [174.350946, -35.760182], [174.351615, -35.763558], [174.352082, -35.766604], [174.352782, -35.769751], [174.35392, -35.772919], [174.355848, -35.775223], [174.359588, -35.777097], [174.363319, -35.777794], [174.367059, -35.777282], [174.371553, -35.776557], [174.375036, -35.775871], [174.379395, -35.775585], [174.383718, -35.776712], [174.387963, -35.778219], [174.390922, -35.779749], [174.394111, -35.781823], [174.396889, -35.783962], [174.399582, -35.786119], [174.402497, -35.788197], [174.40513, -35.790009], [174.408111, -35.792309], [174.410942, -35.794413], [174.413803, -35.796534], [174.417243, -35.798253], [174.419969, -35.799287], [174.423638, -35.800703], [174.427964, -35.802349], [174.431648, -35.803671], [174.435349, -35.805093], [174.438196, -35.806111], [174.441899, -35.807505], [174.44654, -35.809365], [174.450173, -35.81078], [174.453797, -35.81223], [174.457224, -35.813859], [174.461136, -35.815876], [174.464837, -35.817846], [174.468361, -35.820047], [174.471718, -35.82234], [174.47427, -35.824703], [174.475876, -35.82811], [174.473883, -35.831261], [174.470565, -35.833752], [174.4685, -35.835983], [174.46933, -35.837933], [174.469236, -35.837822], [174.470848, -35.83356], [174.473688, -35.831511], [174.476738, -35.829616], [174.480469, -35.828916], [174.482768, -35.829492], [174.486969, -35.830759], [174.490911, -35.831979], [174.49466, -35.833027], [174.49751, -35.833423], [174.501857, -35.834149], [174.505593, -35.835562], [174.509263, -35.837537], [174.512398, -35.839181], [174.515585, -35.840814], [174.519309, -35.843214], [174.522064, -35.84528], [174.525854, -35.847068], [174.528653, -35.847344], [174.530972, -35.847683], [174.530856, -35.847838], [174.523651, -35.849622], [174.522193, -35.852656], [174.522964, -35.856171], [174.524112, -35.859394], [174.525727, -35.863131], [174.527725, -35.866332], [174.5308, -35.86871], [174.534561, -35.870378], [174.538082, -35.871589], [174.542603, -35.871854], [174.546714, -35.872032], [174.550865, -35.872166], [174.554992, -35.872136], [174.558412, -35.871553], [174.562819, -35.870942], [174.566773, -35.870406], [174.570741, -35.869937], [174.574593, -35.869104], [174.57787, -35.86813], [174.582108, -35.866907], [174.585891, -35.865847], [174.589531, -35.864562], [174.592559, -35.862414], [174.594845, -35.860744], [174.59786, -35.858509], [174.601729, -35.855622], [174.604852, -35.853358], [174.606911, -35.850526], [174.607582, -35.848025], [174.608485, -35.844722], [174.609566, -35.840634], [174.610435, -35.837381], [174.611266, -35.834302], [174.612041, -35.831511], [174.613038, -35.828047], [174.6139, -35.824984], [174.614783, -35.821864], [174.615654, -35.818815], [174.616247, -35.816212], [174.616257, -35.812861], [174.616272, -35.80977], [174.61628, -35.806675], [174.61628, -35.803538], [174.616234, -35.800706], [174.616371, -35.797153], [174.616584, -35.794005], [174.616866, -35.790902], [174.617112, -35.787849], [174.617292, -35.785072], [174.617554, -35.781644], [174.617805, -35.778537], [174.618058, -35.775383], [174.618301, -35.772196], [174.618522, -35.769353], [174.61882, -35.765818], [174.619132, -35.762531], [174.619523, -35.759284], [174.619926, -35.756087], [174.62024, -35.753581], [174.620393, -35.750352], [174.620591, -35.74623], [174.62072, -35.742959], [174.620719, -35.739603], [174.620437, -35.736771], [174.620102, -35.733633], [174.619604, -35.730535], [174.61909, -35.727526], [174.618735, -35.725604], [174.617966, -35.722395], [174.617259, -35.719766], [174.616678, -35.717861], [174.615906, -35.715605], [174.615261, -35.712919], [174.614703, -35.710435], [174.614355, -35.708994], [174.613801, -35.706693], [174.613255, -35.703828], [174.612812, -35.701439], [174.61233, -35.698719], [174.611735, -35.695367], [174.611085, -35.691831], [174.610714, -35.689847], [174.610056, -35.686527], [174.609472, -35.683575], [174.60892, -35.680924], [174.60852, -35.678749], [174.60789, -35.675026], [174.607325, -35.671541], [174.606932, -35.668915], [174.606451, -35.666261], [174.605968, -35.663532], [174.605479, -35.660738], [174.605188, -35.659124], [174.604711, -35.656073], [174.604385, -35.653333], [174.604115, -35.651041], [174.60384, -35.648684], [174.603368, -35.645519], [174.602945, -35.642674], [174.60278, -35.640854], [174.602478, -35.637875], [174.602295, -35.63557], [174.602103, -35.633705], [174.601842, -35.631266], [174.601629, -35.6288], [174.601417, -35.626123], [174.601204, -35.623687], [174.600845, -35.620432], [174.600571, -35.617986], [174.600373, -35.616221], [174.599884, -35.613639], [174.598861, -35.611232], [174.598055, -35.609344], [174.596964, -35.60675], [174.596039, -35.604576], [174.595424, -35.602964], [174.594403, -35.600441], [174.594355, -35.597972], [174.594501, -35.596356], [174.594717, -35.593942], [174.594562, -35.59185], [174.593692, -35.590366], [174.592385, -35.5883], [174.591271, -35.586585], [174.590012, -35.584661], [174.58846, -35.582229], [174.58728, -35.580507], [174.586255, -35.57898], [174.584847, -35.575074], [174.584244, -35.572206], [174.585085, -35.571582], [174.586249, -35.571591], [174.58559, -35.571458], [174.583133, -35.571131], [174.582502, -35.569224], [174.582642, -35.567184], [174.582756, -35.564956], [174.582324, -35.563128], [174.581607, -35.561474], [174.580017, -35.557566], [174.579249, -35.554824], [174.578736, -35.552757], [174.577842, -35.549347], [174.577006, -35.545825], [174.576156, -35.542301], [174.575612, -35.540033], [174.57486, -35.536629], [174.574188, -35.533659], [174.573379, -35.530727], [174.572438, -35.527067], [174.571909, -35.525035], [174.570969, -35.5216], [174.57013, -35.518558], [174.569366, -35.51548], [174.568574, -35.51243], [174.567966, -35.509919], [174.567093, -35.50629], [174.566299, -35.503183], [174.565414, -35.500056], [174.564367, -35.49658], [174.56362, -35.494638], [174.561677, -35.491022], [174.560019, -35.487811], [174.558495, -35.484662], [174.557016, -35.481503], [174.555829, -35.478917], [174.554176, -35.475195], [174.552749, -35.472023], [174.551322, -35.468862], [174.549942, -35.46567], [174.548899, -35.463172], [174.547438, -35.459701], [174.546272, -35.456891], [174.54493, -35.453869], [174.543548, -35.450873], [174.542437, -35.448498], [174.540855, -35.444957], [174.539474, -35.441882], [174.538055, -35.438743], [174.536614, -35.435617], [174.535443, -35.433092], [174.533861, -35.429473], [174.53254, -35.426406], [174.53109, -35.423312], [174.529624, -35.420328], [174.528422, -35.41797], [174.526718, -35.414696], [174.5253, -35.411879], [174.523642, -35.408981], [174.521988, -35.406085], [174.520681, -35.403645], [174.518828, -35.400265], [174.516937, -35.396872], [174.515037, -35.39349], [174.513568, -35.390814], [174.512619, -35.389039], [174.51114, -35.386065], [174.509607, -35.382943], [174.508095, -35.379775], [174.507058, -35.377536], [174.505493, -35.374448], [174.503886, -35.371282], [174.50232, -35.368302], [174.501065, -35.365694], [174.500199, -35.363915], [174.49862, -35.360667], [174.49703, -35.357485], [174.495461, -35.354389], [174.494477, -35.352331], [174.49288, -35.348853], [174.491394, -35.345773], [174.489654, -35.342821], [174.488243, -35.34055], [174.486664, -35.338072], [174.484795, -35.335167], [174.482925, -35.332289], [174.480896, -35.329325], [174.479757, -35.327742], [174.477883, -35.324802], [174.476008, -35.321818], [174.474167, -35.318808], [174.472935, -35.316757], [174.470881, -35.313405], [174.469054, -35.310439], [174.467264, -35.307386], [174.46583, -35.305044], [174.464396, -35.302473], [174.462922, -35.299294], [174.461533, -35.296098], [174.46008, -35.292754], [174.459351, -35.29101], [174.458, -35.287965], [174.456676, -35.285046], [174.454857, -35.281722], [174.453389, -35.279931], [174.451064, -35.277225], [174.44903, -35.274682], [174.446627, -35.271608], [174.44521, -35.269798], [174.442993, -35.266885], [174.440969, -35.264209], [174.438632, -35.261019], [174.437287, -35.259176], [174.435135, -35.256369], [174.433146, -35.253818], [174.430715, -35.250713], [174.429307, -35.248822], [174.427017, -35.245815], [174.424973, -35.243018], [174.422944, -35.240177], [174.421563, -35.238247], [174.419494, -35.235325], [174.417323, -35.232295], [174.415292, -35.2294], [174.414135, -35.22774], [174.411992, -35.224632], [174.409973, -35.22175], [174.408004, -35.218883], [174.406901, -35.217209], [174.404891, -35.214161], [174.402761, -35.211127], [174.399979, -35.208342], [174.397913, -35.206388], [174.395202, -35.203899], [174.392845, -35.201612], [174.390479, -35.199277], [174.388107, -35.196924], [174.386068, -35.194813], [174.383467, -35.192049], [174.380758, -35.189127], [174.378097, -35.186239], [174.375824, -35.183685], [174.374379, -35.182137], [174.371658, -35.179304], [174.368973, -35.176522], [174.366234, -35.173773], [174.364209, -35.171803], [174.36184, -35.169406], [174.359323, -35.166462], [174.356933, -35.163683], [174.354284, -35.161885], [174.351044, -35.160309], [174.347252, -35.159219], [174.34315, -35.158704], [174.338715, -35.158948], [174.336533, -35.159494], [174.332443, -35.160778], [174.328328, -35.161962], [174.324264, -35.163462], [174.32152, -35.164719], [174.318024, -35.166359], [174.314102, -35.168185], [174.310386, -35.170326], [174.307292, -35.172278], [174.305308, -35.173431], [174.301637, -35.17556], [174.298503, -35.178071], [174.296173, -35.181106], [174.294087, -35.182856], [174.291398, -35.185102], [174.289445, -35.188185], [174.289436, -35.191794], [174.292374, -35.194168], [174.296197, -35.194818], [174.300209, -35.194649], [174.303319, -35.193042], [174.304045, -35.192748], [174.297043, -35.195034], [174.293572, -35.196229], [174.290023, -35.196995], [174.286396, -35.198209], [174.284114, -35.198949], [174.280822, -35.201048], [174.278132, -35.203748], [174.275239, -35.206184], [174.27351, -35.207888], [174.269856, -35.209798], [174.266372, -35.211289], [174.262843, -35.212978], [174.260058, -35.214289], [174.257172, -35.215719], [174.25344, -35.217503], [174.249689, -35.219345], [174.247091, -35.222169], [174.246338, -35.224051], [174.244973, -35.22756], [174.242986, -35.230698], [174.238746, -35.231388], [174.235593, -35.231176], [174.231629, -35.230304], [174.228439, -35.22877], [174.225227, -35.226983], [174.221916, -35.225131], [174.220592, -35.222052], [174.223684, -35.219161], [174.226086, -35.218426], [174.227034, -35.217383], [174.226869, -35.217656], [174.226757, -35.218124], [174.22274, -35.221463], [174.219773, -35.223701], [174.216804, -35.226105], [174.213916, -35.22744], [174.210495, -35.229269], [174.207254, -35.231391], [174.204127, -35.233661], [174.201062, -35.235759], [174.199137, -35.237307], [174.19561, -35.239006], [174.191579, -35.239993], [174.187523, -35.240851], [174.185026, -35.241445], [174.180954, -35.241739], [174.176758, -35.241949], [174.1725, -35.242114], [174.169272, -35.24202], [174.16654, -35.242203], [174.162316, -35.242215], [174.158177, -35.241715], [174.153561, -35.240928], [174.150665, -35.24045], [174.145943, -35.240036], [174.141769, -35.239598], [174.137063, -35.238909], [174.134095, -35.238487], [174.129288, -35.237942], [174.125234, -35.237419], [174.120506, -35.236885], [174.117561, -35.236826], [174.113319, -35.238462], [174.110962, -35.241307], [174.109405, -35.244631], [174.108789, -35.246761], [174.108758, -35.250396], [174.108124, -35.25407], [174.107484, -35.25761], [174.106993, -35.260214], [174.106506, -35.262531], [174.105851, -35.265995], [174.106003, -35.269508], [174.106209, -35.273015], [174.106301, -35.275096], [174.106682, -35.278617], [174.10707, -35.282248], [174.10701, -35.28602], [174.107062, -35.288782], [174.107046, -35.291208], [174.107178, -35.294861], [174.108531, -35.298294], [174.110542, -35.301531], [174.111944, -35.303426], [174.1148, -35.306292], [174.118098, -35.308743], [174.1212, -35.311153], [174.122078, -35.31295], [174.121858, -35.312365], [174.11911, -35.308718], [174.116979, -35.306866], [174.113745, -35.304401], [174.112309, -35.302494], [174.110377, -35.298986], [174.109105, -35.295498], [174.108081, -35.292411], [174.10743, -35.290402], [174.106757, -35.287072], [174.106709, -35.284182], [174.108813, -35.281947], [174.111148, -35.281032], [174.114716, -35.279227], [174.117803, -35.277644], [174.121081, -35.27586], [174.122967, -35.274305], [174.124789, -35.273083]]}, "times": ["2025-02-18T23:28:30+00:00", "2025-02-18T23:30:54+00:00", "2025-02-18T23:32:56+00:00", "2025-02-18T23:35:56+00:00", "2025-02-18T23:37:30+00:00", "2025-02-18T23:38:56+00:00", "2025-02-18T23:41:56+00:00", "2025-02-18T23:43:56+00:00", "2025-02-18T23:46:09+00:00", "2025-02-18T23:47:35+00:00", "2025-02-18T23:50:35+00:00", "2025-02-18T23:52:35+00:00", "2025-02-18T23:54:35+00:00", "2025-02-18T23:56:35+00:00", "2025-02-18T23:57:36+00:00", "2025-02-19T00:00:35+00:00", "2025-02-19T00:02:35+00:00", "2025-02-19T00:04:35+00:00", "2025-02-19T00:06:36+00:00", "2025-02-19T00:08:36+00:00", "2025-02-19T00:11:36+00:00", "2025-02-19T00:13:36+00:00", "2025-02-19T00:16:36+00:00", "2025-02-19T00:17:36+00:00", "2025-02-19T00:20:36+00:00", "2025-02-19T00:22:36+00:00", "2025-02-19T00:24:36+00:00", "2025-02-19T00:26:36+00:00", "2025-02-19T00:27:36+00:00", "2025-02-19T00:30:36+00:00", "2025-02-19T00:32:36+00:00", "2025-02-19T00:34:36+00:00", "2025-02-19T00:36:41+00:00", "2025-02-19T00:37:37+00:00", "2025-02-19T00:40:34+00:00", "2025-02-19T00:42:34+00:00", "2025-02-19T00:44:34+00:00", "2025-02-19T00:46:35+00:00", "2025-02-19T00:47:35+00:00", "2025-02-19T00:49:36+00:00", "2025-02-19T00:52:36+00:00", "2025-02-19T00:54:36+00:00", "2025-02-19T00:56:36+00:00", "2025-02-19T00:57:41+00:00", "2025-02-19T01:00:42+00:00", "2025-02-19T01:02:42+00:00", "2025-02-19T01:04:42+00:00", "2025-02-19T01:06:42+00:00", "2025-02-19T01:07:42+00:00", "2025-02-19T01:10:42+00:00", "2025-02-19T01:12:42+00:00", "2025-02-19T01:15:42+00:00", "2025-02-19T01:17:30+00:00", "2025-02-19T01:20:42+00:00", "2025-02-19T14:15:47+00:00", "2025-02-20T00:05:09+00:00", "2025-02-20T00:07:11+00:00", "2025-02-20T00:09:12+00:00", "2025-02-20T00:11:00+00:00", "2025-02-20T00:12:12+00:00", "2025-02-20T00:15:12+00:00", "2025-02-20T00:17:12+00:00", "2025-02-20T00:20:12+00:00", "2025-02-20T00:21:15+00:00", "2025-02-20T00:24:12+00:00", "2025-02-20T00:27:12+00:00", "2025-02-20T00:29:12+00:00", "2025-02-20T00:31:15+00:00", "2025-02-20T00:33:12+00:00", "2025-02-20T00:36:12+00:00", "2025-02-20T00:38:12+00:00", "2025-02-20T00:40:12+00:00", "2025-02-20T00:42:12+00:00", "2025-02-20T00:46:12+00:00", "2025-02-20T03:17:15+00:00", "2025-02-20T18:34:47+00:00", "2025-02-20T18:36:47+00:00", "2025-02-20T18:38:47+00:00", "2025-02-20T18:39:47+00:00", "2025-02-20T18:42:47+00:00", "2025-02-20T18:44:47+00:00", "2025-02-20T18:46:47+00:00", "2025-02-20T18:48:47+00:00", "2025-02-20T18:49:47+00:00", "2025-02-20T18:52:47+00:00", "2025-02-20T18:54:47+00:00", "2025-02-20T18:56:47+00:00", "2025-02-20T18:58:47+00:00", "2025-02-20T18:59:48+00:00", "2025-02-20T19:02:47+00:00", "2025-02-20T19:04:47+00:00", "2025-02-20T19:06:47+00:00", "2025-02-20T19:08:47+00:00", "2025-02-20T19:09:48+00:00", "2025-02-20T19:12:47+00:00", "2025-02-20T19:14:47+00:00", "2025-02-20T19:16:47+00:00", "2025-02-20T19:18:47+00:00", "2025-02-20T19:19:47+00:00", "2025-02-20T19:21:47+00:00", "2025-02-20T19:24:47+00:00", "2025-02-20T19:26:47+00:00", "2025-02-20T19:28:47+00:00", "2025-02-20T19:29:47+00:00", "2025-02-20T19:31:47+00:00", "2025-02-20T19:34:47+00:00", "2025-02-20T19:36:47+00:00", "2025-02-20T19:38:47+00:00", "2025-02-20T19:39:50+00:00", "2025-02-20T19:42:47+00:00", "2025-02-20T19:44:47+00:00", "2025-02-20T19:46:47+00:00", "2025-02-20T19:48:47+00:00", "2025-02-20T19:49:51+00:00", "2025-02-20T19:52:47+00:00", "2025-02-20T19:54:47+00:00", "2025-02-20T19:56:47+00:00", "2025-02-20T19:58:47+00:00", "2025-02-20T19:59:51+00:00", "2025-02-20T20:02:47+00:00", "2025-02-20T20:04:47+00:00", "2025-02-20T20:06:47+00:00", "2025-02-20T20:08:47+00:00", "2025-02-20T20:09:52+00:00", "2025-02-20T20:12:47+00:00", "2025-02-20T20:14:47+00:00", "2025-02-20T20:16:47+00:00", "2025-02-20T20:18:47+00:00", "2025-02-20T20:19:52+00:00", "2025-02-20T20:22:47+00:00", "2025-02-20T20:24:47+00:00", "2025-02-20T20:26:47+00:00", "2025-02-20T20:28:47+00:00", "2025-02-20T20:29:47+00:00", "2025-02-20T20:31:47+00:00", "2025-02-20T20:34:47+00:00", "2025-02-20T20:36:47+00:00", "2025-02-20T20:38:47+00:00", "2025-02-20T20:39:54+00:00", "2025-02-20T20:42:47+00:00", "2025-02-20T20:45:47+00:00", "2025-02-20T20:48:48+00:00", "2025-02-20T20:50:48+00:00", "2025-02-20T20:54:48+00:00", "2025-02-20T20:57:48+00:00", "2025-02-20T20:59:54+00:00", "2025-02-20T21:02:48+00:00", "2025-02-20T21:05:48+00:00", "2025-02-20T21:08:48+00:00", "2025-02-20T21:10:49+00:00", "2025-02-20T21:14:49+00:00", "2025-02-20T21:17:49+00:00", "2025-02-20T21:19:56+00:00", "2025-02-20T21:22:49+00:00", "2025-02-20T21:25:49+00:00", "2025-02-20T21:28:49+00:00", "2025-02-20T21:30:49+00:00", "2025-02-20T21:33:49+00:00", "2025-02-20T21:36:49+00:00", "2025-02-20T21:39:49+00:00", "2025-02-20T21:41:49+00:00", "2025-02-20T21:44:49+00:00", "2025-02-20T21:47:49+00:00", "2025-02-20T21:49:57+00:00", "2025-02-20T21:52:49+00:00", "2025-02-20T21:55:49+00:00", "2025-02-20T21:58:49+00:00", "2025-02-20T22:00:49+00:00", "2025-02-20T22:03:49+00:00", "2025-02-20T22:06:49+00:00", "2025-02-20T22:09:49+00:00", "2025-02-20T22:12:49+00:00", "2025-02-20T22:15:49+00:00", "2025-02-20T22:18:49+00:00", "2025-02-20T22:20:49+00:00", "2025-02-20T22:24:49+00:00", "2025-02-20T22:27:49+00:00", "2025-02-20T22:29:59+00:00", "2025-02-20T22:33:49+00:00", "2025-02-20T22:36:49+00:00", "2025-02-20T22:40:00+00:00", "2025-02-20T22:42:49+00:00", "2025-02-20T22:45:49+00:00", "2025-02-20T22:48:49+00:00", "2025-02-20T22:50:49+00:00", "2025-02-20T22:54:49+00:00", "2025-02-20T22:58:49+00:00", "2025-02-20T23:00:49+00:00", "2025-02-20T23:04:49+00:00", "2025-02-20T23:08:49+00:00", "2025-02-20T23:10:50+00:00", "2025-02-20T23:15:50+00:00", "2025-02-20T23:19:51+00:00", "2025-02-20T23:21:51+00:00", "2025-02-20T23:25:51+00:00", "2025-02-20T23:29:51+00:00", "2025-02-20T23:31:51+00:00", "2025-02-20T23:36:51+00:00", "2025-02-20T23:40:00+00:00", "2025-02-20T23:42:51+00:00", "2025-02-20T23:45:51+00:00", "2025-02-20T23:49:51+00:00", "2025-02-20T23:51:51+00:00", "2025-02-20T23:55:51+00:00", "2025-02-20T23:57:51+00:00", "2025-02-21T00:03:51+00:00", "2025-02-21T00:20:41+00:00", "2025-02-21T00:37:35+00:00", "2025-02-21T00:44:36+00:00", "2025-02-21T00:48:00+00:00", "2025-02-21T00:50:36+00:00", "2025-02-21T00:54:36+00:00", "2025-02-21T00:58:00+00:00", "2025-02-21T01:02:29+00:00", "2025-02-21T01:06:29+00:00", "2025-02-21T01:08:00+00:00", "2025-02-21T01:09:29+00:00", "2025-02-21T01:12:29+00:00", "2025-02-21T01:14:29+00:00", "2025-02-21T01:17:29+00:00", "2025-02-21T01:18:29+00:00", "2025-02-21T01:21:29+00:00", "2025-02-21T01:23:29+00:00", "2025-02-21T01:25:29+00:00", "2025-02-21T01:27:29+00:00", "2025-02-21T01:28:29+00:00", "2025-02-21T01:31:29+00:00", "2025-02-21T01:33:29+00:00", "2025-02-21T01:35:29+00:00", "2025-02-21T01:37:29+00:00", "2025-02-21T01:38:29+00:00", "2025-02-21T01:41:29+00:00", "2025-02-21T01:43:29+00:00", "2025-02-21T01:45:29+00:00", "2025-02-21T01:47:29+00:00", "2025-02-21T01:48:29+00:00", "2025-02-21T01:51:29+00:00", "2025-02-21T01:53:29+00:00", "2025-02-21T01:55:29+00:00", "2025-02-21T01:57:29+00:00", "2025-02-21T01:58:29+00:00", "2025-02-21T02:01:29+00:00", "2025-02-21T02:03:29+00:00", "2025-02-21T02:05:29+00:00", "2025-02-21T02:07:29+00:00", "2025-02-21T02:08:29+00:00", "2025-02-21T02:11:29+00:00", "2025-02-21T02:13:29+00:00", "2025-02-21T02:15:29+00:00", "2025-02-21T02:17:29+00:00", "2025-02-21T02:18:29+00:00", "2025-02-21T02:21:29+00:00", "2025-02-21T02:23:29+00:00", "2025-02-21T02:25:29+00:00", "2025-02-21T02:27:29+00:00", "2025-02-21T02:28:29+00:00", "2025-02-21T02:31:29+00:00", "2025-02-21T02:33:29+00:00", "2025-02-21T02:35:29+00:00", "2025-02-21T02:37:29+00:00", "2025-02-21T02:38:29+00:00", "2025-02-21T02:41:29+00:00", "2025-02-21T02:43:29+00:00", "2025-02-21T02:45:29+00:00", "2025-02-21T02:47:29+00:00", "2025-02-21T02:48:29+00:00", "2025-02-21T02:51:29+00:00", "2025-02-21T02:53:29+00:00", "2025-02-21T02:56:29+00:00", "2025-02-21T02:58:15+00:00", "2025-02-21T02:59:29+00:00", "2025-02-21T03:02:29+00:00", "2025-02-21T03:04:29+00:00", "2025-02-21T03:07:29+00:00", "2025-02-21T03:08:29+00:00", "2025-02-21T03:11:29+00:00", "2025-02-21T03:13:29+00:00", "2025-02-21T03:16:29+00:00", "2025-02-21T03:18:15+00:00", "2025-02-21T03:19:29+00:00", "2025-02-21T03:22:29+00:00", "2025-02-21T03:24:29+00:00", "2025-02-21T03:27:29+00:00", "2025-02-21T03:28:29+00:00", "2025-02-21T03:31:29+00:00", "2025-02-21T03:34:29+00:00", "2025-02-21T03:36:29+00:00", "2025-02-21T03:38:21+00:00", "2025-02-21T03:40:29+00:00", "2025-02-21T03:43:29+00:00", "2025-02-21T03:45:29+00:00", "2025-02-21T03:48:15+00:00", "2025-02-21T03:49:29+00:00", "2025-02-21T03:52:29+00:00", "2025-02-21T03:54:29+00:00", "2025-02-21T03:57:29+00:00", "2025-02-21T03:58:29+00:00", "2025-02-21T04:01:29+00:00", "2025-02-21T04:04:29+00:00", "2025-02-21T04:06:29+00:00", "2025-02-21T04:08:24+00:00", "2025-02-21T04:10:29+00:00", "2025-02-21T04:13:29+00:00", "2025-02-21T04:15:29+00:00", "2025-02-21T04:18:15+00:00", "2025-02-21T04:19:29+00:00", "2025-02-21T04:22:29+00:00", "2025-02-21T04:24:29+00:00", "2025-02-21T04:27:29+00:00", "2025-02-21T04:29:29+00:00", "2025-02-21T04:32:29+00:00", "2025-02-21T04:34:29+00:00", "2025-02-21T04:37:29+00:00", "2025-02-21T04:39:29+00:00", "2025-02-21T04:42:29+00:00", "2025-02-21T04:44:29+00:00", "2025-02-21T04:47:29+00:00", "2025-02-21T04:49:29+00:00", "2025-02-21T04:52:29+00:00", "2025-02-21T04:54:29+00:00", "2025-02-21T04:57:29+00:00", "2025-02-21T04:59:29+00:00", "2025-02-21T05:02:29+00:00", "2025-02-21T05:04:29+00:00", "2025-02-21T05:07:29+00:00", "2025-02-21T05:08:29+00:00", "2025-02-21T05:11:29+00:00", "2025-02-21T05:14:29+00:00", "2025-02-21T05:17:29+00:00", "2025-02-21T05:19:29+00:00", "2025-02-21T05:22:29+00:00", "2025-02-21T05:25:29+00:00", "2025-02-21T05:28:15+00:00", "2025-02-21T05:29:29+00:00", "2025-02-21T05:32:29+00:00", "2025-02-21T05:34:29+00:00", "2025-02-21T05:37:29+00:00", "2025-02-21T05:38:29+00:00", "2025-02-21T05:41:29+00:00", "2025-02-21T05:43:29+00:00", "2025-02-21T05:45:29+00:00", "2025-02-21T05:47:29+00:00", "2025-02-21T05:48:29+00:00", "2025-02-21T05:51:29+00:00", "2025-02-21T05:53:29+00:00", "2025-02-21T05:56:29+00:00", "2025-02-21T05:58:15+00:00", "2025-02-21T05:59:29+00:00", "2025-02-21T06:02:29+00:00", "2025-02-21T06:04:29+00:00", "2025-02-21T06:07:29+00:00", "2025-02-21T06:08:29+00:00", "2025-02-21T06:11:29+00:00", "2025-02-21T06:13:29+00:00", "2025-02-21T06:16:29+00:00", "2025-02-21T06:18:15+00:00", "2025-02-21T06:20:29+00:00", "2025-02-21T06:23:29+00:00", "2025-02-21T06:25:29+00:00", "2025-02-21T06:28:29+00:00", "2025-02-21T06:29:29+00:00", "2025-02-21T06:32:29+00:00", "2025-02-21T06:34:29+00:00", "2025-02-21T06:37:29+00:00", "2025-02-21T06:38:31+00:00", "2025-02-21T06:41:29+00:00", "2025-02-21T06:43:29+00:00", "2025-02-21T06:46:32+00:00", "2025-02-21T06:48:30+00:00", "2025-02-21T06:49:32+00:00", "2025-02-21T06:52:32+00:00", "2025-02-21T06:54:32+00:00", "2025-02-21T06:57:32+00:00", "2025-02-21T06:58:32+00:00", "2025-02-21T07:01:32+00:00", "2025-02-21T07:03:32+00:00", "2025-02-21T07:06:32+00:00", "2025-02-21T07:08:30+00:00", "2025-02-21T07:10:32+00:00", "2025-02-21T07:12:32+00:00", "2025-02-21T07:14:32+00:00", "2025-02-21T16:03:29+00:00", "2025-02-21T23:13:49+00:00", "2025-02-21T23:15:49+00:00", "2025-02-21T23:17:49+00:00", "2025-02-21T23:19:30+00:00", "2025-02-21T23:20:49+00:00", "2025-02-21T23:23:49+00:00", "2025-02-21T23:25:49+00:00", "2025-02-21T23:28:49+00:00", "2025-02-21T23:29:49+00:00", "2025-02-21T23:32:49+00:00", "2025-02-21T23:35:49+00:00", "2025-02-21T23:37:49+00:00", "2025-02-21T23:39:44+00:00", "2025-02-21T23:41:49+00:00", "2025-02-21T23:44:49+00:00", "2025-02-21T23:46:49+00:00", "2025-02-21T23:49:30+00:00", "2025-02-21T23:50:49+00:00", "2025-02-21T23:53:49+00:00", "2025-02-21T23:55:49+00:00", "2025-02-21T23:58:49+00:00", "2025-02-21T23:59:49+00:00", "2025-02-22T00:02:49+00:00", "2025-02-22T00:04:49+00:00", "2025-02-22T00:07:49+00:00", "2025-02-22T00:09:45+00:00", "2025-02-22T00:11:49+00:00", "2025-02-22T00:14:49+00:00", "2025-02-22T00:18:49+00:00", "2025-02-22T00:23:39+00:00", "2025-02-22T17:14:35+00:00", "2025-02-23T15:47:02+00:00", "2025-02-23T23:07:08+00:00", "2025-02-23T23:09:08+00:00", "2025-02-23T23:12:08+00:00", "2025-02-23T23:13:42+00:00", "2025-02-23T23:16:08+00:00", "2025-02-23T23:19:08+00:00", "2025-02-23T23:21:08+00:00", "2025-02-23T23:23:30+00:00", "2025-02-23T23:25:08+00:00", "2025-02-23T23:28:08+00:00", "2025-02-23T23:30:08+00:00", "2025-02-23T23:33:08+00:00", "2025-02-23T23:34:08+00:00", "2025-02-23T23:37:08+00:00", "2025-02-23T23:39:08+00:00", "2025-02-23T23:42:08+00:00", "2025-02-23T23:43:30+00:00", "2025-02-23T23:45:08+00:00", "2025-02-23T23:48:08+00:00", "2025-02-23T23:50:08+00:00", "2025-02-23T23:53:08+00:00", "2025-02-23T23:55:12+00:00", "2025-02-23T23:58:12+00:00", "2025-02-24T00:00:12+00:00", "2025-02-24T00:03:12+00:00", "2025-02-24T00:05:12+00:00", "2025-02-24T00:08:12+00:00", "2025-02-24T00:10:12+00:00", "2025-02-24T00:13:12+00:00", "2025-02-24T00:15:13+00:00", "2025-02-24T00:18:13+00:00", "2025-02-24T00:20:13+00:00", "2025-02-24T00:23:13+00:00", "2025-02-24T00:24:16+00:00", "2025-02-24T00:27:16+00:00", "2025-02-24T00:29:16+00:00", "2025-02-24T00:32:16+00:00", "2025-02-24T00:33:45+00:00", "2025-02-24T00:35:16+00:00", "2025-02-24T00:38:16+00:00", "2025-02-24T00:40:16+00:00", "2025-02-24T00:43:16+00:00", "2025-02-24T00:44:16+00:00", "2025-02-24T00:47:16+00:00", "2025-02-24T00:49:16+00:00", "2025-02-24T00:52:16+00:00", "2025-02-24T00:53:45+00:00", "2025-02-24T00:55:16+00:00", "2025-02-24T00:58:16+00:00", "2025-02-24T01:00:16+00:00", "2025-02-24T01:03:16+00:00", "2025-02-24T01:04:16+00:00", "2025-02-24T01:07:16+00:00", "2025-02-24T01:09:16+00:00", "2025-02-24T01:12:16+00:00", "2025-02-24T01:13:47+00:00", "2025-02-24T01:44:35+00:00", "2025-02-24T01:49:35+00:00", "2025-02-24T01:51:35+00:00", "2025-02-24T01:54:35+00:00", "2025-02-24T01:56:35+00:00", "2025-02-24T01:59:35+00:00", "2025-02-24T02:02:35+00:00", "2025-02-24T02:05:35+00:00", "2025-02-24T02:07:35+00:00", "2025-02-24T02:10:35+00:00", "2025-02-24T02:12:35+00:00", "2025-02-24T02:15:35+00:00", "2025-02-24T02:17:35+00:00", "2025-02-24T02:20:35+00:00", "2025-02-24T02:22:35+00:00", "2025-02-24T02:25:35+00:00", "2025-02-24T02:27:35+00:00", "2025-02-24T02:31:35+00:00"], "elevations": [12.0, 13.0, 14.0, 16.5, 18.5, 20.3, 20.0, 20.0, 27.5, 27.6, 16.5, 16.5, 15.5, 16.5, 17.9, 12.5, 14.0, 14.0, 11.8, 6.7, 18.0, 22.7, 15.5, 11.8, 14.0, 16.5, 19.5, 14.5, 9.5, 15.5, 20.5, 13.5, 14.5, 24.2, 24.5, 1.0, 26.5, 20.0, 22.2, 16.7, 27.5, 23.0, 26.0, 23.9, 22.5, 20.5, 23.5, 21.0, 20.9, 22.5, 16.3, 12.5, 11.8, 20.2, 13.9, 16.5, 23.0, 15.5, 18.2, 21.0, 19.0, 20.3, 16.5, 16.6, 16.7, 13.5, 10.3, 10.8, 11.0, 12.0, 15.5, 16.7, 15.9, 14.8, 14.4, 11.0, 11.0, 10.5, 12.8, 15.5, 7.0, 7.0, 9.0, 9.1, 9.5, 9.0, 8.5, 8.0, 8.4, 9.0, 8.0, 8.0, 8.0, 8.1, 8.0, 8.0, 8.5, 9.0, 8.8, 8.7, 9.0, 9.0, 9.5, 9.1, 9.0, 9.0, 8.0, 8.0, 8.1, 8.0, 8.0, 7.5, 7.0, 6.8, 7.0, 7.0, 7.0, 7.0, 7.8, 11.5, 12.5, 11.0, 11.0, 10.9, 11.0, 11.0, 11.0, 10.5, 10.9, 11.0, 11.0, 10.0, 10.0, 10.2, 11.0, 11.0, 11.0, 11.0, 10.9, 11.0, 11.0, 10.8, 11.0, 11.0, 11.0, 10.9, 11.0, 11.0, 10.2, 11.0, 10.0, 10.7, 10.1, 9.7, 9.0, 8.8, 9.0, 9.0, 9.0, 10.1, 10.7, 10.7, 11.0, 10.9, 11.3, 12.0, 11.8, 12.0, 13.3, 12.7, 12.1, 11.2, 11.0, 10.8, 10.8, 10.0, 10.0, 10.9, 11.0, 11.0, 10.9, 11.8, 12.0, 12.0, 12.9, 12.7, 13.0, 12.3, 12.0, 11.5, 10.9, 11.0, 10.9, 10.4, 10.0, 10.9, 11.0, 11.5, 11.1, 11.8, 12.0, 11.9, 12.0, 12.0, 12.7, 9.0, 9.8, 11.0, 11.0, 8.4, 9.8, 10.0, 10.1, 9.4, 9.5, 9.1, 9.0, 8.5, 9.0, 9.0, 8.9, 9.0, 8.5, 15.0, 14.8, 15.0, 15.0, 15.0, 14.0, 14.0, 14.1, 14.0, 14.5, 14.0, 14.2, 14.0, 14.0, 14.0, 14.0, 14.0, 12.9, 13.0, 12.5, 12.0, 12.0, 12.1, 11.0, 10.0, 11.0, 11.0, 11.1, 12.0, 12.0, 12.0, 12.0, 12.1, 11.0, 11.5, 11.0, 11.0, 10.9, 11.0, 11.0, 11.5, 12.0, 10.9, 11.0, 11.0, 11.0, 10.8, 11.0, 11.0, 11.0, 11.0, 10.9, 11.0, 11.0, 11.0, 10.8, 11.3, 12.0, 12.0, 12.0, 12.1, 12.3, 13.0, 13.0, 12.8, 13.0, 13.0, 12.7, 12.5, 12.0, 12.0, 13.0, 13.0, 12.9, 13.0, 12.0, 12.0, 12.2, 11.3, 11.0, 10.0, 10.2, 9.7, 9.0, 8.3, 8.1, 8.2, 9.0, 9.0, 8.8, 9.2, 9.0, 9.7, 9.8, 10.0, 10.0, 10.0, 10.2, 10.0, 10.0, 13.0, 12.0, 12.1, 11.0, 10.7, 9.5, 9.0, 9.0, 9.0, 8.8, 9.0, 9.0, 9.0, 9.0, 8.9, 10.0, 10.0, 10.0, 10.0, 10.1, 11.0, 11.0, 11.5, 12.2, 14.0, 18.0, 17.0, 17.0, 16.8, 18.0, 18.0, 17.0, 16.8, 17.0, 17.0, 16.0, 15.5, 15.7, 15.0, 14.7, 14.0, 12.9, 12.5, 11.3, 11.0, 10.2, 10.0, 10.0, 9.3, 9.5, 6.6, 6.0, 6.0, 7.0, 12.5, 13.5, 13.5, 13.0, 8.8, 14.0, 17.0, 15.5, 15.8, 15.7, 9.0, 13.3, 14.5, 15.6, 14.7, 14.0, 13.3, 12.8, 12.3, 7.5, 5.7, 6.1, 6.3, 3.5, 1.3, 0.0, 1.6, 8.0, 5.3, 4.0, 5.5, 6.3, 7.7, 8.6, 7.6, 8.8, 9.9, 6.0, 9.7, 12.0, 15.4, 18.7, 21.5, 22.0, 18.2, 16.3, 13.5, 11.0, 5.5, 4.3, 5.0, 4.7, 6.5, 3.8, 1.7, 1.0, 4.3, 5.8, 9.0, 8.5, 9.0, 8.8, 9.0, 9.0, 9.0, 8.8, 9.0, 9.5, 10.0, 9.5, 10.1, 13.0, 11.0, 12.0, 11.2, 9.7, 9.5, 9.3, 9.0, 7.9, 7.0, 7.0, 7.5, 7.1, 9.3, 4.0, 7.7, 10.5, 15.9, 20.0, 17.7, 15.0, 10.1, 10.2, 7.0, 7.0, 7.0, 6.8, 7.0, 7.0, 7.8, 8.0, 8.5, 9.0, 8.5, 9.0, 9.5, 10.3, 10.8, 10.8, 8.3]}