{"type": "Feature", "properties": {"leg_id": 69, "name": "20231210 - Fremantle to Busselton", "stated_nm": 114.0, "computed_nm": 114.0}, "geometry": {"type": "LineString", "coordinates": [[115.723173, -32.269955], [115.723113, -32.268124], [115.724867, -32.255222], [115.725497, -32.253865], [115.726259, -32.251597], [115.725778, -32.249304], [115.722769, -32.245992], [115.718918, -32.242632], [115.716395, -32.241225], [115.713653, -32.240285], [115.711062, -32.239998], [115.710052, -32.238879], [115.710721, -32.236546], [115.712322, -32.233553], [115.712375, -32.232035], [115.710992, -32.225812], [115.708043, -32.214622], [115.702345, -32.192], [115.70115, -32.189505], [115.68688, -32.161295], [115.686215, -32.15885], [115.685168, -32.156762], [115.679992, -32.15167], [115.67896, -32.150997], [115.671103, -32.146663], [115.670317, -32.146542], [115.659765, -32.141848], [115.657975, -32.14096], [115.655825, -32.140148], [115.646268, -32.138163], [115.644532, -32.138475], [115.643467, -32.139899], [115.64365, -32.142456], [115.642972, -32.144658], [115.641747, -32.146291], [115.638568, -32.149293], [115.63624, -32.151935], [115.634475, -32.154397], [115.634247, -32.156834], [115.634336, -32.16007], [115.635366, -32.160709], [115.635783, -32.163573], [115.636608, -32.165507], [115.636715, -32.167397], [115.635883, -32.177805], [115.63565, -32.179185], [115.635097, -32.18371], [115.634984, -32.187513], [115.635863, -32.191978], [115.637333, -32.203962], [115.637402, -32.208337], [115.637928, -32.218695], [115.638233, -32.220329], [115.638517, -32.224192], [115.638758, -32.227474], [115.639042, -32.232522], [115.639318, -32.235618], [115.639578, -32.242858], [115.639806, -32.24557], [115.639767, -32.246213], [115.63747, -32.259923], [115.637392, -32.260746], [115.637287, -32.271285], [115.637719, -32.273297], [115.639274, -32.278784], [115.640366, -32.282311], [115.645648, -32.298887], [115.646318, -32.301276], [115.649465, -32.31555], [115.65003, -32.318599], [115.656117, -32.347447], [115.659452, -32.362187], [115.66222, -32.379215], [115.662586, -32.381926], [115.663201, -32.387174], [115.66474, -32.406227], [115.665075, -32.408158], [115.665758, -32.41148], [115.666825, -32.416523], [115.667099, -32.418516], [115.667967, -32.421004], [115.668695, -32.423352], [115.672198, -32.433997], [115.673107, -32.437257], [115.674424, -32.441782], [115.675481, -32.444241], [115.677452, -32.448318], [115.67838, -32.450607], [115.680922, -32.455004], [115.686677, -32.465083], [115.696218, -32.481027], [115.697317, -32.483562], [115.701195, -32.49179], [115.702718, -32.495428], [115.703612, -32.498162], [115.705767, -32.50341], [115.707392, -32.508652], [115.708674, -32.511714], [115.709222, -32.51422], [115.708752, -32.517817], [115.708119, -32.519677], [115.708018, -32.519191], [115.708746, -32.516012], [115.708188, -32.513702], [115.705449, -32.511931], [115.702222, -32.510564], [115.699967, -32.510894], [115.696098, -32.513015], [115.692477, -32.515438], [115.687641, -32.518576], [115.682289, -32.522082], [115.67389, -32.527767], [115.670032, -32.530192], [115.661572, -32.536072], [115.65779, -32.538581], [115.649343, -32.544833], [115.643642, -32.549123], [115.640001, -32.552284], [115.637983, -32.55394], [115.635328, -32.556091], [115.633407, -32.557734], [115.627072, -32.562855], [115.626026, -32.56411], [115.624599, -32.565567], [115.622169, -32.567731], [115.620385, -32.569122], [115.617527, -32.571395], [115.614386, -32.573761], [115.612418, -32.5755], [115.610629, -32.57702], [115.609079, -32.578313], [115.605567, -32.581379], [115.604308, -32.582426], [115.602121, -32.584367], [115.601127, -32.585559], [115.598674, -32.588051], [115.59743, -32.58938], [115.595209, -32.591276], [115.592422, -32.59361], [115.589672, -32.595667], [115.58727, -32.597605], [115.57593, -32.606978], [115.574895, -32.607821], [115.571109, -32.610843], [115.569744, -32.612121], [115.566203, -32.614923], [115.55805, -32.621545], [115.553602, -32.62506], [115.549155, -32.630185], [115.547519, -32.631803], [115.545817, -32.633807], [115.540885, -32.641273], [115.536413, -32.648408], [115.530635, -32.656327], [115.528802, -32.659278], [115.521487, -32.669675], [115.515718, -32.678622], [115.513253, -32.682061], [115.510402, -32.686184], [115.508751, -32.688649], [115.50606, -32.692793], [115.50501, -32.694327], [115.502447, -32.698108], [115.500982, -32.700502], [115.499018, -32.703596], [115.496458, -32.707581], [115.490153, -32.7165], [115.487877, -32.720025], [115.487001, -32.721368], [115.483012, -32.72764], [115.481879, -32.729224], [115.479931, -32.73222], [115.478433, -32.734603], [115.477435, -32.736343], [115.476192, -32.738331], [115.475158, -32.740253], [115.471758, -32.748295], [115.470428, -32.751116], [115.468013, -32.756469], [115.465663, -32.761083], [115.46356, -32.765243], [115.461768, -32.769298], [115.459598, -32.774284], [115.457635, -32.778482], [115.455762, -32.78264], [115.453512, -32.787656], [115.451978, -32.791057], [115.450253, -32.794678], [115.44781, -32.800523], [115.446883, -32.802498], [115.441235, -32.815065], [115.440698, -32.81648], [115.439149, -32.820255], [115.437762, -32.823458], [115.436371, -32.826624], [115.43258, -32.835817], [115.431537, -32.838135], [115.43051, -32.840703], [115.429853, -32.842489], [115.428637, -32.845453], [115.42781, -32.847723], [115.424932, -32.854473], [115.423338, -32.858998], [115.42254, -32.860978], [115.421091, -32.864412], [115.420273, -32.86667], [115.417867, -32.872392], [115.416719, -32.874801], [115.415795, -32.877151], [115.414365, -32.880822], [115.413757, -32.882768], [115.412345, -32.886482], [115.411272, -32.888777], [115.410013, -32.892135], [115.408598, -32.895496], [115.407326, -32.899091], [115.405467, -32.904098], [115.404652, -32.905894], [115.401228, -32.9147], [115.400058, -32.917735], [115.399028, -32.920533], [115.395262, -32.92921], [115.394482, -32.93155], [115.392123, -32.93786], [115.390701, -32.94113], [115.389413, -32.944325], [115.387724, -32.948525], [115.386806, -32.951524], [115.386466, -32.953372], [115.385912, -32.956838], [115.384612, -32.963232], [115.382888, -32.973522], [115.382343, -32.975743], [115.381662, -32.979695], [115.380638, -32.983823], [115.37927, -32.991625], [115.378684, -32.994068], [115.377717, -32.999454], [115.377232, -33.002312], [115.376439, -33.005825], [115.376093, -33.007543], [115.375342, -33.012247], [115.374037, -33.018528], [115.371922, -33.030503], [115.371457, -33.032499], [115.370237, -33.038463], [115.369367, -33.04291], [115.367908, -33.049852], [115.367387, -33.053181], [115.366953, -33.055353], [115.365812, -33.061126], [115.365162, -33.065049], [115.364317, -33.069619], [115.363491, -33.074174], [115.363249, -33.075646], [115.362522, -33.080192], [115.361784, -33.083662], [115.361434, -33.085919], [115.360935, -33.087848], [115.359638, -33.094347], [115.359292, -33.09669], [115.358631, -33.100382], [115.356887, -33.108953], [115.356583, -33.110194], [115.355093, -33.117715], [115.354825, -33.119688], [115.354528, -33.121486], [115.353974, -33.124448], [115.3537, -33.12578], [115.35331, -33.127858], [115.35222, -33.1338], [115.351861, -33.136393], [115.351365, -33.140145], [115.350812, -33.142913], [115.350261, -33.145647], [115.349935, -33.147522], [115.349695, -33.148898], [115.348957, -33.153291], [115.3485, -33.155585], [115.347837, -33.158996], [115.347281, -33.162084], [115.3467, -33.165128], [115.346407, -33.173927], [115.34625, -33.17674], [115.34615, -33.178984], [115.345867, -33.181443], [115.345767, -33.184016], [115.345469, -33.186352], [115.345294, -33.189883], [115.345218, -33.192414], [115.345103, -33.195426], [115.345005, -33.198668], [115.345128, -33.202243], [115.34502, -33.205107], [115.344789, -33.207334], [115.344662, -33.209318], [115.34442, -33.212372], [115.344337, -33.220287], [115.344062, -33.222098], [115.344033, -33.224328], [115.343859, -33.227234], [115.343612, -33.229362], [115.34304, -33.234354], [115.342261, -33.242679], [115.341976, -33.245273], [115.341412, -33.247454], [115.340933, -33.249119], [115.340571, -33.252351], [115.340252, -33.256147], [115.34007, -33.258758], [115.339924, -33.2608], [115.339346, -33.262263], [115.338645, -33.266247], [115.33806, -33.268569], [115.337792, -33.270958], [115.33725, -33.273444], [115.336715, -33.275507], [115.336192, -33.283937], [115.336236, -33.285648], [115.336158, -33.288852], [115.33608, -33.292271], [115.33582, -33.297387], [115.335751, -33.300058], [115.335509, -33.303247], [115.335269, -33.306482], [115.335193, -33.308695], [115.335105, -33.310487], [115.335105, -33.315238], [115.334991, -33.318316], [115.334923, -33.321345], [115.334829, -33.323984], [115.334665, -33.32898], [115.334479, -33.331986], [115.334351, -33.336799], [115.334326, -33.338754], [115.334173, -33.341684], [115.33401, -33.344214], [115.333752, -33.34898], [115.333398, -33.352569], [115.333398, -33.353908], [115.333135, -33.359077], [115.332593, -33.363762], [115.332317, -33.369085], [115.331732, -33.375397], [115.331625, -33.377761], [115.331219, -33.381861], [115.330869, -33.385396], [115.330334, -33.389039], [115.329535, -33.39681], [115.328265, -33.404402], [115.327587, -33.409628], [115.327058, -33.412487], [115.326513, -33.418065], [115.325878, -33.422087], [115.325589, -33.425551], [115.325322, -33.4276], [115.323767, -33.435835], [115.322937, -33.44237], [115.322253, -33.445906], [115.321477, -33.450439], [115.320627, -33.454492], [115.319978, -33.457549], [115.31769, -33.467975], [115.314625, -33.47942], [115.315201, -33.479923], [115.307873, -33.498587], [115.307555, -33.499759], [115.306471, -33.503393], [115.305688, -33.506088], [115.304847, -33.509129], [115.30417, -33.511604], [115.303372, -33.51436], [115.302779, -33.516499], [115.302197, -33.519018], [115.302056, -33.52196], [115.302845, -33.52553], [115.303505, -33.529076], [115.304233, -33.532176], [115.305932, -33.540198], [115.306496, -33.542356], [115.307166, -33.54584], [115.309338, -33.555838], [115.312997, -33.574733], [115.312771, -33.578806], [115.315532, -33.602925], [115.315999, -33.60562], [115.316255, -33.608863], [115.315838, -33.616108], [115.315138, -33.632905], [115.314917, -33.633818], [115.311035, -33.64224], [115.309963, -33.644308], [115.309661, -33.646311], [115.310032, -33.649307], [115.310698, -33.651349], [115.309933, -33.651081], [115.307249, -33.648613], [115.306855, -33.647523], [115.308049, -33.646178], [115.309743, -33.642932], [115.312785, -33.637462], [115.314332, -33.635738], [115.31589, -33.63426], [115.323985, -33.629305], [115.326311, -33.62846], [115.328968, -33.62764], [115.33873, -33.624267], [115.34341, -33.623087], [115.345237, -33.623133], [115.356923, -33.624582], [115.359751, -33.625], [115.376108, -33.627008], [115.378138, -33.627128], [115.381405, -33.627025], [115.383437, -33.626856], [115.386024, -33.626868], [115.388475, -33.627233], [115.389993, -33.627964], [115.389497, -33.629214], [115.388659, -33.630516], [115.390376, -33.632054], [115.391678, -33.631817], [115.392549, -33.630841]]}, "times": ["2023-12-10T01:23:01+00:00", "2023-12-10T01:25:17+00:00", "2023-12-10T01:33:58+00:00", "2023-12-10T01:35:34+00:00", "2023-12-10T01:36:46+00:00", "2023-12-10T01:38:42+00:00", "2023-12-10T01:43:38+00:00", "2023-12-10T01:45:22+00:00", "2023-12-10T01:46:34+00:00", "2023-12-10T01:47:59+00:00", "2023-12-10T01:49:19+00:00", "2023-12-10T01:49:59+00:00", "2023-12-10T01:51:27+00:00", "2023-12-10T01:54:52+00:00", "2023-12-10T01:55:52+00:00", "2023-12-10T02:00:20+00:00", "2023-12-10T02:08:21+00:00", "2023-12-10T02:24:08+00:00", "2023-12-10T02:26:48+00:00", "2023-12-10T02:46:34+00:00", "2023-12-10T02:49:02+00:00", "2023-12-10T02:49:42+00:00", "2023-12-10T02:54:03+00:00", "2023-12-10T02:54:47+00:00", "2023-12-10T03:00:07+00:00", "2023-12-10T03:00:35+00:00", "2023-12-10T03:07:23+00:00", "2023-12-10T03:09:07+00:00", "2023-12-10T03:09:55+00:00", "2023-12-10T03:15:32+00:00", "2023-12-10T03:16:40+00:00", "2023-12-10T03:17:52+00:00", "2023-12-10T03:20:00+00:00", "2023-12-10T03:21:52+00:00", "2023-12-10T03:23:16+00:00", "2023-12-10T03:25:36+00:00", "2023-12-10T03:27:48+00:00", "2023-12-10T03:29:52+00:00", "2023-12-10T03:30:24+00:00", "2023-12-10T03:33:21+00:00", "2023-12-10T03:34:05+00:00", "2023-12-10T03:36:37+00:00", "2023-12-10T03:38:01+00:00", "2023-12-10T03:38:57+00:00", "2023-12-10T03:45:58+00:00", "2023-12-10T03:47:30+00:00", "2023-12-10T03:50:16+00:00", "2023-12-10T03:52:16+00:00", "2023-12-10T03:58:01+00:00", "2023-12-10T04:03:01+00:00", "2023-12-10T04:05:45+00:00", "2023-12-10T04:12:11+00:00", "2023-12-10T04:12:51+00:00", "2023-12-10T04:16:07+00:00", "2023-12-10T04:17:43+00:00", "2023-12-10T04:20:04+00:00", "2023-12-10T04:21:53+00:00", "2023-12-10T04:26:18+00:00", "2023-12-10T04:27:42+00:00", "2023-12-10T04:28:18+00:00", "2023-12-10T04:36:48+00:00", "2023-12-10T04:37:36+00:00", "2023-12-10T04:43:53+00:00", "2023-12-10T04:44:49+00:00", "2023-12-10T04:50:19+00:00", "2023-12-10T04:51:47+00:00", "2023-12-10T05:01:32+00:00", "2023-12-10T05:04:35+00:00", "2023-12-10T05:11:50+00:00", "2023-12-10T05:15:19+00:00", "2023-12-10T05:30:19+00:00", "2023-12-10T05:38:45+00:00", "2023-12-10T05:48:53+00:00", "2023-12-10T05:52:13+00:00", "2023-12-10T05:55:16+00:00", "2023-12-10T06:04:45+00:00", "2023-12-10T06:05:53+00:00", "2023-12-10T06:08:50+00:00", "2023-12-10T06:11:42+00:00", "2023-12-10T06:13:39+00:00", "2023-12-10T06:14:59+00:00", "2023-12-10T06:16:03+00:00", "2023-12-10T06:24:05+00:00", "2023-12-10T06:28:25+00:00", "2023-12-10T06:30:05+00:00", "2023-12-10T06:31:13+00:00", "2023-12-10T06:33:25+00:00", "2023-12-10T06:34:01+00:00", "2023-12-10T06:38:59+00:00", "2023-12-10T06:44:24+00:00", "2023-12-10T06:54:39+00:00", "2023-12-10T06:57:11+00:00", "2023-12-10T07:01:36+00:00", "2023-12-10T07:04:12+00:00", "2023-12-10T07:06:01+00:00", "2023-12-10T07:09:17+00:00", "2023-12-10T07:12:30+00:00", "2023-12-10T07:14:19+00:00", "2023-12-10T07:20:39+00:00", "2023-12-10T07:22:36+00:00", "2023-12-10T07:23:52+00:00", "2023-12-10T15:02:38+00:00", "2023-12-10T15:05:46+00:00", "2023-12-10T15:06:59+00:00", "2023-12-10T15:08:03+00:00", "2023-12-10T15:11:00+00:00", "2023-12-10T15:12:20+00:00", "2023-12-10T15:14:24+00:00", "2023-12-10T15:16:48+00:00", "2023-12-10T15:25:02+00:00", "2023-12-10T15:29:03+00:00", "2023-12-10T15:34:24+00:00", "2023-12-10T15:37:20+00:00", "2023-12-10T15:43:33+00:00", "2023-12-10T15:48:57+00:00", "2023-12-10T15:52:25+00:00", "2023-12-10T15:56:26+00:00", "2023-12-10T15:58:58+00:00", "2023-12-10T16:01:38+00:00", "2023-12-10T16:02:30+00:00", "2023-12-10T16:03:59+00:00", "2023-12-10T16:07:55+00:00", "2023-12-10T16:09:03+00:00", "2023-12-10T16:09:55+00:00", "2023-12-10T16:11:32+00:00", "2023-12-10T16:11:56+00:00", "2023-12-10T16:14:44+00:00", "2023-12-10T16:16:24+00:00", "2023-12-10T16:18:21+00:00", "2023-12-10T16:19:57+00:00", "2023-12-10T16:20:41+00:00", "2023-12-10T16:22:45+00:00", "2023-12-10T16:23:37+00:00", "2023-12-10T16:25:25+00:00", "2023-12-10T16:26:09+00:00", "2023-12-10T16:27:45+00:00", "2023-12-10T16:28:38+00:00", "2023-12-10T16:30:34+00:00", "2023-12-10T16:32:18+00:00", "2023-12-10T16:33:58+00:00", "2023-12-10T16:37:07+00:00", "2023-12-10T16:43:40+00:00", "2023-12-10T16:44:16+00:00", "2023-12-10T16:46:48+00:00", "2023-12-10T16:48:16+00:00", "2023-12-10T16:50:12+00:00", "2023-12-10T16:55:33+00:00", "2023-12-10T16:58:25+00:00", "2023-12-10T17:01:58+00:00", "2023-12-10T17:03:42+00:00", "2023-12-10T17:04:51+00:00", "2023-12-10T17:09:19+00:00", "2023-12-10T17:14:08+00:00", "2023-12-10T17:20:20+00:00", "2023-12-10T17:24:20+00:00", "2023-12-10T17:29:57+00:00", "2023-12-10T17:35:53+00:00", "2023-12-10T17:40:42+00:00", "2023-12-10T17:41:34+00:00", "2023-12-10T17:43:26+00:00", "2023-12-10T17:45:35+00:00", "2023-12-10T17:47:11+00:00", "2023-12-10T17:49:03+00:00", "2023-12-10T17:49:51+00:00", "2023-12-10T17:53:08+00:00", "2023-12-10T17:57:08+00:00", "2023-12-10T18:01:17+00:00", "2023-12-10T18:03:13+00:00", "2023-12-10T18:04:33+00:00", "2023-12-10T18:08:27+00:00", "2023-12-10T18:09:27+00:00", "2023-12-10T18:11:47+00:00", "2023-12-10T18:12:43+00:00", "2023-12-10T18:13:55+00:00", "2023-12-10T18:15:36+00:00", "2023-12-10T18:16:36+00:00", "2023-12-10T18:21:33+00:00", "2023-12-10T18:22:29+00:00", "2023-12-10T18:28:58+00:00", "2023-12-10T18:32:15+00:00", "2023-12-10T18:34:59+00:00", "2023-12-10T18:37:44+00:00", "2023-12-10T18:41:32+00:00", "2023-12-10T18:43:17+00:00", "2023-12-10T18:47:05+00:00", "2023-12-10T18:49:58+00:00", "2023-12-10T18:51:06+00:00", "2023-12-10T18:53:02+00:00", "2023-12-10T18:56:43+00:00", "2023-12-10T18:58:03+00:00", "2023-12-10T19:05:44+00:00", "2023-12-10T19:06:52+00:00", "2023-12-10T19:09:36+00:00", "2023-12-10T19:12:01+00:00", "2023-12-10T19:13:25+00:00", "2023-12-10T19:18:10+00:00", "2023-12-10T19:18:58+00:00", "2023-12-10T19:21:14+00:00", "2023-12-10T19:22:11+00:00", "2023-12-10T19:24:23+00:00", "2023-12-10T19:25:11+00:00", "2023-12-10T19:29:12+00:00", "2023-12-10T19:31:53+00:00", "2023-12-10T19:33:21+00:00", "2023-12-10T19:34:29+00:00", "2023-12-10T19:36:29+00:00", "2023-12-10T19:39:50+00:00", "2023-12-10T19:40:42+00:00", "2023-12-10T19:42:47+00:00", "2023-12-10T19:44:19+00:00", "2023-12-10T19:45:55+00:00", "2023-12-10T19:48:00+00:00", "2023-12-10T19:48:44+00:00", "2023-12-10T19:51:36+00:00", "2023-12-10T19:52:49+00:00", "2023-12-10T19:56:33+00:00", "2023-12-10T19:58:54+00:00", "2023-12-10T19:59:22+00:00", "2023-12-10T20:05:27+00:00", "2023-12-10T20:06:39+00:00", "2023-12-10T20:07:52+00:00", "2023-12-10T20:13:00+00:00", "2023-12-10T20:15:01+00:00", "2023-12-10T20:18:01+00:00", "2023-12-10T20:19:26+00:00", "2023-12-10T20:22:38+00:00", "2023-12-10T20:24:06+00:00", "2023-12-10T20:25:51+00:00", "2023-12-10T20:27:27+00:00", "2023-12-10T20:29:03+00:00", "2023-12-10T20:32:43+00:00", "2023-12-10T20:38:40+00:00", "2023-12-10T20:40:40+00:00", "2023-12-10T20:42:16+00:00", "2023-12-10T20:44:41+00:00", "2023-12-10T20:49:13+00:00", "2023-12-10T20:51:29+00:00", "2023-12-10T20:53:30+00:00", "2023-12-10T20:55:42+00:00", "2023-12-10T20:57:22+00:00", "2023-12-10T20:58:54+00:00", "2023-12-10T21:01:23+00:00", "2023-12-10T21:05:03+00:00", "2023-12-10T21:11:53+00:00", "2023-12-10T21:12:21+00:00", "2023-12-10T21:17:21+00:00", "2023-12-10T21:18:58+00:00", "2023-12-10T21:22:58+00:00", "2023-12-10T21:24:50+00:00", "2023-12-10T21:25:55+00:00", "2023-12-10T21:31:11+00:00", "2023-12-10T21:32:12+00:00", "2023-12-10T21:36:24+00:00", "2023-12-10T21:37:24+00:00", "2023-12-10T21:37:56+00:00", "2023-12-10T21:40:20+00:00", "2023-12-10T21:42:09+00:00", "2023-12-10T21:44:05+00:00", "2023-12-10T21:44:45+00:00", "2023-12-10T21:48:34+00:00", "2023-12-10T21:49:02+00:00", "2023-12-10T21:52:14+00:00", "2023-12-10T21:57:07+00:00", "2023-12-10T21:58:03+00:00", "2023-12-10T22:02:12+00:00", "2023-12-10T22:03:53+00:00", "2023-12-10T22:04:41+00:00", "2023-12-10T22:06:01+00:00", "2023-12-10T22:07:17+00:00", "2023-12-10T22:08:25+00:00", "2023-12-10T22:11:38+00:00", "2023-12-10T22:13:30+00:00", "2023-12-10T22:15:14+00:00", "2023-12-10T22:17:07+00:00", "2023-12-10T22:18:11+00:00", "2023-12-10T22:19:35+00:00", "2023-12-10T22:20:19+00:00", "2023-12-10T22:22:47+00:00", "2023-12-10T22:23:27+00:00", "2023-12-10T22:26:43+00:00", "2023-12-10T22:29:07+00:00", "2023-12-10T22:29:59+00:00", "2023-12-10T22:34:52+00:00", "2023-12-10T22:36:00+00:00", "2023-12-10T22:38:00+00:00", "2023-12-10T22:39:40+00:00", "2023-12-10T22:40:36+00:00", "2023-12-10T22:43:05+00:00", "2023-12-10T22:44:05+00:00", "2023-12-10T22:46:17+00:00", "2023-12-10T22:46:57+00:00", "2023-12-10T22:49:45+00:00", "2023-12-10T22:51:25+00:00", "2023-12-10T22:52:37+00:00", "2023-12-10T22:54:21+00:00", "2023-12-10T22:55:33+00:00", "2023-12-10T22:57:45+00:00", "2023-12-10T23:01:50+00:00", "2023-12-10T23:03:30+00:00", "2023-12-10T23:04:14+00:00", "2023-12-10T23:05:38+00:00", "2023-12-10T23:07:10+00:00", "2023-12-10T23:12:26+00:00", "2023-12-10T23:14:59+00:00", "2023-12-10T23:17:23+00:00", "2023-12-10T23:18:19+00:00", "2023-12-10T23:19:27+00:00", "2023-12-10T23:20:11+00:00", "2023-12-10T23:23:43+00:00", "2023-12-10T23:25:15+00:00", "2023-12-10T23:26:51+00:00", "2023-12-10T23:27:15+00:00", "2023-12-10T23:30:03+00:00", "2023-12-10T23:30:59+00:00", "2023-12-10T23:33:11+00:00", "2023-12-10T23:35:12+00:00", "2023-12-10T23:36:08+00:00", "2023-12-10T23:41:12+00:00", "2023-12-10T23:42:16+00:00", "2023-12-10T23:43:24+00:00", "2023-12-10T23:46:16+00:00", "2023-12-10T23:48:53+00:00", "2023-12-10T23:49:49+00:00", "2023-12-10T23:52:33+00:00", "2023-12-10T23:53:49+00:00", "2023-12-10T23:55:30+00:00", "2023-12-10T23:56:38+00:00", "2023-12-10T23:58:58+00:00", "2023-12-11T00:00:22+00:00", "2023-12-11T00:03:34+00:00", "2023-12-11T00:04:18+00:00", "2023-12-11T00:06:54+00:00", "2023-12-11T00:07:34+00:00", "2023-12-11T00:12:07+00:00", "2023-12-11T00:12:55+00:00", "2023-12-11T00:14:11+00:00", "2023-12-11T00:16:27+00:00", "2023-12-11T00:18:43+00:00", "2023-12-11T00:20:32+00:00", "2023-12-11T00:21:44+00:00", "2023-12-11T00:24:40+00:00", "2023-12-11T00:27:32+00:00", "2023-12-11T00:30:40+00:00", "2023-12-11T00:34:29+00:00", "2023-12-11T00:35:05+00:00", "2023-12-11T00:39:17+00:00", "2023-12-11T00:42:06+00:00", "2023-12-11T00:43:38+00:00", "2023-12-11T00:48:31+00:00", "2023-12-11T00:53:56+00:00", "2023-12-11T00:57:28+00:00", "2023-12-11T00:59:24+00:00", "2023-12-11T01:03:12+00:00", "2023-12-11T01:06:05+00:00", "2023-12-11T01:07:45+00:00", "2023-12-11T01:09:58+00:00", "2023-12-11T01:16:11+00:00", "2023-12-11T01:21:03+00:00", "2023-12-11T01:23:00+00:00", "2023-12-11T01:29:20+00:00", "2023-12-11T01:31:53+00:00", "2023-12-11T01:34:25+00:00", "2023-12-11T01:42:02+00:00", "2023-12-11T01:54:00+00:00", "2023-12-11T01:55:00+00:00", "2023-12-11T02:09:07+00:00", "2023-12-11T02:09:55+00:00", "2023-12-11T02:12:11+00:00", "2023-12-11T02:15:24+00:00", "2023-12-11T02:16:48+00:00", "2023-12-11T02:19:48+00:00", "2023-12-11T02:21:05+00:00", "2023-12-11T02:23:41+00:00", "2023-12-11T02:24:45+00:00", "2023-12-11T02:28:18+00:00", "2023-12-11T02:29:51+00:00", "2023-12-11T02:34:51+00:00", "2023-12-11T02:36:08+00:00", "2023-12-11T02:42:33+00:00", "2023-12-11T02:43:29+00:00", "2023-12-11T02:47:54+00:00", "2023-12-11T02:54:31+00:00", "2023-12-11T03:07:16+00:00", "2023-12-11T03:12:33+00:00", "2023-12-11T03:25:19+00:00", "2023-12-11T03:27:56+00:00", "2023-12-11T03:29:08+00:00", "2023-12-11T03:33:44+00:00", "2023-12-11T03:44:22+00:00", "2023-12-11T03:45:14+00:00", "2023-12-11T03:50:47+00:00", "2023-12-11T03:53:19+00:00", "2023-12-11T03:54:03+00:00", "2023-12-11T03:57:24+00:00", "2023-12-11T04:00:08+00:00", "2023-12-11T08:24:44+00:00", "2023-12-12T06:16:02+00:00", "2023-12-12T06:17:30+00:00", "2023-12-12T06:18:47+00:00", "2023-12-12T06:20:47+00:00", "2023-12-12T06:24:27+00:00", "2023-12-12T06:25:07+00:00", "2023-12-12T06:26:48+00:00", "2023-12-12T06:31:56+00:00", "2023-12-12T06:32:32+00:00", "2023-12-12T06:34:57+00:00", "2023-12-12T06:40:45+00:00", "2023-12-12T06:43:34+00:00", "2023-12-12T06:44:42+00:00", "2023-12-12T06:52:43+00:00", "2023-12-12T06:56:36+00:00", "2023-12-12T07:05:46+00:00", "2023-12-12T07:07:50+00:00", "2023-12-12T07:09:42+00:00", "2023-12-12T07:10:54+00:00", "2023-12-12T07:12:10+00:00", "2023-12-12T07:13:27+00:00", "2023-12-12T07:14:03+00:00", "2023-12-12T07:15:11+00:00", "2023-12-12T07:16:07+00:00", "2023-12-12T07:17:35+00:00", "2023-12-12T07:18:31+00:00", "2023-12-12T07:21:08+00:00"], "elevations": [0.0, 0.0, 0.0, 0.0, 0.0, 0.0, 0.0, 0.0, 0.0, 0.0, 0.0, 0.0, 0.0, 0.0, 0.0, 0.0, 0.0, 0.0, 0.0, 0.0, 0.0, 0.0, 0.0, 0.0, 0.0, 0.0, 0.0, 0.0, null, 0.0, 0.0, 0.0, 0.0, 0.0, 0.0, 0.0, 0.0, 0.0, 0.0, 0.0, 0.0, 0.0, 0.0, 0.0, 0.0, 0.0, 0.0, 0.0, 0.0, 0.0, 0.0, 0.0, 0.0, 0.0, 0.0, 0.0, 0.0, 0.0, 0.0, null, 0.0, 0.0, 0.0, 0.0, 0.0, 0.0, 0.0, 0.0, 0.0, 0.0, 0.0, 0.0, 0.0, 0.0, 0.0, 0.0, 0.0, 0.0, 0.0, 0.0, 0.0, 0.0, 0.0, 0.0, 0.0, 0.0, 0.0, 0.0, 0.0, 0.0, 0.0, 0.0, 0.0, 0.0, 0.0, 0.0, 0.0, 0.0, 0.0, 0.0, 0.0, 0.0, 0.0, 0.0, 0.0, 0.0, 0.0, 0.0, 0.0, 0.0, 0.0, 0.0, 0.0, 0.0, 0.0, 0.0, 0.0, 0.0, 0.0, 0.0, 0.0, 0.0, 0.0, 0.0, 0.0, 0.0, 0.0, 0.0, 0.0, 0.0, 0.0, 0.0, 0.0, 0.0, 0.0, 0.0, 0.0, 0.0, 0.0, 0.0, 0.0, 0.0, 0.0, 0.0, 0.0, 0.0, 0.0, null, 0.0, 0.0, 0.0, 0.0, null, 0.0, 0.0, 0.0, 0.0, 0.0, 0.0, 0.0, 0.0, 0.0, 0.0, 0.0, 0.0, 0.0, 0.0, 0.0, 0.0, 0.0, 0.0, 0.0, 0.0, 0.0, 0.0, 0.0, 0.0, 0.0, 0.0, 0.0, 0.0, 0.0, 0.0, 0.0, 0.0, 0.0, 0.0, 0.0, 0.0, 0.0, 0.0, 0.0, 0.0, 0.0, 0.0, 0.0, 0.0, 0.0, 0.0, 0.0, 0.0, 0.0, 0.0, 0.0, 0.0, 0.0, 0.0, 0.0, 0.0, 0.0, 0.0, 0.0, 0.0, 0.0, 0.0, 0.0, 0.0, 0.0, 0.0, 0.0, 0.0, 0.0, 0.0, 0.0, 0.0, 0.0, 0.0, 0.0, 0.0, 0.0, 0.0, 0.0, 0.0, 0.0, 0.0, 0.0, 0.0, 0.0, 0.0, 0.0, 0.0, 0.0, 0.0, 0.0, 0.0, 0.0, null, 0.0, 0.0, 0.0, 0.0, 0.0, 0.0, 0.0, 0.0, 0.0, 0.0, 0.0, 0.0, 0.0, 0.0, 0.0, 0.0, 0.0, 0.0, 0.0, 0.0, 0.0, 0.0, 0.0, 0.0, 0.0, 0.0, 0.0, 0.0, 0.0, 0.0, 0.0, 0.0, 0.0, 0.0, 0.0, 0.0, 0.0, 0.0, 0.0, 0.0, 0.0, 0.0, 0.0, 0.0, 0.0, 0.0, 0.0, 0.0, 0.0, 0.0, 0.0, 0.0, 0.0, 0.0, 0.0, 0.0, 0.0, 0.0, 0.0, 0.0, 0.0, 0.0, 0.0, 0.0, 0.0, 0.0, 0.0, 0.0, 0.0, 0.0, 0.0, 0.0, 0.0, 0.0, 0.0, 0.0, 0.0, 0.0, 0.0, 0.0, 0.0, 0.0, 0.0, 0.0, 0.0, 0.0, 0.0, 0.0, 0.0, 0.0, 0.0, 0.0, 0.0, 0.0, 0.0, 0.0, 0.0, 0.0, 0.0, 0.0, 0.0, 0.0, 0.0, 0.0, 0.0, 0.0, 0.0, 0.0, null, 0.0, 0.0, 0.0, 0.0, 0.0, 0.0, 0.0, 0.0, 0.0, 0.0, 0.0, 0.0, 0.0, 0.0, 0.0, 0.0, 0.0, 0.0, 0.0, 0.0, 0.0, 0.0, 0.0, 0.0, 0.0, 0.0, 0.0, 0.0, 0.0, 0.0, 0.0, 0.0, 0.0, 0.0, 0.0, 0.0, 0.0, 0.0, 0.0, 0.0, 0.0, 0.0, 0.0, 0.0, 0.0, 0.0, null, 0.0, 0.0, null, 0.0, 0.0, 0.0, 0.0, 0.0, 0.0, 0.0, 0.0, 0.0, 0.0, 0.0, 0.0, 0.0, 0.0, 0.0, 0.0, 0.0]}