{"type": "Feature", "properties": {"leg_id": 28, "name": "20220108 - LA to Santa Catalina", "stated_nm": 36.7, "computed_nm": 36.7}, "geometry": {"type": "LineString", "coordinates": [[-118.446729, 33.97633], [-118.448875, 33.971792], [-118.449765, 33.969126], [-118.451307, 33.966968], [-118.453757, 33.965385], [-118.457468, 33.96311], [-118.459981, 33.962088], [-118.461267, 33.961204], [-118.460837, 33.959716], [-118.459689, 33.957826], [-118.460486, 33.955552], [-118.462347, 33.95336], [-118.464313, 33.950306], [-118.466109, 33.947647], [-118.467432, 33.944197], [-118.468198, 33.941979], [-118.469404, 33.938463], [-118.470181, 33.934239], [-118.470558, 33.931405], [-118.471508, 33.928214], [-118.472578, 33.926568], [-118.474471, 33.924527], [-118.475567, 33.922823], [-118.477004, 33.920656], [-118.477987, 33.917925], [-118.478643, 33.915212], [-118.479268, 33.913722], [-118.480249, 33.911823], [-118.480997, 33.910702], [-118.4819, 33.908572], [-118.482377, 33.907164], [-118.483222, 33.905163], [-118.484641, 33.90225], [-118.484397, 33.900755], [-118.483973, 33.898383], [-118.48429, 33.896754], [-118.485155, 33.894865], [-118.484935, 33.893559], [-118.485237, 33.891656], [-118.485306, 33.889731], [-118.485811, 33.88739], [-118.486456, 33.884756], [-118.485742, 33.884137], [-118.484084, 33.882911], [-118.483762, 33.882117], [-118.483145, 33.870745], [-118.482997, 33.868822], [-118.481912, 33.85746], [-118.480638, 33.846442], [-118.479038, 33.828217], [-118.478691, 33.825396], [-118.477913, 33.81694], [-118.477463, 33.810241], [-118.476948, 33.801756], [-118.476682, 33.798357], [-118.476233, 33.793627], [-118.475248, 33.779377], [-118.475152, 33.776978], [-118.47453, 33.766588], [-118.472298, 33.74374], [-118.47196, 33.74091], [-118.47131, 33.734375], [-118.470947, 33.730638], [-118.469992, 33.720443], [-118.468755, 33.710687], [-118.467688, 33.701527], [-118.467578, 33.69987], [-118.466658, 33.692715], [-118.46628, 33.688563], [-118.46435, 33.682252], [-118.46016, 33.667252], [-118.456925, 33.654612], [-118.456308, 33.651983], [-118.45327, 33.637367], [-118.452943, 33.635334], [-118.450685, 33.62399], [-118.450321, 33.622354], [-118.449173, 33.61904], [-118.443838, 33.607558], [-118.442723, 33.605061], [-118.441908, 33.603085], [-118.440554, 33.60106], [-118.439638, 33.599738], [-118.436407, 33.591965], [-118.43358, 33.585835], [-118.431787, 33.581812], [-118.42648, 33.569905], [-118.424687, 33.565837], [-118.423103, 33.562755], [-118.41955, 33.555056], [-118.418462, 33.552854], [-118.417152, 33.550215], [-118.41204, 33.540455], [-118.41167, 33.539812], [-118.406583, 33.529692], [-118.406042, 33.528748], [-118.401773, 33.520205], [-118.400471, 33.517822], [-118.398278, 33.513812], [-118.395195, 33.50824], [-118.394365, 33.506157], [-118.39312, 33.503228], [-118.392539, 33.501984], [-118.391442, 33.499447], [-118.390223, 33.496797], [-118.387417, 33.49002], [-118.386362, 33.487178], [-118.38372, 33.480703], [-118.382449, 33.477705], [-118.380728, 33.473695], [-118.377245, 33.465033], [-118.37636, 33.463015], [-118.37343, 33.456043], [-118.372535, 33.453841], [-118.36775, 33.441538], [-118.366792, 33.439344], [-118.365555, 33.436356], [-118.364626, 33.432542], [-118.363832, 33.428444], [-118.362611, 33.422529], [-118.361377, 33.41611], [-118.361076, 33.414239], [-118.360601, 33.408725], [-118.360534, 33.407232], [-118.360972, 33.404342], [-118.361847, 33.401582], [-118.363418, 33.398386], [-118.364523, 33.39674], [-118.366228, 33.396572], [-118.368, 33.395836], [-118.367818, 33.394116]]}, "times": ["2022-01-08T03:00:00+00:00", "2022-01-08T18:15:59+00:00", "2022-01-08T18:16:57+00:00", "2022-01-08T18:18:50+00:00", "2022-01-08T18:20:39+00:00", "2022-01-08T18:22:31+00:00", "2022-01-08T18:24:45+00:00", "2022-01-08T18:25:47+00:00", "2022-01-08T18:26:24+00:00", "2022-01-08T18:28:37+00:00", "2022-01-08T18:30:30+00:00", "2022-01-08T18:32:26+00:00", "2022-01-08T18:33:41+00:00", "2022-01-08T18:36:56+00:00", "2022-01-08T18:38:44+00:00", "2022-01-08T18:40:30+00:00", "2022-01-08T18:45:00+00:00", "2022-01-08T18:47:53+00:00", "2022-01-08T18:48:47+00:00", "2022-01-08T18:50:34+00:00", "2022-01-08T18:52:00+00:00", "2022-01-08T18:54:24+00:00", "2022-01-08T18:55:59+00:00", "2022-01-08T18:57:00+00:00", "2022-01-08T19:00:42+00:00", "2022-01-08T19:01:48+00:00", "2022-01-08T19:02:33+00:00", "2022-01-08T19:04:08+00:00", "2022-01-08T19:04:57+00:00", "2022-01-08T19:06:40+00:00", "2022-01-08T19:07:34+00:00", "2022-01-08T19:09:25+00:00", "2022-01-08T19:11:08+00:00", "2022-01-08T19:12:01+00:00", "2022-01-08T19:14:09+00:00", "2022-01-08T19:15:23+00:00", "2022-01-08T19:16:37+00:00", "2022-01-08T19:18:40+00:00", "2022-01-08T19:20:31+00:00", "2022-01-08T19:21:29+00:00", "2022-01-08T19:23:32+00:00", "2022-01-08T19:25:02+00:00", "2022-01-08T19:26:00+00:00", "2022-01-08T19:37:16+00:00", "2022-01-08T19:37:45+00:00", "2022-01-08T19:44:37+00:00", "2022-01-08T19:46:11+00:00", "2022-01-08T19:52:50+00:00", "2022-01-08T19:59:32+00:00", "2022-01-08T20:10:40+00:00", "2022-01-08T20:13:16+00:00", "2022-01-08T20:17:30+00:00", "2022-01-08T20:21:15+00:00", "2022-01-08T20:26:15+00:00", "2022-01-08T20:27:00+00:00", "2022-01-08T20:31:19+00:00", "2022-01-08T20:39:51+00:00", "2022-01-08T20:42:44+00:00", "2022-01-08T20:47:31+00:00", "2022-01-08T21:01:11+00:00", "2022-01-08T21:01:45+00:00", "2022-01-08T21:08:13+00:00", "2022-01-08T21:10:28+00:00", "2022-01-08T21:15:44+00:00", "2022-01-08T21:21:53+00:00", "2022-01-08T21:27:47+00:00", "2022-01-08T21:29:22+00:00", "2022-01-08T21:33:21+00:00", "2022-01-08T21:35:58+00:00", "2022-01-08T21:40:06+00:00", "2022-01-08T21:50:02+00:00", "2022-01-08T21:58:18+00:00", "2022-01-08T22:01:42+00:00", "2022-01-08T22:09:32+00:00", "2022-01-08T22:11:32+00:00", "2022-01-08T22:18:24+00:00", "2022-01-08T22:20:04+00:00", "2022-01-08T22:21:51+00:00", "2022-01-08T22:30:10+00:00", "2022-01-08T22:32:30+00:00", "2022-01-08T22:33:24+00:00", "2022-01-08T22:35:11+00:00", "2022-01-08T22:36:05+00:00", "2022-01-08T22:41:34+00:00", "2022-01-08T22:47:04+00:00", "2022-01-08T22:50:42+00:00", "2022-01-08T22:57:15+00:00", "2022-01-08T23:00:19+00:00", "2022-01-08T23:02:36+00:00", "2022-01-08T23:08:00+00:00", "2022-01-08T23:08:43+00:00", "2022-01-08T23:11:36+00:00", "2022-01-08T23:18:30+00:00", "2022-01-08T23:19:07+00:00", "2022-01-08T23:26:23+00:00", "2022-01-08T23:27:25+00:00", "2022-01-08T23:33:10+00:00", "2022-01-08T23:36:35+00:00", "2022-01-08T23:37:45+00:00", "2022-01-08T23:41:46+00:00", "2022-01-08T23:42:15+00:00", "2022-01-08T23:45:11+00:00", "2022-01-08T23:46:25+00:00", "2022-01-08T23:47:15+00:00", "2022-01-08T23:49:46+00:00", "2022-01-08T23:54:33+00:00", "2022-01-08T23:56:32+00:00", "2022-01-09T00:01:44+00:00", "2022-01-09T00:04:49+00:00", "2022-01-09T00:07:15+00:00", "2022-01-09T00:12:13+00:00", "2022-01-09T00:15:00+00:00", "2022-01-09T00:18:31+00:00", "2022-01-09T00:20:00+00:00", "2022-01-09T00:28:40+00:00", "2022-01-09T00:30:00+00:00", "2022-01-09T00:31:53+00:00", "2022-01-09T00:36:42+00:00", "2022-01-09T00:38:30+00:00", "2022-01-09T00:42:30+00:00", "2022-01-09T00:46:06+00:00", "2022-01-09T00:47:03+00:00", "2022-01-09T00:51:26+00:00", "2022-01-09T00:51:59+00:00", "2022-01-09T00:53:30+00:00", "2022-01-09T00:56:06+00:00", "2022-01-09T00:58:47+00:00", "2022-01-09T00:59:28+00:00", "2022-01-09T01:00:30+00:00", "2022-01-09T01:02:09+00:00", "2022-01-09T01:09:21+00:00"], "elevations": [null, null, null, null, null, null, null, null, null, null, null, null, null, null, null, null, null, null, null, null, null, null, null, null, null, null, null, null, null, null, null, null, null, null, null, null, null, null, null, null, null, null, null, null, null, null, null, null, null, null, null, null, null, null, null, null, null, null, null, null, null, null, null, null, null, null, null, null, null, null, null, null, null, null, null, null, null, null, null, null, null, null, null, null, null, null, null, null, null, null, null, null, null, null, null, null, null, null, null, null, null, null, null, null, null, null, null, null, null, null, null, null, null, null, null, null, null, null, null, null, null, null, null, null, null, null, null, null, null, null, null]}