{"type": "Feature", "properties": {"leg_id": 60, "name": "20230729 - Cairns to Lizard Island", "stated_nm": 144.5, "computed_nm": 144.5}, "geometry": {"type": "LineString", "coordinates": [[145.786867, -16.918622], [145.785965, -16.91421], [145.786325, -16.911247], [145.787415, -16.909138], [145.788952, -16.905587], [145.789961, -16.903459], [145.791394, -16.900551], [145.792822, -16.898064], [145.794512, -16.895662], [145.79612, -16.893178], [145.79763, -16.890856], [145.799276, -16.887991], [145.800354, -16.885802], [145.80107, -16.884283], [145.802173, -16.88134], [145.802644, -16.880325], [145.803577, -16.878641], [145.804339, -16.877277], [145.805274, -16.87557], [145.806057, -16.874082], [145.806969, -16.8724], [145.808376, -16.869977], [145.809701, -16.868115], [145.811485, -16.864919], [145.813187, -16.861942], [145.814895, -16.858992], [145.816587, -16.85607], [145.817477, -16.854513], [145.816566, -16.851529], [145.815179, -16.848376], [145.814764, -16.846709], [145.815017, -16.846505], [145.814054, -16.844661], [145.813147, -16.843356], [145.81181, -16.841323], [145.811172, -16.840324], [145.810437, -16.839136], [145.809632, -16.837851], [145.80848, -16.835991], [145.807348, -16.834244], [145.806427, -16.832874], [145.805565, -16.831462], [145.804447, -16.829469], [145.803102, -16.827318], [145.801912, -16.825219], [145.800219, -16.822254], [145.799404, -16.820881], [145.797725, -16.817899], [145.796549, -16.815471], [145.795735, -16.81366], [145.794781, -16.81169], [145.793602, -16.809236], [145.792701, -16.807267], [145.791434, -16.80467], [145.789783, -16.801313], [145.788455, -16.798825], [145.787267, -16.796528], [145.786035, -16.794148], [145.784783, -16.79181], [145.783335, -16.788925], [145.782587, -16.787251], [145.78161, -16.785293], [145.78102, -16.783642], [145.779797, -16.781387], [145.779066, -16.779874], [145.777939, -16.777753], [145.776945, -16.775977], [145.775982, -16.77391], [145.774916, -16.771672], [145.773407, -16.768538], [145.772545, -16.766916], [145.771706, -16.765402], [145.770805, -16.763581], [145.769996, -16.762055], [145.769011, -16.760274], [145.768334, -16.758872], [145.767308, -16.756917], [145.765282, -16.754119], [145.763945, -16.752225], [145.762091, -16.749727], [145.760369, -16.747288], [145.758945, -16.745454], [145.757439, -16.743302], [145.756385, -16.741827], [145.755423, -16.74039], [145.75421, -16.738633], [145.753225, -16.737197], [145.752048, -16.735605], [145.750574, -16.733593], [145.749254, -16.731955], [145.748029, -16.73035], [145.746186, -16.727844], [145.744792, -16.725814], [145.742288, -16.72231], [145.741383, -16.720981], [145.739973, -16.718999], [145.738736, -16.717291], [145.737751, -16.715782], [145.736566, -16.714008], [145.735623, -16.712286], [145.734297, -16.710171], [145.732701, -16.707763], [145.731001, -16.705417], [145.72962, -16.703692], [145.728175, -16.701513], [145.727162, -16.700177], [145.725195, -16.69757], [145.723644, -16.695417], [145.722149, -16.693492], [145.72077, -16.691637], [145.718976, -16.689133], [145.717348, -16.686571], [145.716473, -16.685157], [145.714616, -16.682535], [145.713151, -16.680491], [145.711041, -16.677613], [145.709942, -16.676097], [145.708007, -16.67348], [145.706909, -16.672072], [145.705392, -16.669978], [145.703857, -16.667944], [145.702565, -16.666075], [145.700993, -16.664122], [145.699874, -16.662566], [145.697941, -16.660319], [145.696308, -16.658175], [145.694706, -16.656108], [145.693164, -16.654148], [145.691896, -16.652503], [145.69028, -16.650398], [145.688893, -16.648658], [145.687205, -16.646545], [145.685768, -16.644738], [145.683535, -16.641903], [145.682222, -16.640174], [145.68055, -16.638065], [145.679114, -16.636369], [145.677852, -16.634606], [145.676478, -16.632736], [145.675041, -16.630862], [145.673618, -16.629093], [145.672093, -16.627199], [145.670872, -16.625623], [145.669732, -16.623998], [145.668339, -16.622119], [145.667038, -16.620593], [145.664885, -16.618115], [145.663401, -16.616303], [145.662016, -16.614616], [145.660732, -16.612879], [145.659734, -16.611484], [145.658095, -16.609584], [145.655304, -16.606343], [145.653754, -16.604635], [145.651906, -16.602501], [145.650503, -16.600727], [145.649076, -16.598838], [145.647234, -16.596672], [145.645723, -16.594746], [145.644178, -16.592777], [145.642108, -16.590409], [145.640586, -16.588486], [145.639455, -16.586908], [145.637519, -16.584603], [145.636271, -16.582981], [145.634654, -16.580844], [145.633122, -16.57891], [145.631695, -16.577077], [145.629969, -16.575016], [145.628127, -16.572788], [145.626352, -16.570539], [145.625339, -16.569224], [145.623958, -16.567378], [145.62264, -16.56569], [145.620852, -16.563527], [145.61979, -16.561845], [145.617893, -16.559444], [145.615667, -16.556619], [145.614017, -16.554499], [145.611768, -16.551935], [145.610156, -16.549979], [145.607773, -16.547277], [145.605649, -16.544894], [145.602959, -16.542009], [145.601399, -16.540209], [145.599759, -16.538378], [145.598133, -16.536551], [145.59582, -16.533872], [145.593991, -16.531839], [145.592, -16.529631], [145.589737, -16.526929], [145.588338, -16.525329], [145.58658, -16.523298], [145.58387, -16.520376], [145.581894, -16.518198], [145.57914, -16.515034], [145.576927, -16.512503], [145.575217, -16.510519], [145.572639, -16.507656], [145.571214, -16.50549], [145.571172, -16.502922], [145.570937, -16.499941], [145.57054, -16.497224], [145.570338, -16.495236], [145.570041, -16.493147], [145.569723, -16.490924], [145.569268, -16.487431], [145.568648, -16.484659], [145.568104, -16.482593], [145.567676, -16.480709], [145.566932, -16.477721], [145.566261, -16.475308], [145.56583, -16.473006], [145.564989, -16.469681], [145.564271, -16.466875], [145.563522, -16.464317], [145.562798, -16.461402], [145.562088, -16.458966], [145.561126, -16.455342], [145.560433, -16.45225], [145.55969, -16.449433], [145.559144, -16.447041], [145.558639, -16.444407], [145.557751, -16.440754], [145.557389, -16.438592], [145.556935, -16.43547], [145.556393, -16.432792], [145.555779, -16.430355], [145.555099, -16.427526], [145.554352, -16.42435], [145.553666, -16.421611], [145.5529, -16.418582], [145.552485, -16.416582], [145.551981, -16.414277], [145.551328, -16.411917], [145.550622, -16.408848], [145.550483, -16.406091], [145.55053, -16.40271], [145.550514, -16.400625], [145.550593, -16.398001], [145.550568, -16.394746], [145.550605, -16.392457], [145.550757, -16.389003], [145.551376, -16.385975], [145.552165, -16.383686], [145.553458, -16.38173], [145.555588, -16.380732], [145.558531, -16.37969], [145.561027, -16.379398], [145.563019, -16.380372], [145.563962, -16.381019], [145.563948, -16.380859], [145.563524, -16.376862], [145.56371, -16.374127], [145.563987, -16.369907], [145.564177, -16.366564], [145.564247, -16.363186], [145.564365, -16.360275], [145.564405, -16.356356], [145.56397, -16.353363], [145.56328, -16.349826], [145.562802, -16.346955], [145.562236, -16.343819], [145.561693, -16.3412], [145.561299, -16.338578], [145.560995, -16.336431], [145.560354, -16.332975], [145.559772, -16.329366], [145.559171, -16.326138], [145.558655, -16.323203], [145.558308, -16.321244], [145.557564, -16.317577], [145.556877, -16.314113], [145.556162, -16.310516], [145.555583, -16.307786], [145.554835, -16.304478], [145.554006, -16.300481], [145.553743, -16.298539], [145.553036, -16.294619], [145.552649, -16.292834], [145.551909, -16.289122], [145.55143, -16.286617], [145.550815, -16.283046], [145.550159, -16.279787], [145.549743, -16.277204], [145.549189, -16.27373], [145.548794, -16.271572], [145.548317, -16.269063], [145.5477, -16.265621], [145.547289, -16.263356], [145.54701, -16.261008], [145.546634, -16.258744], [145.546331, -16.256573], [145.546101, -16.254662], [145.545536, -16.251527], [145.545163, -16.249004], [145.544909, -16.246667], [145.544534, -16.24387], [145.544314, -16.24143], [145.544147, -16.239031], [145.543582, -16.23584], [145.542669, -16.232865], [145.541761, -16.230369], [145.540952, -16.228188], [145.539884, -16.225164], [145.538599, -16.221657], [145.537476, -16.218416], [145.536037, -16.214586], [145.535961, -16.212684], [145.535373, -16.209024], [145.534868, -16.206845], [145.534317, -16.203767], [145.533655, -16.200303], [145.533012, -16.19715], [145.532251, -16.19364], [145.531668, -16.190839], [145.531328, -16.189326], [145.530977, -16.187559], [145.530309, -16.183873], [145.529836, -16.180954], [145.529585, -16.179506], [145.529058, -16.176497], [145.528456, -16.173896], [145.528006, -16.171645], [145.527626, -16.169098], [145.52715, -16.166567], [145.526779, -16.164804], [145.526282, -16.162327], [145.525823, -16.15988], [145.525284, -16.157367], [145.524499, -16.15356], [145.524, -16.151381], [145.523348, -16.148791], [145.52289, -16.14653], [145.522322, -16.143952], [145.522008, -16.142188], [145.521677, -16.140724], [145.521237, -16.138553], [145.520916, -16.13692], [145.520561, -16.134973], [145.520073, -16.132894], [145.519779, -16.131239], [145.519474, -16.129106], [145.51898, -16.12638], [145.518843, -16.124395], [145.518677, -16.12081], [145.518452, -16.117873], [145.518253, -16.115275], [145.517761, -16.112677], [145.517401, -16.110506], [145.516821, -16.107036], [145.516529, -16.104999], [145.515922, -16.101273], [145.515475, -16.09858], [145.514853, -16.095248], [145.514267, -16.092097], [145.513688, -16.088573], [145.513391, -16.086312], [145.512804, -16.082691], [145.512307, -16.079957], [145.511911, -16.077594], [145.511268, -16.073882], [145.510968, -16.072328], [145.510652, -16.070468], [145.510247, -16.067761], [145.509568, -16.063962], [145.509062, -16.061446], [145.508648, -16.058847], [145.508145, -16.055681], [145.507647, -16.052727], [145.507117, -16.049567], [145.506836, -16.047621], [145.506172, -16.043659], [145.506146, -16.041471], [145.505791, -16.038766], [145.505278, -16.036062], [145.504792, -16.033342], [145.504625, -16.031248], [145.504288, -16.028873], [145.504322, -16.026723], [145.50407, -16.024046], [145.50409, -16.022178], [145.503329, -16.020169], [145.502227, -16.017634], [145.5012, -16.01512], [145.500175, -16.012261], [145.499719, -16.01052], [145.498192, -16.00665], [145.497253, -16.00437], [145.496325, -16.002308], [145.495381, -16.000124], [145.494688, -15.997649], [145.494184, -15.994887], [145.49353, -15.991781], [145.492854, -15.988478], [145.492137, -15.985245], [145.491549, -15.982889], [145.490747, -15.979915], [145.490085, -15.976986], [145.489861, -15.97535], [145.489072, -15.97155], [145.488582, -15.969134], [145.48822, -15.966888], [145.487546, -15.963471], [145.487025, -15.959712], [145.486777, -15.956364], [145.486545, -15.952975], [145.486481, -15.95102], [145.48678, -15.948915], [145.486672, -15.94626], [145.486639, -15.943565], [145.486499, -15.941115], [145.486659, -15.937202], [145.486467, -15.934332], [145.486215, -15.932367], [145.486336, -15.930093], [145.486265, -15.927604], [145.485626, -15.924107], [145.484992, -15.920276], [145.484897, -15.918521], [145.484651, -15.916244], [145.484224, -15.913734], [145.483956, -15.91111], [145.483741, -15.908461], [145.483509, -15.906171], [145.483183, -15.903742], [145.483239, -15.901969], [145.48321, -15.899968], [145.482777, -15.896922], [145.482684, -15.894542], [145.482331, -15.892805], [145.482031, -15.890479], [145.481369, -15.888078], [145.480462, -15.885422], [145.479731, -15.882786], [145.478793, -15.880144], [145.478194, -15.878329], [145.477423, -15.876056], [145.476307, -15.873459], [145.475314, -15.870964], [145.474309, -15.868253], [145.474151, -15.866628], [145.473382, -15.864075], [145.472663, -15.86194], [145.471785, -15.859763], [145.471358, -15.857275], [145.470884, -15.854863], [145.47071, -15.852951], [145.469356, -15.852048], [145.467968, -15.851855], [145.467537, -15.849017], [145.467545, -15.846926], [145.467531, -15.844463], [145.467617, -15.842478], [145.467696, -15.840174], [145.467656, -15.838047], [145.467682, -15.835924], [145.467653, -15.834189], [145.467689, -15.831631], [145.467747, -15.82909], [145.467968, -15.827158], [145.467491, -15.824907], [145.466912, -15.822519], [145.46636, -15.820016], [145.465802, -15.817628], [145.465167, -15.814536], [145.464342, -15.811467], [145.463848, -15.80923], [145.463079, -15.807042], [145.462813, -15.804932], [145.462847, -15.802274], [145.46262, -15.799785], [145.461823, -15.797684], [145.461729, -15.795583], [145.461614, -15.793433], [145.460315, -15.790312], [145.459377, -15.788274], [145.458061, -15.785505], [145.456824, -15.782557], [145.45634, -15.780641], [145.455533, -15.777066], [145.455055, -15.773966], [145.454781, -15.772146], [145.454033, -15.768493], [145.453343, -15.765639], [145.452628, -15.761697], [145.452471, -15.758842], [145.452327, -15.756201], [145.452289, -15.754017], [145.45199, -15.751229], [145.451221, -15.747458], [145.450731, -15.74478], [145.449972, -15.741463], [145.449078, -15.737922], [145.448304, -15.734587], [145.447566, -15.73126], [145.448489, -15.729828], [145.451318, -15.729395], [145.45336, -15.730292], [145.455069, -15.729629], [145.456331, -15.728784], [145.456354, -15.728397], [145.455473, -15.725771], [145.454896, -15.723673], [145.454142, -15.720866], [145.45336, -15.717894], [145.452433, -15.714618], [145.451832, -15.712178], [145.451112, -15.709521], [145.450104, -15.706282], [145.449359, -15.703463], [145.448459, -15.700492], [145.447453, -15.697459], [145.446405, -15.694096], [145.445731, -15.691655], [145.44494, -15.689297], [145.444196, -15.686972], [145.443514, -15.684774], [145.442727, -15.682841], [145.441616, -15.680324], [145.440513, -15.678192], [145.43915, -15.676227], [145.437793, -15.674418], [145.435687, -15.671329], [145.434541, -15.669875], [145.43284, -15.667492], [145.431367, -15.665745], [145.429527, -15.663198], [145.42834, -15.661716], [145.426433, -15.659054], [145.424546, -15.656509], [145.423324, -15.654715], [145.422179, -15.652718], [145.421194, -15.650842], [145.419973, -15.648351], [145.419298, -15.646833], [145.418025, -15.644257], [145.416608, -15.640909], [145.415933, -15.639345], [145.414678, -15.637183], [145.413633, -15.634749], [145.412635, -15.633264], [145.412027, -15.631423], [145.411, -15.629109], [145.409884, -15.626353], [145.409128, -15.624367], [145.407738, -15.621328], [145.406974, -15.619515], [145.405858, -15.617311], [145.404703, -15.615297], [145.403708, -15.61313], [145.402721, -15.610937], [145.401589, -15.608094], [145.400771, -15.605736], [145.400099, -15.603867], [145.399541, -15.602161], [145.398465, -15.599193], [145.397914, -15.597084], [145.397626, -15.594673], [145.397448, -15.592742], [145.397536, -15.590439], [145.397387, -15.588632], [145.397141, -15.586713], [145.396867, -15.58428], [145.39664, -15.581974], [145.396343, -15.579434], [145.396004, -15.577021], [145.395693, -15.574788], [145.395237, -15.571861], [145.394862, -15.56922], [145.394669, -15.56666], [145.394394, -15.56462], [145.394162, -15.56259], [145.39398, -15.561144], [145.393721, -15.559115], [145.393453, -15.557148], [145.393256, -15.555604], [145.393008, -15.554166], [145.392708, -15.552191], [145.392553, -15.551077], [145.392435, -15.549582], [145.392234, -15.547155], [145.392147, -15.545595], [145.392258, -15.543807], [145.392243, -15.541907], [145.391869, -15.539898], [145.3914, -15.537458], [145.390689, -15.535178], [145.389912, -15.532952], [145.388735, -15.530414], [145.388312, -15.528382], [145.387622, -15.525899], [145.386919, -15.523513], [145.386021, -15.520721], [145.385373, -15.518522], [145.384662, -15.516108], [145.383747, -15.512943], [145.383156, -15.510692], [145.382191, -15.507949], [145.3816, -15.505406], [145.381267, -15.502996], [145.380518, -15.499303], [145.379788, -15.495487], [145.379352, -15.493068], [145.37896, -15.490637], [145.379029, -15.488344], [145.37923, -15.485786], [145.379471, -15.482049], [145.379594, -15.47882], [145.379822, -15.476738], [145.380107, -15.474191], [145.380668, -15.47037], [145.381194, -15.466684], [145.381429, -15.463312], [145.381585, -15.46055], [145.381703, -15.457366], [145.381881, -15.454111], [145.382225, -15.449779], [145.382451, -15.44617], [145.382491, -15.44369], [145.382579, -15.441113], [145.382652, -15.437862], [145.382657, -15.434673], [145.382798, -15.431404], [145.38293, -15.428077], [145.383106, -15.425249], [145.383397, -15.421801], [145.383558, -15.418577], [145.383847, -15.415154], [145.384127, -15.41281], [145.384611, -15.410263], [145.385098, -15.407859], [145.385734, -15.403506], [145.38603, -15.401147], [145.386368, -15.398077], [145.386545, -15.395148], [145.386805, -15.392244], [145.387104, -15.390109], [145.387442, -15.387148], [145.387742, -15.384747], [145.388388, -15.381489], [145.389388, -15.378607], [145.390351, -15.375783], [145.391166, -15.372939], [145.391965, -15.370611], [145.392937, -15.367365], [145.393769, -15.364493], [145.394624, -15.361216], [145.395513, -15.358256], [145.396136, -15.356048], [145.397046, -15.353161], [145.397945, -15.350185], [145.398885, -15.347343], [145.399358, -15.344864], [145.399736, -15.342638], [145.400077, -15.340144], [145.400516, -15.337003], [145.401212, -15.333247], [145.401703, -15.329824], [145.402101, -15.327189], [145.402515, -15.324431], [145.402932, -15.322033], [145.40326, -15.319594], [145.403585, -15.316587], [145.403893, -15.314269], [145.404548, -15.310901], [145.405055, -15.308425], [145.405442, -15.305891], [145.405881, -15.30342], [145.406296, -15.300128], [145.406644, -15.297225], [145.407036, -15.294397], [145.407269, -15.292148], [145.407614, -15.289317], [145.407938, -15.285829], [145.408126, -15.283611], [145.408531, -15.280477], [145.408695, -15.277959], [145.408734, -15.275212], [145.408586, -15.272286], [145.408691, -15.269683], [145.408909, -15.267549], [145.408927, -15.264988], [145.409081, -15.262033], [145.409339, -15.259631], [145.409384, -15.257225], [145.409502, -15.254373], [145.409543, -15.252351], [145.409756, -15.249143], [145.410136, -15.247073], [145.410399, -15.244658], [145.410595, -15.242487], [145.410818, -15.240458], [145.411057, -15.238231], [145.411271, -15.23535], [145.411811, -15.231933], [145.412233, -15.229467], [145.412627, -15.226983], [145.412982, -15.224824], [145.413161, -15.222281], [145.413366, -15.220032], [145.413556, -15.217788], [145.413212, -15.214983], [145.41311, -15.212215], [145.413044, -15.210164], [145.412995, -15.207685], [145.412554, -15.205095], [145.412231, -15.203084], [145.412038, -15.200939], [145.411652, -15.197596], [145.41161, -15.195492], [145.411251, -15.192204], [145.411014, -15.189931], [145.410742, -15.187208], [145.410714, -15.185129], [145.410085, -15.182063], [145.409895, -15.179548], [145.409481, -15.17674], [145.409388, -15.174655], [145.409586, -15.172796], [145.410033, -15.168922], [145.410325, -15.166708], [145.410656, -15.164019], [145.410839, -15.161195], [145.410984, -15.159242], [145.411656, -15.156628], [145.411862, -15.154568], [145.412055, -15.15146], [145.412389, -15.149066], [145.412684, -15.146497], [145.413266, -15.144182], [145.413404, -15.141445], [145.413383, -15.138203], [145.41327, -15.135772], [145.413564, -15.131717], [145.413712, -15.129866], [145.414061, -15.127181], [145.414273, -15.124526], [145.414184, -15.121892], [145.413996, -15.119172], [145.413758, -15.117292], [145.413703, -15.114473], [145.413387, -15.112323], [145.4124, -15.108653], [145.411533, -15.105384], [145.411687, -15.102971], [145.412295, -15.099648], [145.412726, -15.097551], [145.413414, -15.094645], [145.414266, -15.091567], [145.414894, -15.088466], [145.41523, -15.086039], [145.415666, -15.083432], [145.416011, -15.080933], [145.416554, -15.078389], [145.416942, -15.075255], [145.417396, -15.07209], [145.417941, -15.069127], [145.418206, -15.06664], [145.41851, -15.064406], [145.419027, -15.062302], [145.419516, -15.059025], [145.419832, -15.056819], [145.420213, -15.054164], [145.420947, -15.051684], [145.421546, -15.049222], [145.421736, -15.047405], [145.422175, -15.045115], [145.422928, -15.043073], [145.42351, -15.040785], [145.423981, -15.038451], [145.42442, -15.036031], [145.425001, -15.032887], [145.425607, -15.030312], [145.426074, -15.027964], [145.42647, -15.026026], [145.426559, -15.023853], [145.426538, -15.021115], [145.426418, -15.018457], [145.426201, -15.015556], [145.425941, -15.012924], [145.42543, -15.00917], [145.425202, -15.007036], [145.425082, -15.003627], [145.425099, -15.001635], [145.425111, -14.998998], [145.424822, -14.996878], [145.424547, -14.993909], [145.42443, -14.991545], [145.424452, -14.988895], [145.424079, -14.985653], [145.423831, -14.982331], [145.42345, -14.978962], [145.423478, -14.976882], [145.423658, -14.974599], [145.423791, -14.972453], [145.423383, -14.969784], [145.422982, -14.967417], [145.422818, -14.964909], [145.42266, -14.96208], [145.422267, -14.958774], [145.422302, -14.956802], [145.422365, -14.954545], [145.422501, -14.95205], [145.422536, -14.94956], [145.422285, -14.946965], [145.421913, -14.944473], [145.421527, -14.942326], [145.421226, -14.939575], [145.420765, -14.936833], [145.420226, -14.934433], [145.420043, -14.93182], [145.420585, -14.929628], [145.420807, -14.926863], [145.420763, -14.925005], [145.420886, -14.922975], [145.421132, -14.919823], [145.421465, -14.918139], [145.42183, -14.915966], [145.422259, -14.913476], [145.422719, -14.911009], [145.422867, -14.907399], [145.423096, -14.90472], [145.42331, -14.901593], [145.423486, -14.89957], [145.423881, -14.896748], [145.424069, -14.89424], [145.424317, -14.891298], [145.424563, -14.888887], [145.425037, -14.886297], [145.425419, -14.883685], [145.425947, -14.88137], [145.426786, -14.877738], [145.427385, -14.875673], [145.427639, -14.873408], [145.428023, -14.870424], [145.42853, -14.867861], [145.428868, -14.86484], [145.429175, -14.862744], [145.429796, -14.859425], [145.430423, -14.856552], [145.430893, -14.853424], [145.431404, -14.850609], [145.43159, -14.848607], [145.431911, -14.845759], [145.431783, -14.843328], [145.431398, -14.839098], [145.431658, -14.836993], [145.431878, -14.83503], [145.431943, -14.832422], [145.432026, -14.829708], [145.43229, -14.827905], [145.432254, -14.825073], [145.432668, -14.822293], [145.432652, -14.820387], [145.432599, -14.817066], [145.433062, -14.814811], [145.433071, -14.811493], [145.432998, -14.809257], [145.433129, -14.806937], [145.433301, -14.804523], [145.433441, -14.802733], [145.433614, -14.800037], [145.434023, -14.798627], [145.433927, -14.796019], [145.433565, -14.793965], [145.433027, -14.791408], [145.432414, -14.789573], [145.431654, -14.787196], [145.431069, -14.784763], [145.430421, -14.782405], [145.429746, -14.779734], [145.428867, -14.777361], [145.428158, -14.7742], [145.428156, -14.772387], [145.428321, -14.769876], [145.42846, -14.767452], [145.428402, -14.764134], [145.428419, -14.760854], [145.428691, -14.758337], [145.428816, -14.755104], [145.4287, -14.752473], [145.42901, -14.750425], [145.428984, -14.747809], [145.428932, -14.745226], [145.428985, -14.742709], [145.429084, -14.74035], [145.429369, -14.737832], [145.429716, -14.735647], [145.43001, -14.733602], [145.430144, -14.731551], [145.43012, -14.729029], [145.430383, -14.72643], [145.430458, -14.72445], [145.430457, -14.721218], [145.430542, -14.717623], [145.430525, -14.715644], [145.430589, -14.712722], [145.430754, -14.710413], [145.430797, -14.707963], [145.430779, -14.705932], [145.43119, -14.703277], [145.431264, -14.700367], [145.431444, -14.697418], [145.431677, -14.695035], [145.431907, -14.692534], [145.431908, -14.689976], [145.432035, -14.687336], [145.432046, -14.684049], [145.432565, -14.68206], [145.434385, -14.678981], [145.435855, -14.675956], [145.437238, -14.673287], [145.438154, -14.671446], [145.439937, -14.667963], [145.441548, -14.665947], [145.443843, -14.664183], [145.445661, -14.66266], [145.447887, -14.661611], [145.448766, -14.661275], [145.451556, -14.661168], [145.452155, -14.661791]]}, "times": ["2023-07-29T08:38:37+00:00", "2023-07-30T01:01:55+00:00", "2023-07-30T01:03:05+00:00", "2023-07-30T01:04:53+00:00", "2023-07-30T01:06:54+00:00", "2023-07-30T01:07:55+00:00", "2023-07-30T01:09:55+00:00", "2023-07-30T01:11:23+00:00", "2023-07-30T01:12:55+00:00", "2023-07-30T01:14:48+00:00", "2023-07-30T01:15:55+00:00", "2023-07-30T01:17:55+00:00", "2023-07-30T01:19:21+00:00", "2023-07-30T01:20:09+00:00", "2023-07-30T01:21:55+00:00", "2023-07-30T01:22:33+00:00", "2023-07-30T01:23:45+00:00", "2023-07-30T01:24:09+00:00", "2023-07-30T01:25:29+00:00", "2023-07-30T01:26:25+00:00", "2023-07-30T01:27:34+00:00", "2023-07-30T01:29:00+00:00", "2023-07-30T01:30:42+00:00", "2023-07-30T01:32:55+00:00", "2023-07-30T01:34:55+00:00", "2023-07-30T01:36:55+00:00", "2023-07-30T01:38:23+00:00", "2023-07-30T01:39:31+00:00", "2023-07-30T01:41:55+00:00", "2023-07-30T01:43:55+00:00", "2023-07-30T01:44:55+00:00", "2023-07-30T01:47:09+00:00", "2023-07-30T01:49:17+00:00", "2023-07-30T01:49:55+00:00", "2023-07-30T01:51:54+00:00", "2023-07-30T01:52:34+00:00", "2023-07-30T01:53:26+00:00", "2023-07-30T01:54:10+00:00", "2023-07-30T01:55:55+00:00", "2023-07-30T01:56:55+00:00", "2023-07-30T01:58:03+00:00", "2023-07-30T01:58:55+00:00", "2023-07-30T01:59:55+00:00", "2023-07-30T02:01:24+00:00", "2023-07-30T02:02:44+00:00", "2023-07-30T02:04:33+00:00", "2023-07-30T02:05:01+00:00", "2023-07-30T02:06:55+00:00", "2023-07-30T02:08:14+00:00", "2023-07-30T02:09:30+00:00", "2023-07-30T02:10:51+00:00", "2023-07-30T02:11:55+00:00", "2023-07-30T02:12:55+00:00", "2023-07-30T02:14:44+00:00", "2023-07-30T02:16:55+00:00", "2023-07-30T02:18:09+00:00", "2023-07-30T02:19:55+00:00", "2023-07-30T02:20:55+00:00", "2023-07-30T02:22:55+00:00", "2023-07-30T02:24:02+00:00", "2023-07-30T02:24:55+00:00", "2023-07-30T02:26:11+00:00", "2023-07-30T02:27:07+00:00", "2023-07-30T02:28:44+00:00", "2023-07-30T02:29:20+00:00", "2023-07-30T02:30:55+00:00", "2023-07-30T02:31:52+00:00", "2023-07-30T02:33:05+00:00", "2023-07-30T02:34:05+00:00", "2023-07-30T02:36:01+00:00", "2023-07-30T02:37:06+00:00", "2023-07-30T02:37:55+00:00", "2023-07-30T02:39:02+00:00", "2023-07-30T02:39:54+00:00", "2023-07-30T02:40:55+00:00", "2023-07-30T02:41:43+00:00", "2023-07-30T02:42:59+00:00", "2023-07-30T02:44:55+00:00", "2023-07-30T02:45:55+00:00", "2023-07-30T02:47:55+00:00", "2023-07-30T02:49:21+00:00", "2023-07-30T02:50:55+00:00", "2023-07-30T02:51:55+00:00", "2023-07-30T02:52:55+00:00", "2023-07-30T02:53:55+00:00", "2023-07-30T02:55:15+00:00", "2023-07-30T02:56:07+00:00", "2023-07-30T02:56:55+00:00", "2023-07-30T02:58:19+00:00", "2023-07-30T02:59:48+00:00", "2023-07-30T03:00:55+00:00", "2023-07-30T03:02:24+00:00", "2023-07-30T03:03:55+00:00", "2023-07-30T03:06:01+00:00", "2023-07-30T03:06:55+00:00", "2023-07-30T03:07:55+00:00", "2023-07-30T03:09:10+00:00", "2023-07-30T03:10:14+00:00", "2023-07-30T03:11:14+00:00", "2023-07-30T03:12:03+00:00", "2023-07-30T03:13:27+00:00", "2023-07-30T03:14:55+00:00", "2023-07-30T03:16:27+00:00", "2023-07-30T03:17:55+00:00", "2023-07-30T03:18:55+00:00", "2023-07-30T03:19:55+00:00", "2023-07-30T03:21:41+00:00", "2023-07-30T03:22:55+00:00", "2023-07-30T03:24:05+00:00", "2023-07-30T03:25:26+00:00", "2023-07-30T03:26:55+00:00", "2023-07-30T03:28:27+00:00", "2023-07-30T03:29:31+00:00", "2023-07-30T03:30:55+00:00", "2023-07-30T03:32:16+00:00", "2023-07-30T03:34:16+00:00", "2023-07-30T03:35:12+00:00", "2023-07-30T03:37:05+00:00", "2023-07-30T03:37:55+00:00", "2023-07-30T03:39:15+00:00", "2023-07-30T03:40:50+00:00", "2023-07-30T03:41:55+00:00", "2023-07-30T03:43:10+00:00", "2023-07-30T03:44:31+00:00", "2023-07-30T03:45:55+00:00", "2023-07-30T03:47:27+00:00", "2023-07-30T03:48:55+00:00", "2023-07-30T03:49:55+00:00", "2023-07-30T03:50:55+00:00", "2023-07-30T03:52:33+00:00", "2023-07-30T03:53:55+00:00", "2023-07-30T03:54:55+00:00", "2023-07-30T03:56:17+00:00", "2023-07-30T03:58:30+00:00", "2023-07-30T03:59:55+00:00", "2023-07-30T04:00:55+00:00", "2023-07-30T04:01:59+00:00", "2023-07-30T04:03:23+00:00", "2023-07-30T04:04:27+00:00", "2023-07-30T04:05:52+00:00", "2023-07-30T04:06:55+00:00", "2023-07-30T04:08:04+00:00", "2023-07-30T04:09:08+00:00", "2023-07-30T04:10:33+00:00", "2023-07-30T04:11:29+00:00", "2023-07-30T04:12:49+00:00", "2023-07-30T04:13:55+00:00", "2023-07-30T04:15:38+00:00", "2023-07-30T04:16:54+00:00", "2023-07-30T04:17:55+00:00", "2023-07-30T04:18:35+00:00", "2023-07-30T04:19:59+00:00", "2023-07-30T04:22:55+00:00", "2023-07-30T04:23:44+00:00", "2023-07-30T04:25:16+00:00", "2023-07-30T04:26:41+00:00", "2023-07-30T04:27:55+00:00", "2023-07-30T04:29:15+00:00", "2023-07-30T04:30:42+00:00", "2023-07-30T04:31:55+00:00", "2023-07-30T04:33:47+00:00", "2023-07-30T04:34:55+00:00", "2023-07-30T04:35:55+00:00", "2023-07-30T04:37:47+00:00", "2023-07-30T04:38:55+00:00", "2023-07-30T04:39:55+00:00", "2023-07-30T04:41:36+00:00", "2023-07-30T04:42:55+00:00", "2023-07-30T04:43:55+00:00", "2023-07-30T04:45:55+00:00", "2023-07-30T04:47:09+00:00", "2023-07-30T04:48:05+00:00", "2023-07-30T04:49:34+00:00", "2023-07-30T04:50:55+00:00", "2023-07-30T04:51:55+00:00", "2023-07-30T04:52:55+00:00", "2023-07-30T04:54:43+00:00", "2023-07-30T04:56:55+00:00", "2023-07-30T04:57:55+00:00", "2023-07-30T04:59:55+00:00", "2023-07-30T05:01:12+00:00", "2023-07-30T05:03:55+00:00", "2023-07-30T05:04:55+00:00", "2023-07-30T05:07:55+00:00", "2023-07-30T05:08:55+00:00", "2023-07-30T05:09:55+00:00", "2023-07-30T05:11:43+00:00", "2023-07-30T05:13:11+00:00", "2023-07-30T05:14:55+00:00", "2023-07-30T05:16:36+00:00", "2023-07-30T05:18:55+00:00", "2023-07-30T05:19:49+00:00", "2023-07-30T05:20:55+00:00", "2023-07-30T05:23:55+00:00", "2023-07-30T05:24:55+00:00", "2023-07-30T05:27:56+00:00", "2023-07-30T05:29:15+00:00", "2023-07-30T05:30:56+00:00", "2023-07-30T05:33:56+00:00", "2023-07-30T05:34:56+00:00", "2023-07-30T05:36:36+00:00", "2023-07-30T05:37:56+00:00", "2023-07-30T05:39:56+00:00", "2023-07-30T05:40:52+00:00", "2023-07-30T05:42:20+00:00", "2023-07-30T05:43:32+00:00", "2023-07-30T05:45:33+00:00", "2023-07-30T05:46:56+00:00", "2023-07-30T05:48:45+00:00", "2023-07-30T05:49:15+00:00", "2023-07-30T05:51:56+00:00", "2023-07-30T05:53:06+00:00", "2023-07-30T05:54:56+00:00", "2023-07-30T05:56:18+00:00", "2023-07-30T05:57:56+00:00", "2023-07-30T05:59:56+00:00", "2023-07-30T06:01:47+00:00", "2023-07-30T06:02:56+00:00", "2023-07-30T06:05:00+00:00", "2023-07-30T06:06:56+00:00", "2023-07-30T06:08:56+00:00", "2023-07-30T06:10:37+00:00", "2023-07-30T06:11:56+00:00", "2023-07-30T06:14:42+00:00", "2023-07-30T06:15:56+00:00", "2023-07-30T06:17:26+00:00", "2023-07-30T06:18:56+00:00", "2023-07-30T06:20:56+00:00", "2023-07-30T06:22:56+00:00", "2023-07-30T06:24:56+00:00", "2023-07-30T06:25:56+00:00", "2023-07-30T06:27:56+00:00", "2023-07-30T06:29:15+00:00", "2023-07-30T06:30:56+00:00", "2023-07-30T06:32:26+00:00", "2023-07-30T06:34:34+00:00", "2023-07-30T06:36:10+00:00", "2023-07-30T06:38:56+00:00", "2023-07-30T06:39:56+00:00", "2023-07-30T06:41:08+00:00", "2023-07-30T06:43:08+00:00", "2023-07-30T06:44:56+00:00", "2023-07-30T06:46:56+00:00", "2023-07-30T06:48:56+00:00", "2023-07-30T06:50:30+00:00", "2023-07-30T06:52:02+00:00", "2023-07-30T06:53:56+00:00", "2023-07-30T06:55:56+00:00", "2023-07-30T06:57:51+00:00", "2023-07-30T06:59:15+00:00", "2023-07-30T07:05:33+00:00", "2023-07-30T11:30:07+00:00", "2023-07-31T00:40:40+00:00", "2023-07-31T00:42:04+00:00", "2023-07-31T00:45:04+00:00", "2023-07-31T00:46:29+00:00", "2023-07-31T00:48:22+00:00", "2023-07-31T00:50:04+00:00", "2023-07-31T00:52:47+00:00", "2023-07-31T00:54:04+00:00", "2023-07-31T00:56:04+00:00", "2023-07-31T00:58:00+00:00", "2023-07-31T00:59:17+00:00", "2023-07-31T01:00:54+00:00", "2023-07-31T01:02:04+00:00", "2023-07-31T01:03:04+00:00", "2023-07-31T01:05:04+00:00", "2023-07-31T01:07:04+00:00", "2023-07-31T01:09:04+00:00", "2023-07-31T01:10:20+00:00", "2023-07-31T01:11:20+00:00", "2023-07-31T01:14:04+00:00", "2023-07-31T01:16:04+00:00", "2023-07-31T01:18:00+00:00", "2023-07-31T01:19:04+00:00", "2023-07-31T01:21:04+00:00", "2023-07-31T01:23:31+00:00", "2023-07-31T01:24:08+00:00", "2023-07-31T01:27:00+00:00", "2023-07-31T01:27:28+00:00", "2023-07-31T01:29:36+00:00", "2023-07-31T01:31:08+00:00", "2023-07-31T01:33:08+00:00", "2023-07-31T01:34:21+00:00", "2023-07-31T01:36:08+00:00", "2023-07-31T01:38:00+00:00", "2023-07-31T01:38:46+00:00", "2023-07-31T01:40:08+00:00", "2023-07-31T01:42:07+00:00", "2023-07-31T01:43:08+00:00", "2023-07-31T01:44:16+00:00", "2023-07-31T01:45:40+00:00", "2023-07-31T01:46:44+00:00", "2023-07-31T01:47:40+00:00", "2023-07-31T01:49:08+00:00", "2023-07-31T01:50:33+00:00", "2023-07-31T01:52:08+00:00", "2023-07-31T01:53:10+00:00", "2023-07-31T01:54:18+00:00", "2023-07-31T01:55:50+00:00", "2023-07-31T01:57:08+00:00", "2023-07-31T01:59:08+00:00", "2023-07-31T02:00:15+00:00", "2023-07-31T02:01:23+00:00", "2023-07-31T02:03:08+00:00", "2023-07-31T02:05:08+00:00", "2023-07-31T02:07:08+00:00", "2023-07-31T02:09:16+00:00", "2023-07-31T02:10:49+00:00", "2023-07-31T02:13:01+00:00", "2023-07-31T02:14:08+00:00", "2023-07-31T02:16:08+00:00", "2023-07-31T02:17:46+00:00", "2023-07-31T02:20:08+00:00", "2023-07-31T02:22:08+00:00", "2023-07-31T02:23:27+00:00", "2023-07-31T02:24:32+00:00", "2023-07-31T02:25:20+00:00", "2023-07-31T02:27:53+00:00", "2023-07-31T02:29:29+00:00", "2023-07-31T02:30:08+00:00", "2023-07-31T02:32:08+00:00", "2023-07-31T02:33:54+00:00", "2023-07-31T02:35:19+00:00", "2023-07-31T02:36:08+00:00", "2023-07-31T02:38:00+00:00", "2023-07-31T02:39:00+00:00", "2023-07-31T02:40:08+00:00", "2023-07-31T02:41:48+00:00", "2023-07-31T02:43:09+00:00", "2023-07-31T02:46:08+00:00", "2023-07-31T02:47:08+00:00", "2023-07-31T02:48:30+00:00", "2023-07-31T02:50:08+00:00", "2023-07-31T02:51:38+00:00", "2023-07-31T02:52:42+00:00", "2023-07-31T02:53:22+00:00", "2023-07-31T02:54:35+00:00", "2023-07-31T02:55:23+00:00", "2023-07-31T02:56:15+00:00", "2023-07-31T02:57:48+00:00", "2023-07-31T02:58:56+00:00", "2023-07-31T03:00:08+00:00", "2023-07-31T03:01:25+00:00", "2023-07-31T03:02:17+00:00", "2023-07-31T03:05:08+00:00", "2023-07-31T03:06:08+00:00", "2023-07-31T03:07:55+00:00", "2023-07-31T03:09:08+00:00", "2023-07-31T03:10:08+00:00", "2023-07-31T03:12:08+00:00", "2023-07-31T03:13:12+00:00", "2023-07-31T03:16:08+00:00", "2023-07-31T03:17:08+00:00", "2023-07-31T03:19:08+00:00", "2023-07-31T03:21:08+00:00", "2023-07-31T03:22:57+00:00", "2023-07-31T03:23:58+00:00", "2023-07-31T03:25:46+00:00", "2023-07-31T03:27:08+00:00", "2023-07-31T03:28:11+00:00", "2023-07-31T03:30:08+00:00", "2023-07-31T03:31:08+00:00", "2023-07-31T03:32:08+00:00", "2023-07-31T03:33:16+00:00", "2023-07-31T03:36:08+00:00", "2023-07-31T03:37:08+00:00", "2023-07-31T03:38:14+00:00", "2023-07-31T03:40:08+00:00", "2023-07-31T03:41:55+00:00", "2023-07-31T03:43:19+00:00", "2023-07-31T03:44:44+00:00", "2023-07-31T03:47:08+00:00", "2023-07-31T03:48:08+00:00", "2023-07-31T03:49:08+00:00", "2023-07-31T03:50:25+00:00", "2023-07-31T03:52:08+00:00", "2023-07-31T03:53:08+00:00", "2023-07-31T03:54:34+00:00", "2023-07-31T03:55:55+00:00", "2023-07-31T03:56:59+00:00", "2023-07-31T03:58:07+00:00", "2023-07-31T03:59:08+00:00", "2023-07-31T04:00:28+00:00", "2023-07-31T04:02:08+00:00", "2023-07-31T04:04:01+00:00", "2023-07-31T04:05:09+00:00", "2023-07-31T04:08:09+00:00", "2023-07-31T04:09:09+00:00", "2023-07-31T04:10:39+00:00", "2023-07-31T04:12:09+00:00", "2023-07-31T04:13:09+00:00", "2023-07-31T04:15:09+00:00", "2023-07-31T04:17:09+00:00", "2023-07-31T04:18:15+00:00", "2023-07-31T04:20:29+00:00", "2023-07-31T04:22:05+00:00", "2023-07-31T04:23:10+00:00", "2023-07-31T04:25:09+00:00", "2023-07-31T04:26:02+00:00", "2023-07-31T04:28:15+00:00", "2023-07-31T04:29:51+00:00", "2023-07-31T04:30:52+00:00", "2023-07-31T04:32:48+00:00", "2023-07-31T04:34:48+00:00", "2023-07-31T04:36:09+00:00", "2023-07-31T04:38:09+00:00", "2023-07-31T04:39:17+00:00", "2023-07-31T04:40:18+00:00", "2023-07-31T04:41:50+00:00", "2023-07-31T04:43:09+00:00", "2023-07-31T04:44:59+00:00", "2023-07-31T04:46:23+00:00", "2023-07-31T04:48:10+00:00", "2023-07-31T04:49:10+00:00", "2023-07-31T04:50:16+00:00", "2023-07-31T04:52:10+00:00", "2023-07-31T04:53:10+00:00", "2023-07-31T04:55:17+00:00", "2023-07-31T04:56:10+00:00", "2023-07-31T04:57:10+00:00", "2023-07-31T04:58:26+00:00", "2023-07-31T05:00:02+00:00", "2023-07-31T05:01:10+00:00", "2023-07-31T05:02:15+00:00", "2023-07-31T05:03:27+00:00", "2023-07-31T05:04:27+00:00", "2023-07-31T05:05:27+00:00", "2023-07-31T05:07:10+00:00", "2023-07-31T05:08:15+00:00", "2023-07-31T05:09:10+00:00", "2023-07-31T05:10:29+00:00", "2023-07-31T05:12:02+00:00", "2023-07-31T05:13:10+00:00", "2023-07-31T05:14:10+00:00", "2023-07-31T05:15:50+00:00", "2023-07-31T05:17:03+00:00", "2023-07-31T05:18:10+00:00", "2023-07-31T05:19:10+00:00", "2023-07-31T05:21:10+00:00", "2023-07-31T05:22:28+00:00", "2023-07-31T05:23:10+00:00", "2023-07-31T05:24:45+00:00", "2023-07-31T05:26:10+00:00", "2023-07-31T05:27:10+00:00", "2023-07-31T05:28:18+00:00", "2023-07-31T05:29:42+00:00", "2023-07-31T05:30:58+00:00", "2023-07-31T05:32:10+00:00", "2023-07-31T05:33:59+00:00", "2023-07-31T05:35:24+00:00", "2023-07-31T05:36:24+00:00", "2023-07-31T05:37:28+00:00", "2023-07-31T05:38:41+00:00", "2023-07-31T05:40:09+00:00", "2023-07-31T05:41:05+00:00", "2023-07-31T05:42:10+00:00", "2023-07-31T05:43:10+00:00", "2023-07-31T05:44:10+00:00", "2023-07-31T05:45:38+00:00", "2023-07-31T05:46:55+00:00", "2023-07-31T05:48:10+00:00", "2023-07-31T05:49:10+00:00", "2023-07-31T05:50:36+00:00", "2023-07-31T05:52:10+00:00", "2023-07-31T05:53:41+00:00", "2023-07-31T05:55:10+00:00", "2023-07-31T05:56:38+00:00", "2023-07-31T05:58:06+00:00", "2023-07-31T05:59:10+00:00", "2023-07-31T06:00:18+00:00", "2023-07-31T06:01:47+00:00", "2023-07-31T06:03:10+00:00", "2023-07-31T06:04:10+00:00", "2023-07-31T06:05:24+00:00", "2023-07-31T06:07:10+00:00", "2023-07-31T06:08:57+00:00", "2023-07-31T06:11:10+00:00", "2023-07-31T06:12:10+00:00", "2023-07-31T06:13:22+00:00", "2023-07-31T06:15:51+00:00", "2023-07-31T06:17:19+00:00", "2023-07-31T06:18:23+00:00", "2023-07-31T06:21:10+00:00", "2023-07-31T06:22:10+00:00", "2023-07-31T06:24:10+00:00", "2023-07-31T06:26:10+00:00", "2023-07-31T06:27:22+00:00", "2023-07-31T06:28:46+00:00", "2023-07-31T06:30:10+00:00", "2023-07-31T06:32:44+00:00", "2023-07-31T06:34:10+00:00", "2023-07-31T06:36:10+00:00", "2023-07-31T06:38:15+00:00", "2023-07-31T06:40:10+00:00", "2023-07-31T06:42:10+00:00", "2023-07-31T06:43:10+00:00", "2023-07-31T06:45:19+00:00", "2023-07-31T06:47:10+00:00", "2023-07-31T06:48:15+00:00", "2023-07-31T06:49:36+00:00", "2023-07-31T17:49:49+00:00", "2023-07-31T20:33:07+00:00", "2023-07-31T20:34:07+00:00", "2023-07-31T20:36:07+00:00", "2023-07-31T20:38:07+00:00", "2023-07-31T20:40:07+00:00", "2023-07-31T20:42:07+00:00", "2023-07-31T20:44:07+00:00", "2023-07-31T20:46:07+00:00", "2023-07-31T20:47:24+00:00", "2023-07-31T20:49:07+00:00", "2023-07-31T20:51:07+00:00", "2023-07-31T20:53:07+00:00", "2023-07-31T20:54:07+00:00", "2023-07-31T20:55:50+00:00", "2023-07-31T20:57:07+00:00", "2023-07-31T20:58:06+00:00", "2023-07-31T20:59:07+00:00", "2023-07-31T21:00:27+00:00", "2023-07-31T21:01:45+00:00", "2023-07-31T21:02:51+00:00", "2023-07-31T21:04:07+00:00", "2023-07-31T21:06:08+00:00", "2023-07-31T21:06:56+00:00", "2023-07-31T21:08:13+00:00", "2023-07-31T21:09:33+00:00", "2023-07-31T21:11:08+00:00", "2023-07-31T21:11:46+00:00", "2023-07-31T21:13:50+00:00", "2023-07-31T21:15:11+00:00", "2023-07-31T21:17:11+00:00", "2023-07-31T21:18:11+00:00", "2023-07-31T21:19:11+00:00", "2023-07-31T21:20:56+00:00", "2023-07-31T21:21:56+00:00", "2023-07-31T21:23:11+00:00", "2023-07-31T21:25:12+00:00", "2023-07-31T21:26:12+00:00", "2023-07-31T21:27:25+00:00", "2023-07-31T21:28:46+00:00", "2023-07-31T21:30:10+00:00", "2023-07-31T21:31:02+00:00", "2023-07-31T21:32:12+00:00", "2023-07-31T21:33:59+00:00", "2023-07-31T21:35:12+00:00", "2023-07-31T21:37:12+00:00", "2023-07-31T21:38:04+00:00", "2023-07-31T21:39:20+00:00", "2023-07-31T21:40:45+00:00", "2023-07-31T21:42:01+00:00", "2023-07-31T21:43:12+00:00", "2023-07-31T21:45:12+00:00", "2023-07-31T21:47:12+00:00", "2023-07-31T21:49:02+00:00", "2023-07-31T21:50:12+00:00", "2023-07-31T21:51:45+00:00", "2023-07-31T21:53:12+00:00", "2023-07-31T21:54:28+00:00", "2023-07-31T21:55:16+00:00", "2023-07-31T21:56:53+00:00", "2023-07-31T21:57:53+00:00", "2023-07-31T21:58:53+00:00", "2023-07-31T22:00:12+00:00", "2023-07-31T22:01:45+00:00", "2023-07-31T22:03:12+00:00", "2023-07-31T22:04:51+00:00", "2023-07-31T22:06:23+00:00", "2023-07-31T22:08:12+00:00", "2023-07-31T22:10:12+00:00", "2023-07-31T22:11:32+00:00", "2023-07-31T22:13:09+00:00", "2023-07-31T22:14:12+00:00", "2023-07-31T22:15:13+00:00", "2023-07-31T22:16:26+00:00", "2023-07-31T22:17:42+00:00", "2023-07-31T22:18:58+00:00", "2023-07-31T22:19:47+00:00", "2023-07-31T22:21:11+00:00", "2023-07-31T22:21:59+00:00", "2023-07-31T22:23:12+00:00", "2023-07-31T22:25:04+00:00", "2023-07-31T22:25:52+00:00", "2023-07-31T22:26:45+00:00", "2023-07-31T22:27:53+00:00", "2023-07-31T22:29:12+00:00", "2023-07-31T22:30:12+00:00", "2023-07-31T22:31:34+00:00", "2023-07-31T22:33:12+00:00", "2023-07-31T22:34:12+00:00", "2023-07-31T22:35:51+00:00", "2023-07-31T22:37:12+00:00", "2023-07-31T22:38:28+00:00", "2023-07-31T22:40:12+00:00", "2023-07-31T22:41:45+00:00", "2023-07-31T22:43:22+00:00", "2023-07-31T22:45:12+00:00", "2023-07-31T22:47:12+00:00", "2023-07-31T22:49:12+00:00", "2023-07-31T22:51:12+00:00", "2023-07-31T22:52:12+00:00", "2023-07-31T22:55:12+00:00", "2023-07-31T22:58:12+00:00", "2023-07-31T23:00:12+00:00", "2023-07-31T23:01:45+00:00", "2023-07-31T23:03:53+00:00", "2023-07-31T23:05:25+00:00", "2023-07-31T23:08:12+00:00", "2023-07-31T23:10:15+00:00", "2023-07-31T23:11:59+00:00", "2023-07-31T23:13:44+00:00", "2023-07-31T23:16:12+00:00", "2023-07-31T23:18:12+00:00", "2023-07-31T23:20:12+00:00", "2023-07-31T23:22:12+00:00", "2023-07-31T23:24:12+00:00", "2023-07-31T23:26:12+00:00", "2023-07-31T23:29:12+00:00", "2023-07-31T23:30:52+00:00", "2023-07-31T23:32:12+00:00", "2023-07-31T23:33:50+00:00", "2023-07-31T23:36:12+00:00", "2023-07-31T23:37:38+00:00", "2023-07-31T23:40:12+00:00", "2023-07-31T23:41:45+00:00", "2023-07-31T23:43:12+00:00", "2023-07-31T23:45:25+00:00", "2023-07-31T23:47:12+00:00", "2023-07-31T23:49:26+00:00", "2023-07-31T23:50:55+00:00", "2023-07-31T23:52:12+00:00", "2023-07-31T23:53:12+00:00", "2023-07-31T23:56:08+00:00", "2023-07-31T23:57:12+00:00", "2023-07-31T23:58:17+00:00", "2023-08-01T00:00:12+00:00", "2023-08-01T00:01:45+00:00", "2023-08-01T00:03:02+00:00", "2023-08-01T00:04:12+00:00", "2023-08-01T00:06:03+00:00", "2023-08-01T00:07:12+00:00", "2023-08-01T00:09:12+00:00", "2023-08-01T00:11:12+00:00", "2023-08-01T00:12:12+00:00", "2023-08-01T00:13:57+00:00", "2023-08-01T00:16:12+00:00", "2023-08-01T00:17:12+00:00", "2023-08-01T00:19:12+00:00", "2023-08-01T00:21:12+00:00", "2023-08-01T00:22:12+00:00", "2023-08-01T00:24:12+00:00", "2023-08-01T00:26:12+00:00", "2023-08-01T00:28:05+00:00", "2023-08-01T00:29:15+00:00", "2023-08-01T00:30:15+00:00", "2023-08-01T00:31:58+00:00", "2023-08-01T00:33:18+00:00", "2023-08-01T00:36:03+00:00", "2023-08-01T00:38:15+00:00", "2023-08-01T00:39:12+00:00", "2023-08-01T00:40:36+00:00", "2023-08-01T00:42:13+00:00", "2023-08-01T00:43:18+00:00", "2023-08-01T00:44:49+00:00", "2023-08-01T00:46:18+00:00", "2023-08-01T00:47:58+00:00", "2023-08-01T00:49:18+00:00", "2023-08-01T00:50:39+00:00", "2023-08-01T00:52:15+00:00", "2023-08-01T00:54:18+00:00", "2023-08-01T00:55:18+00:00", "2023-08-01T00:57:18+00:00", "2023-08-01T00:58:19+00:00", "2023-08-01T00:59:45+00:00", "2023-08-01T01:01:42+00:00", "2023-08-01T01:03:02+00:00", "2023-08-01T01:04:19+00:00", "2023-08-01T01:06:03+00:00", "2023-08-01T01:07:19+00:00", "2023-08-01T01:09:19+00:00", "2023-08-01T01:10:44+00:00", "2023-08-01T01:11:45+00:00", "2023-08-01T01:13:19+00:00", "2023-08-01T01:14:49+00:00", "2023-08-01T01:16:19+00:00", "2023-08-01T01:17:19+00:00", "2023-08-01T01:18:42+00:00", "2023-08-01T01:19:58+00:00", "2023-08-01T01:21:19+00:00", "2023-08-01T01:22:47+00:00", "2023-08-01T01:24:07+00:00", "2023-08-01T01:25:19+00:00", "2023-08-01T01:26:19+00:00", "2023-08-01T01:27:19+00:00", "2023-08-01T01:29:16+00:00", "2023-08-01T01:30:36+00:00", "2023-08-01T01:32:19+00:00", "2023-08-01T01:33:19+00:00", "2023-08-01T01:34:29+00:00", "2023-08-01T01:36:06+00:00", "2023-08-01T01:37:02+00:00", "2023-08-01T01:38:19+00:00", "2023-08-01T01:39:19+00:00", "2023-08-01T01:41:07+00:00", "2023-08-01T01:42:00+00:00", "2023-08-01T01:43:19+00:00", "2023-08-01T01:45:04+00:00", "2023-08-01T01:46:16+00:00", "2023-08-01T01:46:56+00:00", "2023-08-01T01:48:57+00:00", "2023-08-01T01:50:13+00:00", "2023-08-01T01:51:58+00:00", "2023-08-01T01:53:19+00:00", "2023-08-01T01:54:38+00:00", "2023-08-01T01:55:39+00:00", "2023-08-01T01:57:31+00:00", "2023-08-01T01:59:19+00:00", "2023-08-01T02:00:19+00:00", "2023-08-01T02:01:44+00:00", "2023-08-01T02:02:40+00:00", "2023-08-01T02:05:09+00:00", "2023-08-01T02:06:17+00:00", "2023-08-01T02:07:20+00:00", "2023-08-01T02:08:58+00:00", "2023-08-01T02:10:18+00:00", "2023-08-01T02:11:20+00:00", "2023-08-01T02:12:20+00:00", "2023-08-01T02:14:20+00:00", "2023-08-01T02:15:31+00:00", "2023-08-01T02:17:03+00:00", "2023-08-01T02:18:20+00:00", "2023-08-01T02:19:20+00:00", "2023-08-01T02:21:20+00:00", "2023-08-01T02:22:25+00:00", "2023-08-01T02:25:18+00:00", "2023-08-01T02:25:42+00:00", "2023-08-01T02:27:20+00:00", "2023-08-01T02:28:51+00:00", "2023-08-01T02:30:20+00:00", "2023-08-01T02:32:00+00:00", "2023-08-01T02:32:56+00:00", "2023-08-01T02:34:20+00:00", "2023-08-01T02:36:05+00:00", "2023-08-01T02:38:20+00:00", "2023-08-01T02:39:54+00:00", "2023-08-01T02:41:20+00:00", "2023-08-01T02:43:11+00:00", "2023-08-01T02:44:20+00:00", "2023-08-01T02:45:20+00:00", "2023-08-01T02:47:20+00:00", "2023-08-01T02:49:20+00:00", "2023-08-01T02:50:12+00:00", "2023-08-01T02:51:33+00:00", "2023-08-01T02:53:13+00:00", "2023-08-01T02:54:20+00:00", "2023-08-01T02:56:20+00:00", "2023-08-01T02:58:20+00:00", "2023-08-01T02:59:23+00:00", "2023-08-01T03:00:40+00:00", "2023-08-01T03:02:00+00:00", "2023-08-01T03:03:20+00:00", "2023-08-01T03:04:45+00:00", "2023-08-01T03:06:05+00:00", "2023-08-01T03:07:20+00:00", "2023-08-01T03:08:54+00:00", "2023-08-01T03:10:20+00:00", "2023-08-01T03:11:20+00:00", "2023-08-01T03:12:20+00:00", "2023-08-01T03:13:40+00:00", "2023-08-01T03:14:52+00:00", "2023-08-01T03:16:20+00:00", "2023-08-01T03:17:25+00:00", "2023-08-01T03:19:13+00:00", "2023-08-01T03:20:30+00:00", "2023-08-01T03:22:00+00:00", "2023-08-01T03:23:10+00:00", "2023-08-01T03:24:20+00:00", "2023-08-01T03:25:20+00:00", "2023-08-01T03:27:03+00:00", "2023-08-01T03:28:20+00:00", "2023-08-01T03:30:20+00:00", "2023-08-01T03:32:00+00:00", "2023-08-01T03:33:20+00:00", "2023-08-01T03:34:49+00:00", "2023-08-01T03:36:02+00:00", "2023-08-01T03:37:20+00:00", "2023-08-01T03:38:20+00:00", "2023-08-01T03:40:20+00:00", "2023-08-01T03:41:43+00:00", "2023-08-01T03:43:16+00:00", "2023-08-01T03:44:36+00:00", "2023-08-01T03:46:20+00:00", "2023-08-01T03:48:20+00:00", "2023-08-01T03:49:33+00:00", "2023-08-01T03:51:02+00:00", "2023-08-01T03:52:20+00:00", "2023-08-01T03:53:47+00:00", "2023-08-01T03:55:11+00:00", "2023-08-01T03:56:20+00:00", "2023-08-01T03:58:00+00:00", "2023-08-01T03:59:44+00:00", "2023-08-01T04:01:01+00:00", "2023-08-01T04:02:05+00:00", "2023-08-01T04:03:29+00:00", "2023-08-01T04:04:41+00:00", "2023-08-01T04:06:18+00:00", "2023-08-01T04:07:22+00:00", "2023-08-01T04:09:02+00:00", "2023-08-01T04:10:20+00:00", "2023-08-01T04:12:00+00:00", "2023-08-01T04:13:20+00:00", "2023-08-01T04:15:20+00:00", "2023-08-01T04:16:20+00:00", "2023-08-01T04:17:49+00:00", "2023-08-01T04:18:53+00:00", "2023-08-01T04:19:45+00:00", "2023-08-01T04:21:21+00:00", "2023-08-01T04:22:20+00:00", "2023-08-01T04:23:46+00:00", "2023-08-01T04:25:20+00:00", "2023-08-01T04:26:20+00:00", "2023-08-01T04:28:27+00:00", "2023-08-01T04:30:20+00:00", "2023-08-01T04:31:28+00:00", "2023-08-01T04:32:20+00:00", "2023-08-01T04:34:05+00:00", "2023-08-01T04:35:20+00:00", "2023-08-01T04:37:18+00:00", "2023-08-01T04:38:34+00:00", "2023-08-01T04:40:14+00:00", "2023-08-01T04:41:20+00:00", "2023-08-01T04:42:47+00:00", "2023-08-01T04:44:35+00:00", "2023-08-01T04:46:04+00:00", "2023-08-01T04:47:20+00:00", "2023-08-01T04:48:20+00:00", "2023-08-01T04:50:20+00:00", "2023-08-01T04:51:25+00:00", "2023-08-01T04:53:17+00:00", "2023-08-01T04:54:20+00:00", "2023-08-01T04:56:20+00:00", "2023-08-01T04:58:20+00:00", "2023-08-01T04:59:20+00:00", "2023-08-01T05:00:20+00:00", "2023-08-01T05:02:00+00:00", "2023-08-01T05:03:20+00:00", "2023-08-01T05:06:01+00:00", "2023-08-01T05:07:09+00:00", "2023-08-01T05:08:17+00:00", "2023-08-01T05:09:20+00:00", "2023-08-01T05:10:50+00:00", "2023-08-01T05:11:54+00:00", "2023-08-01T05:13:20+00:00", "2023-08-01T05:14:43+00:00", "2023-08-01T05:15:39+00:00", "2023-08-01T05:17:20+00:00", "2023-08-01T05:19:12+00:00", "2023-08-01T05:20:37+00:00", "2023-08-01T05:22:00+00:00", "2023-08-01T05:23:05+00:00", "2023-08-01T05:24:20+00:00", "2023-08-01T05:25:20+00:00", "2023-08-01T05:26:42+00:00", "2023-08-01T05:27:20+00:00", "2023-08-01T05:29:06+00:00", "2023-08-01T05:30:20+00:00", "2023-08-01T05:31:27+00:00", "2023-08-01T05:32:35+00:00", "2023-08-01T05:34:20+00:00", "2023-08-01T05:35:20+00:00", "2023-08-01T05:36:28+00:00", "2023-08-01T05:38:20+00:00", "2023-08-01T05:39:20+00:00", "2023-08-01T05:41:22+00:00", "2023-08-01T05:42:15+00:00", "2023-08-01T05:43:46+00:00", "2023-08-01T05:45:20+00:00", "2023-08-01T05:47:03+00:00", "2023-08-01T05:48:24+00:00", "2023-08-01T05:50:20+00:00", "2023-08-01T05:51:40+00:00", "2023-08-01T05:53:20+00:00", "2023-08-01T05:54:20+00:00", "2023-08-01T05:55:45+00:00", "2023-08-01T05:57:20+00:00", "2023-08-01T05:59:06+00:00", "2023-08-01T06:00:20+00:00", "2023-08-01T06:01:27+00:00", "2023-08-01T06:02:51+00:00", "2023-08-01T06:04:04+00:00", "2023-08-01T06:05:16+00:00", "2023-08-01T06:06:25+00:00", "2023-08-01T06:08:01+00:00", "2023-08-01T06:09:17+00:00", "2023-08-01T06:10:20+00:00", "2023-08-01T06:12:50+00:00", "2023-08-01T06:13:26+00:00", "2023-08-01T06:15:20+00:00", "2023-08-01T06:16:20+00:00", "2023-08-01T06:17:43+00:00", "2023-08-01T06:18:56+00:00", "2023-08-01T06:20:20+00:00", "2023-08-01T06:21:56+00:00", "2023-08-01T06:23:20+00:00", "2023-08-01T06:24:41+00:00", "2023-08-01T06:26:20+00:00", "2023-08-01T06:27:26+00:00", "2023-08-01T06:28:54+00:00", "2023-08-01T06:30:20+00:00", "2023-08-01T06:32:15+00:00", "2023-08-01T06:34:03+00:00", "2023-08-01T06:35:36+00:00", "2023-08-01T06:37:21+00:00", "2023-08-01T06:38:21+00:00", "2023-08-01T06:40:49+00:00", "2023-08-01T06:42:30+00:00", "2023-08-01T06:44:21+00:00", "2023-08-01T06:46:11+00:00", "2023-08-01T06:47:47+00:00", "2023-08-01T06:49:32+00:00", "2023-08-01T06:52:15+00:00", "2023-08-01T10:01:44+00:00"], "elevations": [25.9, 11.5, 11.0, 16.0, 15.5, 16.5, 17.3, 18.0, 19.5, 20.0, 19.0, 19.0, 18.6, 19.5, 20.0, 20.0, 19.0, 19.0, 19.0, 19.0, 20.0, 18.8, 20.5, 20.0, 20.5, 20.0, 20.0, 20.8, 19.0, 19.0, 20.0, 23.3, null, 14.5, 15.0, 15.0, null, 15.0, 15.0, 15.0, 15.0, 15.0, 15.0, 15.0, 15.0, 15.0, 15.0, 14.0, 13.0, null, 12.0, 12.0, 12.0, 12.0, 12.0, 12.0, 12.0, 12.0, 13.0, 12.0, 13.0, 13.0, 13.0, 13.0, 13.0, 13.0, 13.0, 13.0, 13.0, 13.0, 13.0, 13.0, 13.0, 13.0, 13.0, 13.0, 13.0, 12.0, 13.0, 13.0, 13.0, 13.0, 13.0, 13.0, 13.0, 14.0, 14.0, 14.0, 14.0, 15.0, 15.0, 15.0, 15.7, 16.0, 16.0, 16.0, 17.0, 17.0, 17.0, 17.0, 17.0, 17.0, 18.0, 18.0, 18.3, 19.0, 19.0, 19.0, 19.0, 19.0, 19.0, 19.0, 18.8, 19.0, 19.0, 19.0, 19.0, 19.0, 18.5, 18.6, 18.0, 18.0, 18.0, 18.0, 18.0, 18.0, 18.3, 18.0, 17.5, 17.0, 17.0, 17.0, 17.0, 17.0, 15.8, 14.0, 14.0, 14.0, 14.5, 15.0, 15.0, 15.0, 14.8, 15.0, 15.5, 16.0, 16.0, 16.0, 17.0, 17.0, 16.8, 17.0, 18.0, 17.0, 18.0, 18.0, 18.0, 18.3, 18.0, 18.0, 18.5, 19.0, 19.0, 19.0, 18.8, 19.0, 19.0, 19.0, 19.0, 19.0, 18.0, 19.0, 18.3, 18.0, 18.0, 17.5, 17.0, 17.0, 16.0, 16.3, 15.5, 10.0, 11.0, 11.0, 11.0, 11.0, 11.5, 12.0, 12.0, 11.5, 11.5, 10.7, 12.0, 12.0, 12.5, 13.0, 12.8, 14.0, 14.5, 15.0, 15.0, 16.0, 16.3, 16.0, 17.0, 17.0, 17.0, 17.0, null, 16.8, 17.0, 18.0, 18.0, 18.0, 18.0, 18.3, 18.0, 18.0, 17.0, 17.0, 17.3, 18.0, 17.5, 18.0, 18.5, 19.0, 18.8, 18.5, 18.5, 18.0, 18.0, 18.0, 18.3, 18.0, 18.0, 18.0, 19.0, 19.0, 18.8, 19.0, 19.5, 20.0, 20.5, 20.9, 20.5, 20.0, 27.5, 27.0, 28.0, 28.2, 28.0, 22.2, 20.0, 19.7, 18.5, 18.0, 16.8, 17.0, 16.0, 15.3, 14.0, 14.3, 13.0, 13.0, 12.0, 12.0, 12.0, 11.0, 10.7, 12.0, 12.0, 12.5, 13.0, 12.7, 13.0, 13.0, 13.0, 13.0, 14.0, 14.3, 14.0, 14.0, 14.0, 14.0, 14.0, 14.3, 14.0, 14.0, 14.0, 14.0, 15.0, 14.0, 15.0, 14.5, 15.0, null, 15.0, 16.0, 16.0, 16.0, 16.0, 15.8, 15.0, 15.0, 15.0, 15.0, 14.8, 14.0, 14.5, 15.0, 15.0, 15.0, 14.3, 14.0, 14.0, 14.0, 14.0, 14.0, 13.2, 13.0, 13.0, 13.0, 14.0, 14.0, 14.0, 14.5, 14.0, 14.0, 14.0, 13.5, 13.0, 13.0, 12.5, 13.0, 13.0, 13.0, 13.0, 13.0, null, 14.0, 14.5, 14.0, 15.0, 15.0, 15.0, 15.0, 15.0, 15.0, 14.0, 15.5, 16.0, 16.0, 16.0, 16.0, 17.0, 17.0, 17.0, 17.0, 13.0, 12.0, 12.7, 13.0, 13.0, 13.0, 13.0, 13.0, 13.0, 12.1, 13.0, 13.0, 13.0, 13.0, 13.0, 12.7, 13.0, 13.0, 13.0, 13.0, 13.0, 13.5, 14.0, 12.7, 13.0, 14.0, 13.5, 13.0, 13.0, 14.0, 14.0, 14.0, 14.0, 14.0, 14.0, 13.0, 12.8, 13.0, 13.5, 13.0, 13.0, 13.0, 12.7, 13.0, 13.0, 13.0, 12.5, 12.5, 12.7, 13.0, 13.5, 13.0, 13.0, 13.0, 13.0, 12.7, 13.0, 13.0, 12.5, 12.0, 12.0, 12.0, 12.0, 12.2, 12.0, 11.0, 12.0, 11.0, 11.0, 12.0, 11.0, 10.7, 11.0, 11.0, 10.0, 10.0, 10.0, 10.0, 10.0, 8.7, 9.0, 9.0, 9.0, 8.5, 8.0, 8.0, 8.0, 8.0, null, 9.0, 13.0, 10.0, 10.0, 10.0, 10.0, 10.5, 10.0, 10.0, 10.0, 10.0, 11.0, 11.0, 11.0, 10.8, 11.0, 11.5, 12.0, 12.0, 12.0, 12.0, 13.0, 12.7, 13.0, 13.0, 13.0, 14.0, 14.0, 13.5, 14.3, 14.0, 13.5, 13.0, 13.0, 13.0, 12.8, 13.0, 13.0, 12.0, 12.0, 12.0, 12.2, 12.0, 12.0, 12.0, 12.0, 12.2, 12.3, 13.0, 16.0, 15.5, 16.0, 16.8, 15.0, 6.7, 8.0, 8.0, 8.0, 9.0, 9.0, 8.7, 9.5, 10.0, 9.5, 9.0, 8.7, 9.0, 9.0, 9.0, 9.0, null, 9.0, 9.0, 8.8, 9.0, 9.0, 10.0, 10.0, 10.0, 10.0, 10.0, 9.7, 9.5, 10.0, 10.0, 10.0, 9.5, null, 9.5, 11.5, 13.0, 13.0, 14.0, 14.0, 16.0, 16.0, 14.8, 13.0, 14.0, 16.5, 17.0, 17.0, 18.0, 18.9, 11.0, 11.5, 11.0, 11.5, 13.0, 12.2, 10.0, 10.0, 11.0, 11.0, 12.0, 12.0, 12.0, 12.5, 12.0, 11.0, 11.0, 10.0, 9.5, 7.2, 3.5, 1.0, 1.0, 0.0, 0.0, null, -0.5, 11.0, 10.5, 9.0, 11.0, 10.0, 10.5, null, 13.5, 15.0, 17.8, 19.5, 22.0, 13.0, 14.0, 14.5, 15.0, 14.3, 14.0, 14.0, 14.0, 13.5, 10.1, 9.0, 11.0, 12.0, 12.7, 11.7, 11.5, 13.5, 12.3, 12.0, 11.7, 11.5, 11.5, 10.5, 8.0, 5.7, 7.5, 10.0, 8.0, 6.5, 5.2, 14.0, 13.5, 12.5, 14.5, 13.5, 12.0, 11.5, 9.0, 6.0, 4.5, 8.2, 10.5, 13.0, 13.5, 14.0, 14.0, 12.7, 10.5, 9.0, 6.5, 12.0, 12.0, 12.5, 11.7, 7.0, 9.5, 11.0, 12.0, 12.8, 11.5, 12.0, 15.0, 13.0, 13.0, 11.0, 10.2, 8.0, 5.5, 5.0, 5.0, 5.0, 4.8, 5.0, 6.0, 6.0, 6.0, 6.0, 6.5, 6.7, 7.0, 8.0, 8.0, 8.0, 9.0, 8.0, 8.5, 9.5, 9.0, 8.5, 9.0, 10.0, 10.2, 10.0, 11.0, 11.0, 11.0, 11.5, 11.0, 12.2, 12.0, 12.5, 12.0, 11.0, 12.0, 13.0, 13.5, 12.2, 14.0, 13.0, 12.0, 13.0, 12.0, 12.0, 12.0, 12.2, 12.0, 10.0, 10.0, 10.0, 11.5, 12.0, 11.0, 12.0, 12.0, 11.5, 11.0, 11.0, 12.0, 12.2, 12.5, 12.0, 13.0, 13.0, 12.0, 12.0, 13.0, 10.8, 12.0, 12.0, 13.5, 11.0, 11.0, 10.7, 11.0, 12.0, 12.0, 12.0, 11.5, 11.0, 10.2, 10.0, 12.0, 10.0, 9.5, 9.0, 9.8, 10.0, 8.0, 6.0, 5.0, 5.0, 4.0, 5.7, 7.0, 10.0, 9.5, 10.0, 11.0, 10.0, 10.7, 10.0, 10.0, 10.5, 10.0, 10.0, 10.0, 9.0, 10.2, 11.0, 10.0, 10.0, 10.5, 11.0, 10.0, 10.8, 10.0, 9.0, 9.0, 10.0, 10.0, 9.0, 8.7, 8.5, 9.0, 9.0, 8.0, 8.0, 8.0, 9.2, 9.0, 8.0, 8.0, 8.0, 8.0, 9.0, 8.2, 8.0, 8.0, 8.0, 8.0, 7.0, 7.5, 6.7, 9.0, 7.0, 7.0, 1.0, 3.0, 3.5, 2.7, 3.0, 6.0, 6.0, 4.0, 4.5, 5.0, 6.0, 6.2, 7.0, 7.0, 6.0, 7.0, 6.0, 7.0, 6.8, 7.0, 6.5, 7.0, 7.0, 8.0, 9.0, 8.0, 9.0, 10.0, 8.0, 9.0, 8.0, 8.2, 9.0, 9.0, 10.0, 9.0, 9.0, 8.5, 6.4, 7.0, 7.0, 7.5, 8.0, 8.0, 6.0, 7.0, 6.0, 8.0, 5.5, 7.0, 6.0, 6.0, 5.8, 6.0, 5.0, 8.0, 5.0, 7.0, 6.0, 5.0, 6.2, 6.0, 5.5, 5.0, 5.0, 6.0, 6.0, 6.0, 8.4, 7.5, 7.0, 7.0, 7.0, 7.5, 7.7, 8.0, 7.0, 7.0, 7.0, 8.0, 8.0, 8.0, 8.4, 9.0, 7.5, 9.0, 9.0, 8.0, 7.5, null, 8.0, 9.0, 7.0, 8.0, 8.0, 8.0, 8.2, 9.0, 8.0, 8.5, 8.0, 8.5, 10.0, 8.7, 10.0, 11.0, 11.0, 10.0, 10.0, 8.2, 8.0, 8.0, 9.0, 10.0, 10.5, 10.5]}