{"type": "Feature", "properties": {"leg_id": 65, "name": "20230927 - Carnarvon to Monkey Mia", "stated_nm": 67.5, "computed_nm": 67.5}, "geometry": {"type": "LineString", "coordinates": [[113.650609, -24.89923], [113.651365, -24.901514], [113.651411, -24.904178], [113.651605, -24.906536], [113.650841, -24.908114], [113.648583, -24.910215], [113.646904, -24.910136], [113.643484, -24.9093], [113.639679, -24.908227], [113.637792, -24.907615], [113.635273, -24.906654], [113.633171, -24.90566], [113.630937, -24.905992], [113.622825, -24.908765], [113.616528, -24.911168], [113.611357, -24.912917], [113.608566, -24.914132], [113.601977, -24.91987], [113.594728, -24.926017], [113.594088, -24.926872], [113.591617, -24.93686], [113.589112, -24.946997], [113.588477, -24.949258], [113.587678, -24.951652], [113.585435, -24.959152], [113.58258, -24.967182], [113.580595, -24.97224], [113.577873, -24.978627], [113.576167, -24.983165], [113.569448, -24.998095], [113.565112, -25.007478], [113.564304, -25.009208], [113.556977, -25.025863], [113.555567, -25.029279], [113.548567, -25.045127], [113.543398, -25.056235], [113.542109, -25.05924], [113.541278, -25.072255], [113.541807, -25.085152], [113.54243, -25.0954], [113.542469, -25.097148], [113.543, -25.106637], [113.543042, -25.108441], [113.543398, -25.114192], [113.544062, -25.131813], [113.544461, -25.134045], [113.54796, -25.159162], [113.549667, -25.170552], [113.551682, -25.185343], [113.552853, -25.194895], [113.554257, -25.207845], [113.554654, -25.210065], [113.555418, -25.215353], [113.559798, -25.24154], [113.565303, -25.277282], [113.569555, -25.302622], [113.57182, -25.317457], [113.572118, -25.319956], [113.575862, -25.345283], [113.576316, -25.348913], [113.577813, -25.35963], [113.578395, -25.364948], [113.580633, -25.380695], [113.581017, -25.383811], [113.581808, -25.406], [113.581762, -25.409776], [113.581757, -25.415408], [113.581435, -25.434452], [113.58144, -25.438301], [113.581097, -25.45], [113.580707, -25.463072], [113.580552, -25.465392], [113.580042, -25.469892], [113.579717, -25.471312], [113.579455, -25.472741], [113.579318, -25.473318], [113.576497, -25.498087], [113.576257, -25.500687], [113.572718, -25.518845], [113.571861, -25.523236], [113.568187, -25.5409], [113.567603, -25.544281], [113.565948, -25.556683], [113.565083, -25.568085], [113.563717, -25.581738], [113.563346, -25.583024], [113.562652, -25.586732], [113.562048, -25.592447], [113.561482, -25.603375], [113.563103, -25.612797], [113.563908, -25.615118], [113.564752, -25.616295], [113.565401, -25.615946], [113.564128, -25.618731], [113.563649, -25.618053], [113.561934, -25.616513], [113.561537, -25.615457], [113.561483, -25.614518], [113.565082, -25.606068], [113.566808, -25.601899], [113.570253, -25.595308], [113.572738, -25.591538], [113.574756, -25.587972], [113.578795, -25.577602], [113.58295, -25.56806], [113.584367, -25.565104], [113.586417, -25.560959], [113.588883, -25.556617], [113.594307, -25.550533], [113.595764, -25.550494], [113.598296, -25.551562], [113.602987, -25.555565], [113.616643, -25.566983], [113.619921, -25.569868], [113.6252, -25.576541], [113.630138, -25.586847], [113.634218, -25.596252], [113.642212, -25.616488], [113.643094, -25.618883], [113.646928, -25.63047], [113.655647, -25.654652], [113.661645, -25.669863], [113.662006, -25.6709], [113.662859, -25.672937], [113.66355, -25.67474], [113.664264, -25.676463], [113.665601, -25.679592], [113.669538, -25.688658], [113.671875, -25.694002], [113.673518, -25.697653], [113.675453, -25.70198], [113.680615, -25.713563], [113.682327, -25.716976], [113.686398, -25.728313], [113.688785, -25.737907], [113.689175, -25.739698], [113.689668, -25.741503], [113.692152, -25.752253], [113.693479, -25.756104], [113.702818, -25.77317], [113.703446, -25.774079], [113.706778, -25.779505], [113.708587, -25.782208], [113.71185, -25.787487], [113.712842, -25.788696], [113.714926, -25.790772], [113.716882, -25.791508], [113.719099, -25.791935], [113.720286, -25.791501]]}, "times": ["2023-09-27T05:41:23+00:00", "2023-09-27T23:26:49+00:00", "2023-09-27T23:28:10+00:00", "2023-09-27T23:30:30+00:00", "2023-09-27T23:31:14+00:00", "2023-09-27T23:34:11+00:00", "2023-09-27T23:35:31+00:00", "2023-09-27T23:38:32+00:00", "2023-09-27T23:40:32+00:00", "2023-09-27T23:41:56+00:00", "2023-09-27T23:44:13+00:00", "2023-09-27T23:45:53+00:00", "2023-09-27T23:48:17+00:00", "2023-09-27T23:53:30+00:00", "2023-09-27T23:58:29+00:00", "2023-09-28T00:02:29+00:00", "2023-09-28T00:05:15+00:00", "2023-09-28T00:12:12+00:00", "2023-09-28T00:20:14+00:00", "2023-09-28T00:21:06+00:00", "2023-09-28T00:30:15+00:00", "2023-09-28T00:39:03+00:00", "2023-09-28T00:42:03+00:00", "2023-09-28T00:43:16+00:00", "2023-09-28T00:49:53+00:00", "2023-09-28T00:57:11+00:00", "2023-09-28T01:01:46+00:00", "2023-09-28T01:07:35+00:00", "2023-09-28T01:11:28+00:00", "2023-09-28T01:25:10+00:00", "2023-09-28T01:33:50+00:00", "2023-09-28T01:36:11+00:00", "2023-09-28T01:50:53+00:00", "2023-09-28T01:56:58+00:00", "2023-09-28T02:09:16+00:00", "2023-09-28T02:20:16+00:00", "2023-09-28T02:26:13+00:00", "2023-09-28T02:34:02+00:00", "2023-09-28T02:43:31+00:00", "2023-09-28T02:51:05+00:00", "2023-09-28T02:52:57+00:00", "2023-09-28T02:59:18+00:00", "2023-09-28T03:01:14+00:00", "2023-09-28T03:04:51+00:00", "2023-09-28T03:17:37+00:00", "2023-09-28T03:20:54+00:00", "2023-09-28T03:37:21+00:00", "2023-09-28T03:45:30+00:00", "2023-09-28T03:55:52+00:00", "2023-09-28T04:02:33+00:00", "2023-09-28T04:11:50+00:00", "2023-09-28T04:14:06+00:00", "2023-09-28T04:16:59+00:00", "2023-09-28T04:35:02+00:00", "2023-09-28T04:59:04+00:00", "2023-09-28T05:15:26+00:00", "2023-09-28T05:24:51+00:00", "2023-09-28T05:27:12+00:00", "2023-09-28T05:41:53+00:00", "2023-09-28T05:46:14+00:00", "2023-09-28T05:50:30+00:00", "2023-09-28T05:53:47+00:00", "2023-09-28T06:03:36+00:00", "2023-09-28T06:07:33+00:00", "2023-09-28T06:20:06+00:00", "2023-09-28T06:25:19+00:00", "2023-09-28T06:27:44+00:00", "2023-09-28T06:39:05+00:00", "2023-09-28T06:44:06+00:00", "2023-09-28T06:49:07+00:00", "2023-09-28T06:58:56+00:00", "2023-09-28T07:01:44+00:00", "2023-09-28T07:05:45+00:00", "2023-09-28T07:08:05+00:00", "2023-09-28T07:09:53+00:00", "2023-09-28T07:10:37+00:00", "2023-09-28T07:32:00+00:00", "2023-09-28T07:36:40+00:00", "2023-09-28T07:50:50+00:00", "2023-09-28T07:59:27+00:00", "2023-09-28T08:11:57+00:00", "2023-09-28T08:17:41+00:00", "2023-09-28T08:24:54+00:00", "2023-09-28T08:33:56+00:00", "2023-09-28T08:44:25+00:00", "2023-09-28T08:46:01+00:00", "2023-09-28T08:48:29+00:00", "2023-09-28T08:53:06+00:00", "2023-09-28T09:01:35+00:00", "2023-09-28T09:09:08+00:00", "2023-09-28T09:11:52+00:00", "2023-09-28T09:14:32+00:00", "2023-09-28T09:22:22+00:00", "2023-09-28T09:26:42+00:00", "2023-09-28T09:30:00+00:00", "2023-09-28T09:32:17+00:00", "2023-09-28T09:33:37+00:00", "2023-09-29T02:20:32+00:00", "2023-09-29T02:29:53+00:00", "2023-09-29T02:35:57+00:00", "2023-09-29T02:37:58+00:00", "2023-09-29T02:42:42+00:00", "2023-09-29T02:44:26+00:00", "2023-09-29T02:50:56+00:00", "2023-09-29T02:57:40+00:00", "2023-09-29T03:01:57+00:00", "2023-09-29T03:03:41+00:00", "2023-09-29T03:08:34+00:00", "2023-09-29T03:11:22+00:00", "2023-09-29T03:12:10+00:00", "2023-09-29T03:14:31+00:00", "2023-09-29T03:18:19+00:00", "2023-09-29T03:31:06+00:00", "2023-09-29T03:36:59+00:00", "2023-09-29T03:42:07+00:00", "2023-09-29T03:47:00+00:00", "2023-09-29T03:53:21+00:00", "2023-09-29T04:07:27+00:00", "2023-09-29T04:09:55+00:00", "2023-09-29T04:16:53+00:00", "2023-09-29T04:33:20+00:00", "2023-09-29T04:43:42+00:00", "2023-09-29T04:44:22+00:00", "2023-09-29T04:45:58+00:00", "2023-09-29T04:47:34+00:00", "2023-09-29T04:48:27+00:00", "2023-09-29T04:52:11+00:00", "2023-09-29T04:56:48+00:00", "2023-09-29T05:00:57+00:00", "2023-09-29T05:05:22+00:00", "2023-09-29T05:06:58+00:00", "2023-09-29T05:14:11+00:00", "2023-09-29T05:19:04+00:00", "2023-09-29T05:24:16+00:00", "2023-09-29T05:30:33+00:00", "2023-09-29T05:31:45+00:00", "2023-09-29T05:33:02+00:00", "2023-09-29T05:40:39+00:00", "2023-09-29T05:46:08+00:00", "2023-09-29T05:56:10+00:00", "2023-09-29T05:57:19+00:00", "2023-09-29T06:01:08+00:00", "2023-09-29T06:03:16+00:00", "2023-09-29T06:07:25+00:00", "2023-09-29T06:07:57+00:00", "2023-09-29T06:10:37+00:00", "2023-09-29T06:12:06+00:00", "2023-09-29T06:13:18+00:00", "2023-09-29T06:14:22+00:00"], "elevations": [0.0, 0.0, 0.0, 0.0, 0.0, 0.0, 0.0, 0.0, 0.0, 0.0, 0.0, 0.0, 0.0, 0.0, 0.0, 0.0, 0.0, 0.0, 0.0, 0.0, 0.0, 0.0, 0.0, 0.0, 0.0, 0.0, 0.0, 0.0, 0.0, 0.0, 0.0, 0.0, 0.0, 0.0, 0.0, 0.0, 0.0, 0.0, 0.0, 0.0, 0.0, 0.0, 0.0, 0.0, 0.0, 0.0, 0.0, 0.0, 0.0, 0.0, 0.0, 0.0, 0.0, 0.0, 0.0, 0.0, 0.0, 0.0, 0.0, 0.0, 0.0, 0.0, 0.0, 0.0, 0.0, 0.0, 0.0, 0.0, 0.0, 0.0, 0.0, 0.0, 0.0, 0.0, 0.0, 0.0, 0.0, 0.0, 0.0, 0.0, 0.0, 0.0, 0.0, 0.0, 0.0, 0.0, 0.0, 0.0, 0.0, 0.0, 0.0, 0.0, 0.0, 0.0, 0.0, 0.0, 0.0, 0.0, 0.0, 0.0, 0.0, 0.0, 0.0, 0.0, 0.0, 0.0, 0.0, 0.0, 0.0, 0.0, 0.0, 0.0, 0.0, 0.0, 0.0, 0.0, 0.0, 0.0, 0.0, 0.0, 0.0, 0.0, 0.0, 0.0, 0.0, 0.0, 0.0, 0.0, 0.0, 0.0, 0.0, 0.0, 0.0, 0.0, 0.0, 0.0, null, 0.0, 0.0, 0.0, 0.0, 0.0, 0.0, 0.0, 0.0, 0.0, 0.0, 0.0, 0.0]}