{"type": "Feature", "properties": {"leg_id": 48, "name": "20230429 - Gold Coast to Brisbane", "stated_nm": 50.1, "computed_nm": 50.1}, "geometry": {"type": "LineString", "coordinates": [[153.42339, -27.94775], [153.422197, -27.950291], [153.420548, -27.949326], [153.420031, -27.947046], [153.420257, -27.944286], [153.420297, -27.941679], [153.420765, -27.939374], [153.42189, -27.937074], [153.422107, -27.935232], [153.421356, -27.932631], [153.420777, -27.930901], [153.41925, -27.929448], [153.417769, -27.9279], [153.416481, -27.925596], [153.415485, -27.923391], [153.414847, -27.921007], [153.414181, -27.918655], [153.413242, -27.91614], [153.41357, -27.913739], [153.414695, -27.911415], [153.416364, -27.90913], [153.418109, -27.906941], [153.419459, -27.905283], [153.419861, -27.901979], [153.419601, -27.89842], [153.418598, -27.895561], [153.417138, -27.892874], [153.414925, -27.889578], [153.414007, -27.886064], [153.413597, -27.882143], [153.414343, -27.87908], [153.414543, -27.875591], [153.414077, -27.872127], [153.412985, -27.868763], [153.411662, -27.865402], [153.40923, -27.862489], [153.406438, -27.859861], [153.403939, -27.856933], [153.401595, -27.853927], [153.400193, -27.851063], [153.39946, -27.847435], [153.399267, -27.84433], [153.399662, -27.840556], [153.401377, -27.837011], [153.403625, -27.834493], [153.405701, -27.831836], [153.407117, -27.828215], [153.407219, -27.82484], [153.408213, -27.821667], [153.409569, -27.818489], [153.410361, -27.815201], [153.411736, -27.811166], [153.412293, -27.80788], [153.411999, -27.804287], [153.411811, -27.800675], [153.412221, -27.797047], [153.412758, -27.793411], [153.413494, -27.789873], [153.414154, -27.785433], [153.414413, -27.782244], [153.416311, -27.779569], [153.418106, -27.77784], [153.42045, -27.775913], [153.423187, -27.773203], [153.425739, -27.770591], [153.427462, -27.768071], [153.429994, -27.765424], [153.432488, -27.76283], [153.434553, -27.760695], [153.43618, -27.75818], [153.437649, -27.756004], [153.438355, -27.753543], [153.438259, -27.750963], [153.437516, -27.748542], [153.435179, -27.745257], [153.433079, -27.744623], [153.428622, -27.74416], [153.426767, -27.744121], [153.422415, -27.744966], [153.419021, -27.745109], [153.415304, -27.745184], [153.411137, -27.745281], [153.407975, -27.747536], [153.404974, -27.749739], [153.403476, -27.751118], [153.401258, -27.75128], [153.399037, -27.750287], [153.39789, -27.74814], [153.397299, -27.745567], [153.396962, -27.743308], [153.396449, -27.74105], [153.395026, -27.738926], [153.392569, -27.738443], [153.389349, -27.738859], [153.386804, -27.739898], [153.383355, -27.740745], [153.380724, -27.741602], [153.379321, -27.743467], [153.37771, -27.745924], [153.375284, -27.747831], [153.37261, -27.749012], [153.370691, -27.749724], [153.368476, -27.74924], [153.367548, -27.747372], [153.367328, -27.744856], [153.366502, -27.742738], [153.365051, -27.739685], [153.363788, -27.737439], [153.361268, -27.734344], [153.359785, -27.732314], [153.358125, -27.72954], [153.356029, -27.726288], [153.354956, -27.723282], [153.354633, -27.720805], [153.354999, -27.718786], [153.356428, -27.716232], [153.357902, -27.71401], [153.359716, -27.711892], [153.359807, -27.709339], [153.359752, -27.70603], [153.359272, -27.702509], [153.359627, -27.700162], [153.360752, -27.69714], [153.362039, -27.695036], [153.363668, -27.691805], [153.364521, -27.688373], [153.365292, -27.686085], [153.365958, -27.683994], [153.365722, -27.680997], [153.364816, -27.678982], [153.363046, -27.676473], [153.361716, -27.673956], [153.360835, -27.671641], [153.360437, -27.668806], [153.360115, -27.665347], [153.35967, -27.66264], [153.359242, -27.66012], [153.359505, -27.656409], [153.359649, -27.652934], [153.360644, -27.650116], [153.361218, -27.647298], [153.360779, -27.644335], [153.360085, -27.640557], [153.35873, -27.637544], [153.358668, -27.635655], [153.360758, -27.634156], [153.364024, -27.633425], [153.367753, -27.633296], [153.371346, -27.633481], [153.374837, -27.633977], [153.377861, -27.634653], [153.380984, -27.635452], [153.382898, -27.63588], [153.386133, -27.635697], [153.388436, -27.635478], [153.391106, -27.635283], [153.393402, -27.635046], [153.395228, -27.63354], [153.397278, -27.631957], [153.399276, -27.629745], [153.401232, -27.62715], [153.402681, -27.62529], [153.404731, -27.626157], [153.407421, -27.628342], [153.410271, -27.630757], [153.412177, -27.632544], [153.415209, -27.635583], [153.416696, -27.636071], [153.416924, -27.635718], [153.41309, -27.632314], [153.410652, -27.630254], [153.407845, -27.627955], [153.405068, -27.625722], [153.40344, -27.623596], [153.403361, -27.620959], [153.403143, -27.617823], [153.403008, -27.614129], [153.402981, -27.610686], [153.402863, -27.607343], [153.402726, -27.603664], [153.402503, -27.600879], [153.40242, -27.597926], [153.402805, -27.59427], [153.402883, -27.591151], [153.403695, -27.588266], [153.404643, -27.585447], [153.406097, -27.58187], [153.406565, -27.579225], [153.405891, -27.576499], [153.40487, -27.572983], [153.404181, -27.570249], [153.403467, -27.566161], [153.402885, -27.562175], [153.402135, -27.559005], [153.400045, -27.555641], [153.397786, -27.55214], [153.395752, -27.548973], [153.393738, -27.545774], [153.392146, -27.543333], [153.389732, -27.539534], [153.387979, -27.536679], [153.386214, -27.53377], [153.384309, -27.530738], [153.382408, -27.527726], [153.380765, -27.525092], [153.378521, -27.521752], [153.376713, -27.518988], [153.374383, -27.515376], [153.372251, -27.511986], [153.37034, -27.51038], [153.367831, -27.50958], [153.364363, -27.50805], [153.362324, -27.507692], [153.359291, -27.507664], [153.357533, -27.507713], [153.357292, -27.507944], [153.359405, -27.512439], [153.35894, -27.514282], [153.357268, -27.517378], [153.355424, -27.520188], [153.352965, -27.520717], [153.348666, -27.521277], [153.345636, -27.521591], [153.342626, -27.521688], [153.340275, -27.520763], [153.336797, -27.518898], [153.333097, -27.516832], [153.330922, -27.51543], [153.326652, -27.512031], [153.323541, -27.509502], [153.319764, -27.506687], [153.31676, -27.504539], [153.312828, -27.501394], [153.310372, -27.499499], [153.306938, -27.496596], [153.303967, -27.49443], [153.301428, -27.4923], [153.298834, -27.49015], [153.295258, -27.487201], [153.292617, -27.485062], [153.289366, -27.482643], [153.286993, -27.48069], [153.283539, -27.478033], [153.281044, -27.476114], [153.278366, -27.473852], [153.275625, -27.470353], [153.274212, -27.468533], [153.27227, -27.466017], [153.269679, -27.462709], [153.268055, -27.460516], [153.264678, -27.456145], [153.262041, -27.452743], [153.260219, -27.450279], [153.257943, -27.447164], [153.255746, -27.44559], [153.252788, -27.444787], [153.249947, -27.444054], [153.247164, -27.443525], [153.24442, -27.443915], [153.240799, -27.444124], [153.23702, -27.444316], [153.232885, -27.44448], [153.229588, -27.444547], [153.225776, -27.444592], [153.222569, -27.444634], [153.217934, -27.444615], [153.214851, -27.444573], [153.210155, -27.444643], [153.207838, -27.444679], [153.204853, -27.445061], [153.202724, -27.446289], [153.199452, -27.447687], [153.196228, -27.449181], [153.193377, -27.450714], [153.191533, -27.452999], [153.1907, -27.455624], [153.191966, -27.456939], [153.191967, -27.457025]]}, "times": ["2023-04-29T07:04:18+00:00", "2023-04-30T00:03:02+00:00", "2023-04-30T00:04:02+00:00", "2023-04-30T00:05:51+00:00", "2023-04-30T00:07:11+00:00", "2023-04-30T00:08:51+00:00", "2023-04-30T00:10:07+00:00", "2023-04-30T00:11:45+00:00", "2023-04-30T00:12:51+00:00", "2023-04-30T00:15:33+00:00", "2023-04-30T00:17:37+00:00", "2023-04-30T00:19:10+00:00", "2023-04-30T00:21:45+00:00", "2023-04-30T00:23:55+00:00", "2023-04-30T00:26:44+00:00", "2023-04-30T00:28:54+00:00", "2023-04-30T00:30:33+00:00", "2023-04-30T00:32:49+00:00", "2023-04-30T00:35:01+00:00", "2023-04-30T00:36:51+00:00", "2023-04-30T00:38:51+00:00", "2023-04-30T00:41:10+00:00", "2023-04-30T00:43:26+00:00", "2023-04-30T00:46:18+00:00", "2023-04-30T00:49:18+00:00", "2023-04-30T00:51:45+00:00", "2023-04-30T00:54:59+00:00", "2023-04-30T00:58:53+00:00", "2023-04-30T01:00:54+00:00", "2023-04-30T01:04:51+00:00", "2023-04-30T01:06:52+00:00", "2023-04-30T01:10:52+00:00", "2023-04-30T01:12:52+00:00", "2023-04-30T01:15:53+00:00", "2023-04-30T01:18:53+00:00", "2023-04-30T01:21:45+00:00", "2023-04-30T01:24:54+00:00", "2023-04-30T01:28:54+00:00", "2023-04-30T01:30:54+00:00", "2023-04-30T01:33:59+00:00", "2023-04-30T01:36:54+00:00", "2023-04-30T01:38:54+00:00", "2023-04-30T01:41:45+00:00", "2023-04-30T01:44:55+00:00", "2023-04-30T01:47:55+00:00", "2023-04-30T01:49:55+00:00", "2023-04-30T01:52:55+00:00", "2023-04-30T01:55:59+00:00", "2023-04-30T01:57:59+00:00", "2023-04-30T02:00:59+00:00", "2023-04-30T02:02:59+00:00", "2023-04-30T02:06:56+00:00", "2023-04-30T02:08:56+00:00", "2023-04-30T02:10:56+00:00", "2023-04-30T02:13:56+00:00", "2023-04-30T02:15:56+00:00", "2023-04-30T02:18:56+00:00", "2023-04-30T02:20:56+00:00", "2023-04-30T02:24:56+00:00", "2023-04-30T02:26:57+00:00", "2023-04-30T02:28:57+00:00", "2023-04-30T02:30:02+00:00", "2023-04-30T02:32:11+00:00", "2023-04-30T02:34:57+00:00", "2023-04-30T02:37:12+00:00", "2023-04-30T02:39:29+00:00", "2023-04-30T02:41:45+00:00", "2023-04-30T02:44:59+00:00", "2023-04-30T02:46:46+00:00", "2023-04-30T02:48:59+00:00", "2023-04-30T02:50:59+00:00", "2023-04-30T02:52:59+00:00", "2023-04-30T02:55:09+00:00", "2023-04-30T02:57:21+00:00", "2023-04-30T03:00:06+00:00", "2023-04-30T03:01:57+00:00", "2023-04-30T03:04:55+00:00", "2023-04-30T03:05:31+00:00", "2023-04-30T03:08:00+00:00", "2023-04-30T03:09:57+00:00", "2023-04-30T03:11:58+00:00", "2023-04-30T03:14:05+00:00", "2023-04-30T03:16:14+00:00", "2023-04-30T03:19:00+00:00", "2023-04-30T03:19:44+00:00", "2023-04-30T03:21:00+00:00", "2023-04-30T03:22:20+00:00", "2023-04-30T03:24:01+00:00", "2023-04-30T03:25:09+00:00", "2023-04-30T03:27:01+00:00", "2023-04-30T03:28:03+00:00", "2023-04-30T03:29:50+00:00", "2023-04-30T03:31:10+00:00", "2023-04-30T03:33:03+00:00", "2023-04-30T03:34:51+00:00", "2023-04-30T03:36:16+00:00", "2023-04-30T03:38:03+00:00", "2023-04-30T03:39:17+00:00", "2023-04-30T03:41:03+00:00", "2023-04-30T03:42:25+00:00", "2023-04-30T03:44:50+00:00", "2023-04-30T03:46:07+00:00", "2023-04-30T03:47:35+00:00", "2023-04-30T03:48:59+00:00", "2023-04-30T03:50:06+00:00", "2023-04-30T03:51:32+00:00", "2023-04-30T03:53:06+00:00", "2023-04-30T03:54:21+00:00", "2023-04-30T03:57:07+00:00", "2023-04-30T03:58:07+00:00", "2023-04-30T03:59:07+00:00", "2023-04-30T04:02:00+00:00", "2023-04-30T04:03:31+00:00", "2023-04-30T04:05:04+00:00", "2023-04-30T04:06:07+00:00", "2023-04-30T04:07:07+00:00", "2023-04-30T04:09:07+00:00", "2023-04-30T04:10:08+00:00", "2023-04-30T04:11:41+00:00", "2023-04-30T04:14:04+00:00", "2023-04-30T04:15:27+00:00", "2023-04-30T04:16:15+00:00", "2023-04-30T04:18:05+00:00", "2023-04-30T04:19:05+00:00", "2023-04-30T04:21:08+00:00", "2023-04-30T04:23:45+00:00", "2023-04-30T04:24:46+00:00", "2023-04-30T04:26:13+00:00", "2023-04-30T04:27:18+00:00", "2023-04-30T04:29:03+00:00", "2023-04-30T04:30:31+00:00", "2023-04-30T04:32:00+00:00", "2023-04-30T04:33:52+00:00", "2023-04-30T04:35:13+00:00", "2023-04-30T04:37:14+00:00", "2023-04-30T04:39:13+00:00", "2023-04-30T04:40:38+00:00", "2023-04-30T04:43:03+00:00", "2023-04-30T04:45:11+00:00", "2023-04-30T04:46:32+00:00", "2023-04-30T04:48:15+00:00", "2023-04-30T04:50:15+00:00", "2023-04-30T04:52:21+00:00", "2023-04-30T04:54:22+00:00", "2023-04-30T04:56:06+00:00", "2023-04-30T04:57:23+00:00", "2023-04-30T04:59:15+00:00", "2023-04-30T05:01:15+00:00", "2023-04-30T05:03:15+00:00", "2023-04-30T05:05:17+00:00", "2023-04-30T05:07:21+00:00", "2023-04-30T05:09:09+00:00", "2023-04-30T05:10:17+00:00", "2023-04-30T05:12:02+00:00", "2023-04-30T05:13:17+00:00", "2023-04-30T05:14:59+00:00", "2023-04-30T05:16:17+00:00", "2023-04-30T05:18:17+00:00", "2023-04-30T05:19:17+00:00", "2023-04-30T05:21:21+00:00", "2023-04-30T05:24:21+00:00", "2023-04-30T05:25:38+00:00", "2023-04-30T05:27:29+00:00", "2023-04-30T05:28:59+00:00", "2023-04-30T05:30:59+00:00", "2023-04-30T05:32:15+00:00", "2023-04-30T05:34:40+00:00", "2023-04-30T05:37:15+00:00", "2023-04-30T14:50:20+00:00", "2023-05-01T01:13:21+00:00", "2023-05-01T01:15:21+00:00", "2023-05-01T01:17:21+00:00", "2023-05-01T01:19:21+00:00", "2023-05-01T01:20:21+00:00", "2023-05-01T01:22:17+00:00", "2023-05-01T01:23:41+00:00", "2023-05-01T01:25:53+00:00", "2023-05-01T01:27:41+00:00", "2023-05-01T01:29:21+00:00", "2023-05-01T01:31:26+00:00", "2023-05-01T01:33:21+00:00", "2023-05-01T01:34:59+00:00", "2023-05-01T01:36:55+00:00", "2023-05-01T01:38:27+00:00", "2023-05-01T01:40:21+00:00", "2023-05-01T01:42:22+00:00", "2023-05-01T01:44:22+00:00", "2023-05-01T01:45:22+00:00", "2023-05-01T01:47:22+00:00", "2023-05-01T01:49:22+00:00", "2023-05-01T01:50:22+00:00", "2023-05-01T01:52:30+00:00", "2023-05-01T01:55:22+00:00", "2023-05-01T01:56:22+00:00", "2023-05-01T01:58:22+00:00", "2023-05-01T02:01:15+00:00", "2023-05-01T02:03:22+00:00", "2023-05-01T02:05:22+00:00", "2023-05-01T02:06:22+00:00", "2023-05-01T02:09:23+00:00", "2023-05-01T02:11:15+00:00", "2023-05-01T02:13:23+00:00", "2023-05-01T02:15:23+00:00", "2023-05-01T02:17:23+00:00", "2023-05-01T02:18:51+00:00", "2023-05-01T02:21:15+00:00", "2023-05-01T02:22:21+00:00", "2023-05-01T02:25:22+00:00", "2023-05-01T02:27:28+00:00", "2023-05-01T02:28:21+00:00", "2023-05-01T02:30:22+00:00", "2023-05-01T02:33:27+00:00", "2023-05-01T02:35:27+00:00", "2023-05-01T02:37:30+00:00", "2023-05-01T02:40:22+00:00", "2023-05-01T17:39:30+00:00", "2023-05-02T01:24:22+00:00", "2023-05-02T01:25:29+00:00", "2023-05-02T01:27:10+00:00", "2023-05-02T01:29:29+00:00", "2023-05-02T01:31:11+00:00", "2023-05-02T01:32:51+00:00", "2023-05-02T01:34:38+00:00", "2023-05-02T01:36:16+00:00", "2023-05-02T01:37:27+00:00", "2023-05-02T01:39:31+00:00", "2023-05-02T01:41:57+00:00", "2023-05-02T01:43:13+00:00", "2023-05-02T01:46:28+00:00", "2023-05-02T01:48:35+00:00", "2023-05-02T01:50:30+00:00", "2023-05-02T01:52:03+00:00", "2023-05-02T01:55:33+00:00", "2023-05-02T01:56:33+00:00", "2023-05-02T01:59:34+00:00", "2023-05-02T02:00:52+00:00", "2023-05-02T02:02:34+00:00", "2023-05-02T02:04:35+00:00", "2023-05-02T02:07:35+00:00", "2023-05-02T02:08:35+00:00", "2023-05-02T02:11:30+00:00", "2023-05-02T02:12:35+00:00", "2023-05-02T02:15:03+00:00", "2023-05-02T02:16:36+00:00", "2023-05-02T02:18:36+00:00", "2023-05-02T02:21:30+00:00", "2023-05-02T02:22:33+00:00", "2023-05-02T02:24:17+00:00", "2023-05-02T02:26:32+00:00", "2023-05-02T02:27:34+00:00", "2023-05-02T02:31:30+00:00", "2023-05-02T02:34:27+00:00", "2023-05-02T02:35:34+00:00", "2023-05-02T02:38:10+00:00", "2023-05-02T02:39:24+00:00", "2023-05-02T02:41:28+00:00", "2023-05-02T02:43:35+00:00", "2023-05-02T02:45:36+00:00", "2023-05-02T02:47:33+00:00", "2023-05-02T02:49:36+00:00", "2023-05-02T02:51:54+00:00", "2023-05-02T02:54:39+00:00", "2023-05-02T02:56:39+00:00", "2023-05-02T02:59:42+00:00", "2023-05-02T03:01:08+00:00", "2023-05-02T03:04:42+00:00", "2023-05-02T03:06:42+00:00", "2023-05-02T03:09:39+00:00", "2023-05-02T03:10:41+00:00", "2023-05-02T03:12:41+00:00", "2023-05-02T03:14:04+00:00", "2023-05-02T03:16:41+00:00", "2023-05-02T03:18:41+00:00", "2023-05-02T03:20:41+00:00", "2023-05-02T03:22:41+00:00", "2023-05-02T03:24:45+00:00", "2023-05-02T03:27:41+00:00", "2023-05-03T03:06:01+00:00"], "elevations": [null, null, null, null, null, null, null, null, null, null, null, null, null, null, null, null, null, null, null, null, null, null, null, null, null, null, null, null, null, null, null, null, null, null, null, null, null, null, null, null, null, null, null, null, null, null, null, null, null, null, null, null, null, null, null, null, null, null, null, null, null, null, null, null, null, null, null, null, null, null, null, null, null, null, null, null, null, null, null, null, null, null, null, null, null, null, null, null, null, null, null, null, null, null, null, null, null, null, null, null, null, null, null, null, null, null, null, null, null, null, null, null, null, null, null, null, null, null, null, null, null, null, null, null, 61.6, null, 12.0, 12.0, 11.0, 20.5, 22.5, 10.2, 9.0, 16.5, 8.5, 5.0, 6.0, 9.5, 5.5, 12.0, 13.0, 12.3, 9.7, 10.5, 12.0, 12.5, 24.5, 0.2, 6.5, 38.0, null, 12.0, 12.0, 10.0, 32.9, 16.0, 11.0, 27.0, 3.5, 4.2, 5.0, 6.0, 0.5, -3.0, -3.5, -3.7, -2.0, 6.0, 5.6, 9.0, 19.0, 17.5, 17.0, 7.0, 7.7, 7.0, 7.5, 6.0, 30.5, 13.2, 17.0, 8.0, 7.5, 9.0, 8.0, 8.2, 7.5, 7.0, 7.0, 3.0, 1.2, 3.0, 7.5, 4.0, 3.5, 4.7, 4.5, 5.0, 5.0, 5.0, 8.7, 4.0, 4.0, 3.0, 12.0, 9.2, 8.5, 8.0, 9.0, 7.5, 2.6, -0.5, 0.5, 0.0, 2.0, 9.9, null, 3.0, 4.5, 13.0, 6.7, 0.5, 2.0, 4.0, 5.0, 5.0, 4.4, 5.0, 15.0, 14.5, 14.0, 6.8, 13.0, 3.0, 17.0, -3.4, 12.0, 10.3, 9.5, 2.0, 2.7, 3.0, 4.0, 9.5, 9.0, 8.7, 8.0, 8.5, 8.0, 15.0, 4.7, 1.0, 4.5, 8.0, 7.0, 7.7, 12.3, 10.0, 11.5, 10.0, 6.7, 4.0, 4.5, 9.0, 14.3, 6.0, 13.0, 10.0, 10.5, 13.0, 14.0, 14.0, 8.3, 21.0, 14.5, 15.0, 7.5, 17.0]}