{"type": "Feature", "properties": {"leg_id": 12, "name": "20200616 - Maui to Honolulu", "stated_nm": 93.6, "computed_nm": 93.6}, "geometry": {"type": "LineString", "coordinates": [[-156.684713, 20.870009], [-156.687447, 20.867875], [-156.689248, 20.866836], [-156.689414, 20.864216], [-156.689107, 20.86201], [-156.688234, 20.859626], [-156.685327, 20.854313], [-156.683152, 20.851843], [-156.681088, 20.84968], [-156.679857, 20.847389], [-156.678683, 20.845322], [-156.674638, 20.838963], [-156.673246, 20.836944], [-156.671412, 20.834002], [-156.66631, 20.826638], [-156.665125, 20.824815], [-156.663255, 20.821852], [-156.660007, 20.817093], [-156.657312, 20.814377], [-156.653455, 20.810662], [-156.648925, 20.806532], [-156.646972, 20.804447], [-156.64408, 20.801714], [-156.641732, 20.799713], [-156.633062, 20.792863], [-156.632216, 20.792164], [-156.624562, 20.785628], [-156.621633, 20.783054], [-156.61909, 20.779587], [-156.62655, 20.77791], [-156.6302, 20.777223], [-156.633646, 20.776415], [-156.646821, 20.773848], [-156.649573, 20.773292], [-156.654164, 20.772537], [-156.658961, 20.771906], [-156.662485, 20.771505], [-156.676175, 20.769685], [-156.677167, 20.769542], [-156.691025, 20.767808], [-156.69374, 20.767468], [-156.70037, 20.766798], [-156.704664, 20.766256], [-156.707202, 20.766016], [-156.711507, 20.765522], [-156.71637, 20.765158], [-156.725825, 20.764343], [-156.731978, 20.76403], [-156.734726, 20.763798], [-156.7369, 20.76395], [-156.738838, 20.764657], [-156.74096, 20.764547], [-156.743257, 20.764051], [-156.74574, 20.763473], [-156.748849, 20.76191], [-156.752033, 20.761024], [-156.754306, 20.760669], [-156.759848, 20.761085], [-156.763086, 20.761109], [-156.766912, 20.760941], [-156.769395, 20.760666], [-156.77479, 20.759758], [-156.779428, 20.759133], [-156.781415, 20.75908], [-156.78412, 20.758772], [-156.791203, 20.75805], [-156.794112, 20.757648], [-156.797728, 20.75726], [-156.805113, 20.75787], [-156.811573, 20.758163], [-156.81838, 20.758572], [-156.819971, 20.758634], [-156.820328, 20.759931], [-156.819025, 20.762031], [-156.817694, 20.763571], [-156.818204, 20.763578], [-156.822454, 20.761598], [-156.824571, 20.760732], [-156.829742, 20.758105], [-156.830678, 20.757892], [-156.833076, 20.756073], [-156.834283, 20.755631], [-156.835777, 20.754847], [-156.8395, 20.751458], [-156.842115, 20.750291], [-156.849087, 20.748212], [-156.853131, 20.746941], [-156.855723, 20.746446], [-156.859218, 20.745372], [-156.86746, 20.741083], [-156.870009, 20.7391], [-156.872456, 20.737463], [-156.874583, 20.736101], [-156.876847, 20.735987], [-156.879478, 20.737023], [-156.881852, 20.73812], [-156.884328, 20.740317], [-156.88613, 20.74192], [-156.886018, 20.741596], [-156.885131, 20.739185], [-156.884937, 20.737317], [-156.886727, 20.732932], [-156.888699, 20.730864], [-156.891252, 20.729705], [-156.89358, 20.729182], [-156.895909, 20.729078], [-156.899007, 20.728507], [-156.901321, 20.728427], [-156.904252, 20.728571], [-156.906088, 20.728901], [-156.908837, 20.729243], [-156.91138, 20.72941], [-156.913627, 20.72935], [-156.915739, 20.729413], [-156.918842, 20.728999], [-156.921868, 20.728496], [-156.925857, 20.72743], [-156.928044, 20.726904], [-156.931003, 20.726188], [-156.935173, 20.724611], [-156.937513, 20.724043], [-156.939555, 20.72349], [-156.941516, 20.722572], [-156.943504, 20.722013], [-156.945262, 20.721553], [-156.948015, 20.720987], [-156.950623, 20.721215], [-156.952171, 20.720998], [-156.955027, 20.720808], [-156.956563, 20.721039], [-156.959065, 20.722022], [-156.960287, 20.722743], [-156.961755, 20.7236], [-156.963159, 20.724569], [-156.964691, 20.725767], [-156.965928, 20.727406], [-156.967012, 20.729015], [-156.968167, 20.730759], [-156.969215, 20.733087], [-156.970152, 20.735025], [-156.971495, 20.736662], [-156.972684, 20.737943], [-156.973831, 20.739146], [-156.975146, 20.74032], [-156.977239, 20.743061], [-156.978288, 20.744288], [-156.979854, 20.745697], [-156.981146, 20.747058], [-156.982364, 20.748167], [-156.983703, 20.749022], [-156.985101, 20.750465], [-156.986509, 20.752414], [-156.987267, 20.753624], [-156.987942, 20.755292], [-156.988918, 20.759188], [-156.990261, 20.76234], [-156.991519, 20.765022], [-156.99252, 20.767184], [-156.99346, 20.769264], [-156.99319, 20.770902], [-156.993584, 20.773646], [-156.994234, 20.776203], [-156.99459, 20.778243], [-156.995078, 20.780822], [-156.995141, 20.783033], [-156.995206, 20.78542], [-156.99457, 20.787218], [-156.993185, 20.789645], [-156.991725, 20.789999], [-156.990361, 20.790174], [-156.98982, 20.790273], [-156.994565, 20.792956], [-156.997895, 20.795496], [-156.99915, 20.795705], [-157.000822, 20.795041], [-157.003046, 20.794909], [-157.005301, 20.796027], [-157.007509, 20.797227], [-157.00941, 20.798541], [-157.012179, 20.800663], [-157.015284, 20.803252], [-157.016581, 20.804319], [-157.018746, 20.806172], [-157.021304, 20.808304], [-157.025868, 20.811891], [-157.026996, 20.812998], [-157.028881, 20.814739], [-157.031153, 20.816826], [-157.034711, 20.819853], [-157.04026, 20.824502], [-157.04357, 20.827445], [-157.04558, 20.829239], [-157.049605, 20.83314], [-157.052178, 20.835427], [-157.055367, 20.838155], [-157.056874, 20.839435], [-157.059093, 20.8413], [-157.062708, 20.844622], [-157.065402, 20.847213], [-157.068627, 20.850478], [-157.070857, 20.852857], [-157.07217, 20.854523], [-157.0742, 20.856868], [-157.076038, 20.859102], [-157.077555, 20.860207], [-157.080167, 20.861547], [-157.082372, 20.862705], [-157.085608, 20.864433], [-157.087901, 20.865698], [-157.08876, 20.866168], [-157.09709, 20.870065], [-157.098699, 20.870881], [-157.101029, 20.872159], [-157.103394, 20.873498], [-157.105467, 20.874692], [-157.107043, 20.875612], [-157.108065, 20.876425], [-157.110261, 20.878159], [-157.112145, 20.879655], [-157.115487, 20.881972], [-157.118489, 20.884539], [-157.121216, 20.886488], [-157.124126, 20.888566], [-157.128374, 20.891878], [-157.130084, 20.893189], [-157.131545, 20.894759], [-157.132123, 20.896285], [-157.132323, 20.898339], [-157.133477, 20.899907], [-157.134438, 20.901149], [-157.136078, 20.902556], [-157.13742, 20.904374], [-157.138663, 20.906022], [-157.139866, 20.907428], [-157.141174, 20.908809], [-157.142819, 20.910596], [-157.144318, 20.911817], [-157.145586, 20.912939], [-157.146948, 20.914213], [-157.148203, 20.916169], [-157.148915, 20.917593], [-157.15079, 20.919268], [-157.152022, 20.920725], [-157.153423, 20.922289], [-157.154826, 20.923919], [-157.156008, 20.925264], [-157.157506, 20.927116], [-157.158957, 20.928928], [-157.160758, 20.931012], [-157.162049, 20.932439], [-157.163338, 20.933955], [-157.164165, 20.935092], [-157.166172, 20.938333], [-157.167145, 20.940044], [-157.167995, 20.941887], [-157.168743, 20.943176], [-157.17137, 20.945589], [-157.173601, 20.947622], [-157.174444, 20.948828], [-157.175938, 20.950413], [-157.176863, 20.95138], [-157.17817, 20.952671], [-157.179359, 20.954168], [-157.180995, 20.955988], [-157.182346, 20.958088], [-157.183393, 20.959735], [-157.184241, 20.961119], [-157.185173, 20.962096], [-157.186715, 20.963468], [-157.187515, 20.964854], [-157.188383, 20.966004], [-157.189587, 20.967683], [-157.18969, 20.970198], [-157.19076, 20.971562], [-157.19215, 20.97339], [-157.192999, 20.975187], [-157.193701, 20.977175], [-157.194235, 20.978763], [-157.194522, 20.980571], [-157.195589, 20.981848], [-157.196506, 20.982783], [-157.197378, 20.983891], [-157.198288, 20.985142], [-157.199507, 20.986644], [-157.200861, 20.988143], [-157.201991, 20.989583], [-157.202527, 20.990687], [-157.203168, 20.991923], [-157.203842, 20.992923], [-157.206008, 20.995669], [-157.207314, 20.997393], [-157.20823, 20.998619], [-157.209297, 21.000283], [-157.210339, 21.001614], [-157.211113, 21.002777], [-157.211954, 21.003895], [-157.212854, 21.004972], [-157.213946, 21.006005], [-157.214801, 21.007074], [-157.216352, 21.008487], [-157.217149, 21.009896], [-157.218005, 21.011277], [-157.219179, 21.013427], [-157.219831, 21.014819], [-157.220793, 21.016433], [-157.222017, 21.017848], [-157.223556, 21.01922], [-157.224994, 21.021316], [-157.225162, 21.023335], [-157.225003, 21.02496], [-157.225502, 21.027536], [-157.226387, 21.029023], [-157.227385, 21.031259], [-157.228219, 21.033114], [-157.228875, 21.034267], [-157.229268, 21.035424], [-157.229773, 21.037395], [-157.230549, 21.039234], [-157.230585, 21.041502], [-157.231765, 21.043021], [-157.232676, 21.044337], [-157.234263, 21.046988], [-157.234933, 21.048049], [-157.236026, 21.049869], [-157.238092, 21.051666], [-157.240078, 21.053744], [-157.241911, 21.055046], [-157.243513, 21.056348], [-157.244864, 21.057895], [-157.245646, 21.058617], [-157.248668, 21.0612], [-157.249473, 21.061953], [-157.251537, 21.063754], [-157.253252, 21.06455], [-157.255291, 21.065081], [-157.257258, 21.065357], [-157.259034, 21.065768], [-157.260746, 21.066751], [-157.262697, 21.067349], [-157.265353, 21.068122], [-157.266872, 21.068693], [-157.269689, 21.070017], [-157.271744, 21.070643], [-157.273331, 21.071452], [-157.275392, 21.072122], [-157.276608, 21.072958], [-157.277975, 21.073645], [-157.280528, 21.074851], [-157.281704, 21.075936], [-157.283175, 21.077037], [-157.284471, 21.078131], [-157.285964, 21.07931], [-157.286925, 21.080242], [-157.288335, 21.080978], [-157.289694, 21.081607], [-157.29257, 21.083358], [-157.295778, 21.084968], [-157.297609, 21.085946], [-157.300007, 21.087071], [-157.303572, 21.08914], [-157.307838, 21.091668], [-157.309726, 21.092695], [-157.318203, 21.096723], [-157.319815, 21.097622], [-157.323475, 21.099563], [-157.326299, 21.100569], [-157.328348, 21.10099], [-157.330033, 21.101113], [-157.331627, 21.100704], [-157.333621, 21.100202], [-157.335482, 21.100099], [-157.337721, 21.099985], [-157.338859, 21.099912], [-157.340397, 21.099069], [-157.342244, 21.098842], [-157.344538, 21.101468], [-157.347313, 21.103997], [-157.349907, 21.105722], [-157.352117, 21.107372], [-157.353293, 21.108527], [-157.355052, 21.110177], [-157.355026, 21.111392], [-157.357193, 21.113184], [-157.358877, 21.1141], [-157.360449, 21.114979], [-157.361968, 21.116078], [-157.363684, 21.117236], [-157.364798, 21.118103], [-157.36622, 21.119646], [-157.367469, 21.120524], [-157.369465, 21.122019], [-157.371193, 21.122978], [-157.373258, 21.124125], [-157.375152, 21.125345], [-157.37653, 21.126264], [-157.378966, 21.127683], [-157.380452, 21.128451], [-157.383881, 21.130167], [-157.385542, 21.131044], [-157.387456, 21.132163], [-157.388674, 21.132832], [-157.390501, 21.134324], [-157.393458, 21.137048], [-157.395967, 21.138948], [-157.397528, 21.1397], [-157.401068, 21.140874], [-157.403123, 21.14149], [-157.405131, 21.14222], [-157.409347, 21.143905], [-157.41111, 21.144503], [-157.414129, 21.145693], [-157.417412, 21.147145], [-157.420431, 21.149127], [-157.421989, 21.150032], [-157.425785, 21.152028], [-157.427603, 21.153218], [-157.430349, 21.154625], [-157.432944, 21.155998], [-157.435473, 21.157158], [-157.437692, 21.15828], [-157.439407, 21.158931], [-157.443585, 21.160366], [-157.446998, 21.161817], [-157.449057, 21.162974], [-157.45209, 21.164276], [-157.454466, 21.165158], [-157.457181, 21.166003], [-157.460392, 21.167042], [-157.464988, 21.168337], [-157.467652, 21.169169], [-157.469608, 21.169857], [-157.473812, 21.171258], [-157.476029, 21.172177], [-157.478738, 21.172928], [-157.48152, 21.173925], [-157.483059, 21.174516], [-157.487155, 21.175374], [-157.489384, 21.175866], [-157.491794, 21.176482], [-157.49442, 21.17716], [-157.496371, 21.177654], [-157.498688, 21.178164], [-157.500603, 21.178754], [-157.503346, 21.179632], [-157.506329, 21.180439], [-157.50794, 21.180857], [-157.510694, 21.181576], [-157.513281, 21.182151], [-157.51483, 21.182509], [-157.517099, 21.183286], [-157.518821, 21.183782], [-157.52112, 21.184493], [-157.523015, 21.184999], [-157.52495, 21.185526], [-157.52637, 21.18588], [-157.527641, 21.186257], [-157.530028, 21.186902], [-157.532485, 21.187583], [-157.534451, 21.188122], [-157.53654, 21.188817], [-157.541416, 21.190027], [-157.543195, 21.190621], [-157.544565, 21.190957], [-157.547909, 21.192301], [-157.549693, 21.193183], [-157.552356, 21.194262], [-157.554067, 21.195118], [-157.556631, 21.196233], [-157.558679, 21.19686], [-157.560608, 21.197508], [-157.562674, 21.19823], [-157.565227, 21.199086], [-157.568574, 21.200465], [-157.571931, 21.201591], [-157.574502, 21.202588], [-157.576834, 21.203398], [-157.578667, 21.204001], [-157.58116, 21.204808], [-157.583446, 21.205665], [-157.585334, 21.206577], [-157.588664, 21.207981], [-157.590848, 21.209148], [-157.592503, 21.209978], [-157.593983, 21.210563], [-157.596219, 21.211112], [-157.597687, 21.211606], [-157.600299, 21.212527], [-157.601728, 21.213031], [-157.602861, 21.213396], [-157.604868, 21.214129], [-157.606386, 21.214632], [-157.607969, 21.215288], [-157.610832, 21.216336], [-157.613091, 21.217375], [-157.614776, 21.218194], [-157.615793, 21.218829], [-157.617022, 21.219409], [-157.618536, 21.219932], [-157.620291, 21.220738], [-157.621556, 21.221556], [-157.622909, 21.222477], [-157.624099, 21.223146], [-157.625139, 21.223944], [-157.62634, 21.224894], [-157.62769, 21.226147], [-157.629236, 21.227404], [-157.630973, 21.228578], [-157.632882, 21.230087], [-157.633751, 21.230978], [-157.635052, 21.232374], [-157.63702, 21.233906], [-157.638361, 21.234959], [-157.639707, 21.235597], [-157.640806, 21.236789], [-157.643164, 21.238059], [-157.64475, 21.239247], [-157.646683, 21.240216], [-157.647953, 21.240653], [-157.649278, 21.241279], [-157.650434, 21.241764], [-157.652222, 21.242322], [-157.653837, 21.242749], [-157.655114, 21.243114], [-157.656914, 21.243782], [-157.658601, 21.244578], [-157.659781, 21.245021], [-157.661281, 21.245396], [-157.662913, 21.245756], [-157.664389, 21.246228], [-157.665401, 21.246899], [-157.667273, 21.247391], [-157.669069, 21.247831], [-157.671465, 21.248228], [-157.673263, 21.24854], [-157.67437, 21.248672], [-157.675808, 21.248879], [-157.67716, 21.24887], [-157.678833, 21.248874], [-157.680637, 21.248887], [-157.682985, 21.248764], [-157.684251, 21.248841], [-157.685749, 21.248856], [-157.687102, 21.248897], [-157.688389, 21.24872], [-157.68961, 21.248669], [-157.691462, 21.248513], [-157.692994, 21.248432], [-157.694269, 21.248385], [-157.696052, 21.248236], [-157.697571, 21.248027], [-157.699026, 21.247906], [-157.700871, 21.24794], [-157.702354, 21.24781], [-157.70349, 21.247721], [-157.705173, 21.247637], [-157.707292, 21.247666], [-157.71009, 21.247533], [-157.712803, 21.247529], [-157.714802, 21.247428], [-157.718209, 21.247275], [-157.720605, 21.247382], [-157.722498, 21.247362], [-157.724517, 21.247264], [-157.726073, 21.24704], [-157.727782, 21.246791], [-157.72984, 21.246331], [-157.731865, 21.246008], [-157.734181, 21.245573], [-157.735977, 21.245284], [-157.737371, 21.245167], [-157.739653, 21.245067], [-157.741491, 21.244965], [-157.743839, 21.244806], [-157.745721, 21.244737], [-157.74736, 21.244541], [-157.749072, 21.244426], [-157.75084, 21.244286], [-157.752878, 21.244249], [-157.754858, 21.24419], [-157.756359, 21.244186], [-157.757721, 21.24415], [-157.759335, 21.244267], [-157.761843, 21.244269], [-157.763505, 21.244335], [-157.764956, 21.244356], [-157.766533, 21.244447], [-157.769105, 21.244553], [-157.771841, 21.244513], [-157.773525, 21.244446], [-157.774894, 21.244497], [-157.776828, 21.244509], [-157.779443, 21.24419], [-157.781257, 21.244005], [-157.784113, 21.243882], [-157.786735, 21.243896], [-157.789436, 21.243853], [-157.791962, 21.243664], [-157.793769, 21.243621], [-157.795766, 21.243483], [-157.79808, 21.243217], [-157.799679, 21.243179], [-157.801377, 21.24321], [-157.804727, 21.243124], [-157.806593, 21.243337], [-157.80959, 21.243603], [-157.811014, 21.243911], [-157.81286, 21.244453], [-157.815367, 21.245636], [-157.816379, 21.247375], [-157.817256, 21.248873], [-157.819499, 21.250857], [-157.820815, 21.25209], [-157.82255, 21.253017], [-157.824644, 21.254246], [-157.826648, 21.255723], [-157.828656, 21.257564], [-157.830243, 21.258984], [-157.83226, 21.260796], [-157.833746, 21.262388], [-157.835031, 21.263825], [-157.836668, 21.265798], [-157.838117, 21.267649], [-157.840738, 21.270221], [-157.842564, 21.271739], [-157.844772, 21.273746], [-157.846069, 21.275411], [-157.846208, 21.27732], [-157.845712, 21.280259], [-157.844422, 21.285075], [-157.843668, 21.286076], [-157.841821, 21.286814], [-157.841644, 21.286444]]}, "times": ["2020-06-16T07:59:22+00:00", "2020-06-16T14:19:19+00:00", "2020-06-16T14:21:07+00:00", "2020-06-16T14:23:07+00:00", "2020-06-16T14:25:11+00:00", "2020-06-16T14:27:44+00:00", "2020-06-16T14:32:04+00:00", "2020-06-16T14:34:32+00:00", "2020-06-16T14:36:52+00:00", "2020-06-16T14:37:44+00:00", "2020-06-16T14:40:20+00:00", "2020-06-16T14:45:40+00:00", "2020-06-16T14:47:08+00:00", "2020-06-16T14:49:48+00:00", "2020-06-16T14:55:57+00:00", "2020-06-16T14:58:00+00:00", "2020-06-16T14:59:56+00:00", "2020-06-16T15:03:52+00:00", "2020-06-16T15:05:36+00:00", "2020-06-16T15:09:52+00:00", "2020-06-16T15:13:49+00:00", "2020-06-16T15:15:37+00:00", "2020-06-16T15:18:13+00:00", "2020-06-16T15:20:05+00:00", "2020-06-16T15:26:41+00:00", "2020-06-16T15:28:00+00:00", "2020-06-16T15:33:13+00:00", "2020-06-16T15:37:42+00:00", "2020-06-16T15:38:38+00:00", "2020-06-16T15:43:58+00:00", "2020-06-16T15:46:30+00:00", "2020-06-16T15:49:18+00:00", "2020-06-16T15:58:00+00:00", "2020-06-16T15:59:08+00:00", "2020-06-16T16:04:40+00:00", "2020-06-16T16:08:00+00:00", "2020-06-16T16:08:44+00:00", "2020-06-16T16:18:00+00:00", "2020-06-16T16:18:41+00:00", "2020-06-16T16:28:00+00:00", "2020-06-16T16:29:50+00:00", "2020-06-16T16:34:18+00:00", "2020-06-16T16:36:55+00:00", "2020-06-16T16:38:19+00:00", "2020-06-16T16:43:43+00:00", "2020-06-16T16:47:31+00:00", "2020-06-16T16:52:27+00:00", "2020-06-16T16:56:55+00:00", "2020-06-16T16:59:24+00:00", "2020-06-16T17:00:28+00:00", "2020-06-16T17:01:56+00:00", "2020-06-16T17:03:36+00:00", "2020-06-16T17:05:56+00:00", "2020-06-16T17:08:36+00:00", "2020-06-16T17:11:32+00:00", "2020-06-16T17:17:32+00:00", "2020-06-16T17:18:00+00:00", "2020-06-16T17:21:53+00:00", "2020-06-16T17:23:13+00:00", "2020-06-16T17:27:05+00:00", "2020-06-16T17:28:29+00:00", "2020-06-16T17:31:49+00:00", "2020-06-16T17:35:09+00:00", "2020-06-16T17:38:00+00:00", "2020-06-16T17:40:21+00:00", "2020-06-16T17:45:02+00:00", "2020-06-16T17:46:22+00:00", "2020-06-16T17:49:18+00:00", "2020-06-16T17:54:02+00:00", "2020-06-16T17:58:00+00:00", "2020-06-16T18:02:30+00:00", "2020-06-16T18:04:11+00:00", "2020-06-16T18:07:39+00:00", "2020-06-16T18:09:11+00:00", "2020-06-16T18:10:31+00:00", "2020-06-16T18:15:15+00:00", "2020-06-16T18:20:07+00:00", "2020-06-16T18:21:59+00:00", "2020-06-16T18:27:04+00:00", "2020-06-16T18:31:36+00:00", "2020-06-16T18:33:48+00:00", "2020-06-16T18:36:40+00:00", "2020-06-16T18:38:56+00:00", "2020-06-16T18:43:36+00:00", "2020-06-16T18:44:40+00:00", "2020-06-16T18:51:21+00:00", "2020-06-16T18:54:21+00:00", "2020-06-16T18:58:00+00:00", "2020-06-16T18:59:46+00:00", "2020-06-16T19:07:34+00:00", "2020-06-16T19:11:18+00:00", "2020-06-16T19:11:58+00:00", "2020-06-16T19:15:02+00:00", "2020-06-16T19:17:14+00:00", "2020-06-16T19:18:26+00:00", "2020-06-16T19:20:47+00:00", "2020-06-16T19:26:23+00:00", "2020-06-16T19:26:51+00:00", "2020-06-16T19:55:49+00:00", "2020-06-17T00:22:41+00:00", "2020-06-17T00:23:41+00:00", "2020-06-17T00:26:33+00:00", "2020-06-17T00:27:45+00:00", "2020-06-17T00:29:49+00:00", "2020-06-17T00:31:29+00:00", "2020-06-17T00:33:21+00:00", "2020-06-17T00:34:53+00:00", "2020-06-17T00:37:18+00:00", "2020-06-17T00:39:10+00:00", "2020-06-17T00:40:34+00:00", "2020-06-17T00:42:26+00:00", "2020-06-17T00:43:18+00:00", "2020-06-17T00:45:06+00:00", "2020-06-17T00:46:02+00:00", "2020-06-17T00:48:42+00:00", "2020-06-17T00:49:26+00:00", "2020-06-17T00:53:15+00:00", "2020-06-17T00:54:46+00:00", "2020-06-17T00:55:58+00:00", "2020-06-17T00:58:18+00:00", "2020-06-17T01:00:27+00:00", "2020-06-17T01:01:31+00:00", "2020-06-17T01:03:03+00:00", "2020-06-17T01:04:03+00:00", "2020-06-17T01:05:19+00:00", "2020-06-17T01:08:07+00:00", "2020-06-17T01:09:51+00:00", "2020-06-17T01:10:27+00:00", "2020-06-17T01:13:20+00:00", "2020-06-17T01:14:08+00:00", "2020-06-17T01:16:36+00:00", "2020-06-17T01:17:36+00:00", "2020-06-17T01:19:00+00:00", "2020-06-17T01:20:04+00:00", "2020-06-17T01:22:09+00:00", "2020-06-17T01:23:15+00:00", "2020-06-17T01:25:05+00:00", "2020-06-17T01:26:45+00:00", "2020-06-17T01:29:13+00:00", "2020-06-17T01:30:29+00:00", "2020-06-17T01:31:53+00:00", "2020-06-17T01:32:53+00:00", "2020-06-17T01:34:33+00:00", "2020-06-17T01:35:29+00:00", "2020-06-17T01:37:53+00:00", "2020-06-17T01:39:21+00:00", "2020-06-17T01:41:01+00:00", "2020-06-17T01:42:13+00:00", "2020-06-17T01:43:21+00:00", "2020-06-17T01:44:14+00:00", "2020-06-17T01:46:42+00:00", "2020-06-17T01:48:30+00:00", "2020-06-17T01:49:30+00:00", "2020-06-17T01:51:50+00:00", "2020-06-17T01:55:46+00:00", "2020-06-17T01:57:42+00:00", "2020-06-17T01:58:22+00:00", "2020-06-17T02:00:42+00:00", "2020-06-17T02:02:26+00:00", "2020-06-17T02:03:30+00:00", "2020-06-17T02:05:27+00:00", "2020-06-17T02:08:03+00:00", "2020-06-17T02:09:15+00:00", "2020-06-17T02:11:47+00:00", "2020-06-17T02:13:30+00:00", "2020-06-17T02:15:47+00:00", "2020-06-17T02:17:07+00:00", "2020-06-17T02:20:39+00:00", "2020-06-17T02:21:47+00:00", "2020-06-17T02:23:30+00:00", "2020-06-17T10:37:02+00:00", "2020-06-17T18:29:15+00:00", "2020-06-17T18:32:12+00:00", "2020-06-17T18:33:16+00:00", "2020-06-17T18:34:24+00:00", "2020-06-17T18:35:52+00:00", "2020-06-17T18:38:16+00:00", "2020-06-17T18:40:24+00:00", "2020-06-17T18:42:20+00:00", "2020-06-17T18:43:24+00:00", "2020-06-17T18:48:29+00:00", "2020-06-17T18:49:17+00:00", "2020-06-17T18:51:05+00:00", "2020-06-17T18:55:45+00:00", "2020-06-17T18:57:53+00:00", "2020-06-17T18:59:53+00:00", "2020-06-17T19:01:50+00:00", "2020-06-17T19:05:38+00:00", "2020-06-17T19:09:15+00:00", "2020-06-17T19:15:39+00:00", "2020-06-17T19:18:51+00:00", "2020-06-17T19:19:39+00:00", "2020-06-17T19:27:11+00:00", "2020-06-17T19:29:30+00:00", "2020-06-17T19:31:07+00:00", "2020-06-17T19:33:39+00:00", "2020-06-17T19:35:48+00:00", "2020-06-17T19:40:16+00:00", "2020-06-17T19:46:40+00:00", "2020-06-17T19:49:30+00:00", "2020-06-17T19:51:04+00:00", "2020-06-17T19:56:18+00:00", "2020-06-17T20:00:02+00:00", "2020-06-17T20:03:35+00:00", "2020-06-17T20:06:23+00:00", "2020-06-17T20:09:30+00:00", "2020-06-17T20:11:31+00:00", "2020-06-17T20:17:56+00:00", "2020-06-17T20:19:30+00:00", "2020-06-17T20:20:28+00:00", "2020-06-17T20:29:30+00:00", "2020-06-17T20:31:41+00:00", "2020-06-17T20:33:25+00:00", "2020-06-17T20:38:02+00:00", "2020-06-17T20:40:06+00:00", "2020-06-17T20:42:26+00:00", "2020-06-17T20:44:46+00:00", "2020-06-17T20:46:30+00:00", "2020-06-17T20:49:30+00:00", "2020-06-17T20:51:10+00:00", "2020-06-17T20:53:22+00:00", "2020-06-17T20:57:24+00:00", "2020-06-17T20:59:45+00:00", "2020-06-17T21:02:04+00:00", "2020-06-17T21:03:28+00:00", "2020-06-17T21:05:16+00:00", "2020-06-17T21:06:12+00:00", "2020-06-17T21:08:12+00:00", "2020-06-17T21:09:36+00:00", "2020-06-17T21:10:12+00:00", "2020-06-17T21:11:36+00:00", "2020-06-17T21:12:53+00:00", "2020-06-17T21:14:09+00:00", "2020-06-17T21:15:25+00:00", "2020-06-17T21:16:13+00:00", "2020-06-17T21:17:41+00:00", "2020-06-17T21:18:25+00:00", "2020-06-17T21:19:37+00:00", "2020-06-17T21:20:37+00:00", "2020-06-17T21:22:21+00:00", "2020-06-17T21:23:05+00:00", "2020-06-17T21:24:49+00:00", "2020-06-17T21:26:09+00:00", "2020-06-17T21:27:09+00:00", "2020-06-17T21:28:33+00:00", "2020-06-17T21:29:01+00:00", "2020-06-17T21:30:41+00:00", "2020-06-17T21:31:09+00:00", "2020-06-17T21:33:42+00:00", "2020-06-17T21:35:34+00:00", "2020-06-17T21:36:18+00:00", "2020-06-17T21:37:06+00:00", "2020-06-17T21:39:06+00:00", "2020-06-17T21:40:42+00:00", "2020-06-17T21:42:06+00:00", "2020-06-17T21:42:50+00:00", "2020-06-17T21:45:50+00:00", "2020-06-17T21:47:10+00:00", "2020-06-17T21:48:42+00:00", "2020-06-17T21:49:30+00:00", "2020-06-17T21:50:06+00:00", "2020-06-17T21:51:10+00:00", "2020-06-17T21:52:22+00:00", "2020-06-17T21:53:43+00:00", "2020-06-17T21:55:15+00:00", "2020-06-17T21:56:19+00:00", "2020-06-17T21:57:23+00:00", "2020-06-17T21:58:07+00:00", "2020-06-17T21:59:31+00:00", "2020-06-17T22:00:27+00:00", "2020-06-17T22:01:19+00:00", "2020-06-17T22:02:35+00:00", "2020-06-17T22:03:59+00:00", "2020-06-17T22:05:07+00:00", "2020-06-17T22:06:19+00:00", "2020-06-17T22:07:19+00:00", "2020-06-17T22:08:55+00:00", "2020-06-17T22:09:45+00:00", "2020-06-17T22:10:51+00:00", "2020-06-17T22:11:59+00:00", "2020-06-17T22:12:39+00:00", "2020-06-17T22:13:31+00:00", "2020-06-17T22:14:24+00:00", "2020-06-17T22:15:56+00:00", "2020-06-17T22:16:36+00:00", "2020-06-17T22:18:04+00:00", "2020-06-17T22:18:44+00:00", "2020-06-17T22:19:36+00:00", "2020-06-17T22:20:12+00:00", "2020-06-17T22:22:52+00:00", "2020-06-17T22:23:40+00:00", "2020-06-17T22:24:28+00:00", "2020-06-17T22:26:20+00:00", "2020-06-17T22:26:40+00:00", "2020-06-17T22:27:36+00:00", "2020-06-17T22:28:24+00:00", "2020-06-17T22:29:24+00:00", "2020-06-17T22:30:24+00:00", "2020-06-17T22:31:00+00:00", "2020-06-17T22:32:24+00:00", "2020-06-17T22:33:29+00:00", "2020-06-17T22:34:25+00:00", "2020-06-17T22:36:01+00:00", "2020-06-17T22:36:45+00:00", "2020-06-17T22:38:09+00:00", "2020-06-17T22:39:17+00:00", "2020-06-17T22:40:01+00:00", "2020-06-17T22:41:57+00:00", "2020-06-17T22:43:17+00:00", "2020-06-17T22:43:57+00:00", "2020-06-17T22:45:25+00:00", "2020-06-17T22:46:13+00:00", "2020-06-17T22:47:49+00:00", "2020-06-17T22:49:13+00:00", "2020-06-17T22:49:49+00:00", "2020-06-17T22:50:33+00:00", "2020-06-17T22:51:57+00:00", "2020-06-17T22:53:05+00:00", "2020-06-17T22:54:29+00:00", "2020-06-17T22:56:02+00:00", "2020-06-17T22:56:38+00:00", "2020-06-17T22:58:38+00:00", "2020-06-17T22:59:45+00:00", "2020-06-17T23:01:10+00:00", "2020-06-17T23:03:38+00:00", "2020-06-17T23:05:06+00:00", "2020-06-17T23:06:38+00:00", "2020-06-17T23:08:18+00:00", "2020-06-17T23:09:02+00:00", "2020-06-17T23:09:46+00:00", "2020-06-17T23:12:46+00:00", "2020-06-17T23:13:27+00:00", "2020-06-17T23:15:23+00:00", "2020-06-17T23:16:59+00:00", "2020-06-17T23:19:43+00:00", "2020-06-17T23:20:51+00:00", "2020-06-17T23:22:19+00:00", "2020-06-17T23:24:59+00:00", "2020-06-17T23:26:35+00:00", "2020-06-17T23:28:51+00:00", "2020-06-17T23:30:15+00:00", "2020-06-17T23:33:55+00:00", "2020-06-17T23:35:32+00:00", "2020-06-17T23:36:36+00:00", "2020-06-17T23:39:08+00:00", "2020-06-17T23:39:56+00:00", "2020-06-17T23:41:20+00:00", "2020-06-17T23:43:52+00:00", "2020-06-17T23:45:28+00:00", "2020-06-17T23:46:24+00:00", "2020-06-17T23:48:32+00:00", "2020-06-17T23:50:00+00:00", "2020-06-17T23:51:16+00:00", "2020-06-17T23:52:28+00:00", "2020-06-17T23:53:36+00:00", "2020-06-17T23:56:24+00:00", "2020-06-17T23:59:21+00:00", "2020-06-18T00:01:33+00:00", "2020-06-18T00:04:29+00:00", "2020-06-18T00:06:21+00:00", "2020-06-18T00:09:49+00:00", "2020-06-18T00:11:57+00:00", "2020-06-18T00:18:01+00:00", "2020-06-18T00:19:42+00:00", "2020-06-18T00:22:38+00:00", "2020-06-18T00:24:42+00:00", "2020-06-18T00:27:26+00:00", "2020-06-18T00:31:06+00:00", "2020-06-18T00:34:10+00:00", "2020-06-18T00:35:54+00:00", "2020-06-18T00:38:18+00:00", "2020-06-18T00:41:58+00:00", "2020-06-18T00:44:27+00:00", "2020-06-18T00:47:07+00:00", "2020-06-18T00:50:27+00:00", "2020-06-18T00:53:35+00:00", "2020-06-18T00:55:39+00:00", "2020-06-18T00:58:31+00:00", "2020-06-18T00:59:19+00:00", "2020-06-18T01:00:28+00:00", "2020-06-18T01:02:04+00:00", "2020-06-18T01:03:08+00:00", "2020-06-18T01:04:40+00:00", "2020-06-18T01:05:56+00:00", "2020-06-18T01:07:00+00:00", "2020-06-18T01:08:20+00:00", "2020-06-18T01:09:37+00:00", "2020-06-18T01:10:29+00:00", "2020-06-18T01:14:25+00:00", "2020-06-18T01:16:01+00:00", "2020-06-18T01:17:49+00:00", "2020-06-18T01:18:53+00:00", "2020-06-18T01:20:00+00:00", "2020-06-18T01:21:53+00:00", "2020-06-18T01:23:01+00:00", "2020-06-18T01:24:49+00:00", "2020-06-18T01:25:53+00:00", "2020-06-18T01:27:37+00:00", "2020-06-18T01:29:01+00:00", "2020-06-18T01:30:10+00:00", "2020-06-18T01:31:10+00:00", "2020-06-18T01:32:46+00:00", "2020-06-18T01:34:54+00:00", "2020-06-18T01:36:38+00:00", "2020-06-18T01:38:10+00:00", "2020-06-18T01:39:50+00:00", "2020-06-18T01:41:30+00:00", "2020-06-18T01:42:10+00:00", "2020-06-18T01:44:58+00:00", "2020-06-18T01:47:18+00:00", "2020-06-18T01:48:14+00:00", "2020-06-18T01:51:31+00:00", "2020-06-18T01:54:03+00:00", "2020-06-18T01:55:03+00:00", "2020-06-18T01:58:15+00:00", "2020-06-18T02:00:00+00:00", "2020-06-18T02:03:07+00:00", "2020-06-18T02:03:47+00:00", "2020-06-18T02:05:43+00:00", "2020-06-18T02:07:27+00:00", "2020-06-18T02:07:59+00:00", "2020-06-18T02:13:24+00:00", "2020-06-18T02:15:36+00:00", "2020-06-18T02:16:32+00:00", "2020-06-18T02:18:28+00:00", "2020-06-18T02:20:00+00:00", "2020-06-18T02:22:41+00:00", "2020-06-18T02:23:41+00:00", "2020-06-18T02:28:57+00:00", "2020-06-18T02:30:00+00:00", "2020-06-18T02:31:37+00:00", "2020-06-18T02:34:21+00:00", "2020-06-18T02:36:33+00:00", "2020-06-18T02:37:13+00:00", "2020-06-18T02:40:00+00:00", "2020-06-18T02:40:49+00:00", "2020-06-18T02:43:54+00:00", "2020-06-18T02:45:42+00:00", "2020-06-18T02:47:18+00:00", "2020-06-18T02:50:00+00:00", "2020-06-18T02:51:14+00:00", "2020-06-18T02:53:14+00:00", "2020-06-18T02:54:38+00:00", "2020-06-18T02:56:22+00:00", "2020-06-18T02:58:18+00:00", "2020-06-18T03:00:00+00:00", "2020-06-18T03:00:46+00:00", "2020-06-18T03:03:23+00:00", "2020-06-18T03:04:35+00:00", "2020-06-18T03:06:15+00:00", "2020-06-18T03:07:07+00:00", "2020-06-18T03:09:03+00:00", "2020-06-18T03:11:19+00:00", "2020-06-18T03:12:07+00:00", "2020-06-18T03:13:31+00:00", "2020-06-18T03:14:19+00:00", "2020-06-18T03:15:27+00:00", "2020-06-18T03:17:55+00:00", "2020-06-18T03:19:35+00:00", "2020-06-18T03:22:00+00:00", "2020-06-18T03:24:40+00:00", "2020-06-18T03:26:40+00:00", "2020-06-18T03:27:40+00:00", "2020-06-18T03:30:32+00:00", "2020-06-18T03:32:52+00:00", "2020-06-18T03:34:40+00:00", "2020-06-18T03:36:12+00:00", "2020-06-18T03:37:12+00:00", "2020-06-18T03:39:12+00:00", "2020-06-18T03:41:36+00:00", "2020-06-18T03:42:56+00:00", "2020-06-18T03:45:33+00:00", "2020-06-18T03:46:37+00:00", "2020-06-18T03:50:00+00:00", "2020-06-18T03:52:21+00:00", "2020-06-18T03:53:57+00:00", "2020-06-18T03:55:25+00:00", "2020-06-18T03:57:13+00:00", "2020-06-18T03:59:38+00:00", "2020-06-18T04:00:10+00:00", "2020-06-18T04:04:10+00:00", "2020-06-18T04:05:58+00:00", "2020-06-18T04:07:22+00:00", "2020-06-18T04:07:58+00:00", "2020-06-18T04:10:26+00:00", "2020-06-18T04:11:54+00:00", "2020-06-18T04:14:34+00:00", "2020-06-18T04:15:42+00:00", "2020-06-18T04:17:15+00:00", "2020-06-18T04:18:31+00:00", "2020-06-18T04:20:03+00:00", "2020-06-18T04:21:43+00:00", "2020-06-18T04:24:07+00:00", "2020-06-18T04:26:51+00:00", "2020-06-18T04:28:15+00:00", "2020-06-18T04:29:07+00:00", "2020-06-18T04:29:59+00:00", "2020-06-18T04:31:23+00:00", "2020-06-18T04:32:55+00:00", "2020-06-18T04:33:55+00:00", "2020-06-18T04:34:55+00:00", "2020-06-18T04:35:47+00:00", "2020-06-18T04:36:39+00:00", "2020-06-18T04:37:35+00:00", "2020-06-18T04:38:40+00:00", "2020-06-18T04:40:15+00:00", "2020-06-18T04:41:40+00:00", "2020-06-18T04:43:24+00:00", "2020-06-18T04:44:00+00:00", "2020-06-18T04:45:16+00:00", "2020-06-18T04:46:44+00:00", "2020-06-18T04:48:00+00:00", "2020-06-18T04:49:08+00:00", "2020-06-18T04:50:20+00:00", "2020-06-18T04:53:00+00:00", "2020-06-18T04:53:48+00:00", "2020-06-18T04:55:40+00:00", "2020-06-18T04:56:48+00:00", "2020-06-18T04:57:52+00:00", "2020-06-18T04:59:00+00:00", "2020-06-18T05:00:57+00:00", "2020-06-18T05:02:41+00:00", "2020-06-18T05:03:53+00:00", "2020-06-18T05:06:05+00:00", "2020-06-18T05:07:33+00:00", "2020-06-18T05:08:57+00:00", "2020-06-18T05:10:17+00:00", "2020-06-18T05:11:37+00:00", "2020-06-18T05:13:13+00:00", "2020-06-18T05:14:21+00:00", "2020-06-18T05:16:05+00:00", "2020-06-18T05:18:21+00:00", "2020-06-18T05:20:25+00:00", "2020-06-18T05:22:30+00:00", "2020-06-18T05:23:42+00:00", "2020-06-18T05:25:18+00:00", "2020-06-18T05:26:26+00:00", "2020-06-18T05:28:10+00:00", "2020-06-18T05:30:15+00:00", "2020-06-18T05:32:34+00:00", "2020-06-18T05:33:50+00:00", "2020-06-18T05:35:22+00:00", "2020-06-18T05:37:14+00:00", "2020-06-18T05:38:11+00:00", "2020-06-18T05:39:35+00:00", "2020-06-18T05:41:43+00:00", "2020-06-18T05:43:19+00:00", "2020-06-18T05:44:39+00:00", "2020-06-18T05:46:19+00:00", "2020-06-18T05:47:47+00:00", "2020-06-18T05:49:19+00:00", "2020-06-18T05:51:44+00:00", "2020-06-18T05:53:00+00:00", "2020-06-18T05:54:04+00:00", "2020-06-18T05:56:08+00:00", "2020-06-18T05:57:40+00:00", "2020-06-18T06:00:15+00:00", "2020-06-18T06:03:16+00:00", "2020-06-18T06:04:32+00:00", "2020-06-18T06:06:32+00:00", "2020-06-18T06:08:44+00:00", "2020-06-18T06:10:08+00:00", "2020-06-18T06:11:56+00:00", "2020-06-18T06:12:52+00:00", "2020-06-18T06:13:57+00:00", "2020-06-18T06:15:57+00:00", "2020-06-18T06:17:45+00:00", "2020-06-18T06:19:13+00:00", "2020-06-18T06:19:57+00:00", "2020-06-18T06:21:01+00:00", "2020-06-18T06:22:49+00:00", "2020-06-18T06:23:45+00:00", "2020-06-18T06:25:09+00:00", "2020-06-18T06:26:17+00:00", "2020-06-18T06:27:37+00:00", "2020-06-18T06:28:41+00:00", "2020-06-18T06:30:01+00:00", "2020-06-18T06:31:13+00:00", "2020-06-18T06:32:37+00:00", "2020-06-18T06:33:38+00:00", "2020-06-18T06:34:42+00:00", "2020-06-18T06:35:42+00:00", "2020-06-18T06:37:30+00:00", "2020-06-18T06:38:38+00:00", "2020-06-18T06:39:26+00:00", "2020-06-18T06:40:30+00:00", "2020-06-18T06:41:54+00:00", "2020-06-18T06:44:06+00:00", "2020-06-18T06:44:58+00:00", "2020-06-18T06:45:46+00:00", "2020-06-18T06:46:50+00:00", "2020-06-18T06:48:26+00:00", "2020-06-18T06:49:18+00:00", "2020-06-18T06:51:30+00:00", "2020-06-18T06:52:54+00:00", "2020-06-18T06:53:30+00:00", "2020-06-18T06:55:22+00:00", "2020-06-18T06:56:11+00:00", "2020-06-18T06:57:15+00:00", "2020-06-18T06:58:47+00:00", "2020-06-18T06:59:55+00:00", "2020-06-18T07:00:39+00:00", "2020-06-18T07:02:55+00:00", "2020-06-18T07:03:51+00:00", "2020-06-18T07:06:35+00:00", "2020-06-18T07:07:15+00:00", "2020-06-18T07:08:35+00:00", "2020-06-18T07:10:15+00:00", "2020-06-18T07:11:35+00:00", "2020-06-18T07:12:19+00:00", "2020-06-18T07:13:51+00:00", "2020-06-18T07:15:03+00:00", "2020-06-18T07:16:11+00:00", "2020-06-18T07:17:59+00:00", "2020-06-18T07:19:23+00:00", "2020-06-18T07:21:00+00:00", "2020-06-18T07:22:28+00:00", "2020-06-18T07:24:40+00:00", "2020-06-18T07:25:44+00:00", "2020-06-18T07:27:08+00:00", "2020-06-18T07:27:56+00:00", "2020-06-18T07:30:12+00:00", "2020-06-18T07:32:00+00:00", "2020-06-18T07:33:52+00:00", "2020-06-18T07:36:12+00:00", "2020-06-18T07:37:16+00:00", "2020-06-18T07:38:40+00:00", "2020-06-18T07:40:20+00:00", "2020-06-18T07:44:17+00:00", "2020-06-18T07:45:05+00:00", "2020-06-18T07:47:17+00:00", "2020-06-18T15:29:13+00:00"], "elevations": [50.3, null, null, null, null, null, null, null, null, null, null, null, 20.6, null, null, 20.6, null, null, 18.6, null, null, null, 14.5, null, null, 14.5, null, null, null, null, null, 16.5, 14.5, null, null, 14.5, null, 14.5, null, 16.5, null, null, 14.5, null, null, null, null, null, 30.8, null, null, null, null, 53.1, null, null, null, null, null, null, null, null, null, 6.4, null, null, 8.4, null, null, 10.5, null, null, 10.5, null, null, 10.5, null, null, null, 10.5, null, 12.5, null, null, 10.5, null, null, 6.4, null, null, 0.3, null, null, null, 0.3, null, null, null, 34.9, null, null, null, null, null, null, 18.6, null, null, null, null, null, 20.6, null, null, null, null, 20.6, null, null, null, null, null, 20.6, null, null, null, null, null, 10.5, null, null, null, null, null, null, 12.5, null, null, null, null, null, 18.6, null, null, null, null, null, null, 20.6, null, null, null, null, null, 34.8, null, null, null, null, 36.9, null, null, null, null, 36.9, null, null, null, null, -1.7, 16.5, 20.6, null, null, null, null, null, 18.6, null, null, null, 18.6, null, null, null, 18.6, null, null, 16.5, null, 16.5, null, null, 16.5, null, null, null, 16.5, null, 43.0, null, null, 12.5, null, null, 12.5, null, null, -30.1, null, 0.3, null, null, null, 43.0, null, null, null, 12.5, null, null, null, 12.5, null, null, null, null, null, 18.6, null, null, null, null, null, null, null, null, 16.5, null, null, null, null, null, null, null, 16.5, null, null, null, null, null, null, 18.6, null, null, null, null, null, null, 20.6, null, null, null, null, null, null, null, null, 20.6, null, null, null, null, null, null, null, null, 12.5, null, null, null, null, null, null, null, null, null, 24.7, null, null, null, null, null, null, null, null, null, 18.6, null, null, null, null, null, null, null, null, 20.6, null, null, null, null, null, null, null, 6.4, null, null, null, null, null, null, null, 4.4, null, null, null, null, null, null, 16.5, null, null, null, null, null, 6.4, null, null, null, null, 4.4, null, null, null, null, null, null, null, null, null, null, 45.0, null, null, null, null, 22.6, null, null, null, null, 8.4, null, 20.6, null, null, null, 28.7, null, null, 22.6, null, null, null, 12.5, null, null, null, 12.5, null, null, null, null, null, null, null, 14.5, null, null, null, null, null, 12.5, null, null, null, null, null, null, 14.5, null, null, null, null, null, 14.5, null, null, null, null, 14.5, null, null, null, null, 14.5, null, null, null, null, null, 10.5, null, null, null, 16.5, null, null, null, 12.5, null, null, null, null, 14.5, null, null, null, null, 16.5, null, null, null, null, null, 18.6, null, null, null, null, null, null, 22.6, null, null, null, null, null, null, 16.5, null, null, null, 10.5, null, null, null, null, 16.5, null, null, null, null, 16.5, null, null, null, null, null, 14.5, null, null, null, null, 14.5, null, null, null, null, null, 12.5, null, null, null, null, null, 12.5, null, null, null, null, null, null, null, null, 12.5, null, null, null, null, null, null, null, 10.5, null, null, null, null, null, null, 8.4, null, null, null, null, null, 10.5, null, null, null, null, null, 10.5, null, null, null, null, null, 10.5, null, null, null, null, null, 16.5, null, null, null, null, null, 12.5, null, null, null, null, null, 12.5, null, null, null, null, 12.5, null, null, null, null, null, null, 12.5, null, null, null, null, null, null, null, 16.5, null, null, null, null, null, null, null, null, 18.6, null, null, null, null, null, null, 16.5, null, null, null, null, null, null, null, 16.5, null, null, null, null, null, null, 16.5, null, null, null, null, null, null, null, 16.5, null, null, null, null, null, null, null, null, null, null, null, 18.6, null, null, null, null]}