{"type": "Feature", "properties": {"leg_id": 59, "name": "20230723 - Magnetic Island to Cairns", "stated_nm": 161.2, "computed_nm": 161.2}, "geometry": {"type": "LineString", "coordinates": [[146.859397, -19.110298], [146.858315, -19.107457], [146.85717, -19.10462], [146.856018, -19.101764], [146.854957, -19.098988], [146.85389, -19.096076], [146.852697, -19.092703], [146.851425, -19.089256], [146.850296, -19.086031], [146.849207, -19.082826], [146.848068, -19.079248], [146.847366, -19.077055], [146.845737, -19.072846], [146.845137, -19.07015], [146.843994, -19.066625], [146.842834, -19.0631], [146.841658, -19.059333], [146.84056, -19.056018], [146.839401, -19.052498], [146.838533, -19.049877], [146.83756, -19.046941], [146.836919, -19.044911], [146.836084, -19.042358], [146.835636, -19.040893], [146.834701, -19.037635], [146.833752, -19.034523], [146.832921, -19.031718], [146.831612, -19.027133], [146.830749, -19.023783], [146.82985, -19.020369], [146.82889, -19.017243], [146.828025, -19.014079], [146.827078, -19.010855], [146.825492, -19.006301], [146.824309, -19.003443], [146.822861, -18.999859], [146.821617, -18.996825], [146.820407, -18.993742], [146.818965, -18.990198], [146.817495, -18.986759], [146.816076, -18.983347], [146.814663, -18.979978], [146.813212, -18.976469], [146.811773, -18.9732], [146.810336, -18.969845], [146.808934, -18.966461], [146.807556, -18.963259], [146.806136, -18.960004], [146.804682, -18.956673], [146.803105, -18.953405], [146.801407, -18.950065], [146.799664, -18.946687], [146.797917, -18.943546], [146.796092, -18.940223], [146.793946, -18.936379], [146.792344, -18.933506], [146.790733, -18.93054], [146.789149, -18.927621], [146.787542, -18.924684], [146.785969, -18.921693], [146.784378, -18.918685], [146.782751, -18.915709], [146.781122, -18.912644], [146.779516, -18.909627], [146.777823, -18.906455], [146.776189, -18.903511], [146.77445, -18.900393], [146.772756, -18.897262], [146.771208, -18.894514], [146.769608, -18.891751], [146.767813, -18.888643], [146.765931, -18.885309], [146.764247, -18.88249], [146.762338, -18.879493], [146.760854, -18.877099], [146.759361, -18.874534], [146.758167, -18.872571], [146.756496, -18.869662], [146.754522, -18.866407], [146.75259, -18.863191], [146.751143, -18.860741], [146.749151, -18.857545], [146.747192, -18.854439], [146.745483, -18.851666], [146.74401, -18.849434], [146.742031, -18.846226], [146.740174, -18.843395], [146.738846, -18.841269], [146.737037, -18.838436], [146.735046, -18.835062], [146.733322, -18.832297], [146.731379, -18.829148], [146.729531, -18.825853], [146.728133, -18.823857], [146.726495, -18.820685], [146.724533, -18.816928], [146.723293, -18.814749], [146.721452, -18.811331], [146.71991, -18.808548], [146.718086, -18.805243], [146.716173, -18.802116], [146.714638, -18.798665], [146.712793, -18.795756], [146.71176, -18.793198], [146.710923, -18.789548], [146.710232, -18.786106], [146.709526, -18.782637], [146.70876, -18.779186], [146.708054, -18.775725], [146.707269, -18.772214], [146.706448, -18.768984], [146.705658, -18.765877], [146.704742, -18.762284], [146.7038, -18.758774], [146.702937, -18.755385], [146.702019, -18.751858], [146.701355, -18.748857], [146.700775, -18.745934], [146.700186, -18.742462], [146.699768, -18.739265], [146.699287, -18.736316], [146.699105, -18.734685], [146.697687, -18.733807], [146.694631, -18.732135], [146.692675, -18.73127], [146.690796, -18.730233], [146.689268, -18.729532], [146.687536, -18.729537], [146.684025, -18.731314], [146.680433, -18.733236], [146.67807, -18.734072], [146.67411, -18.73529], [146.670581, -18.736339], [146.666961, -18.737418], [146.663805, -18.738307], [146.659814, -18.739537], [146.656616, -18.740457], [146.65351, -18.741388], [146.651241, -18.742635], [146.647713, -18.74506], [146.64526, -18.746542], [146.643082, -18.746343], [146.641734, -18.746587], [146.641565, -18.746594], [146.643925, -18.743463], [146.643493, -18.740882], [146.643169, -18.737273], [146.642874, -18.733251], [146.642804, -18.73084], [146.642915, -18.727605], [146.64294, -18.725425], [146.641844, -18.722516], [146.640606, -18.719776], [146.639553, -18.717197], [146.638397, -18.714042], [146.637223, -18.711888], [146.63531, -18.708834], [146.633524, -18.705936], [146.631574, -18.702715], [146.630212, -18.700549], [146.628677, -18.698401], [146.627398, -18.696506], [146.62548, -18.693513], [146.623558, -18.690499], [146.621643, -18.687473], [146.619797, -18.684597], [146.617912, -18.681685], [146.61666, -18.679766], [146.614721, -18.676745], [146.613001, -18.674082], [146.610934, -18.671005], [146.609408, -18.668627], [146.607538, -18.665896], [146.605454, -18.662779], [146.603582, -18.660071], [146.601713, -18.657301], [146.59964, -18.654174], [146.598303, -18.652143], [146.596837, -18.649654], [146.595403, -18.646243], [146.594326, -18.643877], [146.593635, -18.642218], [146.592507, -18.639601], [146.591144, -18.63655], [146.590223, -18.634373], [146.588995, -18.631651], [146.587937, -18.629123], [146.587243, -18.627619], [146.585728, -18.624046], [146.584581, -18.621515], [146.583842, -18.6201], [146.582458, -18.617057], [146.580972, -18.613668], [146.579585, -18.610431], [146.578748, -18.608395], [146.577698, -18.605815], [146.576401, -18.602697], [146.575453, -18.600423], [146.574482, -18.598014], [146.573585, -18.595965], [146.572374, -18.593068], [146.571378, -18.590904], [146.570065, -18.587714], [146.569007, -18.585134], [146.568175, -18.583138], [146.566947, -18.580201], [146.565756, -18.577173], [146.564306, -18.573608], [146.563109, -18.570564], [146.562087, -18.568225], [146.561071, -18.565606], [146.560165, -18.563408], [146.559033, -18.5605], [146.558349, -18.558608], [146.557404, -18.556205], [146.5562, -18.55322], [146.555047, -18.550334], [146.553896, -18.547233], [146.553109, -18.544945], [146.551801, -18.54154], [146.550659, -18.538277], [146.549715, -18.53575], [146.548619, -18.532762], [146.547409, -18.529663], [146.54633, -18.526691], [146.545166, -18.523518], [146.544072, -18.520598], [146.543143, -18.517866], [146.542344, -18.51549], [146.541611, -18.513555], [146.540619, -18.51057], [146.539542, -18.507498], [146.538564, -18.506066], [146.538527, -18.507363], [146.539317, -18.509798], [146.538454, -18.508764], [146.537909, -18.505468], [146.537418, -18.503284], [146.536133, -18.500852], [146.534397, -18.498051], [146.532543, -18.495212], [146.530465, -18.491916], [146.528509, -18.488869], [146.527222, -18.486881], [146.525189, -18.483803], [146.523138, -18.480731], [146.521757, -18.478676], [146.520483, -18.4767], [146.518651, -18.474036], [146.516799, -18.471239], [146.515316, -18.469118], [146.51351, -18.466457], [146.51178, -18.463916], [146.510155, -18.461457], [146.509093, -18.459797], [146.507815, -18.457866], [146.506523, -18.45601], [146.505195, -18.454064], [146.503689, -18.451808], [146.502252, -18.449556], [146.500868, -18.447329], [146.498886, -18.444546], [146.497178, -18.441919], [146.495738, -18.439631], [146.494309, -18.437364], [146.493139, -18.434947], [146.491889, -18.431835], [146.491293, -18.430274], [146.49021, -18.427543], [146.488872, -18.424554], [146.487753, -18.421612], [146.486801, -18.419123], [146.485936, -18.417106], [146.484629, -18.413824], [146.483747, -18.411644], [146.482635, -18.409121], [146.481705, -18.40695], [146.480624, -18.404225], [146.479545, -18.401582], [146.47824, -18.398522], [146.476975, -18.395355], [146.475516, -18.391932], [146.474387, -18.389287], [146.473136, -18.386198], [146.471717, -18.382841], [146.470808, -18.380696], [146.46974, -18.378069], [146.468573, -18.375334], [146.46698, -18.371465], [146.466044, -18.369031], [146.46476, -18.366123], [146.46387, -18.363985], [146.462433, -18.360821], [146.461069, -18.357388], [146.459799, -18.354548], [146.458508, -18.351518], [146.457624, -18.349404], [146.456538, -18.346942], [146.455139, -18.343499], [146.454067, -18.340882], [146.453185, -18.338862], [146.451918, -18.335843], [146.450437, -18.332543], [146.449341, -18.329898], [146.448268, -18.327332], [146.447589, -18.325838], [146.446205, -18.322718], [146.445145, -18.320208], [146.444303, -18.318225], [146.443052, -18.315511], [146.442047, -18.313306], [146.440646, -18.309869], [146.439787, -18.307602], [146.4385, -18.304513], [146.437172, -18.301529], [146.435924, -18.298623], [146.434666, -18.295506], [146.432961, -18.291489], [146.432137, -18.289439], [146.431051, -18.28688], [146.429856, -18.284227], [146.428549, -18.281036], [146.42719, -18.277868], [146.426092, -18.27527], [146.424991, -18.272791], [146.423753, -18.269908], [146.422721, -18.267364], [146.421364, -18.264243], [146.420143, -18.261385], [146.418999, -18.258748], [146.418054, -18.256574], [146.416832, -18.253688], [146.415608, -18.251102], [146.414517, -18.248598], [146.413301, -18.245842], [146.411675, -18.242243], [146.411041, -18.240812], [146.409746, -18.237862], [146.408521, -18.235204], [146.407194, -18.232189], [146.406294, -18.23006], [146.404957, -18.227372], [146.404029, -18.225142], [146.403045, -18.222885], [146.401832, -18.220094], [146.400927, -18.218019], [146.399902, -18.215675], [146.398836, -18.213312], [146.397346, -18.210113], [146.396165, -18.207417], [146.395085, -18.204773], [146.394244, -18.202837], [146.393135, -18.200371], [146.391959, -18.198059], [146.391096, -18.195731], [146.389648, -18.192409], [146.388721, -18.190372], [146.387309, -18.187327], [146.385875, -18.184133], [146.384883, -18.182095], [146.383848, -18.179726], [146.382787, -18.177464], [146.381712, -18.17512], [146.380627, -18.172853], [146.379512, -18.170388], [146.378068, -18.167314], [146.376871, -18.16469], [146.375829, -18.162206], [146.374259, -18.158692], [146.37323, -18.156318], [146.372204, -18.154053], [146.371208, -18.152063], [146.370366, -18.150185], [146.369439, -18.148167], [146.368704, -18.146471], [146.367223, -18.14307], [146.366174, -18.140923], [146.365057, -18.138849], [146.363843, -18.136198], [146.362539, -18.133702], [146.361617, -18.131868], [146.360105, -18.128449], [146.359005, -18.126098], [146.358141, -18.124311], [146.357177, -18.122573], [146.356131, -18.120334], [146.355342, -18.118638], [146.354386, -18.116954], [146.353546, -18.115426], [146.352636, -18.113442], [146.351408, -18.111057], [146.350637, -18.109355], [146.349421, -18.106928], [146.348524, -18.104871], [146.347007, -18.10163], [146.345848, -18.099151], [146.344713, -18.097132], [146.343348, -18.094626], [146.342738, -18.093421], [146.341864, -18.091089], [146.340604, -18.088555], [146.340089, -18.087415], [146.339386, -18.085268], [146.338588, -18.082995], [146.337639, -18.08023], [146.336798, -18.077888], [146.33559, -18.074156], [146.334815, -18.071939], [146.333709, -18.068299], [146.332923, -18.066349], [146.331749, -18.063199], [146.330931, -18.061508], [146.330075, -18.059217], [146.32919, -18.05674], [146.328224, -18.054029], [146.327221, -18.051525], [146.326384, -18.049261], [146.325345, -18.046102], [146.324576, -18.043544], [146.323812, -18.041395], [146.322925, -18.039075], [146.322076, -18.03685], [146.320997, -18.033898], [146.320246, -18.031273], [146.319552, -18.02894], [146.318641, -18.026762], [146.317684, -18.024349], [146.316801, -18.022204], [146.315987, -18.01967], [146.315441, -18.01786], [146.314772, -18.015702], [146.313867, -18.012282], [146.313238, -18.010642], [146.31215, -18.007595], [146.311526, -18.005446], [146.310847, -18.002998], [146.309992, -18.000596], [146.309193, -17.998284], [146.308552, -17.996201], [146.307848, -17.994006], [146.307069, -17.991654], [146.306868, -17.989897], [146.306153, -17.988626], [146.305281, -17.986428], [146.304734, -17.984484], [146.30409, -17.982429], [146.303372, -17.979894], [146.302804, -17.977505], [146.302293, -17.975206], [146.301803, -17.972903], [146.301404, -17.971347], [146.30068, -17.969397], [146.300153, -17.966862], [146.299661, -17.964688], [146.299193, -17.962265], [146.298607, -17.960079], [146.298203, -17.958405], [146.297681, -17.95622], [146.297218, -17.954005], [146.297094, -17.952214], [146.296806, -17.95007], [146.296342, -17.947327], [146.295896, -17.944963], [146.295356, -17.942278], [146.294863, -17.940109], [146.294374, -17.937571], [146.293759, -17.934439], [146.293248, -17.93196], [146.292904, -17.929775], [146.292045, -17.926157], [146.291598, -17.923951], [146.291115, -17.921153], [146.290603, -17.91841], [146.290117, -17.915669], [146.289621, -17.913113], [146.289161, -17.910681], [146.288778, -17.90823], [146.288421, -17.905687], [146.287812, -17.902795], [146.287212, -17.899825], [146.286458, -17.89706], [146.285547, -17.893111], [146.284815, -17.89107], [146.28418, -17.889316], [146.283489, -17.886963], [146.282951, -17.884827], [146.282171, -17.882132], [146.281474, -17.879988], [146.280484, -17.877718], [146.280115, -17.875279], [146.279457, -17.872661], [146.278843, -17.870392], [146.278214, -17.867965], [146.277735, -17.866214], [146.277079, -17.863991], [146.276087, -17.860995], [146.275312, -17.858377], [146.274415, -17.855888], [146.273563, -17.853487], [146.272552, -17.850299], [146.272039, -17.848169], [146.271083, -17.845247], [146.270431, -17.84305], [146.269498, -17.840604], [146.268586, -17.838065], [146.267828, -17.836067], [146.266959, -17.833632], [146.265971, -17.831092], [146.265099, -17.82875], [146.264356, -17.82614], [146.263625, -17.824289], [146.262749, -17.821825], [146.262003, -17.819568], [146.261512, -17.81724], [146.260633, -17.813825], [146.260027, -17.811109], [146.259453, -17.808978], [146.258582, -17.805985], [146.257719, -17.803558], [146.256947, -17.800625], [146.256325, -17.798121], [146.255896, -17.795948], [146.255048, -17.792742], [146.254465, -17.790361], [146.253662, -17.787328], [146.253104, -17.785418], [146.252225, -17.783015], [146.251222, -17.781128], [146.250468, -17.778492], [146.249827, -17.776185], [146.248871, -17.772627], [146.248018, -17.769374], [146.246986, -17.76595], [146.246152, -17.762923], [146.245199, -17.75957], [146.244596, -17.757698], [146.243861, -17.755301], [146.243141, -17.752574], [146.242501, -17.750224], [146.242127, -17.748402], [146.241456, -17.7463], [146.240899, -17.744426], [146.239924, -17.74132], [146.238933, -17.737735], [146.238385, -17.735482], [146.237621, -17.732179], [146.236893, -17.72972], [146.236352, -17.727099], [146.235982, -17.724773], [146.235516, -17.722533], [146.23484, -17.719904], [146.233802, -17.716835], [146.233191, -17.714541], [146.232465, -17.711785], [146.231769, -17.709692], [146.231005, -17.707851], [146.230096, -17.705056], [146.22971, -17.70311], [146.229109, -17.699408], [146.228833, -17.697512], [146.228071, -17.694001], [146.227388, -17.69161], [146.226421, -17.687423], [146.225557, -17.684296], [146.224789, -17.681202], [146.224321, -17.679434], [146.223711, -17.677402], [146.222863, -17.673865], [146.221901, -17.670513], [146.220874, -17.666542], [146.220386, -17.664346], [146.219318, -17.660321], [146.218439, -17.657497], [146.217483, -17.654128], [146.216583, -17.650784], [146.216004, -17.649023], [146.215487, -17.646647], [146.214926, -17.644284], [146.214262, -17.642314], [146.213728, -17.640063], [146.213083, -17.637384], [146.212428, -17.63501], [146.211315, -17.631018], [146.210765, -17.629221], [146.209993, -17.626477], [146.209348, -17.624318], [146.207819, -17.618965], [146.207497, -17.617526], [146.206619, -17.61452], [146.20596, -17.612726], [146.20531, -17.610234], [146.204592, -17.607856], [146.203856, -17.604815], [146.203435, -17.602557], [146.202666, -17.599555], [146.201997, -17.596123], [146.201001, -17.592689], [146.200085, -17.58887], [146.199072, -17.586835], [146.198146, -17.584708], [146.197544, -17.58281], [146.196719, -17.579478], [146.196199, -17.576926], [146.195501, -17.574377], [146.194944, -17.572526], [146.194074, -17.569471], [146.193508, -17.567245], [146.19287, -17.564418], [146.191952, -17.56212], [146.190951, -17.559012], [146.189941, -17.55529], [146.188051, -17.549022], [146.187455, -17.546843], [146.186625, -17.543786], [146.185668, -17.54014], [146.185141, -17.538103], [146.184323, -17.535081], [146.183633, -17.533291], [146.182507, -17.528765], [146.181903, -17.526355], [146.181269, -17.523624], [146.180639, -17.521014], [146.180158, -17.518962], [146.179411, -17.515798], [146.178545, -17.512473], [146.177806, -17.509088], [146.176753, -17.505247], [146.176083, -17.50209], [146.174914, -17.496729], [146.174231, -17.494376], [146.172802, -17.489574], [146.171936, -17.487684], [146.170907, -17.484316], [146.170143, -17.481755], [146.16944, -17.479648], [146.16867, -17.476653], [146.167762, -17.473962], [146.167219, -17.471911], [146.166532, -17.469454], [146.165827, -17.466719], [146.165299, -17.463843], [146.164511, -17.460875], [146.164027, -17.459234], [146.162972, -17.455258], [146.162214, -17.45349], [146.161471, -17.451126], [146.160296, -17.448294], [146.159725, -17.445767], [146.159114, -17.443458], [146.158061, -17.440027], [146.157428, -17.437567], [146.156612, -17.434589], [146.155726, -17.43164], [146.154732, -17.428413], [146.153833, -17.425987], [146.152731, -17.422996], [146.151888, -17.420798], [146.151089, -17.417895], [146.150281, -17.414969], [146.149407, -17.411911], [146.148514, -17.408382], [146.14777, -17.405276], [146.14708, -17.402985], [146.146172, -17.399215], [146.145347, -17.395942], [146.144053, -17.391641], [146.143124, -17.388574], [146.14212, -17.385423], [146.141101, -17.381736], [146.140328, -17.379122], [146.139575, -17.376496], [146.13857, -17.373174], [146.13714, -17.368046], [146.136266, -17.364772], [146.135337, -17.361577], [146.13444, -17.358294], [146.133491, -17.355029], [146.132678, -17.352206], [146.131798, -17.348558], [146.131239, -17.346975], [146.130378, -17.344692], [146.129495, -17.341425], [146.128532, -17.338219], [146.127592, -17.334815], [146.126958, -17.332464], [146.126305, -17.329911], [146.125674, -17.327591], [146.125048, -17.325544], [146.124422, -17.323577], [146.123562, -17.320438], [146.122866, -17.31785], [146.121701, -17.313989], [146.120564, -17.310886], [146.119816, -17.308137], [146.118934, -17.305135], [146.118272, -17.303177], [146.117401, -17.30054], [146.116698, -17.298199], [146.115843, -17.295315], [146.114845, -17.292083], [146.114266, -17.289946], [146.113593, -17.287475], [146.11291, -17.28511], [146.111776, -17.281831], [146.110826, -17.279556], [146.1099, -17.276635], [146.109215, -17.274262], [146.108251, -17.271587], [146.107492, -17.26932], [146.10668, -17.266875], [146.105805, -17.263989], [146.105301, -17.262054], [146.104577, -17.259046], [146.103427, -17.254683], [146.102608, -17.251346], [146.102369, -17.246284], [146.103051, -17.242838], [146.103741, -17.238959], [146.103718, -17.235271], [146.103629, -17.232028], [146.103501, -17.228506], [146.103461, -17.226645], [146.103385, -17.223044], [146.103155, -17.220495], [146.102415, -17.218122], [146.101494, -17.214579], [146.1008, -17.211293], [146.099991, -17.208101], [146.099087, -17.20482], [146.098481, -17.202824], [146.097372, -17.199149], [146.096449, -17.196664], [146.09498, -17.193122], [146.093894, -17.190956], [146.092568, -17.188472], [146.091384, -17.185768], [146.090595, -17.183873], [146.089227, -17.180919], [146.087123, -17.176108], [146.084745, -17.171546], [146.083525, -17.169247], [146.082374, -17.166663], [146.08127, -17.164457], [146.079538, -17.160944], [146.078281, -17.158124], [146.077269, -17.155961], [146.076097, -17.153957], [146.0749, -17.151885], [146.07386, -17.1496], [146.072418, -17.146576], [146.071316, -17.144336], [146.070116, -17.141971], [146.069119, -17.140151], [146.067426, -17.136541], [146.066367, -17.134465], [146.064714, -17.131351], [146.063751, -17.129608], [146.061974, -17.125871], [146.060644, -17.122921], [146.058795, -17.118894], [146.057788, -17.117197], [146.056596, -17.11503], [146.054893, -17.111581], [146.053519, -17.108703], [146.052256, -17.105815], [146.051278, -17.103622], [146.050046, -17.100847], [146.0486, -17.097317], [146.047786, -17.095305], [146.046366, -17.091989], [146.045104, -17.089221], [146.043858, -17.086602], [146.042632, -17.084307], [146.041226, -17.081643], [146.040076, -17.079571], [146.038994, -17.077222], [146.038026, -17.075221], [146.036745, -17.072692], [146.035826, -17.070964], [146.034612, -17.068643], [146.033344, -17.065702], [146.032373, -17.063555], [146.031588, -17.061209], [146.03058, -17.058822], [146.02922, -17.056964], [146.027955, -17.055427], [146.026702, -17.053501], [146.025172, -17.051441], [146.024055, -17.049921], [146.022457, -17.047692], [146.021539, -17.045978], [146.019843, -17.043879], [146.018534, -17.042125], [146.01717, -17.039905], [146.015633, -17.03738], [146.014526, -17.035585], [146.013221, -17.033631], [146.011608, -17.031203], [146.01039, -17.029337], [146.009212, -17.027434], [146.007814, -17.024782], [146.006297, -17.022008], [146.00486, -17.019309], [146.003505, -17.016909], [146.002109, -17.0142], [146.00085, -17.012293], [145.998913, -17.009064], [145.997732, -17.006963], [145.996221, -17.004332], [145.99498, -17.002129], [145.99358, -16.999631], [145.992184, -16.996703], [145.991361, -16.995091], [145.990495, -16.993389], [145.989435, -16.991395], [145.988399, -16.988784], [145.987693, -16.986903], [145.986888, -16.985124], [145.985987, -16.982672], [145.985191, -16.980559], [145.984297, -16.978648], [145.983516, -16.976232], [145.982495, -16.973857], [145.981283, -16.971416], [145.980417, -16.969631], [145.979238, -16.967455], [145.978147, -16.964947], [145.977, -16.96247], [145.975981, -16.960351], [145.97509, -16.957292], [145.974606, -16.954157], [145.974279, -16.952088], [145.973662, -16.948394], [145.97315, -16.945804], [145.972738, -16.943416], [145.972234, -16.94085], [145.97173, -16.938473], [145.97123, -16.935968], [145.970794, -16.932848], [145.970493, -16.931071], [145.970258, -16.929288], [145.969828, -16.926335], [145.969177, -16.923364], [145.968983, -16.919741], [145.968846, -16.915667], [145.968692, -16.913697], [145.968156, -16.91056], [145.967861, -16.906804], [145.9676, -16.904339], [145.967333, -16.900196], [145.96728, -16.897308], [145.967001, -16.89352], [145.966649, -16.889541], [145.9664, -16.88773], [145.966318, -16.885578], [145.966087, -16.883103], [145.965843, -16.880538], [145.965518, -16.87739], [145.965268, -16.874669], [145.964846, -16.872553], [145.963239, -16.871179], [145.960873, -16.869655], [145.959538, -16.868561], [145.957938, -16.867439], [145.95627, -16.866193], [145.954581, -16.864709], [145.951976, -16.863753], [145.949428, -16.862825], [145.946856, -16.862038], [145.943268, -16.860678], [145.939992, -16.859398], [145.937102, -16.8582], [145.933982, -16.857312], [145.930685, -16.85681], [145.927105, -16.85633], [145.924022, -16.856045], [145.921009, -16.855709], [145.918194, -16.855539], [145.916566, -16.85573], [145.91438, -16.857534], [145.913919, -16.859533], [145.913138, -16.862317], [145.912408, -16.864615], [145.912312, -16.866899], [145.912257, -16.868094], [145.912095, -16.86811], [145.908043, -16.868606], [145.905192, -16.869064], [145.901702, -16.868791], [145.896461, -16.868329], [145.893074, -16.868033], [145.889779, -16.867792], [145.886414, -16.867666], [145.883303, -16.867509], [145.879692, -16.867233], [145.875905, -16.866985], [145.87272, -16.866736], [145.869201, -16.866447], [145.865749, -16.866115], [145.862879, -16.866129], [145.858804, -16.866358], [145.855201, -16.866523], [145.851515, -16.866652], [145.848813, -16.866977], [145.845488, -16.867537], [145.842263, -16.868051], [145.838231, -16.8689], [145.835239, -16.869986], [145.831724, -16.871319], [145.828456, -16.87256], [145.823067, -16.874646], [145.820042, -16.875843], [145.816422, -16.877327], [145.812017, -16.8791], [145.809887, -16.879905], [145.807279, -16.881144], [145.805283, -16.883646], [145.80347, -16.886022], [145.801032, -16.888263], [145.799362, -16.89025], [145.796697, -16.892319], [145.795364, -16.894111], [145.794013, -16.896142], [145.792527, -16.898201], [145.790878, -16.901035], [145.789072, -16.904233], [145.787162, -16.907598], [145.786471, -16.909616], [145.785819, -16.914008], [145.785784, -16.916617], [145.78658, -16.918049]]}, "times": ["2023-07-23T02:47:22+00:00", "2023-07-23T02:49:44+00:00", "2023-07-23T02:51:45+00:00", "2023-07-23T02:53:46+00:00", "2023-07-23T02:55:12+00:00", "2023-07-23T02:57:46+00:00", "2023-07-23T02:59:47+00:00", "2023-07-23T03:02:47+00:00", "2023-07-23T03:04:45+00:00", "2023-07-23T03:06:50+00:00", "2023-07-23T03:09:50+00:00", "2023-07-23T03:10:50+00:00", "2023-07-23T03:14:00+00:00", "2023-07-23T03:15:46+00:00", "2023-07-23T03:18:46+00:00", "2023-07-23T03:20:47+00:00", "2023-07-23T03:23:47+00:00", "2023-07-23T03:25:47+00:00", "2023-07-23T03:28:47+00:00", "2023-07-23T03:29:55+00:00", "2023-07-23T03:32:16+00:00", "2023-07-23T03:33:47+00:00", "2023-07-23T03:35:47+00:00", "2023-07-23T03:36:47+00:00", "2023-07-23T03:39:47+00:00", "2023-07-23T03:41:48+00:00", "2023-07-23T03:43:48+00:00", "2023-07-23T03:47:48+00:00", "2023-07-23T03:49:48+00:00", "2023-07-23T03:52:35+00:00", "2023-07-23T03:54:45+00:00", "2023-07-23T03:57:48+00:00", "2023-07-23T03:59:49+00:00", "2023-07-23T04:03:54+00:00", "2023-07-23T04:06:41+00:00", "2023-07-23T04:08:44+00:00", "2023-07-23T04:11:46+00:00", "2023-07-23T04:13:47+00:00", "2023-07-23T04:16:48+00:00", "2023-07-23T04:19:48+00:00", "2023-07-23T04:22:48+00:00", "2023-07-23T04:25:49+00:00", "2023-07-23T04:28:49+00:00", "2023-07-23T04:31:49+00:00", "2023-07-23T04:34:45+00:00", "2023-07-23T04:37:50+00:00", "2023-07-23T04:40:50+00:00", "2023-07-23T04:43:50+00:00", "2023-07-23T04:46:50+00:00", "2023-07-23T04:49:50+00:00", "2023-07-23T04:52:52+00:00", "2023-07-23T04:55:53+00:00", "2023-07-23T04:58:53+00:00", "2023-07-23T05:01:54+00:00", "2023-07-23T05:05:50+00:00", "2023-07-23T05:07:51+00:00", "2023-07-23T05:10:51+00:00", "2023-07-23T05:12:51+00:00", "2023-07-23T05:15:51+00:00", "2023-07-23T05:17:51+00:00", "2023-07-23T05:20:51+00:00", "2023-07-23T05:22:51+00:00", "2023-07-23T05:25:52+00:00", "2023-07-23T05:27:52+00:00", "2023-07-23T05:30:44+00:00", "2023-07-23T05:32:52+00:00", "2023-07-23T05:35:52+00:00", "2023-07-23T05:37:53+00:00", "2023-07-23T05:39:53+00:00", "2023-07-23T05:42:53+00:00", "2023-07-23T05:44:45+00:00", "2023-07-23T05:47:53+00:00", "2023-07-23T05:49:53+00:00", "2023-07-23T05:52:54+00:00", "2023-07-23T05:54:26+00:00", "2023-07-23T05:56:39+00:00", "2023-07-23T05:57:54+00:00", "2023-07-23T06:00:12+00:00", "2023-07-23T06:02:54+00:00", "2023-07-23T06:05:54+00:00", "2023-07-23T06:07:17+00:00", "2023-07-23T06:09:54+00:00", "2023-07-23T06:12:54+00:00", "2023-07-23T06:14:45+00:00", "2023-07-23T06:16:36+00:00", "2023-07-23T06:19:21+00:00", "2023-07-23T06:21:53+00:00", "2023-07-23T06:22:53+00:00", "2023-07-23T06:25:59+00:00", "2023-07-23T06:28:55+00:00", "2023-07-23T06:30:55+00:00", "2023-07-23T06:32:56+00:00", "2023-07-23T06:35:58+00:00", "2023-07-23T06:36:58+00:00", "2023-07-23T06:39:58+00:00", "2023-07-23T06:42:54+00:00", "2023-07-23T06:43:56+00:00", "2023-07-23T06:46:57+00:00", "2023-07-23T06:48:57+00:00", "2023-07-23T06:51:57+00:00", "2023-07-23T06:53:57+00:00", "2023-07-23T06:57:00+00:00", "2023-07-23T06:59:00+00:00", "2023-07-23T07:00:34+00:00", "2023-07-23T07:03:57+00:00", "2023-07-23T07:05:57+00:00", "2023-07-23T07:09:00+00:00", "2023-07-23T07:11:00+00:00", "2023-07-23T07:14:00+00:00", "2023-07-23T07:16:00+00:00", "2023-07-23T07:18:02+00:00", "2023-07-23T07:21:00+00:00", "2023-07-23T07:23:00+00:00", "2023-07-23T07:26:00+00:00", "2023-07-23T07:28:00+00:00", "2023-07-23T07:31:00+00:00", "2023-07-23T07:33:00+00:00", "2023-07-23T07:35:00+00:00", "2023-07-23T07:38:01+00:00", "2023-07-23T07:41:01+00:00", "2023-07-23T07:43:03+00:00", "2023-07-23T07:44:03+00:00", "2023-07-23T07:45:16+00:00", "2023-07-23T07:48:01+00:00", "2023-07-23T07:49:13+00:00", "2023-07-23T07:51:13+00:00", "2023-07-23T07:52:01+00:00", "2023-07-23T07:53:02+00:00", "2023-07-23T07:55:45+00:00", "2023-07-23T07:58:35+00:00", "2023-07-23T07:59:47+00:00", "2023-07-23T08:02:51+00:00", "2023-07-23T08:04:57+00:00", "2023-07-23T08:06:52+00:00", "2023-07-23T08:08:58+00:00", "2023-07-23T08:11:59+00:00", "2023-07-23T08:13:59+00:00", "2023-07-23T08:15:24+00:00", "2023-07-23T08:16:59+00:00", "2023-07-23T08:19:59+00:00", "2023-07-23T08:21:17+00:00", "2023-07-23T08:22:59+00:00", "2023-07-23T08:24:54+00:00", "2023-07-23T17:35:25+00:00", "2023-07-23T23:28:02+00:00", "2023-07-23T23:29:59+00:00", "2023-07-23T23:32:56+00:00", "2023-07-23T23:34:43+00:00", "2023-07-23T23:35:45+00:00", "2023-07-23T23:37:58+00:00", "2023-07-23T23:38:48+00:00", "2023-07-23T23:40:29+00:00", "2023-07-23T23:42:01+00:00", "2023-07-23T23:43:59+00:00", "2023-07-23T23:46:59+00:00", "2023-07-23T23:48:43+00:00", "2023-07-23T23:50:59+00:00", "2023-07-23T23:53:01+00:00", "2023-07-23T23:55:57+00:00", "2023-07-23T23:58:00+00:00", "2023-07-23T23:59:42+00:00", "2023-07-24T00:01:00+00:00", "2023-07-24T00:04:00+00:00", "2023-07-24T00:06:00+00:00", "2023-07-24T00:09:00+00:00", "2023-07-24T00:11:00+00:00", "2023-07-24T00:14:00+00:00", "2023-07-24T00:15:30+00:00", "2023-07-24T00:18:00+00:00", "2023-07-24T00:20:05+00:00", "2023-07-24T00:22:57+00:00", "2023-07-24T00:24:25+00:00", "2023-07-24T00:26:33+00:00", "2023-07-24T00:30:00+00:00", "2023-07-24T00:32:00+00:00", "2023-07-24T00:34:00+00:00", "2023-07-24T00:37:00+00:00", "2023-07-24T00:39:02+00:00", "2023-07-24T00:41:02+00:00", "2023-07-24T00:43:46+00:00", "2023-07-24T00:45:02+00:00", "2023-07-24T00:46:43+00:00", "2023-07-24T00:48:32+00:00", "2023-07-24T00:51:02+00:00", "2023-07-24T00:52:28+00:00", "2023-07-24T00:54:37+00:00", "2023-07-24T00:56:06+00:00", "2023-07-24T00:57:14+00:00", "2023-07-24T01:00:02+00:00", "2023-07-24T01:01:43+00:00", "2023-07-24T01:02:39+00:00", "2023-07-24T01:05:00+00:00", "2023-07-24T01:07:03+00:00", "2023-07-24T01:09:03+00:00", "2023-07-24T01:10:33+00:00", "2023-07-24T01:12:41+00:00", "2023-07-24T01:14:58+00:00", "2023-07-24T01:16:50+00:00", "2023-07-24T01:18:03+00:00", "2023-07-24T01:19:31+00:00", "2023-07-24T01:22:03+00:00", "2023-07-24T01:23:08+00:00", "2023-07-24T01:26:00+00:00", "2023-07-24T01:28:04+00:00", "2023-07-24T01:30:05+00:00", "2023-07-24T01:32:43+00:00", "2023-07-24T01:35:06+00:00", "2023-07-24T01:38:06+00:00", "2023-07-24T01:41:06+00:00", "2023-07-24T01:43:06+00:00", "2023-07-24T01:45:06+00:00", "2023-07-24T01:47:06+00:00", "2023-07-24T01:50:06+00:00", "2023-07-24T01:52:08+00:00", "2023-07-24T01:53:43+00:00", "2023-07-24T01:56:00+00:00", "2023-07-24T01:58:09+00:00", "2023-07-24T02:01:09+00:00", "2023-07-24T02:03:09+00:00", "2023-07-24T02:06:00+00:00", "2023-07-24T02:08:09+00:00", "2023-07-24T02:10:09+00:00", "2023-07-24T02:13:09+00:00", "2023-07-24T02:16:00+00:00", "2023-07-24T02:18:09+00:00", "2023-07-24T02:21:09+00:00", "2023-07-24T02:23:34+00:00", "2023-07-24T02:26:00+00:00", "2023-07-24T02:28:39+00:00", "2023-07-24T02:30:11+00:00", "2023-07-24T02:33:11+00:00", "2023-07-24T02:36:00+00:00", "2023-07-24T02:38:07+00:00", "2023-07-24T02:40:08+00:00", "2023-07-24T02:42:30+00:00", "2023-07-24T02:43:19+00:00", "2023-07-24T02:46:00+00:00", "2023-07-24T02:48:10+00:00", "2023-07-24T02:50:10+00:00", "2023-07-24T02:53:10+00:00", "2023-07-24T02:55:10+00:00", "2023-07-24T02:58:10+00:00", "2023-07-24T03:00:12+00:00", "2023-07-24T03:02:12+00:00", "2023-07-24T03:05:12+00:00", "2023-07-24T03:08:12+00:00", "2023-07-24T03:10:12+00:00", "2023-07-24T03:12:01+00:00", "2023-07-24T03:14:12+00:00", "2023-07-24T03:17:11+00:00", "2023-07-24T03:19:11+00:00", "2023-07-24T03:21:12+00:00", "2023-07-24T03:24:08+00:00", "2023-07-24T03:26:00+00:00", "2023-07-24T03:28:09+00:00", "2023-07-24T03:29:50+00:00", "2023-07-24T03:31:26+00:00", "2023-07-24T03:33:05+00:00", "2023-07-24T03:35:11+00:00", "2023-07-24T03:38:11+00:00", "2023-07-24T03:40:11+00:00", "2023-07-24T03:43:11+00:00", "2023-07-24T03:44:56+00:00", "2023-07-24T03:46:52+00:00", "2023-07-24T03:49:11+00:00", "2023-07-24T03:51:11+00:00", "2023-07-24T03:54:11+00:00", "2023-07-24T03:55:29+00:00", "2023-07-24T03:57:26+00:00", "2023-07-24T04:00:11+00:00", "2023-07-24T04:03:12+00:00", "2023-07-24T04:05:19+00:00", "2023-07-24T04:07:19+00:00", "2023-07-24T04:10:13+00:00", "2023-07-24T04:11:48+00:00", "2023-07-24T04:13:44+00:00", "2023-07-24T04:16:15+00:00", "2023-07-24T04:18:14+00:00", "2023-07-24T04:20:17+00:00", "2023-07-24T04:23:17+00:00", "2023-07-24T04:25:51+00:00", "2023-07-24T04:29:17+00:00", "2023-07-24T04:30:39+00:00", "2023-07-24T04:32:55+00:00", "2023-07-24T04:36:15+00:00", "2023-07-24T04:37:48+00:00", "2023-07-24T04:39:18+00:00", "2023-07-24T04:41:19+00:00", "2023-07-24T04:45:17+00:00", "2023-07-24T04:46:30+00:00", "2023-07-24T04:49:18+00:00", "2023-07-24T04:51:20+00:00", "2023-07-24T04:54:13+00:00", "2023-07-24T04:56:53+00:00", "2023-07-24T04:59:17+00:00", "2023-07-24T05:01:42+00:00", "2023-07-24T05:03:17+00:00", "2023-07-24T05:05:18+00:00", "2023-07-24T05:08:18+00:00", "2023-07-24T05:10:29+00:00", "2023-07-24T05:12:18+00:00", "2023-07-24T05:14:18+00:00", "2023-07-24T05:17:15+00:00", "2023-07-24T05:19:17+00:00", "2023-07-24T05:21:36+00:00", "2023-07-24T05:23:00+00:00", "2023-07-24T05:25:17+00:00", "2023-07-24T05:27:17+00:00", "2023-07-24T05:28:41+00:00", "2023-07-24T05:30:58+00:00", "2023-07-24T05:32:22+00:00", "2023-07-24T05:34:51+00:00", "2023-07-24T05:36:15+00:00", "2023-07-24T05:38:22+00:00", "2023-07-24T05:41:22+00:00", "2023-07-24T05:43:22+00:00", "2023-07-24T05:45:22+00:00", "2023-07-24T05:48:31+00:00", "2023-07-24T05:50:15+00:00", "2023-07-24T05:51:23+00:00", "2023-07-24T05:53:24+00:00", "2023-07-24T05:56:15+00:00", "2023-07-24T05:58:24+00:00", "2023-07-24T06:00:25+00:00", "2023-07-24T06:01:54+00:00", "2023-07-24T06:04:25+00:00", "2023-07-24T06:05:51+00:00", "2023-07-24T06:08:25+00:00", "2023-07-24T06:10:25+00:00", "2023-07-24T06:11:37+00:00", "2023-07-24T06:13:25+00:00", "2023-07-24T06:15:25+00:00", "2023-07-24T06:17:14+00:00", "2023-07-24T06:18:25+00:00", "2023-07-24T06:20:26+00:00", "2023-07-24T06:23:26+00:00", "2023-07-24T06:23:56+00:00", "2023-07-24T06:25:52+00:00", "2023-07-24T06:27:27+00:00", "2023-07-24T06:29:27+00:00", "2023-07-24T06:31:06+00:00", "2023-07-24T06:32:27+00:00", "2023-07-24T06:34:15+00:00", "2023-07-24T06:35:27+00:00", "2023-07-24T06:37:27+00:00", "2023-07-24T06:38:27+00:00", "2023-07-24T06:40:27+00:00", "2023-07-24T06:41:37+00:00", "2023-07-24T06:44:27+00:00", "2023-07-24T06:45:42+00:00", "2023-07-24T06:47:42+00:00", "2023-07-24T06:49:27+00:00", "2023-07-24T06:51:07+00:00", "2023-07-24T06:52:27+00:00", "2023-07-24T06:54:00+00:00", "2023-07-24T06:56:15+00:00", "2023-07-24T06:57:41+00:00", "2023-07-24T06:59:33+00:00", "2023-07-24T07:02:27+00:00", "2023-07-24T07:04:02+00:00", "2023-07-24T07:05:27+00:00", "2023-07-24T07:06:59+00:00", "2023-07-24T07:08:55+00:00", "2023-07-24T07:10:27+00:00", "2023-07-24T07:11:28+00:00", "2023-07-24T07:14:27+00:00", "2023-07-24T07:15:49+00:00", "2023-07-24T07:17:27+00:00", "2023-07-24T07:19:54+00:00", "2023-07-24T07:21:27+00:00", "2023-07-24T07:23:27+00:00", "2023-07-24T07:24:27+00:00", "2023-07-24T07:25:39+00:00", "2023-07-24T07:27:08+00:00", "2023-07-24T07:27:44+00:00", "2023-07-24T07:30:27+00:00", "2023-07-24T07:32:07+00:00", "2023-07-24T07:33:27+00:00", "2023-07-24T07:35:06+00:00", "2023-07-24T07:36:27+00:00", "2023-07-24T07:37:59+00:00", "2023-07-24T07:40:27+00:00", "2023-07-24T07:41:48+00:00", "2023-07-24T07:42:56+00:00", "2023-07-24T07:44:00+00:00", "2023-07-24T07:45:27+00:00", "2023-07-24T07:46:27+00:00", "2023-07-24T07:47:33+00:00", "2023-07-24T07:48:29+00:00", "2023-07-24T07:50:27+00:00", "2023-07-24T07:51:27+00:00", "2023-07-24T07:52:31+00:00", "2023-07-24T07:54:27+00:00", "2023-07-24T07:55:27+00:00", "2023-07-24T07:58:27+00:00", "2023-07-24T07:59:33+00:00", "2023-07-24T08:01:05+00:00", "2023-07-24T08:02:58+00:00", "2023-07-24T08:03:38+00:00", "2023-07-24T08:05:27+00:00", "2023-07-24T08:07:11+00:00", "2023-07-24T08:07:37+00:00", "2023-07-24T08:09:19+00:00", "2023-07-24T08:10:37+00:00", "2023-07-24T08:12:37+00:00", "2023-07-24T08:13:37+00:00", "2023-07-24T08:16:30+00:00", "2023-07-24T08:17:37+00:00", "2023-07-24T08:20:37+00:00", "2023-07-24T08:21:37+00:00", "2023-07-24T08:23:37+00:00", "2023-07-24T08:24:47+00:00", "2023-07-24T08:26:30+00:00", "2023-07-24T08:27:44+00:00", "2023-07-24T08:29:37+00:00", "2023-07-24T08:31:13+00:00", "2023-07-24T08:32:37+00:00", "2023-07-24T08:34:37+00:00", "2023-07-24T08:36:30+00:00", "2023-07-24T08:38:27+00:00", "2023-07-24T08:39:37+00:00", "2023-07-24T08:41:12+00:00", "2023-07-24T08:42:53+00:00", "2023-07-24T08:44:49+00:00", "2023-07-24T08:46:30+00:00", "2023-07-24T08:47:37+00:00", "2023-07-24T08:49:37+00:00", "2023-07-24T08:50:47+00:00", "2023-07-24T08:52:19+00:00", "2023-07-24T08:53:31+00:00", "2023-07-24T08:54:36+00:00", "2023-07-24T08:56:30+00:00", "2023-07-24T08:57:37+00:00", "2023-07-24T08:59:37+00:00", "2023-07-24T09:00:37+00:00", "2023-07-24T09:02:09+00:00", "2023-07-24T09:03:37+00:00", "2023-07-24T09:04:37+00:00", "2023-07-24T09:06:10+00:00", "2023-07-24T09:07:37+00:00", "2023-07-24T09:08:37+00:00", "2023-07-24T09:10:11+00:00", "2023-07-24T09:11:19+00:00", "2023-07-24T09:12:35+00:00", "2023-07-24T09:13:37+00:00", "2023-07-24T09:14:37+00:00", "2023-07-24T09:16:13+00:00", "2023-07-24T09:17:37+00:00", "2023-07-24T09:18:37+00:00", "2023-07-24T09:20:02+00:00", "2023-07-24T09:20:50+00:00", "2023-07-24T09:22:37+00:00", "2023-07-24T09:23:37+00:00", "2023-07-24T09:24:55+00:00", "2023-07-24T09:26:30+00:00", "2023-07-24T09:27:52+00:00", "2023-07-24T09:29:04+00:00", "2023-07-24T09:30:33+00:00", "2023-07-24T09:31:41+00:00", "2023-07-24T09:32:37+00:00", "2023-07-24T09:33:50+00:00", "2023-07-24T09:35:34+00:00", "2023-07-24T09:36:30+00:00", "2023-07-24T09:38:35+00:00", "2023-07-24T09:39:38+00:00", "2023-07-24T09:41:24+00:00", "2023-07-24T09:43:25+00:00", "2023-07-24T09:44:38+00:00", "2023-07-24T09:45:57+00:00", "2023-07-24T09:48:38+00:00", "2023-07-24T09:49:38+00:00", "2023-07-24T09:50:55+00:00", "2023-07-24T09:52:38+00:00", "2023-07-24T09:54:38+00:00", "2023-07-24T09:55:52+00:00", "2023-07-24T09:57:38+00:00", "2023-07-24T09:58:52+00:00", "2023-07-24T10:00:38+00:00", "2023-07-24T10:02:38+00:00", "2023-07-24T10:03:53+00:00", "2023-07-24T10:05:38+00:00", "2023-07-24T10:07:42+00:00", "2023-07-24T10:09:22+00:00", "2023-07-24T10:10:06+00:00", "2023-07-24T10:11:47+00:00", "2023-07-24T10:12:39+00:00", "2023-07-24T10:14:39+00:00", "2023-07-24T10:15:40+00:00", "2023-07-24T10:17:28+00:00", "2023-07-24T10:18:39+00:00", "2023-07-24T10:20:21+00:00", "2023-07-24T10:21:39+00:00", "2023-07-24T10:22:54+00:00", "2023-07-24T10:24:02+00:00", "2023-07-24T10:25:18+00:00", "2023-07-24T10:27:15+00:00", "2023-07-24T10:28:39+00:00", "2023-07-24T10:30:39+00:00", "2023-07-24T10:32:20+00:00", "2023-07-24T10:34:24+00:00", "2023-07-24T10:35:39+00:00", "2023-07-24T10:37:18+00:00", "2023-07-24T10:38:39+00:00", "2023-07-24T10:40:26+00:00", "2023-07-24T10:41:39+00:00", "2023-07-24T10:42:39+00:00", "2023-07-24T10:44:39+00:00", "2023-07-24T10:46:07+00:00", "2023-07-24T10:47:24+00:00", "2023-07-24T10:48:52+00:00", "2023-07-24T10:50:39+00:00", "2023-07-24T10:51:39+00:00", "2023-07-24T10:53:13+00:00", "2023-07-24T10:54:39+00:00", "2023-07-24T10:56:30+00:00", "2023-07-24T10:58:18+00:00", "2023-07-24T10:59:39+00:00", "2023-07-24T11:01:39+00:00", "2023-07-24T11:03:15+00:00", "2023-07-24T11:04:42+00:00", "2023-07-24T11:06:12+00:00", "2023-07-24T11:07:42+00:00", "2023-07-24T11:09:32+00:00", "2023-07-24T11:10:49+00:00", "2023-07-24T11:12:49+00:00", "2023-07-24T11:13:53+00:00", "2023-07-24T11:15:49+00:00", "2023-07-24T11:16:49+00:00", "2023-07-24T11:18:14+00:00", "2023-07-24T11:19:49+00:00", "2023-07-24T11:21:49+00:00", "2023-07-24T11:23:56+00:00", "2023-07-24T11:25:57+00:00", "2023-07-24T11:28:01+00:00", "2023-07-24T11:30:13+00:00", "2023-07-24T11:31:42+00:00", "2023-07-24T11:33:13+00:00", "2023-07-24T11:34:31+00:00", "2023-07-24T11:36:13+00:00", "2023-07-24T11:37:13+00:00", "2023-07-24T11:38:20+00:00", "2023-07-24T11:39:13+00:00", "2023-07-24T11:41:13+00:00", "2023-07-24T11:43:13+00:00", "2023-07-24T11:44:53+00:00", "2023-07-24T11:46:30+00:00", "2023-07-24T11:48:31+00:00", "2023-07-24T11:49:54+00:00", "2023-07-24T11:51:11+00:00", "2023-07-24T11:52:47+00:00", "2023-07-24T11:54:11+00:00", "2023-07-24T11:56:00+00:00", "2023-07-24T11:57:40+00:00", "2023-07-24T11:59:00+00:00", "2023-07-24T12:00:09+00:00", "2023-07-24T12:01:09+00:00", "2023-07-24T12:02:54+00:00", "2023-07-24T12:03:54+00:00", "2023-07-24T12:06:11+00:00", "2023-07-24T12:07:23+00:00", "2023-07-24T12:09:16+00:00", "2023-07-24T12:10:44+00:00", "2023-07-24T12:12:57+00:00", "2023-07-24T12:15:05+00:00", "2023-07-24T12:16:38+00:00", "2023-07-24T12:17:16+00:00", "2023-07-24T12:18:34+00:00", "2023-07-24T12:20:55+00:00", "2023-07-24T12:23:12+00:00", "2023-07-24T12:25:40+00:00", "2023-07-24T12:26:55+00:00", "2023-07-24T12:29:05+00:00", "2023-07-24T12:30:44+00:00", "2023-07-24T12:32:44+00:00", "2023-07-24T12:34:44+00:00", "2023-07-24T12:35:44+00:00", "2023-07-24T12:36:47+00:00", "2023-07-24T12:38:44+00:00", "2023-07-24T12:39:44+00:00", "2023-07-24T12:41:04+00:00", "2023-07-24T12:42:41+00:00", "2023-07-24T12:44:25+00:00", "2023-07-24T12:46:45+00:00", "2023-07-24T12:47:35+00:00", "2023-07-24T12:49:23+00:00", "2023-07-24T12:50:35+00:00", "2023-07-24T12:53:48+00:00", "2023-07-24T12:54:44+00:00", "2023-07-24T12:55:53+00:00", "2023-07-24T12:57:13+00:00", "2023-07-24T12:58:50+00:00", "2023-07-24T12:59:50+00:00", "2023-07-24T13:01:50+00:00", "2023-07-24T13:03:03+00:00", "2023-07-24T13:04:50+00:00", "2023-07-24T13:07:16+00:00", "2023-07-24T13:09:09+00:00", "2023-07-24T13:11:19+00:00", "2023-07-24T13:12:45+00:00", "2023-07-24T13:14:05+00:00", "2023-07-24T13:14:50+00:00", "2023-07-24T13:16:45+00:00", "2023-07-24T13:17:46+00:00", "2023-07-24T13:19:35+00:00", "2023-07-24T13:20:31+00:00", "2023-07-24T13:22:11+00:00", "2023-07-24T13:23:48+00:00", "2023-07-24T13:24:52+00:00", "2023-07-24T13:26:40+00:00", "2023-07-24T13:27:53+00:00", "2023-07-24T13:31:20+00:00", "2023-07-24T13:33:30+00:00", "2023-07-24T13:35:06+00:00", "2023-07-24T13:36:45+00:00", "2023-07-24T13:38:55+00:00", "2023-07-24T13:40:32+00:00", "2023-07-24T13:42:04+00:00", "2023-07-24T13:43:16+00:00", "2023-07-24T13:46:21+00:00", "2023-07-24T13:47:09+00:00", "2023-07-24T13:49:18+00:00", "2023-07-24T13:50:49+00:00", "2023-07-24T13:52:23+00:00", "2023-07-24T13:54:27+00:00", "2023-07-24T13:56:45+00:00", "2023-07-24T13:58:00+00:00", "2023-07-24T14:00:29+00:00", "2023-07-24T14:02:42+00:00", "2023-07-24T14:05:51+00:00", "2023-07-24T14:06:45+00:00", "2023-07-24T14:09:50+00:00", "2023-07-24T14:10:59+00:00", "2023-07-24T14:13:12+00:00", "2023-07-24T14:14:22+00:00", "2023-07-24T14:15:37+00:00", "2023-07-24T14:16:49+00:00", "2023-07-24T14:18:50+00:00", "2023-07-24T14:20:14+00:00", "2023-07-24T14:21:38+00:00", "2023-07-24T14:23:10+00:00", "2023-07-24T14:24:27+00:00", "2023-07-24T14:26:26+00:00", "2023-07-24T14:27:24+00:00", "2023-07-24T14:29:53+00:00", "2023-07-24T14:31:13+00:00", "2023-07-24T14:32:37+00:00", "2023-07-24T14:34:02+00:00", "2023-07-24T14:35:38+00:00", "2023-07-24T14:37:02+00:00", "2023-07-24T14:38:52+00:00", "2023-07-24T14:40:11+00:00", "2023-07-24T14:41:52+00:00", "2023-07-24T14:43:52+00:00", "2023-07-24T14:45:45+00:00", "2023-07-24T14:46:45+00:00", "2023-07-24T14:48:52+00:00", "2023-07-24T14:49:52+00:00", "2023-07-24T14:51:46+00:00", "2023-07-24T14:53:43+00:00", "2023-07-24T14:55:44+00:00", "2023-07-24T14:57:50+00:00", "2023-07-24T14:58:53+00:00", "2023-07-24T15:00:25+00:00", "2023-07-24T15:02:51+00:00", "2023-07-24T15:04:59+00:00", "2023-07-24T15:07:52+00:00", "2023-07-24T15:09:00+00:00", "2023-07-24T15:10:59+00:00", "2023-07-24T15:13:21+00:00", "2023-07-24T15:14:52+00:00", "2023-07-24T15:15:59+00:00", "2023-07-24T15:17:50+00:00", "2023-07-24T15:20:59+00:00", "2023-07-24T15:22:59+00:00", "2023-07-24T15:24:59+00:00", "2023-07-24T15:26:45+00:00", "2023-07-24T15:28:52+00:00", "2023-07-24T15:29:53+00:00", "2023-07-24T15:32:39+00:00", "2023-07-24T15:33:11+00:00", "2023-07-24T15:34:31+00:00", "2023-07-24T15:36:44+00:00", "2023-07-24T15:38:54+00:00", "2023-07-24T15:40:32+00:00", "2023-07-24T15:41:55+00:00", "2023-07-24T15:43:09+00:00", "2023-07-24T15:44:55+00:00", "2023-07-24T15:45:55+00:00", "2023-07-24T15:47:06+00:00", "2023-07-24T15:48:55+00:00", "2023-07-24T15:50:15+00:00", "2023-07-24T15:52:20+00:00", "2023-07-24T15:53:55+00:00", "2023-07-24T15:55:45+00:00", "2023-07-24T15:57:21+00:00", "2023-07-24T15:58:53+00:00", "2023-07-24T15:59:55+00:00", "2023-07-24T16:01:10+00:00", "2023-07-24T16:02:56+00:00", "2023-07-24T16:04:56+00:00", "2023-07-24T16:05:56+00:00", "2023-07-24T16:07:04+00:00", "2023-07-24T16:08:48+00:00", "2023-07-24T16:10:12+00:00", "2023-07-24T16:11:53+00:00", "2023-07-24T16:13:03+00:00", "2023-07-24T16:15:01+00:00", "2023-07-24T16:16:04+00:00", "2023-07-24T16:17:34+00:00", "2023-07-24T16:18:55+00:00", "2023-07-24T16:20:22+00:00", "2023-07-24T16:21:56+00:00", "2023-07-24T16:23:11+00:00", "2023-07-24T16:26:45+00:00", "2023-07-24T16:28:56+00:00", "2023-07-24T16:30:57+00:00", "2023-07-24T16:34:04+00:00", "2023-07-24T16:35:14+00:00", "2023-07-24T16:38:27+00:00", "2023-07-24T16:39:31+00:00", "2023-07-24T16:41:23+00:00", "2023-07-24T16:42:19+00:00", "2023-07-24T16:44:48+00:00", "2023-07-24T16:46:19+00:00", "2023-07-24T16:47:19+00:00", "2023-07-24T16:49:58+00:00", "2023-07-24T16:51:42+00:00", "2023-07-24T16:53:58+00:00", "2023-07-24T16:55:15+00:00", "2023-07-24T16:56:39+00:00", "2023-07-24T16:58:44+00:00", "2023-07-24T16:59:56+00:00", "2023-07-24T17:02:08+00:00", "2023-07-24T17:03:29+00:00", "2023-07-24T17:04:36+00:00", "2023-07-24T17:06:36+00:00", "2023-07-24T17:07:46+00:00", "2023-07-24T17:09:10+00:00", "2023-07-24T17:12:59+00:00", "2023-07-24T17:14:51+00:00", "2023-07-24T17:16:16+00:00", "2023-07-24T17:17:36+00:00", "2023-07-24T17:19:04+00:00", "2023-07-24T17:21:01+00:00", "2023-07-24T17:22:41+00:00", "2023-07-24T17:24:11+00:00", "2023-07-24T17:24:54+00:00", "2023-07-24T17:26:26+00:00", "2023-07-24T17:28:02+00:00", "2023-07-24T17:29:35+00:00", "2023-07-24T17:30:59+00:00", "2023-07-24T17:32:24+00:00", "2023-07-24T17:33:16+00:00", "2023-07-24T17:35:36+00:00", "2023-07-24T17:37:00+00:00", "2023-07-24T17:38:49+00:00", "2023-07-24T17:39:41+00:00", "2023-07-24T17:41:58+00:00", "2023-07-24T17:43:34+00:00", "2023-07-24T17:46:03+00:00", "2023-07-24T17:47:07+00:00", "2023-07-24T17:48:12+00:00", "2023-07-24T17:50:16+00:00", "2023-07-24T17:53:03+00:00", "2023-07-24T17:53:57+00:00", "2023-07-24T17:55:04+00:00", "2023-07-24T17:57:00+00:00", "2023-07-24T17:59:06+00:00", "2023-07-24T18:00:07+00:00", "2023-07-24T18:02:14+00:00", "2023-07-24T18:03:51+00:00", "2023-07-24T18:05:06+00:00", "2023-07-24T18:06:32+00:00", "2023-07-24T18:08:07+00:00", "2023-07-24T18:09:41+00:00", "2023-07-24T18:11:05+00:00", "2023-07-24T18:11:53+00:00", "2023-07-24T18:13:18+00:00", "2023-07-24T18:14:42+00:00", "2023-07-24T18:16:06+00:00", "2023-07-24T18:17:51+00:00", "2023-07-24T18:19:11+00:00", "2023-07-24T18:20:24+00:00", "2023-07-24T18:22:07+00:00", "2023-07-24T18:23:07+00:00", "2023-07-24T18:24:01+00:00", "2023-07-24T18:25:17+00:00", "2023-07-24T18:26:41+00:00", "2023-07-24T18:27:34+00:00", "2023-07-24T18:29:12+00:00", "2023-07-24T18:30:12+00:00", "2023-07-24T18:31:23+00:00", "2023-07-24T18:32:35+00:00", "2023-07-24T18:34:04+00:00", "2023-07-24T18:35:13+00:00", "2023-07-24T18:36:36+00:00", "2023-07-24T18:37:57+00:00", "2023-07-24T18:39:05+00:00", "2023-07-24T18:40:44+00:00", "2023-07-24T18:41:38+00:00", "2023-07-24T18:42:44+00:00", "2023-07-24T18:44:51+00:00", "2023-07-24T18:46:35+00:00", "2023-07-24T18:47:19+00:00", "2023-07-24T18:49:28+00:00", "2023-07-24T18:50:40+00:00", "2023-07-24T18:53:09+00:00", "2023-07-24T18:54:15+00:00", "2023-07-24T18:55:15+00:00", "2023-07-24T18:57:14+00:00", "2023-07-24T18:58:16+00:00", "2023-07-24T19:00:16+00:00", "2023-07-24T19:01:16+00:00", "2023-07-24T19:02:16+00:00", "2023-07-24T19:03:16+00:00", "2023-07-24T19:04:55+00:00", "2023-07-24T19:06:04+00:00", "2023-07-24T19:07:12+00:00", "2023-07-24T19:08:16+00:00", "2023-07-24T19:09:16+00:00", "2023-07-24T19:10:29+00:00", "2023-07-24T19:11:53+00:00", "2023-07-24T19:13:17+00:00", "2023-07-24T19:14:46+00:00", "2023-07-24T19:15:34+00:00", "2023-07-24T19:16:54+00:00", "2023-07-24T19:18:22+00:00", "2023-07-24T19:20:07+00:00", "2023-07-24T19:21:17+00:00", "2023-07-24T19:23:17+00:00", "2023-07-24T19:24:17+00:00", "2023-07-24T19:25:17+00:00", "2023-07-24T19:27:15+00:00", "2023-07-24T19:28:57+00:00", "2023-07-24T19:30:05+00:00", "2023-07-24T19:31:33+00:00", "2023-07-24T19:33:17+00:00", "2023-07-24T19:34:10+00:00", "2023-07-24T19:36:02+00:00", "2023-07-24T19:36:59+00:00", "2023-07-24T19:37:39+00:00", "2023-07-24T19:40:07+00:00", "2023-07-24T19:40:56+00:00", "2023-07-24T19:42:40+00:00", "2023-07-24T19:45:13+00:00", "2023-07-24T19:45:41+00:00", "2023-07-24T19:47:13+00:00", "2023-07-24T19:49:24+00:00", "2023-07-24T19:49:58+00:00", "2023-07-24T19:52:23+00:00", "2023-07-24T19:54:15+00:00", "2023-07-24T19:55:43+00:00", "2023-07-24T19:57:59+00:00", "2023-07-24T19:58:40+00:00", "2023-07-24T19:59:18+00:00", "2023-07-24T20:00:48+00:00", "2023-07-24T20:02:00+00:00", "2023-07-24T20:03:37+00:00", "2023-07-24T20:05:09+00:00", "2023-07-24T20:06:13+00:00", "2023-07-24T20:07:15+00:00", "2023-07-24T20:08:26+00:00", "2023-07-24T20:09:19+00:00", "2023-07-24T20:10:19+00:00", "2023-07-24T20:11:19+00:00", "2023-07-24T20:12:19+00:00", "2023-07-24T20:13:19+00:00", "2023-07-24T20:15:08+00:00", "2023-07-24T20:16:19+00:00", "2023-07-24T20:18:19+00:00", "2023-07-24T20:19:21+00:00", "2023-07-24T20:21:20+00:00", "2023-07-24T20:22:22+00:00", "2023-07-24T20:24:20+00:00", "2023-07-24T20:26:20+00:00", "2023-07-24T20:27:47+00:00", "2023-07-24T20:29:21+00:00", "2023-07-24T20:30:55+00:00", "2023-07-24T20:31:48+00:00", "2023-07-24T20:33:36+00:00", "2023-07-24T20:35:57+00:00", "2023-07-24T20:38:21+00:00", "2023-07-24T20:40:50+00:00", "2023-07-24T20:43:21+00:00", "2023-07-24T20:47:15+00:00", "2023-07-25T03:12:05+00:00", "2023-07-25T04:48:28+00:00", "2023-07-25T04:49:35+00:00", "2023-07-25T04:51:28+00:00", "2023-07-25T04:55:26+00:00", "2023-07-25T04:56:57+00:00", "2023-07-25T04:59:26+00:00", "2023-07-25T05:01:26+00:00", "2023-07-25T05:02:26+00:00", "2023-07-25T05:05:26+00:00", "2023-07-25T05:07:23+00:00", "2023-07-25T05:09:27+00:00", "2023-07-25T05:11:27+00:00", "2023-07-25T05:12:45+00:00", "2023-07-25T05:14:27+00:00", "2023-07-25T05:16:46+00:00", "2023-07-25T05:19:28+00:00", "2023-07-25T05:21:11+00:00", "2023-07-25T05:22:28+00:00", "2023-07-25T05:24:28+00:00", "2023-07-25T05:26:15+00:00", "2023-07-25T05:29:13+00:00", "2023-07-25T05:31:25+00:00", "2023-07-25T05:33:26+00:00", "2023-07-25T05:35:27+00:00", "2023-07-25T05:39:29+00:00", "2023-07-25T05:41:28+00:00", "2023-07-25T05:44:07+00:00", "2023-07-25T05:46:29+00:00", "2023-07-25T05:48:28+00:00", "2023-07-25T05:49:35+00:00", "2023-07-25T05:52:28+00:00", "2023-07-25T05:54:11+00:00", "2023-07-25T05:56:30+00:00", "2023-07-25T05:58:04+00:00", "2023-07-25T06:00:20+00:00", "2023-07-25T06:02:09+00:00", "2023-07-25T06:03:29+00:00", "2023-07-25T06:05:30+00:00", "2023-07-25T06:08:31+00:00", "2023-07-25T06:10:31+00:00", "2023-07-25T06:13:31+00:00", "2023-07-25T06:14:31+00:00", "2023-07-25T06:18:31+00:00", "2023-07-25T06:19:31+00:00", "2023-07-25T06:20:50+00:00"], "elevations": [10.5, 10.5, 10.0, 9.5, 10.7, 11.0, 11.0, 12.0, 12.2, 12.7, 4.0, 8.5, null, 10.2, 11.0, 12.7, 13.0, 12.5, 12.0, 12.0, 12.5, 12.7, 31.0, 23.0, 13.0, 12.0, 13.5, 16.0, 17.0, 18.0, 18.2, 18.0, 16.3, 10.5, 10.2, 8.0, 0.5, 2.1, 4.3, -4.3, -3.0, -3.6, -3.3, -3.0, -3.2, -2.3, -2.0, -1.2, -0.3, 2.0, 8.7, 11.9, 15.3, 24.7, 23.3, 6.3, 13.0, 33.3, 34.4, 31.7, 29.0, 27.3, 26.4, 22.0, 17.5, 6.3, 0.2, 2.0, 2.5, 2.0, 2.4, 3.0, 6.0, 8.5, 8.7, 9.0, 11.0, 12.0, 11.3, 10.7, 11.0, 11.0, 11.0, 10.7, 12.0, 19.5, 23.0, 22.0, 21.3, 23.5, 25.0, 24.3, 53.3, 56.5, 87.0, null, null, null, null, 49.0, 26.9, 57.5, 35.0, 34.5, 31.5, 10.1, 21.5, 15.3, 14.0, 14.8, 15.5, 16.0, 16.7, 28.4, 29.0, 32.0, 42.3, 56.6, 62.3, 71.0, 73.5, 37.8, 15.0, 15.0, 18.0, 18.5, 20.0, 23.0, 24.7, 31.0, 11.7, 14.0, 14.0, 14.8, 15.0, 16.0, 15.5, 18.3, 17.5, 16.0, 15.0, 16.0, 15.3, 16.4, 28.5, 7.5, 6.0, 5.0, 17.4, 17.5, 2.0, 0.0, -19.5, -4.5, -8.6, 3.0, -0.3, 0.0, 0.0, -0.3, 16.0, 4.5, 5.0, 4.1, 4.0, 5.0, 5.5, 4.7, 14.0, 7.0, 5.0, 4.0, 5.5, 5.0, 5.7, 6.5, 6.2, 6.7, 6.0, 3.0, 6.2, 9.0, 5.0, 9.0, 8.0, 8.0, 8.4, 8.5, 4.0, 10.0, 10.0, 11.0, 12.2, 12.0, 12.0, 12.0, 12.0, 12.2, 19.0, 14.0, 15.5, 13.5, 12.5, 12.0, 12.0, 12.0, 12.8, 7.3, 4.0, 7.0, 6.0, 6.1, 6.0, 6.0, 6.0, 6.8, 7.5, 14.0, 10.0, 5.7, 7.3, 4.5, 11.0, 8.7, 7.7, 7.0, 7.5, 9.1, 10.0, 13.0, 12.0, 10.8, 12.0, 12.0, 12.0, 15.7, 14.3, 14.0, 12.3, 12.0, 16.2, 5.0, 4.0, 5.0, -0.6, 2.3, 3.0, 3.5, 9.0, 8.7, 9.3, 10.0, 10.0, 10.5, 10.0, 10.0, 11.0, 24.0, 16.8, 17.0, 17.0, 17.0, 17.0, 16.8, 17.5, 18.0, 17.0, 17.8, 18.0, 18.0, 18.0, 18.0, 18.3, 17.0, 16.0, 15.5, 14.8, 12.0, 12.0, 0.5, 8.5, 4.5, 10.5, 7.0, 0.7, 29.5, 27.0, 32.5, 32.0, 32.5, 33.5, 24.0, 38.5, 28.8, 27.7, 27.0, 26.5, 28.9, 28.3, 9.5, 11.0, 11.0, 10.8, 12.0, 13.0, 30.0, 13.9, 18.0, 17.0, 16.5, 17.0, 16.0, 12.8, 15.5, 17.5, 15.0, 8.8, 11.0, 11.0, 11.5, 23.5, 15.3, 14.5, 13.0, 13.0, 13.0, 12.7, 12.0, 12.0, 11.0, 10.0, 10.0, 10.5, 9.5, 25.0, 6.0, 9.0, 9.0, 9.5, 10.0, 7.5, 7.0, 6.0, 6.2, 5.0, 6.0, 8.0, 7.0, 7.5, 6.7, 8.0, 8.0, 6.5, 6.0, 6.5, 6.7, 6.5, 6.5, 7.0, 6.0, 6.0, 6.0, 6.0, 6.5, 5.0, 6.0, 7.0, 6.3, 6.5, 7.0, 7.0, 6.0, 7.0, 7.0, 7.0, 6.3, null, 6.5, 7.0, 8.0, 7.0, 7.0, 8.0, 6.5, 7.0, 8.0, 8.0, 8.0, 8.0, 7.0, 7.0, 7.0, 7.0, 7.5, 7.0, 7.0, 7.0, 7.0, 7.0, 7.0, 7.0, 6.0, 6.0, 6.0, 6.0, 6.0, 6.2, 5.5, 5.5, 5.0, 5.0, 5.0, 4.4, 10.0, 6.0, 4.5, 4.5, 6.0, 6.4, 6.5, 7.0, 7.5, 10.0, 11.5, 10.5, 11.0, 11.0, 11.0, 10.5, 10.0, 9.0, 8.4, 2.0, 2.5, 3.0, 5.0, 4.0, 3.0, 2.3, 3.0, 3.0, 4.0, 3.0, 3.0, 2.0, 4.0, 4.7, 5.0, 5.0, 8.0, null, 9.5, 9.0, 9.0, 8.4, 8.0, 8.0, 8.0, 8.0, 8.0, 7.0, 7.0, 6.7, 7.0, 7.0, 7.0, 7.0, 7.0, 6.7, 7.0, 7.0, 7.0, 7.0, 7.0, 7.0, 6.7, 7.0, 7.0, 7.0, 7.0, 6.8, 6.0, 7.0, 7.0, 7.0, 7.0, 7.0, 7.0, 7.7, 7.0, 6.5, 7.0, 7.0, 6.0, 5.0, 4.7, 5.5, 5.0, 5.0, 5.0, 8.0, 8.4, 7.0, 7.0, 7.0, 7.0, 7.0, 6.7, 7.0, 7.0, 7.0, 7.0, 7.0, 7.0, 6.8, 7.0, 6.0, 6.0, 6.0, 5.5, 5.2, 5.0, 5.0, 5.0, 5.0, 5.0, 5.0, 5.0, 5.0, 5.0, 5.0, 5.5, 6.2, 6.0, 6.0, 6.0, 6.0, 6.0, 6.0, 6.2, 6.0, 6.0, 7.0, 6.0, 6.0, 6.1, 7.0, 6.0, 6.0, 7.0, 7.0, 7.0, 10.8, 9.0, 9.0, 9.0, 12.0, 10.5, 9.0, 8.4, 8.0, 9.0, 10.0, 10.0, 10.2, 9.0, 9.5, 10.0, 10.0, 10.0, 10.2, 10.0, 10.0, 10.0, 10.0, 10.0, 10.0, 10.0, 10.0, 10.0, 10.0, 10.0, 11.2, 11.5, 12.0, 15.0, null, 10.0, 9.2, 8.0, 9.0, 9.0, 9.0, 9.0, 9.0, 9.2, 10.0, 10.0, 11.0, null, 10.5, 10.5, 9.0, 9.0, 9.0, 9.0, 8.5, 10.0, 8.4, 9.0, 9.5, 10.0, 10.0, 11.2, 7.0, 7.0, 8.0, 8.5, 9.0, 8.2, 8.0, 8.0, 8.0, 7.5, 6.7, 6.0, 5.0, 5.5, 6.0, 6.2, 6.0, 7.0, 6.0, 6.0, 5.0, 4.4, 6.0, 6.0, 5.0, null, 5.0, 6.2, 6.0, 5.0, 5.0, 7.0, 5.0, 5.0, 4.7, 5.0, 5.0, 5.0, 6.0, 6.5, 6.4, 7.0, 7.0, 6.0, -4.5, 11.0, 6.2, 5.5, 5.0, 0.0, 3.5, 4.7, 5.5, 6.0, 5.0, 5.5, 6.2, 7.5, 8.0, 7.7, 9.0, 8.2, 7.0, 8.0, 8.0, 8.5, 8.0, 8.0, 9.5, 9.5, 10.0, 10.0, 10.0, 10.0, 10.5, 10.0, 7.0, 8.0, 11.0, 8.0, 8.2, 8.0, 2.0, 6.0, 6.0, 6.0, 2.0, 4.4, 6.0, 7.0, null, 7.0, 8.0, 6.2, 7.0, 7.0, 8.0, 8.0, 8.0, 6.7, 7.0, 7.0, 10.5, 6.5, null, 9.0, 12.0, 11.5, 12.0, 12.0, 12.7, 13.0, 14.0, 13.0, 12.5, 12.5, 12.5, null, 8.0, 9.0, 10.0, 10.2, 10.0, 10.0, 10.0, 10.0, 11.0, 9.2, 11.0, 9.0, 9.0, 9.0, null, 8.0, 8.2, 7.0, 6.0, 6.0, 6.0, 6.0, 6.2, 6.0, 6.0, 17.0, 0.5, 4.0, 2.3, 3.0, 3.0, 2.5, 2.0, 2.0, 2.2, 2.0, 2.0, 1.5, 25.0, 24.0, 0.2, 36.0, 28.0, 2.0, 2.0, null, -10.5, 0.0, 2.3, 2.0, 3.0, 3.0, 4.0, 10.0, 10.0, 5.7, null, 3.0, 10.0, 9.0, 7.0, 6.5, 6.0, 6.0, 4.0, null, 1.0, 6.0, 7.0, null, 7.0, 8.4, 7.0, 7.0, 8.0, 7.5, 10.0, 9.0, 9.5, 9.0, 9.0, 3.0, 5.5, 7.0, 11.0, 8.4, 8.0, 7.0, 7.0, 8.0, 12.0, 12.0, 6.5, 14.5, 12.0, 15.0, 7.0, 13.5, 5.0, 6.0, 6.4, 6.5, 6.0, 6.0, 5.5, 7.0, 8.0, 6.4, 7.0, null, 8.0, 8.0, 7.0, 6.5, 7.0, 8.0, 7.0, 25.0, 5.0, 17.0, 14.5, 13.0, 14.0, 15.0, 15.0, 13.0, 12.5, -3.0, 2.3, 5.0, 12.0, 10.0, 8.0, -2.0, 9.0, 9.0, 7.0, 7.0, 7.0, 7.0, 8.5, 8.5, 9.0, 6.7, 9.0, 8.0, 6.5, 27.0, 31.7, 31.9, 26.5, -3.0, 14.2, 24.2, 27.5, 28.0, 24.7, 24.0, 41.0, 38.0, 36.0, 35.0, 30.5, 28.4, 26.5, 16.0, 14.5, 13.5, 14.3, 23.5, 16.0, 15.5, 15.0, 14.8, 15.0, 8.0, 10.0, 11.3, 12.0, 12.0, 13.5, 14.0, 14.8, 16.0, 18.5, 20.0, 20.3, 20.0, 22.5, 24.0, 23.5, 22.3, 21.0, 21.0, 21.0, 20.0, 19.3, 20.0, 21.0]}