{"type": "Feature", "properties": {"leg_id": 58, "name": "20230710 - Airlie Beach to Magnetic Island", "stated_nm": 201.0, "computed_nm": 201.0}, "geometry": {"type": "LineString", "coordinates": [[148.72381, -20.260619], [148.724664, -20.258828], [148.726692, -20.256464], [148.72856, -20.254286], [148.729539, -20.252276], [148.731014, -20.250132], [148.732415, -20.246943], [148.733819, -20.244016], [148.735071, -20.241878], [148.736522, -20.24045], [148.737703, -20.241272], [148.738545, -20.24022], [148.739581, -20.238444], [148.740769, -20.236287], [148.742043, -20.234118], [148.743603, -20.231679], [148.74568, -20.230146], [148.74744, -20.228894], [148.749118, -20.22693], [148.750834, -20.225183], [148.752519, -20.223086], [148.754224, -20.221041], [148.755637, -20.219203], [148.757398, -20.216513], [148.758378, -20.214695], [148.760125, -20.212258], [148.76214, -20.209889], [148.763479, -20.208301], [148.76485, -20.206713], [148.766408, -20.203943], [148.767796, -20.202141], [148.769137, -20.199892], [148.770026, -20.198008], [148.771848, -20.195907], [148.773227, -20.19436], [148.7744, -20.191963], [148.776321, -20.190671], [148.778241, -20.189601], [148.779261, -20.18782], [148.780445, -20.186272], [148.781653, -20.184126], [148.78299, -20.182593], [148.784423, -20.180336], [148.786602, -20.177668], [148.787971, -20.1762], [148.78917, -20.173857], [148.790919, -20.171892], [148.792213, -20.170464], [148.793968, -20.168575], [148.795346, -20.166811], [148.796992, -20.164389], [148.798017, -20.162978], [148.799365, -20.160689], [148.800565, -20.159021], [148.801733, -20.157205], [148.802987, -20.154862], [148.804113, -20.153259], [148.805697, -20.151716], [148.806994, -20.150213], [148.808137, -20.148569], [148.808976, -20.147011], [148.81071, -20.145338], [148.812359, -20.143464], [148.813833, -20.142023], [148.81522, -20.140539], [148.816235, -20.139361], [148.817146, -20.137506], [148.818314, -20.135779], [148.819572, -20.134088], [148.821109, -20.132741], [148.82249, -20.131188], [148.823616, -20.129401], [148.825722, -20.127008], [148.827112, -20.125635], [148.828308, -20.12377], [148.830293, -20.121444], [148.832068, -20.119535], [148.833675, -20.117663], [148.835312, -20.115621], [148.83676, -20.114058], [148.838479, -20.112153], [148.839628, -20.110295], [148.840807, -20.108337], [148.842439, -20.107354], [148.84482, -20.107413], [148.848878, -20.107569], [148.851247, -20.107783], [148.854121, -20.108116], [148.85782, -20.108158], [148.860556, -20.108153], [148.863281, -20.108053], [148.866147, -20.108042], [148.870654, -20.108336], [148.873276, -20.108385], [148.87663, -20.108311], [148.879418, -20.108146], [148.88218, -20.107985], [148.884642, -20.10778], [148.886916, -20.107189], [148.889541, -20.106639], [148.891553, -20.106009], [148.892525, -20.106106], [148.896881, -20.104768], [148.899934, -20.103443], [148.901411, -20.103912], [148.90157, -20.104409], [148.900156, -20.098576], [148.899971, -20.096293], [148.899842, -20.091399], [148.89971, -20.086859], [148.899818, -20.084777], [148.899957, -20.079141], [148.899679, -20.075524], [148.899634, -20.073279], [148.901148, -20.070315], [148.902822, -20.067731], [148.905281, -20.064877], [148.907844, -20.062044], [148.90937, -20.060058], [148.91111, -20.057278], [148.912566, -20.054664], [148.914141, -20.051872], [148.915628, -20.05065], [148.916609, -20.051997], [148.918095, -20.052969], [148.920242, -20.050877], [148.921794, -20.049222], [148.92409, -20.046764], [148.925901, -20.044754], [148.927795, -20.04263], [148.929314, -20.040918], [148.93105, -20.038867], [148.932579, -20.037343], [148.934744, -20.035115], [148.935882, -20.034014], [148.937138, -20.032668], [148.93862, -20.030795], [148.940309, -20.028662], [148.941702, -20.026411], [148.943049, -20.024219], [148.944505, -20.022754], [148.94568, -20.02122], [148.946938, -20.019471], [148.948726, -20.017598], [148.949988, -20.016153], [148.95157, -20.013953], [148.952299, -20.012801], [148.955054, -20.010358], [148.956297, -20.008611], [148.957121, -20.007316], [148.959353, -20.005568], [148.960788, -20.004042], [148.962061, -20.002478], [148.963275, -20.000967], [148.964841, -19.998642], [148.9656, -19.997156], [148.966667, -19.994848], [148.967675, -19.993573], [148.969212, -19.991624], [148.970832, -19.989362], [148.97207, -19.988096], [148.973577, -19.986851], [148.97532, -19.985219], [148.976887, -19.983706], [148.979048, -19.981042], [148.980515, -19.979661], [148.982317, -19.978018], [148.98418, -19.976191], [148.985663, -19.974722], [148.987653, -19.973033], [148.990069, -19.971247], [148.991197, -19.970011], [148.992378, -19.968448], [148.993597, -19.966782], [148.995269, -19.964438], [148.996531, -19.962951], [148.997996, -19.961428], [148.998921, -19.959944], [149.000302, -19.95807], [149.001579, -19.955622], [149.002761, -19.952792], [149.004288, -19.951025], [149.005793, -19.948403], [149.007287, -19.946549], [149.008636, -19.944524], [149.0095, -19.942895], [149.01046, -19.940967], [149.011887, -19.938767], [149.013347, -19.936778], [149.014451, -19.935291], [149.016299, -19.933092], [149.017567, -19.931079], [149.018668, -19.928905], [149.019628, -19.92671], [149.019454, -19.924897], [149.01942, -19.922979], [149.019304, -19.921013], [149.019182, -19.919289], [149.018888, -19.917078], [149.018977, -19.915585], [149.018936, -19.91392], [149.01885, -19.911941], [149.019153, -19.909775], [149.019896, -19.907355], [149.020579, -19.904922], [149.021198, -19.902136], [149.021808, -19.899287], [149.022094, -19.896553], [149.022352, -19.89398], [149.022967, -19.891308], [149.024, -19.889146], [149.024941, -19.886823], [149.025751, -19.884544], [149.026696, -19.881963], [149.027697, -19.878399], [149.028835, -19.875235], [149.029816, -19.873088], [149.030682, -19.870586], [149.031798, -19.867939], [149.032523, -19.865623], [149.033608, -19.862406], [149.034577, -19.859805], [149.035991, -19.857808], [149.03748, -19.855602], [149.038989, -19.85316], [149.040432, -19.851177], [149.042151, -19.848618], [149.043121, -19.846343], [149.044627, -19.843879], [149.046041, -19.840881], [149.046887, -19.838703], [149.047779, -19.836121], [149.048589, -19.833973], [149.049768, -19.831379], [149.050823, -19.828981], [149.052268, -19.825908], [149.053157, -19.823553], [149.05407, -19.821317], [149.05503, -19.818638], [149.055648, -19.816799], [149.056211, -19.814258], [149.057089, -19.812738], [149.058939, -19.811188], [149.060713, -19.809591], [149.063047, -19.80922], [149.063912, -19.809183], [149.063133, -19.809128], [149.059336, -19.808604], [149.056299, -19.808586], [149.05365, -19.80866], [149.050928, -19.807724], [149.047211, -19.80648], [149.043766, -19.805343], [149.040453, -19.804385], [149.03802, -19.80401], [149.035677, -19.803834], [149.031994, -19.803487], [149.031617, -19.803725], [149.028085, -19.803879], [149.025215, -19.804161], [149.022739, -19.803997], [149.020724, -19.803927], [149.0186, -19.803485], [149.015588, -19.80292], [149.012995, -19.803273], [149.009982, -19.803677], [149.008055, -19.803572], [149.005328, -19.803295], [149.003467, -19.802936], [149.000618, -19.802338], [148.996299, -19.801452], [148.993955, -19.801013], [148.990993, -19.800382], [148.987467, -19.799555], [148.98355, -19.798806], [148.981364, -19.798482], [148.977838, -19.798064], [148.97544, -19.797561], [148.972956, -19.79714], [148.970962, -19.796819], [148.968467, -19.796399], [148.964142, -19.795756], [148.962128, -19.79544], [148.960067, -19.79513], [148.957131, -19.794712], [148.953698, -19.794138], [148.951869, -19.793844], [148.949475, -19.793524], [148.946835, -19.793107], [148.944107, -19.792672], [148.941889, -19.792379], [148.940051, -19.792126], [148.937363, -19.791696], [148.935175, -19.791227], [148.932803, -19.790846], [148.930832, -19.790519], [148.929039, -19.790208], [148.926421, -19.789795], [148.924237, -19.789425], [148.921747, -19.788962], [148.919242, -19.788539], [148.917246, -19.788187], [148.915198, -19.787889], [148.913232, -19.787545], [148.911046, -19.787354], [148.909033, -19.787024], [148.906506, -19.786505], [148.904484, -19.785859], [148.900988, -19.784717], [148.898211, -19.783783], [148.896721, -19.78327], [148.894181, -19.782697], [148.891856, -19.78227], [148.88943, -19.781904], [148.887816, -19.78164], [148.886187, -19.78135], [148.884276, -19.780899], [148.881914, -19.78048], [148.879579, -19.780103], [148.876872, -19.779667], [148.874712, -19.779331], [148.872057, -19.778865], [148.870047, -19.778519], [148.867655, -19.778136], [148.865648, -19.777855], [148.863909, -19.777471], [148.862138, -19.777131], [148.859197, -19.776888], [148.856068, -19.776778], [148.853473, -19.776674], [148.851174, -19.776719], [148.849756, -19.776845], [148.846907, -19.777016], [148.844797, -19.777128], [148.841521, -19.777649], [148.839058, -19.778026], [148.836906, -19.778446], [148.834716, -19.779055], [148.832361, -19.779561], [148.829988, -19.779933], [148.827782, -19.780156], [148.824693, -19.780523], [148.823025, -19.780753], [148.820969, -19.781059], [148.818459, -19.781382], [148.816248, -19.781595], [148.81415, -19.781583], [148.81194, -19.781657], [148.810109, -19.781562], [148.80716, -19.781213], [148.804905, -19.781066], [148.802902, -19.780889], [148.800479, -19.780762], [148.798023, -19.780595], [148.795446, -19.780296], [148.793347, -19.780244], [148.791636, -19.780103], [148.790144, -19.779397], [148.788294, -19.779171], [148.786125, -19.778947], [148.784365, -19.778209], [148.78265, -19.777402], [148.780515, -19.777108], [148.778717, -19.77659], [148.776526, -19.776485], [148.77392, -19.776361], [148.77167, -19.776112], [148.769283, -19.775325], [148.767529, -19.774968], [148.765446, -19.774576], [148.763469, -19.77417], [148.761666, -19.773369], [148.760311, -19.772072], [148.75906, -19.771015], [148.757466, -19.769695], [148.755172, -19.76823], [148.753335, -19.767393], [148.751362, -19.766719], [148.749319, -19.766119], [148.747634, -19.765487], [148.745592, -19.765017], [148.742928, -19.764222], [148.74097, -19.764029], [148.739308, -19.76354], [148.737396, -19.763043], [148.73564, -19.762573], [148.733898, -19.762213], [148.731497, -19.76148], [148.729647, -19.760937], [148.727043, -19.760116], [148.725046, -19.759551], [148.723105, -19.759172], [148.720232, -19.758238], [148.718234, -19.757524], [148.716697, -19.756787], [148.714073, -19.755843], [148.711994, -19.75528], [148.709943, -19.754614], [148.708023, -19.75411], [148.70606, -19.753481], [148.704076, -19.752958], [148.702266, -19.752379], [148.700076, -19.751571], [148.69824, -19.750694], [148.696296, -19.749819], [148.694612, -19.748971], [148.693391, -19.747747], [148.691104, -19.745976], [148.688531, -19.744952], [148.686489, -19.744082], [148.68442, -19.743304], [148.682741, -19.742694], [148.680368, -19.741381], [148.67895, -19.7401], [148.677734, -19.738812], [148.676217, -19.737132], [148.675064, -19.735446], [148.673617, -19.734073], [148.671697, -19.733669], [148.669436, -19.734178], [148.667417, -19.733887], [148.665488, -19.733094], [148.663654, -19.732442], [148.660871, -19.732562], [148.657906, -19.732986], [148.656065, -19.733045], [148.653404, -19.732953], [148.650738, -19.732582], [148.648005, -19.732217], [148.645171, -19.732535], [148.642695, -19.733147], [148.639557, -19.733789], [148.636904, -19.734298], [148.634727, -19.734599], [148.63161, -19.735161], [148.629577, -19.735384], [148.626745, -19.735152], [148.623803, -19.734897], [148.621086, -19.734788], [148.619213, -19.734792], [148.616484, -19.73479], [148.613773, -19.734812], [148.611945, -19.734886], [148.610017, -19.734952], [148.607502, -19.735043], [148.605298, -19.735022], [148.603213, -19.734961], [148.600965, -19.735004], [148.598105, -19.735048], [148.596022, -19.735019], [148.594191, -19.734953], [148.591826, -19.735177], [148.589969, -19.735393], [148.587923, -19.735573], [148.585706, -19.735783], [148.583562, -19.735842], [148.581554, -19.735914], [148.579766, -19.736111], [148.576058, -19.736564], [148.573734, -19.736974], [148.57112, -19.737445], [148.568952, -19.737661], [148.567261, -19.737749], [148.565189, -19.737745], [148.563294, -19.737837], [148.561239, -19.737958], [148.558759, -19.738179], [148.555854, -19.738337], [148.554064, -19.738602], [148.552038, -19.738806], [148.549578, -19.739025], [148.54795, -19.739111], [148.545993, -19.739199], [148.54371, -19.738719], [148.541623, -19.738483], [148.539279, -19.739482], [148.537151, -19.741], [148.534532, -19.741486], [148.532449, -19.741316], [148.530535, -19.741104], [148.528321, -19.740914], [148.525592, -19.740683], [148.523584, -19.740665], [148.521534, -19.74062], [148.5193, -19.740133], [148.515585, -19.739366], [148.513385, -19.739211], [148.511374, -19.738911], [148.508972, -19.738768], [148.505573, -19.738155], [148.503746, -19.737891], [148.501086, -19.73748], [148.49823, -19.737056], [148.495595, -19.736514], [148.493112, -19.736316], [148.489684, -19.736006], [148.487305, -19.73571], [148.484733, -19.735302], [148.481846, -19.734855], [148.478947, -19.734387], [148.476494, -19.734061], [148.47334, -19.73363], [148.471224, -19.733353], [148.469297, -19.733172], [148.466718, -19.732344], [148.464119, -19.731905], [148.461321, -19.731389], [148.458299, -19.730767], [148.456272, -19.730435], [148.453588, -19.729973], [148.451184, -19.72963], [148.448432, -19.729201], [148.446052, -19.728763], [148.443732, -19.72854], [148.441419, -19.728201], [148.43941, -19.727995], [148.436759, -19.727721], [148.434776, -19.727445], [148.43246, -19.727101], [148.430463, -19.726896], [148.428611, -19.727044], [148.426491, -19.727483], [148.422601, -19.727305], [148.42019, -19.726869], [148.417991, -19.726628], [148.416181, -19.726597], [148.414385, -19.726001], [148.411434, -19.725736], [148.409549, -19.725327], [148.407064, -19.724813], [148.404449, -19.724462], [148.402036, -19.723954], [148.398478, -19.723422], [148.395929, -19.72299], [148.393389, -19.722714], [148.391191, -19.722496], [148.388248, -19.721803], [148.386379, -19.721442], [148.383443, -19.720993], [148.381084, -19.720927], [148.378536, -19.720772], [148.376583, -19.72061], [148.373643, -19.720237], [148.371183, -19.719816], [148.368337, -19.719484], [148.365914, -19.719465], [148.363261, -19.719275], [148.360676, -19.719244], [148.357602, -19.719116], [148.356176, -19.719105], [148.354735, -19.72023], [148.353851, -19.722148], [148.353899, -19.723929], [148.354081, -19.725148], [148.354161, -19.72487], [148.349056, -19.723441], [148.344971, -19.722894], [148.340771, -19.722715], [148.33905, -19.723678], [148.336872, -19.724456], [148.334431, -19.724603], [148.331381, -19.724768], [148.328928, -19.724822], [148.326443, -19.725151], [148.324577, -19.725384], [148.322395, -19.725467], [148.319599, -19.725792], [148.317189, -19.725927], [148.31522, -19.726196], [148.313071, -19.726163], [148.310572, -19.725748], [148.308994, -19.725626], [148.307148, -19.725595], [148.304785, -19.725906], [148.302692, -19.725948], [148.300753, -19.72546], [148.298765, -19.724973], [148.295997, -19.724357], [148.293594, -19.724106], [148.291535, -19.724059], [148.289445, -19.723458], [148.287725, -19.723068], [148.285271, -19.722185], [148.283333, -19.721526], [148.281529, -19.721069], [148.27949, -19.720339], [148.277485, -19.719811], [148.275021, -19.719117], [148.272111, -19.718728], [148.269404, -19.718368], [148.266512, -19.718308], [148.264932, -19.7184], [148.262899, -19.718354], [148.261212, -19.71823], [148.258914, -19.718176], [148.255935, -19.718117], [148.253589, -19.718116], [148.250347, -19.717999], [148.247812, -19.717619], [148.244977, -19.717129], [148.24225, -19.716773], [148.239813, -19.716508], [148.237287, -19.715921], [148.234291, -19.715347], [148.232127, -19.715012], [148.2295, -19.7146], [148.227238, -19.714422], [148.224549, -19.713808], [148.222641, -19.713192], [148.22084, -19.712722], [148.218635, -19.712107], [148.216674, -19.711675], [148.214112, -19.711201], [148.211367, -19.710543], [148.20934, -19.710024], [148.206845, -19.709478], [148.205369, -19.709183], [148.202603, -19.708491], [148.199914, -19.708196], [148.197243, -19.707784], [148.194538, -19.707419], [148.192305, -19.707168], [148.189725, -19.706765], [148.187109, -19.70657], [148.184572, -19.706305], [148.181813, -19.706012], [148.179305, -19.705658], [148.176627, -19.705469], [148.174011, -19.70514], [148.171429, -19.704739], [148.169318, -19.704382], [148.166779, -19.703923], [148.165109, -19.703677], [148.162267, -19.703353], [148.159769, -19.703047], [148.156317, -19.702737], [148.154308, -19.702443], [148.151737, -19.702376], [148.148496, -19.702516], [148.145916, -19.702676], [148.1429, -19.703016], [148.140578, -19.703171], [148.137633, -19.703462], [148.135342, -19.703803], [148.131852, -19.704167], [148.128822, -19.7044], [148.126401, -19.704472], [148.123214, -19.704537], [148.119867, -19.704636], [148.117312, -19.704747], [148.114728, -19.704804], [148.11292, -19.70493], [148.109974, -19.705126], [148.107411, -19.70519], [148.105139, -19.705266], [148.102437, -19.705203], [148.100101, -19.705216], [148.096959, -19.705068], [148.093988, -19.705299], [148.090668, -19.705643], [148.088402, -19.70588], [148.085041, -19.706046], [148.082092, -19.70623], [148.078974, -19.70647], [148.075886, -19.706636], [148.073035, -19.706947], [148.068801, -19.707295], [148.065932, -19.707635], [148.062875, -19.708059], [148.060822, -19.708327], [148.058424, -19.708491], [148.054667, -19.708811], [148.052476, -19.708971], [148.049094, -19.709409], [148.045339, -19.709758], [148.041839, -19.71001], [148.039108, -19.710263], [148.036216, -19.71031], [148.033834, -19.710377], [148.031125, -19.710471], [148.028637, -19.710618], [148.026352, -19.710853], [148.022573, -19.711048], [148.019474, -19.71119], [148.016776, -19.711349], [148.014828, -19.711653], [148.012149, -19.711948], [148.009882, -19.712131], [148.008175, -19.712284], [148.005954, -19.712238], [148.002133, -19.712483], [147.999693, -19.712563], [147.997914, -19.71256], [147.995832, -19.712592], [147.993439, -19.712568], [147.991413, -19.712542], [147.989733, -19.712503], [147.987611, -19.712482], [147.985093, -19.712315], [147.983133, -19.712356], [147.980576, -19.712589], [147.97745, -19.712804], [147.975153, -19.712862], [147.972968, -19.712962], [147.970159, -19.712975], [147.967794, -19.712936], [147.96529, -19.712972], [147.962633, -19.712959], [147.960505, -19.71292], [147.958567, -19.712777], [147.955838, -19.712528], [147.95377, -19.712447], [147.952087, -19.712392], [147.950011, -19.712333], [147.948274, -19.712182], [147.946251, -19.71219], [147.944606, -19.712225], [147.942911, -19.712234], [147.940252, -19.712022], [147.937824, -19.711961], [147.936093, -19.711995], [147.933419, -19.712063], [147.931453, -19.71215], [147.928969, -19.712366], [147.926622, -19.712422], [147.924418, -19.712612], [147.922745, -19.712737], [147.920584, -19.712795], [147.918742, -19.712883], [147.916849, -19.712931], [147.914678, -19.712743], [147.912486, -19.712645], [147.910484, -19.712361], [147.908695, -19.712073], [147.906297, -19.711863], [147.904267, -19.711543], [147.902574, -19.711114], [147.900715, -19.710619], [147.898612, -19.710102], [147.896682, -19.709789], [147.894998, -19.709394], [147.893335, -19.708921], [147.891565, -19.708518], [147.889855, -19.7082], [147.888326, -19.707853], [147.886577, -19.707463], [147.884941, -19.706936], [147.881478, -19.706268], [147.878807, -19.706051], [147.876326, -19.70562], [147.873554, -19.705335], [147.871143, -19.705065], [147.869027, -19.704919], [147.866993, -19.704698], [147.8641, -19.704532], [147.862229, -19.704324], [147.859998, -19.704025], [147.857012, -19.703464], [147.854343, -19.703127], [147.851955, -19.702839], [147.84924, -19.702222], [147.84678, -19.701875], [147.844096, -19.701618], [147.841961, -19.701004], [147.839383, -19.699913], [147.837753, -19.699261], [147.835552, -19.698291], [147.833769, -19.697498], [147.832102, -19.696845], [147.829613, -19.695791], [147.827211, -19.694637], [147.825371, -19.693929], [147.823012, -19.692627], [147.820959, -19.691871], [147.81901, -19.691389], [147.81652, -19.690796], [147.814258, -19.689978], [147.811684, -19.689343], [147.809116, -19.688496], [147.807117, -19.688402], [147.805008, -19.688101], [147.802161, -19.687922], [147.800237, -19.687815], [147.798301, -19.687266], [147.79579, -19.687086], [147.793865, -19.687148], [147.791234, -19.687222], [147.789097, -19.687126], [147.78695, -19.686937], [147.784468, -19.686884], [147.782193, -19.686759], [147.780081, -19.686885], [147.777245, -19.687184], [147.774719, -19.687401], [147.771646, -19.68782], [147.768799, -19.688237], [147.766218, -19.688595], [147.764117, -19.688943], [147.761666, -19.689241], [147.760215, -19.690162], [147.758139, -19.691164], [147.756166, -19.692538], [147.754147, -19.695569], [147.752632, -19.698055], [147.751324, -19.699813], [147.750105, -19.702244], [147.749894, -19.704442], [147.749646, -19.705851], [147.749436, -19.706988], [147.749909, -19.709685], [147.750626, -19.712361], [147.751129, -19.715854], [147.751759, -19.718931], [147.752309, -19.721436], [147.753054, -19.723302], [147.754311, -19.72518], [147.755477, -19.725866], [147.756056, -19.725669], [147.753361, -19.724313], [147.750498, -19.721626], [147.748238, -19.719347], [147.745803, -19.716842], [147.743166, -19.714186], [147.740875, -19.711942], [147.738838, -19.710107], [147.736378, -19.707693], [147.733651, -19.704951], [147.732002, -19.70334], [147.72983, -19.701123], [147.728086, -19.698732], [147.726058, -19.695676], [147.724053, -19.692396], [147.724093, -19.692149], [147.720168, -19.690842], [147.71786, -19.689649], [147.715108, -19.688337], [147.713318, -19.686693], [147.711326, -19.68472], [147.709886, -19.683255], [147.708209, -19.681633], [147.706674, -19.679826], [147.705701, -19.678807], [147.704434, -19.677555], [147.703373, -19.676391], [147.702194, -19.675228], [147.700585, -19.674245], [147.698714, -19.673227], [147.696401, -19.671476], [147.695033, -19.670134], [147.693474, -19.668676], [147.690859, -19.666597], [147.689389, -19.665458], [147.687793, -19.664289], [147.686366, -19.663255], [147.685082, -19.66205], [147.684278, -19.660848], [147.683204, -19.659426], [147.682394, -19.658202], [147.68166, -19.656829], [147.680096, -19.65502], [147.678876, -19.653502], [147.678058, -19.652055], [147.677238, -19.650743], [147.676327, -19.649406], [147.675426, -19.647933], [147.674555, -19.645728], [147.673924, -19.643829], [147.672634, -19.642168], [147.670679, -19.640617], [147.668823, -19.638708], [147.667935, -19.637111], [147.667198, -19.635215], [147.666055, -19.633217], [147.664802, -19.631012], [147.66384, -19.629278], [147.662339, -19.627063], [147.661105, -19.624976], [147.660217, -19.623194], [147.659091, -19.621242], [147.657857, -19.61916], [147.656585, -19.617342], [147.656102, -19.615988], [147.654922, -19.613483], [147.653323, -19.610864], [147.652287, -19.609001], [147.650958, -19.60676], [147.65019, -19.605023], [147.649767, -19.603449], [147.648313, -19.601383], [147.646557, -19.599173], [147.645714, -19.597647], [147.644523, -19.595226], [147.64331, -19.59345], [147.642423, -19.591342], [147.641548, -19.589656], [147.640392, -19.588042], [147.638672, -19.586491], [147.637394, -19.584974], [147.636061, -19.582622], [147.634709, -19.580184], [147.633861, -19.578424], [147.633226, -19.576639], [147.632196, -19.574698], [147.631589, -19.57324], [147.630681, -19.571381], [147.629993, -19.570121], [147.629314, -19.568529], [147.628587, -19.567175], [147.628005, -19.565462], [147.627204, -19.563598], [147.626466, -19.562169], [147.625575, -19.560585], [147.624854, -19.559049], [147.624198, -19.557806], [147.623423, -19.556007], [147.622479, -19.554255], [147.621532, -19.552573], [147.620715, -19.551278], [147.619678, -19.549689], [147.618829, -19.548172], [147.617779, -19.546591], [147.616652, -19.544322], [147.615765, -19.542807], [147.614723, -19.541012], [147.614001, -19.539541], [147.613197, -19.537888], [147.611989, -19.535789], [147.611119, -19.533997], [147.61044, -19.532487], [147.60962, -19.530755], [147.608801, -19.529018], [147.607977, -19.527322], [147.606914, -19.525548], [147.606016, -19.523991], [147.605166, -19.522393], [147.604104, -19.520702], [147.602616, -19.51829], [147.60196, -19.516926], [147.601111, -19.515205], [147.600104, -19.512977], [147.599369, -19.511144], [147.598595, -19.50941], [147.597806, -19.507624], [147.597055, -19.505853], [147.595968, -19.504172], [147.595003, -19.50248], [147.593933, -19.500883], [147.592922, -19.49925], [147.592057, -19.497894], [147.590461, -19.495408], [147.589678, -19.493831], [147.588744, -19.492011], [147.587885, -19.490437], [147.587262, -19.48883], [147.585856, -19.486934], [147.584281, -19.485036], [147.583173, -19.483817], [147.58204, -19.482138], [147.581, -19.480584], [147.579872, -19.478982], [147.578958, -19.477506], [147.577887, -19.475812], [147.576538, -19.473744], [147.575049, -19.471445], [147.573928, -19.470034], [147.572415, -19.467861], [147.571395, -19.466171], [147.569941, -19.463847], [147.569226, -19.462313], [147.568255, -19.460857], [147.56737, -19.459376], [147.566551, -19.457718], [147.565386, -19.45595], [147.564472, -19.45436], [147.563503, -19.452873], [147.56236, -19.450942], [147.561497, -19.449409], [147.560621, -19.447683], [147.559615, -19.445939], [147.558664, -19.44445], [147.5575, -19.442843], [147.556401, -19.44121], [147.55538, -19.439466], [147.554232, -19.437387], [147.553595, -19.435992], [147.552874, -19.434352], [147.552062, -19.432833], [147.551123, -19.431041], [147.550283, -19.429307], [147.549643, -19.427783], [147.548869, -19.426116], [147.548029, -19.42437], [147.547303, -19.422606], [147.546501, -19.420812], [147.545419, -19.418632], [147.544479, -19.416841], [147.543517, -19.415143], [147.542194, -19.412717], [147.541063, -19.410423], [147.54012, -19.408628], [147.539277, -19.407006], [147.538714, -19.405628], [147.537873, -19.40392], [147.537153, -19.402095], [147.536415, -19.400389], [147.535499, -19.398597], [147.534266, -19.396863], [147.53211, -19.393862], [147.531189, -19.392461], [147.53029, -19.390736], [147.529422, -19.389041], [147.528663, -19.38747], [147.527813, -19.38562], [147.527008, -19.384139], [147.526217, -19.382323], [147.525496, -19.380998], [147.524728, -19.379288], [147.523832, -19.377415], [147.523011, -19.375728], [147.522199, -19.373799], [147.521829, -19.372289], [147.520984, -19.370231], [147.520305, -19.368499], [147.519432, -19.36664], [147.518737, -19.365011], [147.518064, -19.363354], [147.517329, -19.361618], [147.516603, -19.359778], [147.51598, -19.35826], [147.514989, -19.355895], [147.513855, -19.353654], [147.512798, -19.351599], [147.512027, -19.350168], [147.511254, -19.348401], [147.510361, -19.346168], [147.509644, -19.344707], [147.509021, -19.343211], [147.5083, -19.341829], [147.507728, -19.340034], [147.506934, -19.338191], [147.506252, -19.336409], [147.505611, -19.334863], [147.504916, -19.3331], [147.504194, -19.33153], [147.503279, -19.329713], [147.502767, -19.328186], [147.501678, -19.325827], [147.500792, -19.324045], [147.500091, -19.322625], [147.499396, -19.320846], [147.498723, -19.31922], [147.497791, -19.317534], [147.496498, -19.315435], [147.4955, -19.31344], [147.49428, -19.311128], [147.493216, -19.309692], [147.491802, -19.308808], [147.489864, -19.308235], [147.488027, -19.307863], [147.484827, -19.307363], [147.482855, -19.30682], [147.480935, -19.306359], [147.478316, -19.305795], [147.475806, -19.304806], [147.473649, -19.303938], [147.47098, -19.303162], [147.468789, -19.302461], [147.46626, -19.301378], [147.46492, -19.300994], [147.463742, -19.300145], [147.461977, -19.300113], [147.459984, -19.300177], [147.45815, -19.299909], [147.456235, -19.29946], [147.454436, -19.299052], [147.452326, -19.298604], [147.450488, -19.298065], [147.448245, -19.297653], [147.446136, -19.296555], [147.444546, -19.295739], [147.442935, -19.295122], [147.441277, -19.29402], [147.4376, -19.293037], [147.434883, -19.292579], [147.432716, -19.292215], [147.430614, -19.291921], [147.428824, -19.291429], [147.426258, -19.290827], [147.423668, -19.290187], [147.42089, -19.289972], [147.418689, -19.289524], [147.41656, -19.28897], [147.414596, -19.288857], [147.412376, -19.289041], [147.409689, -19.289325], [147.40695, -19.288814], [147.404524, -19.289058], [147.402642, -19.289472], [147.399725, -19.28977], [147.397928, -19.289764], [147.395277, -19.290411], [147.392749, -19.29124], [147.388919, -19.292314], [147.386362, -19.293088], [147.384035, -19.293533], [147.381098, -19.294327], [147.379138, -19.295059], [147.376086, -19.297081], [147.373247, -19.299488], [147.371748, -19.301531], [147.370775, -19.302919], [147.370564, -19.305165], [147.371287, -19.306762], [147.373587, -19.30773], [147.376241, -19.30766], [147.379, -19.306584], [147.380964, -19.306], [147.383104, -19.305812], [147.384184, -19.305306], [147.383808, -19.305163], [147.380732, -19.307684], [147.377701, -19.308535], [147.375393, -19.309349], [147.372969, -19.309882], [147.37013, -19.310108], [147.367994, -19.309481], [147.366366, -19.308852], [147.36234, -19.307369], [147.361228, -19.306982], [147.359489, -19.306965], [147.356482, -19.306079], [147.355108, -19.305414], [147.353206, -19.304684], [147.35159, -19.304093], [147.349805, -19.304093], [147.348441, -19.303746], [147.346934, -19.303094], [147.34513, -19.302469], [147.343242, -19.302165], [147.340991, -19.301785], [147.339273, -19.3017], [147.336975, -19.301098], [147.335387, -19.300645], [147.332043, -19.299698], [147.328514, -19.298495], [147.325672, -19.297838], [147.322631, -19.297025], [147.320501, -19.296122], [147.318102, -19.294563], [147.315685, -19.292818], [147.312986, -19.291033], [147.309976, -19.2891], [147.307406, -19.287497], [147.304271, -19.285457], [147.302141, -19.284083], [147.29895, -19.281904], [147.295974, -19.280016], [147.293119, -19.278106], [147.290614, -19.276606], [147.28773, -19.274731], [147.284696, -19.272852], [147.281514, -19.270776], [147.278147, -19.268552], [147.275838, -19.267199], [147.272201, -19.265122], [147.269409, -19.263482], [147.266298, -19.261432], [147.263782, -19.259849], [147.260766, -19.257877], [147.258231, -19.256497], [147.255461, -19.255238], [147.252335, -19.253752], [147.248742, -19.252071], [147.246257, -19.250883], [147.244244, -19.249894], [147.240701, -19.248229], [147.238178, -19.247122], [147.235881, -19.246077], [147.233032, -19.244663], [147.229712, -19.243107], [147.227604, -19.242138], [147.225042, -19.240905], [147.223024, -19.240039], [147.218499, -19.237934], [147.215855, -19.23673], [147.212892, -19.235477], [147.210259, -19.23425], [147.208291, -19.233423], [147.206168, -19.232492], [147.203243, -19.231177], [147.20098, -19.230117], [147.196702, -19.228133], [147.193579, -19.226682], [147.190651, -19.225342], [147.187415, -19.223784], [147.185173, -19.222651], [147.1819, -19.221063], [147.17878, -19.219628], [147.174736, -19.217689], [147.172994, -19.21691], [147.169208, -19.215196], [147.166702, -19.21407], [147.163795, -19.212729], [147.160469, -19.211137], [147.157756, -19.209889], [147.154739, -19.208662], [147.151478, -19.207186], [147.147607, -19.205359], [147.144798, -19.204085], [147.141023, -19.202441], [147.137355, -19.200591], [147.134141, -19.199083], [147.131607, -19.197874], [147.127684, -19.196007], [147.125907, -19.195174], [147.12252, -19.193551], [147.119362, -19.192104], [147.116538, -19.19072], [147.112541, -19.188868], [147.110417, -19.187942], [147.10785, -19.186663], [147.10486, -19.185333], [147.101584, -19.183851], [147.097832, -19.182152], [147.095669, -19.181335], [147.093141, -19.180233], [147.089799, -19.178752], [147.087559, -19.177733], [147.085172, -19.176668], [147.081948, -19.175261], [147.079431, -19.174123], [147.075974, -19.172666], [147.072379, -19.171107], [147.069966, -19.170169], [147.065817, -19.168446], [147.062717, -19.167209], [147.060258, -19.166322], [147.057866, -19.165391], [147.05397, -19.163775], [147.051603, -19.16291], [147.048664, -19.162304], [147.046917, -19.161975], [147.044247, -19.161106], [147.040561, -19.160262], [147.038325, -19.160711], [147.035901, -19.161354], [147.033464, -19.161827], [147.030914, -19.162375], [147.028003, -19.163166], [147.025736, -19.16407], [147.023237, -19.165164], [147.021257, -19.165952], [147.018421, -19.167241], [147.01614, -19.168448], [147.013442, -19.169885], [147.011095, -19.170753], [147.008432, -19.171745], [147.006399, -19.172762], [147.003319, -19.174313], [147.000779, -19.175544], [146.998896, -19.176862], [146.995943, -19.178487], [146.992975, -19.180281], [146.991056, -19.181618], [146.989078, -19.183341], [146.986845, -19.184731], [146.9844, -19.185686], [146.981587, -19.186817], [146.977679, -19.187948], [146.975154, -19.188834], [146.973074, -19.189279], [146.970985, -19.189718], [146.967804, -19.190854], [146.965259, -19.191726], [146.962554, -19.19251], [146.960272, -19.193231], [146.95775, -19.19424], [146.955172, -19.194916], [146.952535, -19.195623], [146.950283, -19.196116], [146.94725, -19.197031], [146.945068, -19.197715], [146.943077, -19.198668], [146.940842, -19.199247], [146.938953, -19.200189], [146.936753, -19.201334], [146.934379, -19.202271], [146.931903, -19.203269], [146.92976, -19.203997], [146.927238, -19.204936], [146.92513, -19.205818], [146.922756, -19.206593], [146.92092, -19.207665], [146.919189, -19.208526], [146.916422, -19.209383], [146.914423, -19.210066], [146.912623, -19.210654], [146.910647, -19.211468], [146.90757, -19.212779], [146.905303, -19.213942], [146.90373, -19.214906], [146.900723, -19.216279], [146.897675, -19.217677], [146.89524, -19.218676], [146.893394, -19.219329], [146.891573, -19.220125], [146.889567, -19.221378], [146.886345, -19.222669], [146.8844, -19.22343], [146.880974, -19.224839], [146.878938, -19.225837], [146.876869, -19.226912], [146.873464, -19.227764], [146.870725, -19.228747], [146.86837, -19.229639], [146.865897, -19.230097], [146.86351, -19.230642], [146.860787, -19.231303], [146.858078, -19.231165], [146.855423, -19.230657], [146.853018, -19.230438], [146.850183, -19.230308], [146.848167, -19.230097], [146.845326, -19.229786], [146.84321, -19.229312], [146.841483, -19.229296], [146.839758, -19.230349], [146.837796, -19.231798], [146.835962, -19.232908], [146.833116, -19.235002], [146.830722, -19.236685], [146.828869, -19.238229], [146.828002, -19.239358], [146.827142, -19.241311], [146.825914, -19.24409], [146.824615, -19.246331], [146.823222, -19.248773], [146.823024, -19.250302], [146.824588, -19.252228], [146.824789, -19.253542], [146.822748, -19.253852], [146.821911, -19.253592], [146.821514, -19.25366], [146.822044, -19.253466], [146.822068, -19.253484], [146.821815, -19.253651], [146.821971, -19.25348], [146.822015, -19.253572], [146.82199, -19.253556], [146.822095, -19.253483], [146.82212, -19.253463], [146.822211, -19.2536], [146.822028, -19.253448], [146.824104, -19.253767], [146.825086, -19.252735], [146.823153, -19.250879], [146.823287, -19.249173], [146.824906, -19.246152], [146.826545, -19.242352], [146.827727, -19.24035], [146.8293, -19.24004], [146.830968, -19.240352], [146.83209, -19.23859], [146.833717, -19.235229], [146.834994, -19.232833], [146.836644, -19.229911], [146.838551, -19.226236], [146.840295, -19.223222], [146.842057, -19.220317], [146.843788, -19.217387], [146.845191, -19.214856], [146.846733, -19.211759], [146.848069, -19.209029], [146.849711, -19.205654], [146.85104, -19.202897], [146.852603, -19.199543], [146.853959, -19.19751], [146.856146, -19.195251], [146.858699, -19.192458], [146.860747, -19.190202], [146.862925, -19.187685], [146.86538, -19.184848], [146.867006, -19.182676], [146.86869, -19.179372], [146.870071, -19.176757], [146.871443, -19.174101], [146.873048, -19.171027], [146.873935, -19.168947], [146.874688, -19.166255], [146.875425, -19.163824], [146.876133, -19.161508], [146.87713, -19.158502], [146.878174, -19.154703], [146.87889, -19.152173], [146.879662, -19.149459], [146.880437, -19.146696], [146.882105, -19.143957], [146.884105, -19.14073], [146.885269, -19.138679], [146.887069, -19.135416], [146.888771, -19.132323], [146.890092, -19.129687], [146.890266, -19.12742], [146.890206, -19.123951], [146.890141, -19.121478], [146.890228, -19.118831], [146.890274, -19.115302], [146.890096, -19.112607], [146.888769, -19.109526], [146.887669, -19.107144], [146.88669, -19.10483], [146.885913, -19.102667], [146.884423, -19.101256], [146.881622, -19.100253], [146.879095, -19.099617], [146.876419, -19.099498], [146.87414, -19.099441], [146.871429, -19.099404], [146.86854, -19.099383], [146.865882, -19.099403], [146.863247, -19.099978], [146.861463, -19.101048], [146.860629, -19.102771], [146.86008, -19.104593], [146.859901, -19.106501], [146.859813, -19.109264], [146.859959, -19.111213], [146.860099, -19.11308], [146.860954, -19.114111]]}, "times": ["2023-07-10T00:54:32+00:00", "2023-07-10T00:56:24+00:00", "2023-07-10T00:58:29+00:00", "2023-07-10T00:59:34+00:00", "2023-07-10T01:01:29+00:00", "2023-07-10T01:02:51+00:00", "2023-07-10T01:04:56+00:00", "2023-07-10T01:07:29+00:00", "2023-07-10T01:08:29+00:00", "2023-07-10T01:10:09+00:00", "2023-07-10T01:13:30+00:00", "2023-07-10T01:15:55+00:00", "2023-07-10T01:17:30+00:00", "2023-07-10T01:19:30+00:00", "2023-07-10T01:20:48+00:00", "2023-07-10T01:23:17+00:00", "2023-07-10T01:24:27+00:00", "2023-07-10T01:26:28+00:00", "2023-07-10T01:28:35+00:00", "2023-07-10T01:30:35+00:00", "2023-07-10T01:32:07+00:00", "2023-07-10T01:33:56+00:00", "2023-07-10T01:35:28+00:00", "2023-07-10T01:37:05+00:00", "2023-07-10T01:38:28+00:00", "2023-07-10T01:40:05+00:00", "2023-07-10T01:41:38+00:00", "2023-07-10T01:43:02+00:00", "2023-07-10T01:44:26+00:00", "2023-07-10T01:45:51+00:00", "2023-07-10T01:47:35+00:00", "2023-07-10T01:48:56+00:00", "2023-07-10T01:50:24+00:00", "2023-07-10T01:52:00+00:00", "2023-07-10T01:52:48+00:00", "2023-07-10T01:54:29+00:00", "2023-07-10T01:56:33+00:00", "2023-07-10T01:57:33+00:00", "2023-07-10T01:58:54+00:00", "2023-07-10T01:59:50+00:00", "2023-07-10T02:01:30+00:00", "2023-07-10T02:02:33+00:00", "2023-07-10T02:04:11+00:00", "2023-07-10T02:05:55+00:00", "2023-07-10T02:07:32+00:00", "2023-07-10T02:08:52+00:00", "2023-07-10T02:10:34+00:00", "2023-07-10T02:11:34+00:00", "2023-07-10T02:12:57+00:00", "2023-07-10T02:14:34+00:00", "2023-07-10T02:16:02+00:00", "2023-07-10T02:17:19+00:00", "2023-07-10T02:18:36+00:00", "2023-07-10T02:19:36+00:00", "2023-07-10T02:21:00+00:00", "2023-07-10T02:22:32+00:00", "2023-07-10T02:23:40+00:00", "2023-07-10T02:25:09+00:00", "2023-07-10T02:26:01+00:00", "2023-07-10T02:27:33+00:00", "2023-07-10T02:28:26+00:00", "2023-07-10T02:29:46+00:00", "2023-07-10T02:31:10+00:00", "2023-07-10T02:32:23+00:00", "2023-07-10T02:33:27+00:00", "2023-07-10T02:34:19+00:00", "2023-07-10T02:35:43+00:00", "2023-07-10T02:37:16+00:00", "2023-07-10T02:38:20+00:00", "2023-07-10T02:39:28+00:00", "2023-07-10T02:40:34+00:00", "2023-07-10T02:41:57+00:00", "2023-07-10T02:43:30+00:00", "2023-07-10T02:44:50+00:00", "2023-07-10T02:46:19+00:00", "2023-07-10T02:47:47+00:00", "2023-07-10T02:49:32+00:00", "2023-07-10T02:51:00+00:00", "2023-07-10T02:52:33+00:00", "2023-07-10T02:53:37+00:00", "2023-07-10T02:55:18+00:00", "2023-07-10T02:56:36+00:00", "2023-07-10T02:57:55+00:00", "2023-07-10T02:59:37+00:00", "2023-07-10T03:00:43+00:00", "2023-07-10T03:02:40+00:00", "2023-07-10T03:03:51+00:00", "2023-07-10T03:05:28+00:00", "2023-07-10T03:07:40+00:00", "2023-07-10T03:08:40+00:00", "2023-07-10T03:09:49+00:00", "2023-07-10T03:11:46+00:00", "2023-07-10T03:13:55+00:00", "2023-07-10T03:15:35+00:00", "2023-07-10T03:16:47+00:00", "2023-07-10T03:18:37+00:00", "2023-07-10T03:19:37+00:00", "2023-07-10T03:21:37+00:00", "2023-07-10T03:22:57+00:00", "2023-07-10T03:24:37+00:00", "2023-07-10T03:26:26+00:00", "2023-07-10T03:27:37+00:00", "2023-07-10T03:31:33+00:00", "2023-07-10T03:33:30+00:00", "2023-07-10T03:36:09+00:00", "2023-07-10T10:03:57+00:00", "2023-07-10T23:26:42+00:00", "2023-07-10T23:27:42+00:00", "2023-07-10T23:31:48+00:00", "2023-07-10T23:33:30+00:00", "2023-07-10T23:35:10+00:00", "2023-07-10T23:38:17+00:00", "2023-07-10T23:39:53+00:00", "2023-07-10T23:41:52+00:00", "2023-07-10T23:43:45+00:00", "2023-07-10T23:45:47+00:00", "2023-07-10T23:48:41+00:00", "2023-07-10T23:50:23+00:00", "2023-07-10T23:51:44+00:00", "2023-07-10T23:53:44+00:00", "2023-07-10T23:55:45+00:00", "2023-07-10T23:57:45+00:00", "2023-07-10T23:59:09+00:00", "2023-07-11T00:01:42+00:00", "2023-07-11T00:04:07+00:00", "2023-07-11T00:06:27+00:00", "2023-07-11T00:07:44+00:00", "2023-07-11T00:09:44+00:00", "2023-07-11T00:11:44+00:00", "2023-07-11T00:12:44+00:00", "2023-07-11T00:14:06+00:00", "2023-07-11T00:15:44+00:00", "2023-07-11T00:16:44+00:00", "2023-07-11T00:18:44+00:00", "2023-07-11T00:19:31+00:00", "2023-07-11T00:20:45+00:00", "2023-07-11T00:21:45+00:00", "2023-07-11T00:23:04+00:00", "2023-07-11T00:24:45+00:00", "2023-07-11T00:25:56+00:00", "2023-07-11T00:26:57+00:00", "2023-07-11T00:28:21+00:00", "2023-07-11T00:29:45+00:00", "2023-07-11T00:30:45+00:00", "2023-07-11T00:31:45+00:00", "2023-07-11T00:33:14+00:00", "2023-07-11T00:33:50+00:00", "2023-07-11T00:35:46+00:00", "2023-07-11T00:36:59+00:00", "2023-07-11T00:37:46+00:00", "2023-07-11T00:39:08+00:00", "2023-07-11T00:40:16+00:00", "2023-07-11T00:41:24+00:00", "2023-07-11T00:42:12+00:00", "2023-07-11T00:43:45+00:00", "2023-07-11T00:44:46+00:00", "2023-07-11T00:46:05+00:00", "2023-07-11T00:46:46+00:00", "2023-07-11T00:48:50+00:00", "2023-07-11T00:50:26+00:00", "2023-07-11T00:51:11+00:00", "2023-07-11T00:52:19+00:00", "2023-07-11T00:53:43+00:00", "2023-07-11T00:54:47+00:00", "2023-07-11T00:56:28+00:00", "2023-07-11T00:57:36+00:00", "2023-07-11T00:58:47+00:00", "2023-07-11T00:59:53+00:00", "2023-07-11T01:01:17+00:00", "2023-07-11T01:02:47+00:00", "2023-07-11T01:03:54+00:00", "2023-07-11T01:04:47+00:00", "2023-07-11T01:05:50+00:00", "2023-07-11T01:06:47+00:00", "2023-07-11T01:08:39+00:00", "2023-07-11T01:09:47+00:00", "2023-07-11T01:10:47+00:00", "2023-07-11T01:11:32+00:00", "2023-07-11T01:12:53+00:00", "2023-07-11T01:13:45+00:00", "2023-07-11T01:15:46+00:00", "2023-07-11T01:16:54+00:00", "2023-07-11T01:18:45+00:00", "2023-07-11T01:19:58+00:00", "2023-07-11T01:21:18+00:00", "2023-07-11T01:22:06+00:00", "2023-07-11T01:23:35+00:00", "2023-07-11T01:24:47+00:00", "2023-07-11T01:26:19+00:00", "2023-07-11T01:27:16+00:00", "2023-07-11T01:28:47+00:00", "2023-07-11T01:30:00+00:00", "2023-07-11T01:31:47+00:00", "2023-07-11T01:33:13+00:00", "2023-07-11T01:34:29+00:00", "2023-07-11T01:35:37+00:00", "2023-07-11T01:36:42+00:00", "2023-07-11T01:37:38+00:00", "2023-07-11T01:38:54+00:00", "2023-07-11T01:39:49+00:00", "2023-07-11T01:40:49+00:00", "2023-07-11T01:42:11+00:00", "2023-07-11T01:43:28+00:00", "2023-07-11T01:44:48+00:00", "2023-07-11T01:45:49+00:00", "2023-07-11T01:47:50+00:00", "2023-07-11T01:49:38+00:00", "2023-07-11T01:50:50+00:00", "2023-07-11T01:52:42+00:00", "2023-07-11T01:53:47+00:00", "2023-07-11T01:55:50+00:00", "2023-07-11T01:57:20+00:00", "2023-07-11T01:58:24+00:00", "2023-07-11T01:59:51+00:00", "2023-07-11T02:02:30+00:00", "2023-07-11T02:04:22+00:00", "2023-07-11T02:05:51+00:00", "2023-07-11T02:07:27+00:00", "2023-07-11T02:08:51+00:00", "2023-07-11T02:10:51+00:00", "2023-07-11T02:12:51+00:00", "2023-07-11T02:14:37+00:00", "2023-07-11T02:16:02+00:00", "2023-07-11T02:17:52+00:00", "2023-07-11T02:19:52+00:00", "2023-07-11T02:21:23+00:00", "2023-07-11T02:22:52+00:00", "2023-07-11T02:24:52+00:00", "2023-07-11T02:26:00+00:00", "2023-07-11T02:28:05+00:00", "2023-07-11T02:29:52+00:00", "2023-07-11T02:31:26+00:00", "2023-07-11T02:32:52+00:00", "2023-07-11T02:34:43+00:00", "2023-07-11T02:35:52+00:00", "2023-07-11T02:37:52+00:00", "2023-07-11T02:39:24+00:00", "2023-07-11T02:41:01+00:00", "2023-07-11T02:42:52+00:00", "2023-07-11T02:44:06+00:00", "2023-07-11T02:45:52+00:00", "2023-07-11T02:47:07+00:00", "2023-07-11T02:49:24+00:00", "2023-07-11T02:52:50+00:00", "2023-07-11T02:54:51+00:00", "2023-07-11T15:18:09+00:00", "2023-07-12T00:02:36+00:00", "2023-07-12T00:05:33+00:00", "2023-07-12T00:06:56+00:00", "2023-07-12T00:08:54+00:00", "2023-07-12T00:10:02+00:00", "2023-07-12T00:12:57+00:00", "2023-07-12T00:14:57+00:00", "2023-07-12T00:16:12+00:00", "2023-07-12T00:17:57+00:00", "2023-07-12T00:18:57+00:00", "2023-07-12T00:21:13+00:00", "2023-07-12T00:23:34+00:00", "2023-07-12T00:26:18+00:00", "2023-07-12T00:27:57+00:00", "2023-07-12T00:28:57+00:00", "2023-07-12T00:30:23+00:00", "2023-07-12T00:31:52+00:00", "2023-07-12T00:32:57+00:00", "2023-07-12T00:34:56+00:00", "2023-07-12T00:36:01+00:00", "2023-07-12T00:37:05+00:00", "2023-07-12T00:38:37+00:00", "2023-07-12T00:39:14+00:00", "2023-07-12T00:41:05+00:00", "2023-07-12T00:43:57+00:00", "2023-07-12T00:44:57+00:00", "2023-07-12T00:45:58+00:00", "2023-07-12T00:48:57+00:00", "2023-07-12T00:50:17+00:00", "2023-07-12T00:51:13+00:00", "2023-07-12T00:53:46+00:00", "2023-07-12T00:54:57+00:00", "2023-07-12T00:55:57+00:00", "2023-07-12T00:56:58+00:00", "2023-07-12T00:58:23+00:00", "2023-07-12T01:00:19+00:00", "2023-07-12T01:01:28+00:00", "2023-07-12T01:02:16+00:00", "2023-07-12T01:03:56+00:00", "2023-07-12T01:05:45+00:00", "2023-07-12T01:06:45+00:00", "2023-07-12T01:08:05+00:00", "2023-07-12T01:09:18+00:00", "2023-07-12T01:10:57+00:00", "2023-07-12T01:12:02+00:00", "2023-07-12T01:12:59+00:00", "2023-07-12T01:14:11+00:00", "2023-07-12T01:15:31+00:00", "2023-07-12T01:16:44+00:00", "2023-07-12T01:17:56+00:00", "2023-07-12T01:18:36+00:00", "2023-07-12T01:19:59+00:00", "2023-07-12T01:21:04+00:00", "2023-07-12T01:22:13+00:00", "2023-07-12T01:23:45+00:00", "2023-07-12T01:24:53+00:00", "2023-07-12T01:25:58+00:00", "2023-07-12T01:27:02+00:00", "2023-07-12T01:28:05+00:00", "2023-07-12T01:29:19+00:00", "2023-07-12T01:30:31+00:00", "2023-07-12T01:31:27+00:00", "2023-07-12T01:34:00+00:00", "2023-07-12T01:35:08+00:00", "2023-07-12T01:35:56+00:00", "2023-07-12T01:37:13+00:00", "2023-07-12T01:38:45+00:00", "2023-07-12T01:39:58+00:00", "2023-07-12T01:40:46+00:00", "2023-07-12T01:41:42+00:00", "2023-07-12T01:42:46+00:00", "2023-07-12T01:43:58+00:00", "2023-07-12T01:45:05+00:00", "2023-07-12T01:46:44+00:00", "2023-07-12T01:47:56+00:00", "2023-07-12T01:49:24+00:00", "2023-07-12T01:50:05+00:00", "2023-07-12T01:52:00+00:00", "2023-07-12T01:52:50+00:00", "2023-07-12T01:53:38+00:00", "2023-07-12T01:54:30+00:00", "2023-07-12T01:56:00+00:00", "2023-07-12T01:58:01+00:00", "2023-07-12T01:59:15+00:00", "2023-07-12T02:00:16+00:00", "2023-07-12T02:01:01+00:00", "2023-07-12T02:02:40+00:00", "2023-07-12T02:03:37+00:00", "2023-07-12T02:05:25+00:00", "2023-07-12T02:07:02+00:00", "2023-07-12T02:08:02+00:00", "2023-07-12T02:09:10+00:00", "2023-07-12T02:10:35+00:00", "2023-07-12T02:11:59+00:00", "2023-07-12T02:12:47+00:00", "2023-07-12T02:14:16+00:00", "2023-07-12T02:15:04+00:00", "2023-07-12T02:16:20+00:00", "2023-07-12T02:18:02+00:00", "2023-07-12T02:19:02+00:00", "2023-07-12T02:20:02+00:00", "2023-07-12T02:21:26+00:00", "2023-07-12T02:22:02+00:00", "2023-07-12T02:23:34+00:00", "2023-07-12T02:25:02+00:00", "2023-07-12T02:26:02+00:00", "2023-07-12T02:27:20+00:00", "2023-07-12T02:29:02+00:00", "2023-07-12T02:30:02+00:00", "2023-07-12T02:31:08+00:00", "2023-07-12T02:32:02+00:00", "2023-07-12T02:33:02+00:00", "2023-07-12T02:34:01+00:00", "2023-07-12T02:35:22+00:00", "2023-07-12T02:36:34+00:00", "2023-07-12T02:37:50+00:00", "2023-07-12T02:39:05+00:00", "2023-07-12T02:40:05+00:00", "2023-07-12T02:41:32+00:00", "2023-07-12T02:43:05+00:00", "2023-07-12T02:44:20+00:00", "2023-07-12T02:45:45+00:00", "2023-07-12T02:46:33+00:00", "2023-07-12T02:47:50+00:00", "2023-07-12T02:49:02+00:00", "2023-07-12T02:50:14+00:00", "2023-07-12T02:51:14+00:00", "2023-07-12T02:52:11+00:00", "2023-07-12T02:53:19+00:00", "2023-07-12T02:55:05+00:00", "2023-07-12T02:56:07+00:00", "2023-07-12T02:57:28+00:00", "2023-07-12T02:58:56+00:00", "2023-07-12T02:59:37+00:00", "2023-07-12T03:00:53+00:00", "2023-07-12T03:02:13+00:00", "2023-07-12T03:03:14+00:00", "2023-07-12T03:04:02+00:00", "2023-07-12T03:05:22+00:00", "2023-07-12T03:06:35+00:00", "2023-07-12T03:07:31+00:00", "2023-07-12T03:09:08+00:00", "2023-07-12T03:10:08+00:00", "2023-07-12T03:11:36+00:00", "2023-07-12T03:12:48+00:00", "2023-07-12T03:14:01+00:00", "2023-07-12T03:15:33+00:00", "2023-07-12T03:16:42+00:00", "2023-07-12T03:17:42+00:00", "2023-07-12T03:19:18+00:00", "2023-07-12T03:20:55+00:00", "2023-07-12T03:21:47+00:00", "2023-07-12T03:22:51+00:00", "2023-07-12T03:24:15+00:00", "2023-07-12T03:25:19+00:00", "2023-07-12T03:26:19+00:00", "2023-07-12T03:27:44+00:00", "2023-07-12T03:28:57+00:00", "2023-07-12T03:30:01+00:00", "2023-07-12T03:31:13+00:00", "2023-07-12T03:32:26+00:00", "2023-07-12T03:34:14+00:00", "2023-07-12T03:36:03+00:00", "2023-07-12T03:37:39+00:00", "2023-07-12T03:38:59+00:00", "2023-07-12T03:39:44+00:00", "2023-07-12T03:41:32+00:00", "2023-07-12T03:42:24+00:00", "2023-07-12T03:43:33+00:00", "2023-07-12T03:45:17+00:00", "2023-07-12T03:46:13+00:00", "2023-07-12T03:47:34+00:00", "2023-07-12T03:49:14+00:00", "2023-07-12T03:50:31+00:00", "2023-07-12T03:51:35+00:00", "2023-07-12T03:52:51+00:00", "2023-07-12T03:54:03+00:00", "2023-07-12T03:55:24+00:00", "2023-07-12T03:56:56+00:00", "2023-07-12T03:58:24+00:00", "2023-07-12T03:59:25+00:00", "2023-07-12T04:01:09+00:00", "2023-07-12T04:02:25+00:00", "2023-07-12T04:03:54+00:00", "2023-07-12T04:05:26+00:00", "2023-07-12T04:07:19+00:00", "2023-07-12T04:08:26+00:00", "2023-07-12T04:09:39+00:00", "2023-07-12T04:11:26+00:00", "2023-07-12T04:12:32+00:00", "2023-07-12T04:14:15+00:00", "2023-07-12T04:15:23+00:00", "2023-07-12T04:16:53+00:00", "2023-07-12T04:17:53+00:00", "2023-07-12T04:19:24+00:00", "2023-07-12T04:20:38+00:00", "2023-07-12T04:21:46+00:00", "2023-07-12T04:22:43+00:00", "2023-07-12T04:24:03+00:00", "2023-07-12T04:25:15+00:00", "2023-07-12T04:26:20+00:00", "2023-07-12T04:27:25+00:00", "2023-07-12T04:28:48+00:00", "2023-07-12T04:29:52+00:00", "2023-07-12T04:30:49+00:00", "2023-07-12T04:32:09+00:00", "2023-07-12T04:32:53+00:00", "2023-07-12T04:34:15+00:00", "2023-07-12T04:35:18+00:00", "2023-07-12T04:36:06+00:00", "2023-07-12T04:37:14+00:00", "2023-07-12T04:38:11+00:00", "2023-07-12T04:40:19+00:00", "2023-07-12T04:41:24+00:00", "2023-07-12T04:42:32+00:00", "2023-07-12T04:43:36+00:00", "2023-07-12T04:44:28+00:00", "2023-07-12T04:45:33+00:00", "2023-07-12T04:46:33+00:00", "2023-07-12T04:47:33+00:00", "2023-07-12T04:48:37+00:00", "2023-07-12T04:50:18+00:00", "2023-07-12T04:51:18+00:00", "2023-07-12T04:52:14+00:00", "2023-07-12T04:53:31+00:00", "2023-07-12T04:54:15+00:00", "2023-07-12T04:55:23+00:00", "2023-07-12T04:56:35+00:00", "2023-07-12T04:57:52+00:00", "2023-07-12T04:59:20+00:00", "2023-07-12T05:01:21+00:00", "2023-07-12T05:02:33+00:00", "2023-07-12T05:03:30+00:00", "2023-07-12T05:04:34+00:00", "2023-07-12T05:05:46+00:00", "2023-07-12T05:07:26+00:00", "2023-07-12T05:08:19+00:00", "2023-07-12T05:09:27+00:00", "2023-07-12T05:10:39+00:00", "2023-07-12T05:12:44+00:00", "2023-07-12T05:14:15+00:00", "2023-07-12T05:15:17+00:00", "2023-07-12T05:16:27+00:00", "2023-07-12T05:18:01+00:00", "2023-07-12T05:19:14+00:00", "2023-07-12T05:20:31+00:00", "2023-07-12T05:21:58+00:00", "2023-07-12T05:23:31+00:00", "2023-07-12T05:24:30+00:00", "2023-07-12T05:26:11+00:00", "2023-07-12T05:27:44+00:00", "2023-07-12T05:29:12+00:00", "2023-07-12T05:30:29+00:00", "2023-07-12T05:32:09+00:00", "2023-07-12T05:33:30+00:00", "2023-07-12T05:34:54+00:00", "2023-07-12T05:36:14+00:00", "2023-07-12T05:37:02+00:00", "2023-07-12T05:38:31+00:00", "2023-07-12T05:40:07+00:00", "2023-07-12T05:41:31+00:00", "2023-07-12T05:42:56+00:00", "2023-07-12T05:44:04+00:00", "2023-07-12T05:45:25+00:00", "2023-07-12T05:46:37+00:00", "2023-07-12T05:48:26+00:00", "2023-07-12T05:49:32+00:00", "2023-07-12T05:50:34+00:00", "2023-07-12T05:51:42+00:00", "2023-07-12T05:52:47+00:00", "2023-07-12T05:54:07+00:00", "2023-07-12T05:55:19+00:00", "2023-07-12T05:56:40+00:00", "2023-07-12T05:57:24+00:00", "2023-07-12T05:58:24+00:00", "2023-07-12T06:00:09+00:00", "2023-07-12T06:02:01+00:00", "2023-07-12T06:03:06+00:00", "2023-07-12T06:04:06+00:00", "2023-07-12T06:05:06+00:00", "2023-07-12T06:06:26+00:00", "2023-07-12T06:07:55+00:00", "2023-07-12T06:09:07+00:00", "2023-07-12T06:10:30+00:00", "2023-07-12T06:11:48+00:00", "2023-07-12T06:13:31+00:00", "2023-07-12T06:15:21+00:00", "2023-07-12T06:16:33+00:00", "2023-07-12T06:18:02+00:00", "2023-07-12T06:18:58+00:00", "2023-07-12T06:20:38+00:00", "2023-07-12T06:21:46+00:00", "2023-07-12T06:23:23+00:00", "2023-07-12T06:24:35+00:00", "2023-07-12T06:26:00+00:00", "2023-07-12T06:27:28+00:00", "2023-07-12T06:28:35+00:00", "2023-07-12T06:30:09+00:00", "2023-07-12T06:31:35+00:00", "2023-07-12T06:33:02+00:00", "2023-07-12T06:34:22+00:00", "2023-07-12T06:35:38+00:00", "2023-07-12T06:37:27+00:00", "2023-07-12T06:38:33+00:00", "2023-07-12T06:41:12+00:00", "2023-07-12T06:42:52+00:00", "2023-07-12T06:44:30+00:00", "2023-07-12T06:48:05+00:00", "2023-07-12T12:34:36+00:00", "2023-07-12T23:53:23+00:00", "2023-07-12T23:56:22+00:00", "2023-07-12T23:57:29+00:00", "2023-07-12T23:59:21+00:00", "2023-07-13T00:00:33+00:00", "2023-07-13T00:01:33+00:00", "2023-07-13T00:03:10+00:00", "2023-07-13T00:04:27+00:00", "2023-07-13T00:05:55+00:00", "2023-07-13T00:06:39+00:00", "2023-07-13T00:08:07+00:00", "2023-07-13T00:09:27+00:00", "2023-07-13T00:10:44+00:00", "2023-07-13T00:11:28+00:00", "2023-07-13T00:12:40+00:00", "2023-07-13T00:14:17+00:00", "2023-07-13T00:15:01+00:00", "2023-07-13T00:15:57+00:00", "2023-07-13T00:17:18+00:00", "2023-07-13T00:18:18+00:00", "2023-07-13T00:19:30+00:00", "2023-07-13T00:20:31+00:00", "2023-07-13T00:22:30+00:00", "2023-07-13T00:23:44+00:00", "2023-07-13T00:25:08+00:00", "2023-07-13T00:26:25+00:00", "2023-07-13T00:27:25+00:00", "2023-07-13T00:28:57+00:00", "2023-07-13T00:30:25+00:00", "2023-07-13T00:31:22+00:00", "2023-07-13T00:32:26+00:00", "2023-07-13T00:33:42+00:00", "2023-07-13T00:35:25+00:00", "2023-07-13T00:36:43+00:00", "2023-07-13T00:38:15+00:00", "2023-07-13T00:39:52+00:00", "2023-07-13T00:40:44+00:00", "2023-07-13T00:41:57+00:00", "2023-07-13T00:42:45+00:00", "2023-07-13T00:44:26+00:00", "2023-07-13T00:45:27+00:00", "2023-07-13T00:46:54+00:00", "2023-07-13T00:48:46+00:00", "2023-07-13T00:50:27+00:00", "2023-07-13T00:52:19+00:00", "2023-07-13T00:53:27+00:00", "2023-07-13T00:55:23+00:00", "2023-07-13T00:56:44+00:00", "2023-07-13T00:58:15+00:00", "2023-07-13T00:59:32+00:00", "2023-07-13T01:01:27+00:00", "2023-07-13T01:02:29+00:00", "2023-07-13T01:04:25+00:00", "2023-07-13T01:05:22+00:00", "2023-07-13T01:06:10+00:00", "2023-07-13T01:07:55+00:00", "2023-07-13T01:08:51+00:00", "2023-07-13T01:10:28+00:00", "2023-07-13T01:12:08+00:00", "2023-07-13T01:13:16+00:00", "2023-07-13T01:14:24+00:00", "2023-07-13T01:15:16+00:00", "2023-07-13T01:16:35+00:00", "2023-07-13T01:18:30+00:00", "2023-07-13T01:20:01+00:00", "2023-07-13T01:21:13+00:00", "2023-07-13T01:22:25+00:00", "2023-07-13T01:23:30+00:00", "2023-07-13T01:25:26+00:00", "2023-07-13T01:26:39+00:00", "2023-07-13T01:27:55+00:00", "2023-07-13T01:29:27+00:00", "2023-07-13T01:30:32+00:00", "2023-07-13T01:32:08+00:00", "2023-07-13T01:33:34+00:00", "2023-07-13T01:34:34+00:00", "2023-07-13T01:35:53+00:00", "2023-07-13T01:36:34+00:00", "2023-07-13T01:38:18+00:00", "2023-07-13T01:39:34+00:00", "2023-07-13T01:41:26+00:00", "2023-07-13T01:42:19+00:00", "2023-07-13T01:43:43+00:00", "2023-07-13T01:45:24+00:00", "2023-07-13T01:46:35+00:00", "2023-07-13T01:48:04+00:00", "2023-07-13T01:49:35+00:00", "2023-07-13T01:50:35+00:00", "2023-07-13T01:51:41+00:00", "2023-07-13T01:53:35+00:00", "2023-07-13T01:55:22+00:00", "2023-07-13T01:56:35+00:00", "2023-07-13T01:58:30+00:00", "2023-07-13T01:59:35+00:00", "2023-07-13T02:01:16+00:00", "2023-07-13T02:02:40+00:00", "2023-07-13T02:03:24+00:00", "2023-07-13T02:04:40+00:00", "2023-07-13T02:06:33+00:00", "2023-07-13T02:07:34+00:00", "2023-07-13T02:08:54+00:00", "2023-07-13T02:09:42+00:00", "2023-07-13T02:11:33+00:00", "2023-07-13T02:13:03+00:00", "2023-07-13T02:14:35+00:00", "2023-07-13T02:16:04+00:00", "2023-07-13T02:17:35+00:00", "2023-07-13T02:19:21+00:00", "2023-07-13T02:20:36+00:00", "2023-07-13T02:22:36+00:00", "2023-07-13T02:23:36+00:00", "2023-07-13T02:26:26+00:00", "2023-07-13T02:27:36+00:00", "2023-07-13T02:29:07+00:00", "2023-07-13T02:30:31+00:00", "2023-07-13T02:31:32+00:00", "2023-07-13T02:33:20+00:00", "2023-07-13T02:34:37+00:00", "2023-07-13T02:35:41+00:00", "2023-07-13T02:37:41+00:00", "2023-07-13T02:39:37+00:00", "2023-07-13T02:41:02+00:00", "2023-07-13T02:42:38+00:00", "2023-07-13T02:43:38+00:00", "2023-07-13T02:45:20+00:00", "2023-07-13T02:46:36+00:00", "2023-07-13T02:47:39+00:00", "2023-07-13T02:49:39+00:00", "2023-07-13T02:50:41+00:00", "2023-07-13T02:52:33+00:00", "2023-07-13T02:53:10+00:00", "2023-07-13T02:54:50+00:00", "2023-07-13T02:55:46+00:00", "2023-07-13T02:56:39+00:00", "2023-07-13T02:57:39+00:00", "2023-07-13T02:59:48+00:00", "2023-07-13T03:01:20+00:00", "2023-07-13T03:01:52+00:00", "2023-07-13T03:03:08+00:00", "2023-07-13T03:04:36+00:00", "2023-07-13T03:05:29+00:00", "2023-07-13T03:06:13+00:00", "2023-07-13T03:07:33+00:00", "2023-07-13T03:08:34+00:00", "2023-07-13T03:09:39+00:00", "2023-07-13T03:11:02+00:00", "2023-07-13T03:12:27+00:00", "2023-07-13T03:14:04+00:00", "2023-07-13T03:15:08+00:00", "2023-07-13T03:16:40+00:00", "2023-07-13T03:18:12+00:00", "2023-07-13T03:19:29+00:00", "2023-07-13T03:20:41+00:00", "2023-07-13T03:21:42+00:00", "2023-07-13T03:22:41+00:00", "2023-07-13T03:24:03+00:00", "2023-07-13T03:25:15+00:00", "2023-07-13T03:26:03+00:00", "2023-07-13T03:27:23+00:00", "2023-07-13T03:28:03+00:00", "2023-07-13T03:29:16+00:00", "2023-07-13T03:30:12+00:00", "2023-07-13T03:31:08+00:00", "2023-07-13T03:32:32+00:00", "2023-07-13T03:33:52+00:00", "2023-07-13T03:34:41+00:00", "2023-07-13T03:36:09+00:00", "2023-07-13T03:36:54+00:00", "2023-07-13T03:38:42+00:00", "2023-07-13T03:39:55+00:00", "2023-07-13T03:41:03+00:00", "2023-07-13T03:41:43+00:00", "2023-07-13T03:42:51+00:00", "2023-07-13T03:43:51+00:00", "2023-07-13T03:44:51+00:00", "2023-07-13T03:46:16+00:00", "2023-07-13T03:47:41+00:00", "2023-07-13T03:48:28+00:00", "2023-07-13T03:49:30+00:00", "2023-07-13T03:51:01+00:00", "2023-07-13T03:52:09+00:00", "2023-07-13T03:53:09+00:00", "2023-07-13T03:54:34+00:00", "2023-07-13T03:55:41+00:00", "2023-07-13T03:56:43+00:00", "2023-07-13T03:57:41+00:00", "2023-07-13T03:58:41+00:00", "2023-07-13T03:59:43+00:00", "2023-07-13T04:00:43+00:00", "2023-07-13T04:01:39+00:00", "2023-07-13T04:02:39+00:00", "2023-07-13T04:03:41+00:00", "2023-07-13T04:05:44+00:00", "2023-07-13T04:06:32+00:00", "2023-07-13T04:08:04+00:00", "2023-07-13T04:09:30+00:00", "2023-07-13T04:10:40+00:00", "2023-07-13T04:11:41+00:00", "2023-07-13T04:12:47+00:00", "2023-07-13T04:14:18+00:00", "2023-07-13T04:15:18+00:00", "2023-07-13T04:16:39+00:00", "2023-07-13T04:17:39+00:00", "2023-07-13T04:19:01+00:00", "2023-07-13T04:19:53+00:00", "2023-07-13T04:21:49+00:00", "2023-07-13T04:23:05+00:00", "2023-07-13T04:23:54+00:00", "2023-07-13T04:25:02+00:00", "2023-07-13T04:26:39+00:00", "2023-07-13T04:27:39+00:00", "2023-07-13T04:28:40+00:00", "2023-07-13T04:29:44+00:00", "2023-07-13T04:30:32+00:00", "2023-07-13T04:31:45+00:00", "2023-07-13T04:33:04+00:00", "2023-07-13T04:33:53+00:00", "2023-07-13T04:35:17+00:00", "2023-07-13T04:36:18+00:00", "2023-07-13T04:37:02+00:00", "2023-07-13T04:38:38+00:00", "2023-07-13T04:39:39+00:00", "2023-07-13T04:40:48+00:00", "2023-07-13T04:42:20+00:00", "2023-07-13T04:43:12+00:00", "2023-07-13T04:44:00+00:00", "2023-07-13T04:45:48+00:00", "2023-07-13T04:46:29+00:00", "2023-07-13T04:47:48+00:00", "2023-07-13T04:49:06+00:00", "2023-07-13T04:49:58+00:00", "2023-07-13T04:51:30+00:00", "2023-07-13T04:52:39+00:00", "2023-07-13T04:53:49+00:00", "2023-07-13T04:55:07+00:00", "2023-07-13T04:56:16+00:00", "2023-07-13T04:57:28+00:00", "2023-07-13T04:58:49+00:00", "2023-07-13T05:00:08+00:00", "2023-07-13T05:01:49+00:00", "2023-07-13T05:03:09+00:00", "2023-07-13T05:04:42+00:00", "2023-07-13T05:05:49+00:00", "2023-07-13T05:06:50+00:00", "2023-07-13T05:07:49+00:00", "2023-07-13T05:09:03+00:00", "2023-07-13T05:10:43+00:00", "2023-07-13T05:12:49+00:00", "2023-07-13T05:14:16+00:00", "2023-07-13T05:15:49+00:00", "2023-07-13T05:17:41+00:00", "2023-07-13T05:19:14+00:00", "2023-07-13T05:21:49+00:00", "2023-07-13T05:23:43+00:00", "2023-07-13T05:25:49+00:00", "2023-07-13T05:27:32+00:00", "2023-07-13T05:29:45+00:00", "2023-07-13T05:31:49+00:00", "2023-07-13T05:33:49+00:00", "2023-07-13T05:34:50+00:00", "2023-07-13T05:36:47+00:00", "2023-07-13T05:42:32+00:00", "2023-07-13T15:18:32+00:00", "2023-07-14T00:35:43+00:00", "2023-07-14T00:38:29+00:00", "2023-07-14T00:40:29+00:00", "2023-07-14T00:42:29+00:00", "2023-07-14T00:44:29+00:00", "2023-07-14T00:46:29+00:00", "2023-07-14T00:47:29+00:00", "2023-07-14T00:49:29+00:00", "2023-07-14T00:52:00+00:00", "2023-07-14T00:53:16+00:00", "2023-07-14T00:54:36+00:00", "2023-07-14T00:56:29+00:00", "2023-07-14T00:58:29+00:00", "2023-07-14T01:01:10+00:00", "2023-07-14T01:03:29+00:00", "2023-07-14T01:07:00+00:00", "2023-07-14T01:08:28+00:00", "2023-07-14T01:09:52+00:00", "2023-07-14T01:11:29+00:00", "2023-07-14T01:13:29+00:00", "2023-07-14T01:14:46+00:00", "2023-07-14T01:16:29+00:00", "2023-07-14T01:17:51+00:00", "2023-07-14T01:18:47+00:00", "2023-07-14T01:19:59+00:00", "2023-07-14T01:21:11+00:00", "2023-07-14T01:22:08+00:00", "2023-07-14T01:23:29+00:00", "2023-07-14T01:25:12+00:00", "2023-07-14T01:27:05+00:00", "2023-07-14T01:28:45+00:00", "2023-07-14T01:30:14+00:00", "2023-07-14T01:32:18+00:00", "2023-07-14T01:33:27+00:00", "2023-07-14T01:34:35+00:00", "2023-07-14T01:35:43+00:00", "2023-07-14T01:37:00+00:00", "2023-07-14T01:38:04+00:00", "2023-07-14T01:39:07+00:00", "2023-07-14T01:40:04+00:00", "2023-07-14T01:41:07+00:00", "2023-07-14T01:42:41+00:00", "2023-07-14T01:43:41+00:00", "2023-07-14T01:44:29+00:00", "2023-07-14T01:45:14+00:00", "2023-07-14T01:46:14+00:00", "2023-07-14T01:47:07+00:00", "2023-07-14T01:48:50+00:00", "2023-07-14T01:49:43+00:00", "2023-07-14T01:51:10+00:00", "2023-07-14T01:52:31+00:00", "2023-07-14T01:54:10+00:00", "2023-07-14T01:55:00+00:00", "2023-07-14T01:56:10+00:00", "2023-07-14T01:57:10+00:00", "2023-07-14T01:58:41+00:00", "2023-07-14T02:00:01+00:00", "2023-07-14T02:01:10+00:00", "2023-07-14T02:02:42+00:00", "2023-07-14T02:03:42+00:00", "2023-07-14T02:04:50+00:00", "2023-07-14T02:06:10+00:00", "2023-07-14T02:07:15+00:00", "2023-07-14T02:08:10+00:00", "2023-07-14T02:09:24+00:00", "2023-07-14T02:11:08+00:00", "2023-07-14T02:12:10+00:00", "2023-07-14T02:13:49+00:00", "2023-07-14T02:14:30+00:00", "2023-07-14T02:15:10+00:00", "2023-07-14T02:16:54+00:00", "2023-07-14T02:18:10+00:00", "2023-07-14T02:19:10+00:00", "2023-07-14T02:20:55+00:00", "2023-07-14T02:21:55+00:00", "2023-07-14T02:23:03+00:00", "2023-07-14T02:23:47+00:00", "2023-07-14T02:25:00+00:00", "2023-07-14T02:26:10+00:00", "2023-07-14T02:27:32+00:00", "2023-07-14T02:29:10+00:00", "2023-07-14T02:30:33+00:00", "2023-07-14T02:32:02+00:00", "2023-07-14T02:33:02+00:00", "2023-07-14T02:34:10+00:00", "2023-07-14T02:34:54+00:00", "2023-07-14T02:36:10+00:00", "2023-07-14T02:36:59+00:00", "2023-07-14T02:37:55+00:00", "2023-07-14T02:38:52+00:00", "2023-07-14T02:40:00+00:00", "2023-07-14T02:41:04+00:00", "2023-07-14T02:41:53+00:00", "2023-07-14T02:43:01+00:00", "2023-07-14T02:43:57+00:00", "2023-07-14T02:44:49+00:00", "2023-07-14T02:46:02+00:00", "2023-07-14T02:47:06+00:00", "2023-07-14T02:48:10+00:00", "2023-07-14T02:48:54+00:00", "2023-07-14T02:50:11+00:00", "2023-07-14T02:51:11+00:00", "2023-07-14T02:52:23+00:00", "2023-07-14T02:53:48+00:00", "2023-07-14T02:54:48+00:00", "2023-07-14T02:56:01+00:00", "2023-07-14T02:56:53+00:00", "2023-07-14T02:57:53+00:00", "2023-07-14T02:59:25+00:00", "2023-07-14T03:00:39+00:00", "2023-07-14T03:01:30+00:00", "2023-07-14T03:02:38+00:00", "2023-07-14T03:03:39+00:00", "2023-07-14T03:04:47+00:00", "2023-07-14T03:06:00+00:00", "2023-07-14T03:07:08+00:00", "2023-07-14T03:08:24+00:00", "2023-07-14T03:09:37+00:00", "2023-07-14T03:11:01+00:00", "2023-07-14T03:11:50+00:00", "2023-07-14T03:12:54+00:00", "2023-07-14T03:14:30+00:00", "2023-07-14T03:15:40+00:00", "2023-07-14T03:16:41+00:00", "2023-07-14T03:17:44+00:00", "2023-07-14T03:19:04+00:00", "2023-07-14T03:19:56+00:00", "2023-07-14T03:21:28+00:00", "2023-07-14T03:22:17+00:00", "2023-07-14T03:23:41+00:00", "2023-07-14T03:24:29+00:00", "2023-07-14T03:25:53+00:00", "2023-07-14T03:26:53+00:00", "2023-07-14T03:28:10+00:00", "2023-07-14T03:29:14+00:00", "2023-07-14T03:30:14+00:00", "2023-07-14T03:31:41+00:00", "2023-07-14T03:32:59+00:00", "2023-07-14T03:33:43+00:00", "2023-07-14T03:34:56+00:00", "2023-07-14T03:36:04+00:00", "2023-07-14T03:37:28+00:00", "2023-07-14T03:38:17+00:00", "2023-07-14T03:39:29+00:00", "2023-07-14T03:40:47+00:00", "2023-07-14T03:42:34+00:00", "2023-07-14T03:43:34+00:00", "2023-07-14T03:45:03+00:00", "2023-07-14T03:45:55+00:00", "2023-07-14T03:47:40+00:00", "2023-07-14T03:48:40+00:00", "2023-07-14T03:49:40+00:00", "2023-07-14T03:50:41+00:00", "2023-07-14T03:51:40+00:00", "2023-07-14T03:52:41+00:00", "2023-07-14T03:53:49+00:00", "2023-07-14T03:54:57+00:00", "2023-07-14T03:56:30+00:00", "2023-07-14T03:57:14+00:00", "2023-07-14T03:58:26+00:00", "2023-07-14T03:59:42+00:00", "2023-07-14T04:00:42+00:00", "2023-07-14T04:01:47+00:00", "2023-07-14T04:02:59+00:00", "2023-07-14T04:04:16+00:00", "2023-07-14T04:05:42+00:00", "2023-07-14T04:06:28+00:00", "2023-07-14T04:07:37+00:00", "2023-07-14T04:08:37+00:00", "2023-07-14T04:09:42+00:00", "2023-07-14T04:10:57+00:00", "2023-07-14T04:11:46+00:00", "2023-07-14T04:13:06+00:00", "2023-07-14T04:14:02+00:00", "2023-07-14T04:15:06+00:00", "2023-07-14T04:16:35+00:00", "2023-07-14T04:17:59+00:00", "2023-07-14T04:18:51+00:00", "2023-07-14T04:19:52+00:00", "2023-07-14T04:21:43+00:00", "2023-07-14T04:23:17+00:00", "2023-07-14T04:24:29+00:00", "2023-07-14T04:25:13+00:00", "2023-07-14T04:26:18+00:00", "2023-07-14T04:27:22+00:00", "2023-07-14T04:28:22+00:00", "2023-07-14T04:29:44+00:00", "2023-07-14T04:30:51+00:00", "2023-07-14T04:31:44+00:00", "2023-07-14T04:33:55+00:00", "2023-07-14T04:34:52+00:00", "2023-07-14T04:36:04+00:00", "2023-07-14T04:37:24+00:00", "2023-07-14T04:38:41+00:00", "2023-07-14T04:39:33+00:00", "2023-07-14T04:40:37+00:00", "2023-07-14T04:41:45+00:00", "2023-07-14T04:42:22+00:00", "2023-07-14T04:43:30+00:00", "2023-07-14T04:44:38+00:00", "2023-07-14T04:45:46+00:00", "2023-07-14T04:46:55+00:00", "2023-07-14T04:47:47+00:00", "2023-07-14T04:49:15+00:00", "2023-07-14T04:49:56+00:00", "2023-07-14T04:51:28+00:00", "2023-07-14T04:52:16+00:00", "2023-07-14T04:53:17+00:00", "2023-07-14T04:54:37+00:00", "2023-07-14T04:55:46+00:00", "2023-07-14T04:56:37+00:00", "2023-07-14T04:58:02+00:00", "2023-07-14T04:59:46+00:00", "2023-07-14T05:00:54+00:00", "2023-07-14T05:01:46+00:00", "2023-07-14T05:02:43+00:00", "2023-07-14T05:04:19+00:00", "2023-07-14T05:05:11+00:00", "2023-07-14T05:05:52+00:00", "2023-07-14T05:06:52+00:00", "2023-07-14T05:08:08+00:00", "2023-07-14T05:09:28+00:00", "2023-07-14T05:10:20+00:00", "2023-07-14T05:11:16+00:00", "2023-07-14T05:12:25+00:00", "2023-07-14T05:13:01+00:00", "2023-07-14T05:14:42+00:00", "2023-07-14T05:15:10+00:00", "2023-07-14T05:16:46+00:00", "2023-07-14T05:18:02+00:00", "2023-07-14T05:18:51+00:00", "2023-07-14T05:20:07+00:00", "2023-07-14T05:20:51+00:00", "2023-07-14T05:22:15+00:00", "2023-07-14T05:23:36+00:00", "2023-07-14T05:24:44+00:00", "2023-07-14T05:26:01+00:00", "2023-07-14T05:26:53+00:00", "2023-07-14T05:27:53+00:00", "2023-07-14T05:29:17+00:00", "2023-07-14T05:30:02+00:00", "2023-07-14T05:32:02+00:00", "2023-07-14T05:33:18+00:00", "2023-07-14T05:34:35+00:00", "2023-07-14T05:35:47+00:00", "2023-07-14T05:37:28+00:00", "2023-07-14T05:38:46+00:00", "2023-07-14T05:40:44+00:00", "2023-07-14T05:41:46+00:00", "2023-07-14T05:43:13+00:00", "2023-07-14T05:44:05+00:00", "2023-07-14T05:45:22+00:00", "2023-07-14T05:46:38+00:00", "2023-07-14T05:47:46+00:00", "2023-07-14T05:49:03+00:00", "2023-07-14T05:50:23+00:00", "2023-07-14T05:51:15+00:00", "2023-07-14T05:52:46+00:00", "2023-07-14T05:53:46+00:00", "2023-07-14T05:55:24+00:00", "2023-07-14T05:56:46+00:00", "2023-07-14T05:57:46+00:00", "2023-07-14T05:59:01+00:00", "2023-07-14T06:00:17+00:00", "2023-07-14T06:02:46+00:00", "2023-07-14T06:03:54+00:00", "2023-07-14T06:05:31+00:00", "2023-07-14T06:06:46+00:00", "2023-07-14T06:07:46+00:00", "2023-07-14T06:09:36+00:00", "2023-07-14T06:10:46+00:00", "2023-07-14T06:12:36+00:00", "2023-07-14T06:13:46+00:00", "2023-07-14T06:14:57+00:00", "2023-07-14T06:16:13+00:00", "2023-07-14T06:17:34+00:00", "2023-07-14T06:18:46+00:00", "2023-07-14T06:20:22+00:00", "2023-07-14T06:21:46+00:00", "2023-07-14T06:22:27+00:00", "2023-07-14T06:23:46+00:00", "2023-07-14T06:24:52+00:00", "2023-07-14T06:25:48+00:00", "2023-07-14T06:27:45+00:00", "2023-07-14T06:29:46+00:00", "2023-07-14T06:30:46+00:00", "2023-07-14T06:32:02+00:00", "2023-07-14T06:33:46+00:00", "2023-07-14T06:34:45+00:00", "2023-07-14T06:36:23+00:00", "2023-07-14T06:38:24+00:00", "2023-07-14T06:39:40+00:00", "2023-07-14T06:41:00+00:00", "2023-07-14T06:43:29+00:00", "2023-07-14T06:44:45+00:00", "2023-07-14T06:47:46+00:00", "2023-07-14T06:49:46+00:00", "2023-07-14T06:51:46+00:00", "2023-07-14T06:52:59+00:00", "2023-07-14T06:54:45+00:00", "2023-07-14T06:57:57+00:00", "2023-07-14T17:23:38+00:00", "2023-07-15T00:20:04+00:00", "2023-07-15T00:21:49+00:00", "2023-07-15T00:23:19+00:00", "2023-07-15T00:24:50+00:00", "2023-07-15T00:26:34+00:00", "2023-07-15T00:28:06+00:00", "2023-07-15T00:28:35+00:00", "2023-07-15T00:31:23+00:00", "2023-07-15T00:32:19+00:00", "2023-07-15T00:34:19+00:00", "2023-07-15T00:36:16+00:00", "2023-07-15T00:37:09+00:00", "2023-07-15T00:38:17+00:00", "2023-07-15T00:38:57+00:00", "2023-07-15T00:40:21+00:00", "2023-07-15T00:41:26+00:00", "2023-07-15T00:42:26+00:00", "2023-07-15T00:43:54+00:00", "2023-07-15T00:45:17+00:00", "2023-07-15T00:46:35+00:00", "2023-07-15T00:47:23+00:00", "2023-07-15T00:49:18+00:00", "2023-07-15T00:50:18+00:00", "2023-07-15T00:53:25+00:00", "2023-07-15T00:55:09+00:00", "2023-07-15T00:56:53+00:00", "2023-07-15T00:59:10+00:00", "2023-07-15T01:00:19+00:00", "2023-07-15T01:01:43+00:00", "2023-07-15T01:03:19+00:00", "2023-07-15T01:05:19+00:00", "2023-07-15T01:07:15+00:00", "2023-07-15T01:09:19+00:00", "2023-07-15T01:11:20+00:00", "2023-07-15T01:12:42+00:00", "2023-07-15T01:15:15+00:00", "2023-07-15T01:17:15+00:00", "2023-07-15T01:19:16+00:00", "2023-07-15T01:20:40+00:00", "2023-07-15T01:23:01+00:00", "2023-07-15T01:25:21+00:00", "2023-07-15T01:27:15+00:00", "2023-07-15T01:30:03+00:00", "2023-07-15T01:31:21+00:00", "2023-07-15T01:34:21+00:00", "2023-07-15T01:35:52+00:00", "2023-07-15T01:38:21+00:00", "2023-07-15T01:39:53+00:00", "2023-07-15T01:42:10+00:00", "2023-07-15T01:43:26+00:00", "2023-07-15T01:45:27+00:00", "2023-07-15T01:47:15+00:00", "2023-07-15T01:50:04+00:00", "2023-07-15T01:51:21+00:00", "2023-07-15T01:52:22+00:00", "2023-07-15T01:55:13+00:00", "2023-07-15T01:56:22+00:00", "2023-07-15T01:57:30+00:00", "2023-07-15T01:59:10+00:00", "2023-07-15T02:01:21+00:00", "2023-07-15T02:02:21+00:00", "2023-07-15T02:03:52+00:00", "2023-07-15T02:05:00+00:00", "2023-07-15T02:08:21+00:00", "2023-07-15T02:09:22+00:00", "2023-07-15T02:11:46+00:00", "2023-07-15T02:12:34+00:00", "2023-07-15T02:13:38+00:00", "2023-07-15T02:14:59+00:00", "2023-07-15T02:16:23+00:00", "2023-07-15T02:17:48+00:00", "2023-07-15T02:21:27+00:00", "2023-07-15T02:22:27+00:00", "2023-07-15T02:24:27+00:00", "2023-07-15T02:26:35+00:00", "2023-07-15T02:27:30+00:00", "2023-07-15T02:29:30+00:00", "2023-07-15T02:31:28+00:00", "2023-07-15T02:34:15+00:00", "2023-07-15T02:35:27+00:00", "2023-07-15T02:37:28+00:00", "2023-07-15T02:39:16+00:00", "2023-07-15T02:41:27+00:00", "2023-07-15T02:43:29+00:00", "2023-07-15T02:44:29+00:00", "2023-07-15T02:46:29+00:00", "2023-07-15T02:48:29+00:00", "2023-07-15T02:51:30+00:00", "2023-07-15T02:52:30+00:00", "2023-07-15T02:54:40+00:00", "2023-07-15T02:57:08+00:00", "2023-07-15T02:59:09+00:00", "2023-07-15T03:00:30+00:00", "2023-07-15T03:03:22+00:00", "2023-07-15T03:04:14+00:00", "2023-07-15T03:06:31+00:00", "2023-07-15T03:07:35+00:00", "2023-07-15T03:09:32+00:00", "2023-07-15T03:12:32+00:00", "2023-07-15T03:13:28+00:00", "2023-07-15T03:14:32+00:00", "2023-07-15T03:16:32+00:00", "2023-07-15T03:18:32+00:00", "2023-07-15T03:20:49+00:00", "2023-07-15T03:22:09+00:00", "2023-07-15T03:23:18+00:00", "2023-07-15T03:25:32+00:00", "2023-07-15T03:26:32+00:00", "2023-07-15T03:28:15+00:00", "2023-07-15T03:29:32+00:00", "2023-07-15T03:31:00+00:00", "2023-07-15T03:33:32+00:00", "2023-07-15T03:35:32+00:00", "2023-07-15T03:36:32+00:00", "2023-07-15T03:38:32+00:00", "2023-07-15T03:40:32+00:00", "2023-07-15T03:41:32+00:00", "2023-07-15T03:42:46+00:00", "2023-07-15T03:45:32+00:00", "2023-07-15T03:46:32+00:00", "2023-07-15T03:47:35+00:00", "2023-07-15T03:48:39+00:00", "2023-07-15T03:49:48+00:00", "2023-07-15T03:51:36+00:00", "2023-07-15T03:53:21+00:00", "2023-07-15T03:54:32+00:00", "2023-07-15T03:55:37+00:00", "2023-07-15T03:56:32+00:00", "2023-07-15T03:58:26+00:00", "2023-07-15T03:59:32+00:00", "2023-07-15T04:00:59+00:00", "2023-07-15T04:01:55+00:00", "2023-07-15T04:03:33+00:00", "2023-07-15T04:05:24+00:00", "2023-07-15T04:06:33+00:00", "2023-07-15T04:07:53+00:00", "2023-07-15T04:09:25+00:00", "2023-07-15T04:10:33+00:00", "2023-07-15T04:12:33+00:00", "2023-07-15T04:13:33+00:00", "2023-07-15T04:14:47+00:00", "2023-07-15T04:16:33+00:00", "2023-07-15T04:18:33+00:00", "2023-07-15T04:19:44+00:00", "2023-07-15T04:21:00+00:00", "2023-07-15T04:22:33+00:00", "2023-07-15T04:23:33+00:00", "2023-07-15T04:25:02+00:00", "2023-07-15T04:27:30+00:00", "2023-07-15T04:28:36+00:00", "2023-07-15T04:29:43+00:00", "2023-07-15T04:30:36+00:00", "2023-07-15T04:32:36+00:00", "2023-07-15T04:33:36+00:00", "2023-07-15T04:35:20+00:00", "2023-07-15T04:36:38+00:00", "2023-07-15T04:37:49+00:00", "2023-07-15T04:39:38+00:00", "2023-07-15T04:40:38+00:00", "2023-07-15T04:41:41+00:00", "2023-07-15T04:43:33+00:00", "2023-07-15T04:45:15+00:00", "2023-07-15T04:46:31+00:00", "2023-07-15T04:47:30+00:00", "2023-07-15T04:48:34+00:00", "2023-07-15T04:49:52+00:00", "2023-07-15T04:51:05+00:00", "2023-07-15T04:53:01+00:00", "2023-07-15T04:54:26+00:00", "2023-07-15T04:55:50+00:00", "2023-07-15T04:57:11+00:00", "2023-07-15T04:58:38+00:00", "2023-07-15T04:59:51+00:00", "2023-07-15T05:01:12+00:00", "2023-07-15T05:02:36+00:00", "2023-07-15T05:03:52+00:00", "2023-07-15T05:05:36+00:00", "2023-07-15T05:06:36+00:00", "2023-07-15T05:08:37+00:00", "2023-07-15T05:09:50+00:00", "2023-07-15T05:10:41+00:00", "2023-07-15T05:12:41+00:00", "2023-07-15T05:14:31+00:00", "2023-07-15T05:15:44+00:00", "2023-07-15T05:16:41+00:00", "2023-07-15T05:17:44+00:00", "2023-07-15T05:19:01+00:00", "2023-07-15T05:20:37+00:00", "2023-07-15T05:22:01+00:00", "2023-07-15T05:23:54+00:00", "2023-07-15T05:25:27+00:00", "2023-07-15T05:26:51+00:00", "2023-07-15T05:28:52+00:00", "2023-07-15T05:31:12+00:00", "2023-07-15T05:32:41+00:00", "2023-07-15T05:34:25+00:00", "2023-07-15T05:36:01+00:00", "2023-07-15T05:37:41+00:00", "2023-07-15T05:39:41+00:00", "2023-07-15T05:40:59+00:00", "2023-07-15T05:42:41+00:00", "2023-07-15T05:44:41+00:00", "2023-07-15T05:46:09+00:00", "2023-07-15T05:47:41+00:00", "2023-07-15T05:49:41+00:00", "2023-07-15T05:50:41+00:00", "2023-07-15T05:52:41+00:00", "2023-07-15T05:53:48+00:00", "2023-07-15T05:55:41+00:00", "2023-07-15T05:57:41+00:00", "2023-07-15T05:59:41+00:00", "2023-07-15T06:01:18+00:00", "2023-07-15T06:02:41+00:00", "2023-07-15T06:03:58+00:00", "2023-07-15T06:05:51+00:00", "2023-07-15T06:07:41+00:00", "2023-07-15T06:09:41+00:00", "2023-07-15T06:10:41+00:00", "2023-07-15T06:12:41+00:00", "2023-07-15T06:13:45+00:00", "2023-07-15T06:15:57+00:00", "2023-07-15T08:20:17+00:00", "2023-07-15T10:25:35+00:00", "2023-07-15T19:38:46+00:00", "2023-07-16T13:47:52+00:00", "2023-07-16T20:27:45+00:00", "2023-07-17T02:50:11+00:00", "2023-07-17T13:16:24+00:00", "2023-07-17T17:28:25+00:00", "2023-07-17T22:33:54+00:00", "2023-07-18T02:20:18+00:00", "2023-07-18T05:34:31+00:00", "2023-07-18T20:55:19+00:00", "2023-07-19T00:25:55+00:00", "2023-07-19T00:27:36+00:00", "2023-07-19T00:29:37+00:00", "2023-07-19T00:30:41+00:00", "2023-07-19T00:32:41+00:00", "2023-07-19T00:35:34+00:00", "2023-07-19T00:37:18+00:00", "2023-07-19T00:38:39+00:00", "2023-07-19T00:42:03+00:00", "2023-07-19T00:44:42+00:00", "2023-07-19T00:47:42+00:00", "2023-07-19T00:48:42+00:00", "2023-07-19T00:50:42+00:00", "2023-07-19T00:52:42+00:00", "2023-07-19T00:55:30+00:00", "2023-07-19T00:57:42+00:00", "2023-07-19T00:59:42+00:00", "2023-07-19T01:00:42+00:00", "2023-07-19T01:03:42+00:00", "2023-07-19T01:05:30+00:00", "2023-07-19T01:07:42+00:00", "2023-07-19T01:10:39+00:00", "2023-07-19T01:12:39+00:00", "2023-07-19T01:13:41+00:00", "2023-07-19T01:15:47+00:00", "2023-07-19T01:18:42+00:00", "2023-07-19T01:20:42+00:00", "2023-07-19T01:23:42+00:00", "2023-07-19T01:26:42+00:00", "2023-07-19T01:28:51+00:00", "2023-07-19T01:31:59+00:00", "2023-07-19T01:33:59+00:00", "2023-07-19T01:35:59+00:00", "2023-07-19T01:38:59+00:00", "2023-07-19T01:40:37+00:00", "2023-07-19T01:42:42+00:00", "2023-07-19T01:44:42+00:00", "2023-07-19T01:46:42+00:00", "2023-07-19T01:48:43+00:00", "2023-07-19T01:51:43+00:00", "2023-07-19T01:52:43+00:00", "2023-07-19T01:54:43+00:00", "2023-07-19T01:56:43+00:00", "2023-07-19T01:58:43+00:00", "2023-07-19T02:01:12+00:00", "2023-07-19T02:02:43+00:00", "2023-07-19T02:04:44+00:00", "2023-07-19T02:07:44+00:00", "2023-07-19T02:09:18+00:00", "2023-07-19T02:11:45+00:00", "2023-07-19T02:14:45+00:00", "2023-07-19T02:17:44+00:00", "2023-07-19T02:19:45+00:00", "2023-07-19T02:22:45+00:00", "2023-07-19T02:24:50+00:00", "2023-07-19T02:27:47+00:00", "2023-07-19T02:29:59+00:00", "2023-07-19T02:32:47+00:00", "2023-07-19T02:34:48+00:00", "2023-07-19T02:36:48+00:00", "2023-07-19T02:39:48+00:00", "2023-07-19T02:42:48+00:00", "2023-07-19T02:45:45+00:00", "2023-07-19T02:48:07+00:00", "2023-07-19T02:50:48+00:00", "2023-07-19T02:53:49+00:00", "2023-07-19T02:56:50+00:00", "2023-07-19T02:59:48+00:00", "2023-07-19T03:01:34+00:00", "2023-07-19T03:03:30+00:00", "2023-07-19T03:05:45+00:00", "2023-07-19T03:08:31+00:00", "2023-07-19T03:10:36+00:00", "2023-07-19T03:11:40+00:00", "2023-07-19T03:13:29+00:00", "2023-07-19T03:17:26+00:00"], "elevations": [0.0, 13.0, 3.0, 4.0, 3.0, 4.2, 5.5, 5.0, -13.0, -1.0, -2.2, -5.0, 2.0, 2.5, 1.5, 1.0, -9.0, -6.3, -2.0, 0.0, -12.0, 0.0, 0.0, 12.0, 16.0, 0.0, 3.0, 4.0, 8.5, 4.0, 2.0, 2.0, 5.0, null, 6.2, null, 8.0, 9.0, 36.0, -6.0, -7.0, -7.0, 1.2, -10.0, 4.5, 11.0, 7.0, -8.0, -9.0, -5.8, 0.0, -1.0, 24.0, 22.0, 22.0, 19.0, -5.8, 2.0, 36.0, 6.0, 3.0, 4.0, 5.0, 8.0, 6.4, 6.0, null, 8.0, 8.0, 7.0, 7.0, 6.0, 6.4, -14.0, 7.0, 7.0, 6.0, 6.0, 7.0, null, 38.0, 2.5, 3.0, 2.5, 2.0, 1.0, 2.3, -2.0, 2.0, 1.0, 0.0, 1.0, 0.3, 1.0, 2.0, 3.0, 4.0, 4.0, 4.2, 4.0, 12.5, 24.3, 13.0, 11.7, -5.3, 3.9, 8.0, 8.0, 7.0, 5.7, 12.0, 6.5, -10.0, 8.0, 6.5, 0.0, 5.0, 8.0, 5.5, 4.0, 4.5, 5.0, 5.0, 5.3, 7.0, 3.5, 3.0, 3.0, 3.0, 3.0, 2.5, 2.0, 2.0, 8.0, 5.0, 5.0, 6.0, 6.2, 7.0, null, 7.0, 7.0, 6.5, 7.0, -9.0, 19.0, 9.2, 35.0, 8.0, 12.0, 13.5, 14.0, null, 8.5, 18.6, 13.0, 5.0, 10.5, 5.0, 6.0, 8.0, 8.0, 14.5, 7.0, 38.5, 26.0, 16.0, 8.0, 2.0, 2.5, -3.7, 3.0, 4.0, 1.5, 1.0, 0.0, 0.0, 0.0, 1.0, 2.3, 7.0, 3.0, 9.0, 7.0, 7.0, 6.5, 8.4, 4.0, 4.0, 5.0, 6.0, 6.0, 5.5, 3.0, 2.3, 1.0, 8.0, -2.0, 0.0, 3.0, 2.0, 1.0, 11.2, 11.0, 3.5, 4.0, 4.0, 3.5, 3.0, 4.2, 5.0, 11.5, 2.0, 2.0, 2.0, 2.2, 3.0, 3.0, 3.0, 3.0, 3.0, 4.7, 5.0, 5.0, 6.0, 6.5, 6.7, 7.0, 7.0, 6.5, 6.0, 6.0, 6.0, 6.7, 7.0, 6.5, null, 6.0, 6.0, 4.2, 1.0, 0.0, 3.0, 3.0, 4.2, 17.8, 4.8, 4.0, 4.0, 4.0, 4.0, 5.0, 5.2, 6.0, 13.0, 8.5, 9.0, 6.7, 6.0, 5.0, 5.0, 5.0, 5.5, 6.0, 7.7, 6.0, 31.0, 9.0, 9.0, 8.0, 8.0, 7.0, 7.0, 7.0, 7.0, 7.0, null, 5.0, 8.0, 7.0, 7.0, 7.0, 7.0, 7.0, 8.0, 8.0, 8.0, 7.0, 8.0, 8.0, 8.0, 8.0, 8.0, null, 15.5, 8.0, 6.0, 8.0, 8.0, 8.0, 7.0, 11.0, 9.0, 9.0, 9.0, null, 9.5, 10.0, 10.2, 10.0, 10.0, 10.0, 10.0, 10.0, 10.0, null, 18.0, 6.0, 24.0, 10.0, 12.0, 13.0, 14.0, 12.5, 10.0, 22.6, 6.0, 7.0, 21.0, 18.0, 21.0, 5.0, 8.0, 34.8, 24.0, 20.5, 23.0, 23.0, 23.0, 21.0, 22.0, 22.6, 23.0, 23.0, 45.0, 20.0, 16.0, 16.0, 11.0, 8.4, 9.0, 9.0, 18.0, 6.0, 9.0, 11.0, 12.0, 12.0, 16.5, 7.0, 8.0, 7.0, 7.0, 8.0, 21.0, 4.0, 4.4, 5.0, 5.0, 5.0, 5.0, 14.0, 12.0, 11.0, 10.2, 10.0, 12.0, 10.5, 10.0, null, 9.0, null, 7.0, 5.2, 0.0, 2.0, 2.0, 2.0, 2.0, 2.0, 2.0, 4.2, 2.0, 2.0, 3.0, 3.0, 3.0, 3.0, 4.0, 2.3, 2.0, 2.0, 2.0, 2.0, 2.0, 3.0, 3.0, 5.0, null, 6.0, 12.0, 11.0, null, null, 11.0, 12.5, 11.0, null, 11.5, 9.0, 10.0, null, 10.2, 12.5, null, 11.0, 10.0, 9.5, 10.0, 9.7, 14.0, 14.5, 15.0, 13.5, 10.0, 12.0, 16.5, 16.0, 17.0, 15.0, 14.0, 15.0, 15.0, 16.0, 16.5, 16.0, 15.0, 15.0, 17.0, null, 16.5, null, 16.0, 16.5, 16.0, null, 11.0, 13.0, 11.5, 11.0, null, 11.0, 10.2, null, null, null, 12.0, -1.0, 6.0, null, 15.0, 8.4, null, null, 10.0, 12.0, 9.5, null, 15.0, 16.5, 16.0, 17.0, 18.0, 27.0, 18.0, 17.0, 8.7, 11.0, 14.0, null, 9.0, 18.0, 11.0, 12.0, 4.4, null, 13.0, 13.0, 14.0, 7.0, 10.5, 10.5, 11.0, 10.0, 11.0, 11.0, 11.0, 11.0, 7.7, 18.0, null, 4.0, 19.0, null, 10.0, 10.5, null, 8.0, null, 5.0, 27.0, 3.5, null, 34.0, 33.4, 3.0, null, null, 50.0, 49.0, 49.0, 48.0, 46.0, null, null, 0.0, 0.0, 0.0, 0.0, 0.2, null, -6.5, -6.0, -4.5, -2.0, -26.0, -24.0, -26.0, 0.0, -31.0, -35.5, -42.0, -32.0, -43.8, null, 5.0, 1.5, 3.2, 4.0, 1.0, 7.0, null, -1.5, 4.0, 1.0, 5.7, 4.0, 0.0, 3.0, 2.0, 7.0, null, 4.0, 3.0, null, 9.0, 7.5, 4.0, 7.0, 1.0, 8.0, 9.0, 4.4, 8.5, 8.0, 7.0, 6.0, 5.5, 4.5, 4.4, 3.0, 1.0, 5.0, 5.0, 5.0, 2.0, -1.0, -1.7, 4.0, 7.0, 7.0, 2.5, 6.0, 6.2, 11.0, 9.5, 8.0, 11.0, 16.0, null, 18.0, 11.0, 7.0, 6.0, 5.0, 7.0, 7.0, 8.0, 8.7, 8.0, 10.0, 9.0, 9.0, 9.0, 6.0, 6.0, 8.4, 7.0, 7.0, 8.0, 9.0, 2.0, 3.5, 4.4, 2.0, 3.0, 6.0, 5.0, 4.0, 5.0, 5.2, 2.0, 4.0, 5.5, 5.5, 7.0, 13.0, 8.2, 10.0, 10.0, 13.5, 16.0, 16.0, 18.0, 18.0, 16.5, 16.0, 15.0, 5.5, 3.0, 1.5, 8.0, 4.2, 4.0, 4.5, 4.0, 4.0, 4.5, 6.4, 3.0, 5.0, 7.0, 7.0, 4.5, 5.0, 4.2, 5.0, 0.0, 2.0, 4.0, 4.0, -1.0, 0.2, 3.0, 2.5, 3.0, 2.0, -1.0, 4.0, 1.2, -3.0, 6.0, 4.5, 0.0, 2.0, 2.0, 3.0, 3.0, 2.3, 0.0, -0.5, null, -9.0, -1.5, 0.0, 1.0, -0.8, -4.0, -5.0, -8.5, null, -6.0, 5.0, 0.0, 0.2, 0.0, 9.0, 2.0, 3.0, 5.0, null, -12.0, 4.0, null, 2.3, null, -1.0, 2.0, 1.0, -1.0, null, 2.0, 3.0, 4.4, 5.0, 5.5, 2.0, 1.0, 2.0, 4.0, 5.0, 5.0, 2.3, 3.0, 8.0, 1.0, 2.0, 3.0, null, 3.0, 4.4, 9.0, 7.0, 6.0, 5.0, 5.0, 6.0, 8.0, 10.2, 8.0, 8.0, null, 8.0, 9.0, 6.0, 6.0, 10.0, null, null, 10.0, 13.0, 13.0, 12.0, 12.0, 12.5, 13.0, 14.5, 8.0, 3.0, 3.0, 2.0, 1.0, 3.0, 3.0, 3.0, 2.3, 4.5, 3.0, 2.0, 0.0, 1.0, 4.0, 2.0, 2.7, 3.0, 4.0, 3.5, 2.0, 1.0, 1.0, 2.7, -1.0, -0.5, 0.0, 0.5, 3.0, 2.7, 4.5, 4.3, 1.0, 0.5, 5.2, 3.0, 4.0, 9.0, 9.5, 1.3, 5.6, 8.0, 8.0, 8.0, 7.0, 7.5, 8.0, 8.0, 8.3, 7.0, 7.5, 7.0, 7.0, 7.0, 7.0, 8.0, 7.0, 7.0, 6.0, 6.7, 7.0, 7.0, 7.0, 7.0, 7.0, 7.0, 7.0, 7.0, 7.0, null, null, null, null, null, null, null, 9.0, 9.0, 10.0, 10.0, 9.0, 11.0, 9.0, 8.0, 8.0, 8.0, 8.0, 9.0, 10.0, 8.5, 7.0, 7.5, 7.2, 8.0, 8.0, 7.0, 7.0, 6.5, 7.0, 6.0, 6.5, 5.7, 6.0, 5.0, 5.0, 5.0, 4.0, 5.0, 4.0, 4.4, 6.0, 4.5, 4.0, 5.0, 5.0, null, 6.5, 6.0, 4.7, 5.0, 5.5, 6.0, 6.0, 5.0, 5.0, 9.0, 7.7, 6.0, 7.0, null, 7.0, 6.0, null, 7.0, 7.0, 8.0, 8.0, 3.0, 7.0, 5.0, 5.0, 12.0, 5.0, 7.0, 6.0, null, 7.0, 7.0, 7.0, 7.0, 7.0, 7.0, 8.0, 8.0, null, 8.0, 8.0, 8.0, 8.0, 8.0, 8.0, 7.0, 7.7, 8.0, 8.0, 8.0, 7.0, 7.0, 9.0, 8.5, 8.0, null, 9.0, 8.0, null, 8.5, 8.0, 8.0, 8.0, 8.0, 8.4, 10.0, 9.0, 8.0, 8.0, 8.0, 8.0, 8.0, 8.4, 8.0, 8.0, 8.0, 9.0, 8.0, 9.0, 8.0, 9.0, 8.4, 8.5, 9.0, 9.0, 9.0, 9.0, 10.0, 9.0, 5.2, 7.0, 7.0, 8.0, 8.0, 8.0, 8.0, 8.0, 8.0, 9.0, 9.0, 11.0, 10.0, 10.0, 10.0, 10.0, 10.0, 10.0, null, 11.0, 10.0, 10.0, 11.0, 10.0, 10.0, 9.0, 6.4, 7.0, 7.0, 7.0, 7.0, 7.0, 7.0, 6.0, 5.0, 4.4, 4.0, 5.0, 6.0, 5.0, 6.0, 6.0, 6.0, 6.0, 6.4, 7.0, 6.0, 6.0, 6.0, 6.0, 6.0, 7.5, null, 6.4, 7.0, 7.0, 8.0, 6.0, null, 7.0, 6.0, 6.0, null, 6.0, 6.0, 6.0, 6.0, 6.0, 6.0, 6.0, 5.0, null, 5.0, 6.0, 6.0, null, 6.0, 12.0, 11.0, 8.4, 8.0, 10.0, 9.0, 10.0, 10.0, 10.0, 11.0, 11.7, 11.0, 10.0, 10.0, 10.0, 10.0, 10.0, 10.0, 9.0, 9.0, 9.0, 8.5, 8.0, 8.0, 8.0, 8.7, 9.0, 9.0, 8.0, 8.0, 8.0, 7.0, 6.4, 7.0, 7.5, 6.0, 6.0, 6.5, 6.0, 6.0, 6.2, 6.5, null, 7.0, 8.0, 6.0, 6.0, 8.2, 8.0, 8.0, 7.0, 7.5, 7.5, 18.3, 14.5, 12.0, 10.5, 10.0, 8.4, 9.5, 10.4, 4.5, 11.0, 16.0, 16.0, 15.8, null, 1.3, 9.0, 38.5, 15.0, -21.0, -11.8, 4.0, 4.0, null, 21.0, 10.0, 3.5, 3.0, 5.0, 12.7, 14.0, 13.5, 17.0, 21.0, 14.7, 28.0, 11.0, 10.0, 9.0, 9.0, 10.2, 10.0, 15.5, 9.5, 9.0, 8.7, 8.0, 11.0, 9.0, 9.0, 9.1, 10.0, 10.0, 10.5, 11.0, 10.7, 11.0, 11.0, 11.0, 11.0, 12.2, 11.5, 10.0, 10.0, 10.0, 10.0, 10.5, 23.0, 1.0, 2.5, 5.0, 5.0, 4.7, 5.0, 5.0, 5.0, -4.0, 2.0, 2.0, 6.0, 2.5, 2.0, 2.0, 2.0, 2.7, -2.5, 2.5, null, 8.0, 5.0, 5.0, 5.0, 7.0, 6.0, 6.0, 7.0, 7.0, 7.0, 7.5, 8.2, 8.0, 9.3, 10.0, 8.0, 7.5, 9.2, 13.0, 10.0, 8.0, 8.0, 4.0, 8.5, 8.0, 8.0, 8.0, 9.0, 9.0, 5.2, 8.0, 9.0, 9.0, 9.0, 8.7, 9.0, 6.0, 5.0, 6.0, 5.5, 9.0, 8.4, 9.0, 9.0, 9.0, 8.0, 8.0, 8.0, 8.2, 8.0, 8.0, 8.0, 8.0, 8.0, 8.0, 8.0, null, 7.0, 8.0, 8.0, 8.0, 7.5, 8.2, 8.0, 9.0, 9.0, 9.0, 25.0, 18.5, 17.3, 10.0, 12.0, 15.5, 19.0, 8.5, 16.0, 16.0, 18.6, 26.5, 13.0, 13.0, 32.0, 25.0, 18.5, 36.9, 19.0, 16.5, null, 54.5, null, null, 4.7, 9.0, 9.0, 10.0, 10.0, -5.0, 1.5, 5.0, 4.2, 4.0, -12.0, 6.0, 5.5, 5.0, 5.0, 6.0, null, 5.0, 5.0, 5.0, 5.0, 5.0, 5.7, 0.5, 6.0, 8.0, 8.0, 19.0, 2.2, 3.0, 9.5, 11.0, 11.0, 7.7, 1.0, 4.0, 6.5, 6.0, 5.5, 22.9, 24.0, 24.0, 24.0, 11.0, 9.0, 8.2, 8.0, 7.0, 6.0, 6.0, 6.0, 38.4, 29.1, 52.4, 16.3, 18.6, 28.7, 13.5, -18.0, 28.5, 10.2, 39.6, 7.4, 10.5, 10.5, 18.0, 15.5, -6.5, -1.7, 0.0, 2.3, 6.0, 10.8, 9.0, 13.0, 14.0, 12.0, 10.7, 12.0, 13.5, 11.0, 13.5, 12.7, 14.7, 17.0, 16.0, 16.0, 14.8, 14.0, 10.5, 8.0, 8.5, 9.0, 12.5, 11.0, 10.8, 11.5, 11.5, 13.0, 12.7, 14.0, 14.0, 13.0, 13.0, 13.0, -8.0, 16.0, 17.0, 17.0, 17.7, 18.0, 18.0, 17.2, 10.8, -39.0, 10.3, 8.3, 9.7, 9.0, 10.5, 11.0, 11.5, 12.8, 6.3, 4.0, 4.8, 7.0, 7.0, 7.0, 28.7, 3.0, 2.5, 3.0, 5.5, 2.0, -13.0, 1.0, 1.0, 4.2]}