{"type": "Feature", "properties": {"leg_id": 72, "name": "20240412 - Flinders Island to Sydney", "stated_nm": 478.7, "computed_nm": 478.7}, "geometry": {"type": "LineString", "coordinates": [[148.249887, -40.213123], [148.254523, -40.216807], [148.260109, -40.220708], [148.263039, -40.224009], [148.266787, -40.2288], [148.27103, -40.233831], [148.274969, -40.236283], [148.279965, -40.238336], [148.284057, -40.239406], [148.29634, -40.2401], [148.298767, -40.239782], [148.311482, -40.237543], [148.318142, -40.236927], [148.322564, -40.236469], [148.327862, -40.236067], [148.337058, -40.234644], [148.351992, -40.23219], [148.355439, -40.231758], [148.36332, -40.233091], [148.369115, -40.234305], [148.378693, -40.236693], [148.394008, -40.239468], [148.399077, -40.240728], [148.406265, -40.242958], [148.416553, -40.247255], [148.421042, -40.248857], [148.433015, -40.252612], [148.446405, -40.253917], [148.452613, -40.254433], [148.45753, -40.254501], [148.463265, -40.253067], [148.463359, -40.252325], [148.465887, -40.248436], [148.468561, -40.244989], [148.470592, -40.242595], [148.472267, -40.240862], [148.473537, -40.238348], [148.474817, -40.236033], [148.476957, -40.232943], [148.478601, -40.230575], [148.479801, -40.228887], [148.481523, -40.226975], [148.482828, -40.224488], [148.483687, -40.222096], [148.484523, -40.219598], [148.485462, -40.217416], [148.487037, -40.214782], [148.489092, -40.211571], [148.490582, -40.209144], [148.492122, -40.20645], [148.493764, -40.203298], [148.495994, -40.200233], [148.498281, -40.196713], [148.500148, -40.193652], [148.501964, -40.190894], [148.503991, -40.188264], [148.506455, -40.184059], [148.508158, -40.181351], [148.509445, -40.179118], [148.511219, -40.176681], [148.513526, -40.173116], [148.515225, -40.170355], [148.51664, -40.168432], [148.518664, -40.165829], [148.51997, -40.163992], [148.521883, -40.16202], [148.524641, -40.159526], [148.526895, -40.157734], [148.528592, -40.156371], [148.531673, -40.153764], [148.533733, -40.151113], [148.535312, -40.14911], [148.537232, -40.147071], [148.538768, -40.145448], [148.541407, -40.142622], [148.543723, -40.139908], [148.545456, -40.137757], [148.547152, -40.135852], [148.549764, -40.1333], [148.552013, -40.131351], [148.554865, -40.127836], [148.55654, -40.125583], [148.557715, -40.123408], [148.559745, -40.120333], [148.561677, -40.117365], [148.564126, -40.114354], [148.566342, -40.111582], [148.569447, -40.108117], [148.571329, -40.105844], [148.572981, -40.103919], [148.575141, -40.100036], [148.576027, -40.098181], [148.576772, -40.095942], [148.578818, -40.091742], [148.580777, -40.088983], [148.583726, -40.085982], [148.585739, -40.08383], [148.587633, -40.081749], [148.589612, -40.079248], [148.591188, -40.077072], [148.592648, -40.074988], [148.594088, -40.072685], [148.595673, -40.069923], [148.597103, -40.067422], [148.598948, -40.064264], [148.600633, -40.061584], [148.603101, -40.058588], [148.605057, -40.056783], [148.608529, -40.053881], [148.610774, -40.052024], [148.614095, -40.049701], [148.617274, -40.047333], [148.620518, -40.045014], [148.622744, -40.042723], [148.624297, -40.041007], [148.626, -40.038921], [148.628261, -40.03551], [148.630301, -40.033181], [148.632296, -40.030919], [148.63547, -40.027226], [148.638409, -40.024336], [148.641882, -40.020742], [148.643781, -40.018557], [148.64597, -40.016433], [148.648772, -40.01348], [148.650103, -40.011646], [148.653287, -40.008251], [148.655564, -40.005582], [148.65793, -40.002631], [148.659579, -40.000361], [148.661158, -39.998416], [148.66304, -39.996299], [148.664817, -39.994709], [148.667532, -39.992099], [148.669088, -39.990497], [148.671387, -39.98826], [148.674564, -39.985796], [148.677967, -39.983127], [148.679789, -39.981772], [148.682927, -39.979742], [148.684629, -39.978282], [148.687281, -39.976035], [148.689227, -39.974254], [148.692521, -39.970965], [148.694248, -39.968918], [148.695858, -39.966779], [148.697738, -39.964284], [148.69907, -39.961968], [148.700219, -39.959898], [148.701887, -39.957583], [148.703531, -39.955667], [148.705873, -39.95333], [148.707614, -39.951312], [148.710234, -39.948214], [148.712767, -39.945044], [148.714239, -39.942975], [148.715613, -39.941011], [148.717907, -39.936987], [148.719238, -39.9349], [148.721097, -39.931326], [148.723561, -39.928134], [148.726003, -39.925119], [148.72782, -39.922353], [148.730832, -39.917907], [148.731806, -39.916339], [148.733615, -39.913738], [148.734988, -39.911772], [148.736562, -39.909397], [148.738954, -39.906418], [148.741041, -39.903188], [148.742218, -39.901424], [148.744453, -39.897908], [148.745412, -39.896325], [148.747016, -39.892184], [148.74834, -39.889987], [148.749255, -39.888092], [148.750207, -39.886004], [148.751441, -39.883796], [148.753036, -39.879603], [148.753593, -39.877796], [148.754251, -39.875618], [148.755953, -39.87105], [148.756486, -39.868991], [148.757046, -39.866297], [148.75795, -39.86388], [148.759158, -39.860997], [148.760006, -39.858763], [148.761058, -39.8563], [148.762751, -39.853126], [148.763478, -39.851165], [148.764177, -39.848685], [148.765829, -39.843897], [148.766844, -39.841322], [148.767819, -39.839523], [148.769456, -39.836818], [148.770533, -39.835033], [148.77235, -39.832109], [148.773661, -39.829605], [148.774488, -39.827902], [148.776885, -39.824434], [148.778175, -39.822432], [148.77917, -39.820342], [148.780845, -39.817453], [148.782811, -39.813583], [148.783933, -39.8114], [148.785323, -39.808928], [148.786992, -39.804967], [148.787487, -39.802685], [148.788645, -39.79902], [148.789693, -39.796431], [148.790623, -39.79469], [148.792184, -39.792676], [148.793352, -39.790666], [148.795018, -39.788637], [148.796914, -39.786792], [148.798549, -39.784641], [148.800116, -39.782279], [148.801373, -39.780297], [148.802779, -39.777604], [148.804003, -39.775818], [148.805759, -39.773552], [148.807141, -39.771516], [148.808593, -39.76917], [148.810099, -39.767012], [148.811541, -39.764748], [148.81295, -39.762458], [148.814345, -39.760221], [148.815719, -39.757778], [148.817131, -39.755625], [148.818519, -39.753643], [148.820211, -39.750873], [148.822307, -39.747743], [148.823882, -39.745607], [148.825493, -39.743166], [148.827084, -39.740907], [148.828573, -39.739027], [148.830309, -39.737136], [148.831794, -39.734865], [148.83328, -39.732769], [148.835059, -39.729293], [148.836297, -39.727095], [148.838218, -39.724372], [148.840226, -39.721828], [148.841618, -39.719509], [148.842989, -39.716604], [148.844191, -39.714159], [148.845685, -39.711472], [148.847243, -39.708319], [148.848051, -39.706001], [148.849207, -39.703357], [148.850884, -39.700802], [148.852404, -39.697237], [148.853184, -39.694945], [148.854318, -39.692241], [148.856693, -39.687384], [148.85757, -39.685514], [148.858804, -39.683317], [148.860503, -39.680203], [148.862129, -39.67735], [148.863486, -39.674856], [148.864766, -39.672561], [148.866162, -39.670381], [148.868153, -39.666412], [148.869415, -39.664111], [148.871389, -39.66118], [148.872953, -39.658012], [148.873947, -39.655782], [148.875567, -39.652469], [148.877162, -39.650598], [148.878864, -39.648492], [148.879944, -39.646224], [148.881329, -39.643876], [148.882618, -39.641698], [148.883823, -39.639617], [148.885394, -39.637449], [148.886977, -39.635032], [148.889082, -39.632127], [148.890654, -39.62994], [148.892575, -39.627858], [148.895963, -39.624718], [148.897954, -39.622694], [148.899724, -39.620344], [148.90168, -39.618078], [148.903516, -39.616002], [148.905198, -39.614256], [148.907367, -39.61175], [148.909717, -39.609044], [148.911699, -39.606721], [148.913075, -39.604388], [148.914312, -39.602201], [148.916267, -39.599363], [148.918868, -39.595918], [148.921382, -39.592638], [148.922692, -39.590817], [148.925013, -39.588048], [148.926795, -39.586115], [148.929404, -39.583145], [148.930923, -39.580806], [148.932261, -39.578941], [148.93377, -39.576962], [148.935489, -39.574636], [148.936728, -39.572736], [148.939143, -39.569122], [148.941764, -39.565701], [148.943749, -39.563318], [148.945184, -39.561717], [148.946873, -39.559837], [148.94846, -39.557821], [148.949574, -39.556124], [148.952108, -39.552743], [148.953511, -39.550916], [148.955087, -39.548778], [148.957621, -39.545341], [148.958473, -39.543228], [148.959471, -39.541226], [148.961774, -39.537501], [148.962851, -39.535587], [148.964493, -39.532596], [148.966874, -39.529423], [148.968286, -39.527691], [148.970032, -39.525232], [148.971457, -39.52354], [148.974431, -39.520361], [148.976107, -39.518355], [148.979128, -39.515178], [148.981021, -39.512983], [148.982734, -39.511417], [148.985583, -39.509217], [148.987686, -39.507416], [148.989641, -39.505582], [148.993193, -39.502385], [148.994917, -39.500413], [148.996566, -39.498291], [148.998188, -39.49625], [149.000923, -39.492832], [149.002216, -39.491016], [149.004285, -39.488597], [149.00747, -39.485049], [149.008993, -39.483001], [149.011488, -39.479725], [149.014419, -39.476593], [149.016523, -39.473149], [149.017863, -39.470707], [149.020013, -39.466273], [149.022728, -39.463672], [149.025269, -39.461592], [149.02736, -39.460071], [149.029675, -39.458454], [149.032403, -39.455949], [149.034536, -39.453853], [149.036371, -39.451869], [149.039158, -39.449235], [149.041985, -39.446846], [149.044938, -39.444446], [149.047108, -39.442351], [149.049083, -39.440637], [149.050815, -39.438633], [149.05236, -39.436771], [149.053999, -39.434716], [149.056014, -39.432122], [149.057821, -39.429998], [149.059887, -39.427833], [149.062638, -39.42478], [149.064814, -39.422565], [149.066702, -39.420562], [149.069293, -39.41833], [149.071207, -39.416276], [149.073567, -39.414144], [149.076241, -39.411794], [149.079281, -39.409044], [149.081317, -39.406822], [149.083065, -39.404984], [149.085532, -39.402562], [149.092088, -39.396595], [149.094808, -39.394543], [149.09655, -39.392617], [149.099423, -39.388556], [149.10232, -39.384038], [149.103925, -39.381895], [149.105927, -39.379127], [149.107853, -39.376898], [149.109787, -39.375009], [149.112326, -39.372062], [149.114009, -39.369072], [149.115282, -39.366644], [149.117169, -39.36295], [149.118762, -39.359232], [149.119749, -39.357201], [149.121899, -39.353689], [149.123273, -39.351135], [149.125021, -39.349046], [149.127566, -39.345646], [149.129113, -39.343796], [149.131369, -39.341199], [149.133451, -39.339077], [149.136036, -39.336595], [149.138964, -39.333589], [149.140683, -39.331833], [149.145163, -39.327518], [149.146452, -39.325657], [149.148355, -39.322608], [149.149691, -39.320103], [149.15275, -39.314265], [149.154975, -39.310545], [149.156549, -39.308142], [149.158974, -39.304455], [149.160619, -39.30196], [149.162229, -39.29942], [149.165627, -39.295841], [149.168721, -39.29285], [149.171338, -39.290509], [149.175749, -39.286172], [149.17955, -39.281676], [149.184527, -39.276078], [149.186471, -39.273973], [149.190472, -39.270043], [149.193496, -39.266487], [149.195832, -39.262876], [149.197999, -39.259113], [149.200212, -39.25607], [149.20228, -39.253384], [149.203562, -39.251318], [149.204647, -39.247784], [149.205722, -39.244494], [149.20762, -39.240144], [149.208696, -39.237099], [149.209345, -39.23465], [149.211373, -39.230747], [149.213502, -39.228188], [149.218353, -39.223073], [149.220725, -39.220644], [149.223307, -39.218099], [149.225969, -39.215358], [149.228304, -39.212951], [149.230426, -39.21077], [149.234955, -39.206049], [149.238249, -39.202606], [149.241294, -39.199472], [149.244288, -39.196445], [149.246391, -39.194381], [149.249133, -39.191336], [149.251974, -39.187542], [149.254802, -39.183707], [149.256579, -39.181387], [149.25831, -39.17921], [149.263642, -39.173377], [149.266457, -39.17038], [149.26832, -39.168438], [149.272887, -39.163741], [149.275229, -39.161351], [149.279581, -39.156993], [149.282466, -39.154152], [149.285249, -39.151483], [149.289463, -39.147568], [149.294047, -39.142959], [149.297405, -39.139689], [149.30018, -39.137011], [149.302326, -39.134598], [149.30528, -39.131841], [149.308141, -39.129389], [149.311373, -39.126442], [149.314881, -39.123708], [149.318158, -39.120678], [149.321786, -39.117059], [149.324463, -39.114023], [149.327346, -39.111545], [149.330086, -39.109148], [149.333381, -39.105844], [149.335843, -39.103403], [149.339218, -39.100134], [149.345707, -39.094563], [149.348824, -39.091845], [149.351202, -39.089834], [149.354973, -39.086544], [149.358802, -39.082501], [149.361408, -39.079616], [149.364858, -39.076425], [149.369272, -39.072442], [149.371738, -39.070079], [149.375414, -39.067438], [149.377992, -39.065003], [149.380657, -39.062938], [149.386593, -39.057645], [149.39014, -39.054868], [149.395864, -39.049475], [149.398515, -39.046914], [149.401917, -39.043518], [149.405851, -39.038676], [149.40743, -39.03676], [149.409577, -39.034003], [149.411958, -39.030073], [149.413559, -39.027553], [149.415834, -39.024896], [149.41818, -39.022722], [149.420409, -39.020468], [149.422772, -39.017765], [149.427807, -39.013671], [149.430072, -39.01212], [149.433563, -39.009205], [149.436676, -39.006881], [149.440969, -39.003566], [149.444481, -39.000663], [149.446631, -38.998935], [149.451641, -38.995052], [149.455103, -38.992391], [149.458437, -38.990043], [149.461626, -38.986648], [149.463742, -38.983133], [149.466446, -38.979442], [149.468007, -38.975801], [149.468813, -38.973624], [149.471018, -38.969032], [149.473758, -38.964362], [149.476743, -38.958929], [149.479893, -38.954662], [149.482073, -38.952269], [149.484018, -38.949393], [149.486062, -38.945892], [149.487776, -38.943578], [149.489478, -38.940056], [149.491602, -38.935846], [149.494507, -38.93084], [149.497574, -38.926767], [149.500053, -38.923586], [149.501798, -38.920691], [149.503943, -38.917636], [149.508174, -38.912906], [149.511013, -38.910106], [149.513448, -38.907566], [149.515715, -38.905217], [149.519094, -38.902352], [149.521883, -38.899598], [149.524649, -38.896571], [149.526813, -38.894054], [149.530173, -38.891172], [149.533449, -38.888726], [149.535818, -38.886211], [149.539024, -38.883113], [149.541002, -38.881198], [149.544761, -38.878438], [149.548264, -38.876177], [149.550816, -38.873852], [149.553477, -38.871466], [149.556859, -38.868388], [149.559749, -38.866283], [149.562663, -38.864098], [149.564234, -38.862741], [149.566867, -38.859984], [149.569452, -38.857269], [149.572643, -38.854374], [149.574498, -38.85215], [149.578052, -38.848504], [149.581621, -38.844911], [149.584471, -38.841731], [149.587431, -38.838908], [149.592241, -38.83496], [149.594872, -38.832218], [149.597757, -38.829369], [149.60068, -38.826482], [149.603412, -38.824203], [149.606084, -38.820993], [149.610562, -38.817135], [149.614774, -38.814188], [149.617621, -38.812296], [149.620508, -38.810187], [149.622752, -38.808742], [149.629525, -38.803036], [149.632567, -38.800649], [149.637192, -38.797113], [149.640852, -38.79401], [149.644073, -38.791157], [149.646937, -38.788804], [149.649694, -38.784252], [149.651188, -38.781211], [149.652824, -38.77749], [149.653892, -38.773125], [149.654738, -38.769867], [149.655226, -38.766734], [149.655966, -38.76228], [149.65665, -38.755901], [149.657501, -38.752626], [149.658138, -38.749627], [149.658756, -38.746141], [149.65894, -38.742817], [149.659152, -38.738891], [149.660423, -38.733419], [149.660705, -38.730936], [149.661796, -38.725381], [149.662729, -38.721671], [149.663613, -38.716712], [149.664512, -38.713351], [149.665243, -38.710441], [149.665508, -38.707493], [149.665919, -38.7043], [149.666964, -38.699068], [149.667478, -38.695711], [149.6675, -38.691956], [149.66752, -38.689099], [149.667405, -38.684705], [149.667265, -38.681138], [149.667476, -38.677997], [149.667174, -38.673829], [149.666986, -38.670887], [149.666576, -38.66754], [149.66623, -38.664759], [149.666376, -38.661062], [149.666513, -38.658152], [149.665399, -38.653343], [149.665038, -38.651181], [149.665544, -38.647752], [149.665658, -38.645257], [149.665578, -38.642509], [149.665763, -38.639611], [149.666064, -38.636927], [149.666457, -38.634029], [149.666294, -38.630829], [149.665799, -38.6281], [149.664966, -38.624503], [149.663696, -38.620847], [149.663068, -38.617272], [149.662052, -38.613331], [149.660872, -38.609843], [149.661487, -38.606927], [149.662307, -38.603807], [149.663122, -38.601084], [149.665758, -38.596014], [149.667367, -38.592742], [149.668675, -38.588863], [149.669672, -38.585021], [149.671061, -38.581757], [149.672483, -38.578181], [149.673396, -38.575238], [149.674838, -38.572376], [149.676752, -38.568788], [149.677519, -38.566317], [149.678841, -38.562647], [149.680762, -38.557081], [149.68153, -38.553513], [149.682618, -38.55067], [149.684143, -38.547075], [149.685259, -38.544444], [149.686388, -38.541502], [149.687476, -38.538244], [149.688169, -38.533132], [149.688924, -38.530644], [149.690157, -38.526952], [149.691268, -38.524048], [149.69226, -38.520129], [149.692451, -38.51763], [149.692768, -38.514553], [149.693885, -38.510132], [149.694593, -38.506682], [149.695671, -38.503482], [149.696588, -38.500469], [149.698582, -38.496839], [149.700293, -38.493719], [149.702038, -38.49056], [149.703241, -38.488608], [149.704918, -38.485232], [149.707524, -38.482078], [149.71004, -38.477998], [149.711502, -38.474568], [149.712761, -38.470962], [149.713908, -38.468806], [149.715104, -38.465877], [149.716152, -38.462291], [149.717107, -38.460192], [149.719819, -38.455575], [149.721144, -38.452912], [149.722628, -38.449156], [149.723887, -38.445435], [149.725537, -38.441362], [149.727288, -38.437557], [149.728303, -38.434873], [149.729482, -38.431627], [149.731831, -38.4275], [149.732942, -38.423727], [149.733215, -38.421649], [149.734677, -38.418177], [149.735987, -38.415118], [149.737068, -38.412591], [149.737417, -38.409584], [149.737576, -38.407096], [149.738354, -38.404638], [149.739607, -38.401248], [149.740482, -38.398027], [149.741487, -38.394703], [149.742187, -38.391471], [149.743657, -38.387022], [149.74426, -38.384745], [149.744844, -38.382261], [149.745976, -38.378538], [149.747083, -38.374976], [149.748651, -38.371782], [149.749363, -38.368699], [149.750015, -38.365033], [149.75065, -38.362296], [149.752048, -38.359466], [149.753244, -38.356142], [149.753793, -38.354802], [149.756493, -38.342715], [149.759793, -38.329962], [149.760808, -38.326876], [149.764748, -38.319793], [149.766128, -38.314477], [149.767653, -38.309777], [149.768668, -38.306453], [149.77086, -38.299743], [149.772861, -38.292997], [149.774597, -38.287526], [149.775882, -38.283243], [149.777023, -38.279148], [149.778236, -38.274738], [149.779657, -38.270258], [149.781186, -38.267341], [149.783645, -38.263075], [149.786005, -38.258977], [149.788129, -38.255376], [149.790226, -38.251795], [149.792219, -38.248131], [149.794377, -38.244021], [149.796975, -38.239254], [149.799738, -38.234088], [149.801758, -38.230397], [149.803782, -38.226893], [149.808153, -38.219405], [149.810798, -38.214814], [149.81308, -38.210993], [149.815564, -38.206716], [149.818816, -38.201063], [149.822629, -38.194333], [149.826563, -38.187488], [149.828844, -38.18521], [149.84372, -38.17225], [149.85303, -38.163965], [149.866395, -38.151707], [149.873983, -38.145092], [149.897967, -38.125045], [149.907687, -38.116365], [149.913137, -38.111267], [149.918885, -38.106212], [149.926302, -38.099295], [149.938152, -38.087742], [149.949688, -38.077158], [149.956132, -38.071167], [149.96228, -38.065125], [149.967128, -38.060562], [149.970358, -38.057697], [149.978847, -38.049733], [149.985535, -38.043262], [149.99472, -38.034167], [150.005825, -38.022713], [150.010333, -38.018227], [150.01629, -38.01209], [150.022655, -38.005362], [150.029548, -37.99782], [150.03404, -37.993175], [150.04006, -37.986673], [150.045747, -37.980815], [150.049783, -37.976453], [150.055498, -37.97069], [150.061335, -37.964598], [150.066727, -37.95937], [150.091, -37.935073], [150.106302, -37.919248], [150.116332, -37.908758], [150.122852, -37.901727], [150.128883, -37.895487], [150.138207, -37.882653], [150.140777, -37.878892], [150.1448, -37.873371], [150.148467, -37.8685], [150.15141, -37.864328], [150.160553, -37.852127], [150.17507, -37.831712], [150.179737, -37.82543], [150.186845, -37.815602], [150.195503, -37.804672], [150.20051, -37.798566], [150.205035, -37.793], [150.210877, -37.786367], [150.213818, -37.783028], [150.226893, -37.768723], [150.237903, -37.75594], [150.245543, -37.74641], [150.260535, -37.729547], [150.270758, -37.717468], [150.279978, -37.706887], [150.290107, -37.696073], [150.295967, -37.690097], [150.302833, -37.682807], [150.307601, -37.67822], [150.30885, -37.673527], [150.310705, -37.664858], [150.312467, -37.655587], [150.313895, -37.645058], [150.316217, -37.622998], [150.31678, -37.615645], [150.317973, -37.608073], [150.319458, -37.594423], [150.319895, -37.587328], [150.320377, -37.582383], [150.321083, -37.572027], [150.321603, -37.566348], [150.32248, -37.549122], [150.322727, -37.53535], [150.322655, -37.528875], [150.322375, -37.522177], [150.321548, -37.511808], [150.320967, -37.501472], [150.319658, -37.499508], [150.312495, -37.489642], [150.310076, -37.485408], [150.305165, -37.475993], [150.297095, -37.464847], [150.29305, -37.459032], [150.28881, -37.453217], [150.285347, -37.448713], [150.273072, -37.432538], [150.268213, -37.42562], [150.262078, -37.4161], [150.254377, -37.40489], [150.24695, -37.394478], [150.243798, -37.389448], [150.240027, -37.383692], [150.236732, -37.378227], [150.233237, -37.372903], [150.228827, -37.366733], [150.220462, -37.354233], [150.216808, -37.34787], [150.214765, -37.344812], [150.198545, -37.31721], [150.192672, -37.307743], [150.190098, -37.30319], [150.182865, -37.288575], [150.18007, -37.282662], [150.176838, -37.274268], [150.173253, -37.265725], [150.169032, -37.258545], [150.159118, -37.245935], [150.150928, -37.235823], [150.149944, -37.234508], [150.148198, -37.232373], [150.146278, -37.23002], [150.144284, -37.227587], [150.143163, -37.226216], [150.139998, -37.222353], [150.137278, -37.218942], [150.135119, -37.216377], [150.133517, -37.214442], [150.131162, -37.211692], [150.128503, -37.208634], [150.127234, -37.207173], [150.125208, -37.204801], [150.123361, -37.202695], [150.120028, -37.199002], [150.119185, -37.198076], [150.114671, -37.192909], [150.109627, -37.186801], [150.105942, -37.181915], [150.102348, -37.176635], [150.101467, -37.175298], [150.099022, -37.17183], [150.093078, -37.162797], [150.087802, -37.15506], [150.084535, -37.150405], [150.082068, -37.147048], [150.075622, -37.13871], [150.074027, -37.136942], [150.066573, -37.13202], [150.05804, -37.126245], [150.056139, -37.125071], [150.052303, -37.1228], [150.050047, -37.121312], [150.043092, -37.116888], [150.036612, -37.113056], [150.030847, -37.108928], [150.025059, -37.104959], [150.018517, -37.100753], [150.012979, -37.097723], [150.00524, -37.09384], [149.994968, -37.088113], [149.989427, -37.086772], [149.97503, -37.084792], [149.964885, -37.083672], [149.945715, -37.081238], [149.929428, -37.078958], [149.926192, -37.078533], [149.903753, -37.078292], [149.900388, -37.078317], [149.901451, -37.075206], [149.904763, -37.072236], [149.906609, -37.071924], [149.905543, -37.072316], [149.905255, -37.072347], [149.903864, -37.075233], [149.908219, -37.078052], [149.912777, -37.079303], [149.915995, -37.0796], [149.922145, -37.081693], [149.924551, -37.080237], [149.929563, -37.077067], [149.934547, -37.073848], [149.940922, -37.069228], [149.946278, -37.065996], [149.951859, -37.062377], [149.954835, -37.058802], [149.959563, -37.053372], [149.964041, -37.047768], [149.9689, -37.04269], [149.974172, -37.035843], [149.977347, -37.032483], [149.98269, -37.027302], [149.984722, -37.023842], [149.988385, -37.014003], [149.991303, -37.006655], [149.993153, -37.00139], [149.996453, -36.991173], [149.999863, -36.982703], [150.001538, -36.978003], [150.004448, -36.971887], [150.007021, -36.965733], [150.009888, -36.958893], [150.013295, -36.949893], [150.014596, -36.947139], [150.017347, -36.940542], [150.020107, -36.933028], [150.021935, -36.929098], [150.026395, -36.917325], [150.027821, -36.913976], [150.029855, -36.908423], [150.03412, -36.896525], [150.035814, -36.892112], [150.037513, -36.887532], [150.039517, -36.882175], [150.041045, -36.878983], [150.043177, -36.873568], [150.045538, -36.866808], [150.047901, -36.861426], [150.051485, -36.851328], [150.053208, -36.847087], [150.055999, -36.839117], [150.057478, -36.835335], [150.060743, -36.827708], [150.062649, -36.82252], [150.064558, -36.817443], [150.06685, -36.812209], [150.069488, -36.806148], [150.07263, -36.798818], [150.074232, -36.795433], [150.077537, -36.789153], [150.079095, -36.785813], [150.083958, -36.775512], [150.08763, -36.76834], [150.090118, -36.763009], [150.092183, -36.759102], [150.097158, -36.748297], [150.098822, -36.744992], [150.102018, -36.738578], [150.104559, -36.733247], [150.108027, -36.72648], [150.111312, -36.720721], [150.114186, -36.716012], [150.116164, -36.712788], [150.117888, -36.709994], [150.120155, -36.7062], [150.12355, -36.70078], [150.128687, -36.692107], [150.129345, -36.69128], [150.133777, -36.683363], [150.135612, -36.680384], [150.13678, -36.678533], [150.141005, -36.670472], [150.142849, -36.666993], [150.147522, -36.658423], [150.149897, -36.654785], [150.151623, -36.651759], [150.154066, -36.647527], [150.155857, -36.644094], [150.15733, -36.641058], [150.160572, -36.635131], [150.163712, -36.629015], [150.165443, -36.625376], [150.166922, -36.622133], [150.169166, -36.6173], [150.171868, -36.610505], [150.174374, -36.604993], [150.176224, -36.601009], [150.17815, -36.596775], [150.180023, -36.591916], [150.181713, -36.588158], [150.18439, -36.581508], [150.187062, -36.574565], [150.188138, -36.571303], [150.189006, -36.568359], [150.190262, -36.56441], [150.191417, -36.56172], [150.192462, -36.559342], [150.195267, -36.554502], [150.197642, -36.551067], [150.20242, -36.543471], [150.204008, -36.540774], [150.207879, -36.53412], [150.209128, -36.531366], [150.212978, -36.522845], [150.213996, -36.520966], [150.215668, -36.518104], [150.219107, -36.511131], [150.2208, -36.507933], [150.222694, -36.505016], [150.224679, -36.501846], [150.226797, -36.498448], [150.228334, -36.495819], [150.230535, -36.491906], [150.233483, -36.486304], [150.236183, -36.480925], [150.23781, -36.477805], [150.239555, -36.474512], [150.241054, -36.471588], [150.243683, -36.466002], [150.245319, -36.462145], [150.246965, -36.459049], [150.248876, -36.455551], [150.250488, -36.452113], [150.252147, -36.448832], [150.253966, -36.445906], [150.25684, -36.441413], [150.25938, -36.437088], [150.261588, -36.433183], [150.263073, -36.431335], [150.264447, -36.428888], [150.26619, -36.425857], [150.268023, -36.422891], [150.269731, -36.419816], [150.271501, -36.416634], [150.273203, -36.41333], [150.274785, -36.410533], [150.27617, -36.408017], [150.278151, -36.404178], [150.280016, -36.400956], [150.28285, -36.396015], [150.283869, -36.394305], [150.287481, -36.388414], [150.28953, -36.385253], [150.291463, -36.382158], [150.295721, -36.374661], [150.297432, -36.371955], [150.300655, -36.366251], [150.304073, -36.360274], [150.306246, -36.357393], [150.308571, -36.354502], [150.310269, -36.352182], [150.312542, -36.349068], [150.314333, -36.346963], [150.316535, -36.344183], [150.319032, -36.340925], [150.320235, -36.339086], [150.321645, -36.336673], [150.325465, -36.330395], [150.327608, -36.327311], [150.33028, -36.323098], [150.332618, -36.319465], [150.334593, -36.316337], [150.337707, -36.311667], [150.339344, -36.309432], [150.341109, -36.306879], [150.343125, -36.303719], [150.34474, -36.301473], [150.347094, -36.297958], [150.348584, -36.295482], [150.350627, -36.292133], [150.352368, -36.289567], [150.355125, -36.285653], [150.358428, -36.281015], [150.36176, -36.275622], [150.364746, -36.270788], [150.367028, -36.267238], [150.368729, -36.264296], [150.371113, -36.260189], [150.372898, -36.257314], [150.374912, -36.25405], [150.376912, -36.250991], [150.380181, -36.245643], [150.381813, -36.243004], [150.383706, -36.239716], [150.385056, -36.237283], [150.386525, -36.233929], [150.388154, -36.230589], [150.389578, -36.227343], [150.392098, -36.221463], [150.394009, -36.217493], [150.397158, -36.211568], [150.399124, -36.207792], [150.401353, -36.203053], [150.402525, -36.199491], [150.403085, -36.193964], [150.403375, -36.191427], [150.404202, -36.186388], [150.404787, -36.182975], [150.405362, -36.179305], [150.405923, -36.176118], [150.406591, -36.172528], [150.407294, -36.168741], [150.407923, -36.16533], [150.408723, -36.161869], [150.409595, -36.157885], [150.410348, -36.154622], [150.411233, -36.151257], [150.411966, -36.148074], [150.412927, -36.144459], [150.413573, -36.14086], [150.414089, -36.13798], [150.414813, -36.134592], [150.415415, -36.131887], [150.416363, -36.128319], [150.417079, -36.125259], [150.417821, -36.121702], [150.418558, -36.118574], [150.419729, -36.114362], [150.420473, -36.112291], [150.421654, -36.108745], [150.422622, -36.106411], [150.42417, -36.102873], [150.425477, -36.099105], [150.426368, -36.096662], [150.427768, -36.091706], [150.428765, -36.088816], [150.430095, -36.08502], [150.431222, -36.081532], [150.432226, -36.078323], [150.43323, -36.07526], [150.434779, -36.070562], [150.435878, -36.067399], [150.43722, -36.063243], [150.438316, -36.059697], [150.439541, -36.056306], [150.440626, -36.052751], [150.441931, -36.049101], [150.443306, -36.045235], [150.445723, -36.03878], [150.446828, -36.035707], [150.447883, -36.03199], [150.448746, -36.029067], [150.450671, -36.022175], [150.451968, -36.017543], [150.453551, -36.011625], [150.454609, -36.008032], [150.455683, -36.004117], [150.456889, -35.999553], [150.458255, -35.995212], [150.460612, -35.988708], [150.463237, -35.982648], [150.464912, -35.978358], [150.46776, -35.973407], [150.470473, -35.969637], [150.475402, -35.96196], [150.477551, -35.958853], [150.480812, -35.955576], [150.486513, -35.950486], [150.49077, -35.946467], [150.495297, -35.942108], [150.500279, -35.937265], [150.505218, -35.932681], [150.509646, -35.928616], [150.512773, -35.925687], [150.515673, -35.923227], [150.51908, -35.920222], [150.523941, -35.91609], [150.528003, -35.912545], [150.53251, -35.908281], [150.535255, -35.905755], [150.538352, -35.90289], [150.544665, -35.897024], [150.550233, -35.892032], [150.555822, -35.886663], [150.560262, -35.882341], [150.565229, -35.877342], [150.568941, -35.873831], [150.572044, -35.870819], [150.584933, -35.858778], [150.589962, -35.853782], [150.593615, -35.849995], [150.597844, -35.844743], [150.600204, -35.839308], [150.603373, -35.83152], [150.60469, -35.828257], [150.607347, -35.82276], [150.60912, -35.818783], [150.610773, -35.815448], [150.613567, -35.808961], [150.615902, -35.803952], [150.617687, -35.800283], [150.619298, -35.796903], [150.623737, -35.788322], [150.627774, -35.782093], [150.634377, -35.774027], [150.63712, -35.770055], [150.642478, -35.761335], [150.64551, -35.755747], [150.647728, -35.751258], [150.650395, -35.74542], [150.652262, -35.741225], [150.655343, -35.73362], [150.657559, -35.728739], [150.659923, -35.72354], [150.66301, -35.716446], [150.66665, -35.708297], [150.669233, -35.701735], [150.670753, -35.698044], [150.67338, -35.691333], [150.677923, -35.67935], [150.678873, -35.677238], [150.68039, -35.673293], [150.682532, -35.668262], [150.683946, -35.667901], [150.687033, -35.659832], [150.68866, -35.655006], [150.690903, -35.648167], [150.692246, -35.644155], [150.693508, -35.640784], [150.694994, -35.635789], [150.698515, -35.62527], [150.699632, -35.62241], [150.701348, -35.617363], [150.703082, -35.611088], [150.704272, -35.607114], [150.706797, -35.598003], [150.707482, -35.595131], [150.708362, -35.59088], [150.711627, -35.577477], [150.712858, -35.571762], [150.713638, -35.568082], [150.715368, -35.560222], [150.716769, -35.554342], [150.718218, -35.547768], [150.719515, -35.542662], [150.720538, -35.538033], [150.722135, -35.53183], [150.723008, -35.527492], [150.724187, -35.521693], [150.725635, -35.516483], [150.726507, -35.512286], [150.728183, -35.505653], [150.729462, -35.498483], [150.730476, -35.494033], [150.73245, -35.485423], [150.733834, -35.480297], [150.735353, -35.474977], [150.737943, -35.472368], [150.743861, -35.467001], [150.748059, -35.463292], [150.750449, -35.461142], [150.755774, -35.456108], [150.758263, -35.454229], [150.761077, -35.452044], [150.766721, -35.448019], [150.773412, -35.443555], [150.778158, -35.439872], [150.779421, -35.438791], [150.785073, -35.434531], [150.788689, -35.432046], [150.792041, -35.4292], [150.797643, -35.425357], [150.801547, -35.422467], [150.806197, -35.417222], [150.809533, -35.413787], [150.810659, -35.411498], [150.813966, -35.405355], [150.814976, -35.403617], [150.818757, -35.397458], [150.822998, -35.390128], [150.825156, -35.386549], [150.827413, -35.382857], [150.829511, -35.379161], [150.831182, -35.376246], [150.835462, -35.36898], [150.837326, -35.365951], [150.839006, -35.363103], [150.842536, -35.35747], [150.845532, -35.352929], [150.848649, -35.3476], [150.850376, -35.344644], [150.852797, -35.34045], [150.853801, -35.338707], [150.856912, -35.332971], [150.859033, -35.329188], [150.862394, -35.322474], [150.863849, -35.319488], [150.866903, -35.313703], [150.869349, -35.309126], [150.871643, -35.304547], [150.873833, -35.300978], [150.875454, -35.298142], [150.878682, -35.292024], [150.881081, -35.287512], [150.883631, -35.282574], [150.885523, -35.278608], [150.88704, -35.275405], [150.88981, -35.269882], [150.89203, -35.264952], [150.893868, -35.260088], [150.895695, -35.254285], [150.898084, -35.246448], [150.901742, -35.234395], [150.903768, -35.230967], [150.906847, -35.22621], [150.911147, -35.219778], [150.912785, -35.21759], [150.917047, -35.210813], [150.9192, -35.207282], [150.925488, -35.19697], [150.929035, -35.191329], [150.933472, -35.184253], [150.937212, -35.177988], [150.940093, -35.173682], [150.943245, -35.16907], [150.946013, -35.164562], [150.950143, -35.158848], [150.952048, -35.155967], [150.956395, -35.15011], [150.959469, -35.145545], [150.96344, -35.140438], [150.967484, -35.13541], [150.974387, -35.12649], [150.983902, -35.114857], [150.987657, -35.110783], [150.994007, -35.103077], [151.001003, -35.095308], [151.00364, -35.092583], [151.008043, -35.087617], [151.011733, -35.083655], [151.015307, -35.080013], [151.015501, -35.077668], [151.014693, -35.072015], [151.013661, -35.067692], [151.011905, -35.060788], [151.010181, -35.054184], [151.009019, -35.049745], [151.007711, -35.046204], [151.00653, -35.036323], [151.005633, -35.023645], [151.005677, -35.018075], [151.0061, -35.008862], [151.006232, -35.000735], [151.006135, -34.996598], [151.006362, -34.985073], [151.007995, -34.964955], [151.008689, -34.958299], [151.009332, -34.951865], [151.01128, -34.928167], [151.012718, -34.916883], [151.016505, -34.893057], [151.020268, -34.867348], [151.021548, -34.860083], [151.022007, -34.85667], [151.02372, -34.846657], [151.024672, -34.840083], [151.026395, -34.832072], [151.028642, -34.822642], [151.030135, -34.817205], [151.037127, -34.78712], [151.044158, -34.753483], [151.04739, -34.735648], [151.049507, -34.727112], [151.050287, -34.723819], [151.052283, -34.716113], [151.053628, -34.711541], [151.056945, -34.700598], [151.058468, -34.69495], [151.060755, -34.687653], [151.06415, -34.675427], [151.065443, -34.67139], [151.068228, -34.660995], [151.069053, -34.657049], [151.070468, -34.650076], [151.071478, -34.644709], [151.072423, -34.639515], [151.075505, -34.623933], [151.078017, -34.613585], [151.080197, -34.603793], [151.081002, -34.598636], [151.08144, -34.593007], [151.083583, -34.567548], [151.083868, -34.56564], [151.084423, -34.558195], [151.085442, -34.550182], [151.085851, -34.546172], [151.086492, -34.5402], [151.087892, -34.529098], [151.088472, -34.52572], [151.089798, -34.5151], [151.092615, -34.494958], [151.093875, -34.489369], [151.097767, -34.472873], [151.099112, -34.470974], [151.10305, -34.461647], [151.104448, -34.458545], [151.108092, -34.452353], [151.111146, -34.447624], [151.115487, -34.44067], [151.117123, -34.437787], [151.124743, -34.425612], [151.127341, -34.421477], [151.130556, -34.416206], [151.133553, -34.411183], [151.136725, -34.405901], [151.142457, -34.396067], [151.145665, -34.390004], [151.149576, -34.382801], [151.152988, -34.376378], [151.156295, -34.370748], [151.16062, -34.363678], [151.166582, -34.353248], [151.170228, -34.347118], [151.171732, -34.344332], [151.177357, -34.33476], [151.18179, -34.328262], [151.190455, -34.314938], [151.191923, -34.312905], [151.20005, -34.300113], [151.203477, -34.295135], [151.209297, -34.286155], [151.211368, -34.282685], [151.215423, -34.276373], [151.219092, -34.270333], [151.22255, -34.265042], [151.235902, -34.242878], [151.238152, -34.238703], [151.242582, -34.231402], [151.24619, -34.224792], [151.248693, -34.219918], [151.25087, -34.216083], [151.258318, -34.201618], [151.261163, -34.195192], [151.265742, -34.185955], [151.270478, -34.176028], [151.27181, -34.173563], [151.275722, -34.165362], [151.281072, -34.154735], [151.283768, -34.149093], [151.286318, -34.14409], [151.290693, -34.13533], [151.300082, -34.117852], [151.302943, -34.112181], [151.307182, -34.10385], [151.314363, -34.090002], [151.315003, -34.088323], [151.319002, -34.080385], [151.323028, -34.07213], [151.32447, -34.069418], [151.327172, -34.063483], [151.333065, -34.051283], [151.335692, -34.04619], [151.338993, -34.038965], [151.342302, -34.030657], [151.344262, -34.025989], [151.348952, -34.0148], [151.350893, -34.009597], [151.35381, -34.00103], [151.353957, -33.995451], [151.352303, -33.986867], [151.350072, -33.98472], [151.34403, -33.977637], [151.339472, -33.971943], [151.329617, -33.962025], [151.322452, -33.951773], [151.320238, -33.948797], [151.318277, -33.942358], [151.31652, -33.935412], [151.314663, -33.929223], [151.311165, -33.917532], [151.306145, -33.898968], [151.303437, -33.887095], [151.301067, -33.877418], [151.30393, -33.846505], [151.302032, -33.842074], [151.291753, -33.830035], [151.289576, -33.828941], [151.282304, -33.825401], [151.278581, -33.826007], [151.27182, -33.829413], [151.268193, -33.832989], [151.264416, -33.83749], [151.260808, -33.843113], [151.256932, -33.847088], [151.250612, -33.852001], [151.247651, -33.853994], [151.244547, -33.854484], [151.240968, -33.853832], [151.232013, -33.853267], [151.225934, -33.852869], [151.219542, -33.853572], [151.214843, -33.852776], [151.210515, -33.851813], [151.20746, -33.851887], [151.199835, -33.854908], [151.198128, -33.857231], [151.19642, -33.860273], [151.193358, -33.861513], [151.189908, -33.864084], [151.187017, -33.867134], [151.188125, -33.866026], [151.192678, -33.862561], [151.193314, -33.860775], [151.192219, -33.861252], [151.187267, -33.865648], [151.185746, -33.868989], [151.185753, -33.871198], [151.185656, -33.871438], [151.187662, -33.865912], [151.190312, -33.863447], [151.196202, -33.860615], [151.19753, -33.858563], [151.199162, -33.85578], [151.204251, -33.853722], [151.209633, -33.853252], [151.212189, -33.85342], [151.223805, -33.853983], [151.231032, -33.853868], [151.237561, -33.853713], [151.245437, -33.854702], [151.247552, -33.853648], [151.252282, -33.84917], [151.255919, -33.845408], [151.260252, -33.84208], [151.265405, -33.837219], [151.267564, -33.835175], [151.2693, -33.831145], [151.270849, -33.828005], [151.272873, -33.825018], [151.274605, -33.822432], [151.277312, -33.815543], [151.280043, -33.808527], [151.281535, -33.804908], [151.282814, -33.802578], [151.282269, -33.800317], [151.28044, -33.804574], [151.280711, -33.809057], [151.283612, -33.811437], [151.285926, -33.813555], [151.286223, -33.814088], [151.286081, -33.814513], [151.282556, -33.816208], [151.280813, -33.821431], [151.278806, -33.826825], [151.277488, -33.830267], [151.275916, -33.833847], [151.274807, -33.839506], [151.275518, -33.841849], [151.275906, -33.840589], [151.277288, -33.839331], [151.277275, -33.839077], [151.27849, -33.825808], [151.279092, -33.822527], [151.281142, -33.81144], [151.280989, -33.806644], [151.281351, -33.800588], [151.28154, -33.799807], [151.280358, -33.804653], [151.278422, -33.817185], [151.277587, -33.822234], [151.276413, -33.833302], [151.275664, -33.837746], [151.274832, -33.84147], [151.271561, -33.844484], [151.264023, -33.849905], [151.260221, -33.851406], [151.246933, -33.854368], [151.237485, -33.853815], [151.228519, -33.853168], [151.219189, -33.853153], [151.216192, -33.852848], [151.210484, -33.852291], [151.207567, -33.852358], [151.202995, -33.852903], [151.200181, -33.854114], [151.19661, -33.859998], [151.192253, -33.861906], [151.189221, -33.864484], [151.186654, -33.867189], [151.185564, -33.869693], [151.185893, -33.871274], [151.185596, -33.871607]]}, "times": ["2024-04-12T10:30:03+00:00", "2024-04-13T04:06:18+00:00", "2024-04-13T04:10:47+00:00", "2024-04-13T04:13:28+00:00", "2024-04-13T04:16:00+00:00", "2024-04-13T04:19:41+00:00", "2024-04-13T04:22:13+00:00", "2024-04-13T04:24:54+00:00", "2024-04-13T04:26:02+00:00", "2024-04-13T04:30:31+00:00", "2024-04-13T04:31:27+00:00", "2024-04-13T04:36:20+00:00", "2024-04-13T04:39:40+00:00", "2024-04-13T04:41:09+00:00", "2024-04-13T04:42:41+00:00", "2024-04-13T04:46:58+00:00", "2024-04-13T04:52:34+00:00", "2024-04-13T04:54:07+00:00", "2024-04-13T04:57:39+00:00", "2024-04-13T04:59:31+00:00", "2024-04-13T05:03:18+00:00", "2024-04-13T05:08:59+00:00", "2024-04-13T05:11:23+00:00", "2024-04-13T05:13:44+00:00", "2024-04-13T05:18:04+00:00", "2024-04-13T05:19:49+00:00", "2024-04-13T05:24:14+00:00", "2024-04-13T05:29:10+00:00", "2024-04-13T05:33:06+00:00", "2024-04-13T05:33:51+00:00", "2024-04-13T05:36:35+00:00", "2024-04-13T05:39:11+00:00", "2024-04-13T05:42:44+00:00", "2024-04-13T05:44:56+00:00", "2024-04-13T05:46:16+00:00", "2024-04-13T05:47:37+00:00", "2024-04-13T05:49:17+00:00", "2024-04-13T05:51:13+00:00", "2024-04-13T05:53:06+00:00", "2024-04-13T05:54:30+00:00", "2024-04-13T05:55:46+00:00", "2024-04-13T05:56:42+00:00", "2024-04-13T05:58:39+00:00", "2024-04-13T06:00:39+00:00", "2024-04-13T06:01:51+00:00", "2024-04-13T06:02:55+00:00", "2024-04-13T06:05:11+00:00", "2024-04-13T06:07:40+00:00", "2024-04-13T06:09:23+00:00", "2024-04-13T06:11:19+00:00", "2024-04-13T06:13:52+00:00", "2024-04-13T06:16:28+00:00", "2024-04-13T06:19:41+00:00", "2024-04-13T06:22:02+00:00", "2024-04-13T06:25:02+00:00", "2024-04-13T06:25:55+00:00", "2024-04-13T06:29:31+00:00", "2024-04-13T06:31:12+00:00", "2024-04-13T06:33:04+00:00", "2024-04-13T06:34:16+00:00", "2024-04-13T06:36:20+00:00", "2024-04-13T06:38:25+00:00", "2024-04-13T06:39:33+00:00", "2024-04-13T06:41:09+00:00", "2024-04-13T06:42:37+00:00", "2024-04-13T06:43:49+00:00", "2024-04-13T06:46:22+00:00", "2024-04-13T06:47:54+00:00", "2024-04-13T06:48:54+00:00", "2024-04-13T06:51:59+00:00", "2024-04-13T06:53:15+00:00", "2024-04-13T06:55:27+00:00", "2024-04-13T06:56:39+00:00", "2024-04-13T06:58:04+00:00", "2024-04-13T07:00:12+00:00", "2024-04-13T07:02:24+00:00", "2024-04-13T07:03:25+00:00", "2024-04-13T07:04:45+00:00", "2024-04-13T07:06:37+00:00", "2024-04-13T07:08:26+00:00", "2024-04-13T07:11:10+00:00", "2024-04-13T07:12:34+00:00", "2024-04-13T07:13:30+00:00", "2024-04-13T07:15:47+00:00", "2024-04-13T07:17:19+00:00", "2024-04-13T07:19:35+00:00", "2024-04-13T07:21:52+00:00", "2024-04-13T07:24:40+00:00", "2024-04-13T07:26:28+00:00", "2024-04-13T07:27:53+00:00", "2024-04-13T07:30:21+00:00", "2024-04-13T07:31:45+00:00", "2024-04-13T07:32:53+00:00", "2024-04-13T07:35:50+00:00", "2024-04-13T07:38:46+00:00", "2024-04-13T07:40:39+00:00", "2024-04-13T07:42:39+00:00", "2024-04-13T07:43:47+00:00", "2024-04-13T07:45:52+00:00", "2024-04-13T07:47:28+00:00", "2024-04-13T07:49:04+00:00", "2024-04-13T07:50:24+00:00", "2024-04-13T07:52:25+00:00", "2024-04-13T07:54:25+00:00", "2024-04-13T07:56:17+00:00", "2024-04-13T07:57:50+00:00", "2024-04-13T08:00:46+00:00", "2024-04-13T08:01:59+00:00", "2024-04-13T08:05:27+00:00", "2024-04-13T08:07:08+00:00", "2024-04-13T08:10:12+00:00", "2024-04-13T08:11:48+00:00", "2024-04-13T08:14:21+00:00", "2024-04-13T08:16:42+00:00", "2024-04-13T08:18:30+00:00", "2024-04-13T08:20:14+00:00", "2024-04-13T08:22:15+00:00", "2024-04-13T08:24:23+00:00", "2024-04-13T08:26:03+00:00", "2024-04-13T08:29:48+00:00", "2024-04-13T08:31:04+00:00", "2024-04-13T08:35:01+00:00", "2024-04-13T08:36:37+00:00", "2024-04-13T08:38:45+00:00", "2024-04-13T08:40:58+00:00", "2024-04-13T08:42:30+00:00", "2024-04-13T08:45:47+00:00", "2024-04-13T08:47:23+00:00", "2024-04-13T08:49:23+00:00", "2024-04-13T08:51:16+00:00", "2024-04-13T08:52:24+00:00", "2024-04-13T08:54:40+00:00", "2024-04-13T08:55:52+00:00", "2024-04-13T08:58:05+00:00", "2024-04-13T08:59:21+00:00", "2024-04-13T09:01:09+00:00", "2024-04-13T09:03:46+00:00", "2024-04-13T09:07:19+00:00", "2024-04-13T09:07:59+00:00", "2024-04-13T09:10:35+00:00", "2024-04-13T09:12:07+00:00", "2024-04-13T09:14:44+00:00", "2024-04-13T09:15:36+00:00", "2024-04-13T09:18:44+00:00", "2024-04-13T09:20:25+00:00", "2024-04-13T09:21:41+00:00", "2024-04-13T09:24:01+00:00", "2024-04-13T09:25:38+00:00", "2024-04-13T09:26:58+00:00", "2024-04-13T09:28:54+00:00", "2024-04-13T09:30:26+00:00", "2024-04-13T09:32:39+00:00", "2024-04-13T09:34:35+00:00", "2024-04-13T09:37:11+00:00", "2024-04-13T09:39:56+00:00", "2024-04-13T09:42:04+00:00", "2024-04-13T09:43:00+00:00", "2024-04-13T09:46:53+00:00", "2024-04-13T09:48:13+00:00", "2024-04-13T09:50:54+00:00", "2024-04-13T09:53:18+00:00", "2024-04-13T09:55:46+00:00", "2024-04-13T09:58:11+00:00", "2024-04-13T10:01:39+00:00", "2024-04-13T10:02:31+00:00", "2024-04-13T10:05:20+00:00", "2024-04-13T10:06:48+00:00", "2024-04-13T10:08:20+00:00", "2024-04-13T10:12:29+00:00", "2024-04-13T10:14:13+00:00", "2024-04-13T10:15:30+00:00", "2024-04-13T10:18:58+00:00", "2024-04-13T10:19:46+00:00", "2024-04-13T10:23:19+00:00", "2024-04-13T10:24:39+00:00", "2024-04-13T10:26:19+00:00", "2024-04-13T10:28:00+00:00", "2024-04-13T10:28:56+00:00", "2024-04-13T10:32:32+00:00", "2024-04-13T10:33:48+00:00", "2024-04-13T10:35:05+00:00", "2024-04-13T10:39:09+00:00", "2024-04-13T10:39:53+00:00", "2024-04-13T10:42:06+00:00", "2024-04-13T10:44:14+00:00", "2024-04-13T10:46:19+00:00", "2024-04-13T10:47:39+00:00", "2024-04-13T10:49:31+00:00", "2024-04-13T10:52:00+00:00", "2024-04-13T10:53:28+00:00", "2024-04-13T10:54:52+00:00", "2024-04-13T10:59:17+00:00", "2024-04-13T11:00:05+00:00", "2024-04-13T11:01:29+00:00", "2024-04-13T11:03:26+00:00", "2024-04-13T11:04:50+00:00", "2024-04-13T11:06:46+00:00", "2024-04-13T11:08:35+00:00", "2024-04-13T11:10:07+00:00", "2024-04-13T11:12:19+00:00", "2024-04-13T11:14:00+00:00", "2024-04-13T11:15:36+00:00", "2024-04-13T11:17:52+00:00", "2024-04-13T11:20:13+00:00", "2024-04-13T11:22:05+00:00", "2024-04-13T11:22:45+00:00", "2024-04-13T11:26:30+00:00", "2024-04-13T11:27:22+00:00", "2024-04-13T11:29:51+00:00", "2024-04-13T11:31:31+00:00", "2024-04-13T11:32:51+00:00", "2024-04-13T11:34:27+00:00", "2024-04-13T11:35:48+00:00", "2024-04-13T11:37:28+00:00", "2024-04-13T11:39:08+00:00", "2024-04-13T11:40:53+00:00", "2024-04-13T11:42:21+00:00", "2024-04-13T11:43:53+00:00", "2024-04-13T11:45:50+00:00", "2024-04-13T11:47:18+00:00", "2024-04-13T11:49:02+00:00", "2024-04-13T11:50:39+00:00", "2024-04-13T11:52:31+00:00", "2024-04-13T11:53:59+00:00", "2024-04-13T11:55:28+00:00", "2024-04-13T11:57:12+00:00", "2024-04-13T11:58:32+00:00", "2024-04-13T12:00:24+00:00", "2024-04-13T12:02:01+00:00", "2024-04-13T12:03:21+00:00", "2024-04-13T12:05:17+00:00", "2024-04-13T12:08:14+00:00", "2024-04-13T12:09:30+00:00", "2024-04-13T12:11:06+00:00", "2024-04-13T12:13:03+00:00", "2024-04-13T12:14:39+00:00", "2024-04-13T12:16:15+00:00", "2024-04-13T12:17:59+00:00", "2024-04-13T12:19:16+00:00", "2024-04-13T12:21:56+00:00", "2024-04-13T12:23:40+00:00", "2024-04-13T12:26:29+00:00", "2024-04-13T12:27:41+00:00", "2024-04-13T12:29:38+00:00", "2024-04-13T12:31:30+00:00", "2024-04-13T12:32:50+00:00", "2024-04-13T12:34:43+00:00", "2024-04-13T12:36:59+00:00", "2024-04-13T12:38:43+00:00", "2024-04-13T12:40:15+00:00", "2024-04-13T12:42:24+00:00", "2024-04-13T12:44:24+00:00", "2024-04-13T12:45:52+00:00", "2024-04-13T12:46:52+00:00", "2024-04-13T12:51:01+00:00", "2024-04-13T12:52:25+00:00", "2024-04-13T12:54:05+00:00", "2024-04-13T12:55:50+00:00", "2024-04-13T12:57:38+00:00", "2024-04-13T12:59:22+00:00", "2024-04-13T13:01:07+00:00", "2024-04-13T13:02:39+00:00", "2024-04-13T13:05:31+00:00", "2024-04-13T13:06:51+00:00", "2024-04-13T13:08:52+00:00", "2024-04-13T13:10:52+00:00", "2024-04-13T13:12:28+00:00", "2024-04-13T13:15:05+00:00", "2024-04-13T13:16:13+00:00", "2024-04-13T13:17:41+00:00", "2024-04-13T13:19:09+00:00", "2024-04-13T13:20:38+00:00", "2024-04-13T13:22:14+00:00", "2024-04-13T13:23:22+00:00", "2024-04-13T13:24:34+00:00", "2024-04-13T13:26:22+00:00", "2024-04-13T13:28:39+00:00", "2024-04-13T13:29:55+00:00", "2024-04-13T13:31:59+00:00", "2024-04-13T13:34:12+00:00", "2024-04-13T13:35:36+00:00", "2024-04-13T13:38:04+00:00", "2024-04-13T13:38:44+00:00", "2024-04-13T13:40:41+00:00", "2024-04-13T13:41:41+00:00", "2024-04-13T13:43:37+00:00", "2024-04-13T13:45:50+00:00", "2024-04-13T13:47:38+00:00", "2024-04-13T13:49:10+00:00", "2024-04-13T13:50:51+00:00", "2024-04-13T13:54:03+00:00", "2024-04-13T13:56:11+00:00", "2024-04-13T13:58:04+00:00", "2024-04-13T13:59:04+00:00", "2024-04-13T14:01:24+00:00", "2024-04-13T14:03:25+00:00", "2024-04-13T14:05:53+00:00", "2024-04-13T14:06:58+00:00", "2024-04-13T14:08:18+00:00", "2024-04-13T14:09:42+00:00", "2024-04-13T14:11:27+00:00", "2024-04-13T14:12:55+00:00", "2024-04-13T14:15:19+00:00", "2024-04-13T14:17:20+00:00", "2024-04-13T14:19:32+00:00", "2024-04-13T14:20:56+00:00", "2024-04-13T14:22:33+00:00", "2024-04-13T14:23:57+00:00", "2024-04-13T14:24:57+00:00", "2024-04-13T14:27:29+00:00", "2024-04-13T14:28:46+00:00", "2024-04-13T14:29:50+00:00", "2024-04-13T14:32:42+00:00", "2024-04-13T14:33:27+00:00", "2024-04-13T14:34:35+00:00", "2024-04-13T14:37:03+00:00", "2024-04-13T14:38:20+00:00", "2024-04-13T14:40:04+00:00", "2024-04-13T14:42:04+00:00", "2024-04-13T14:43:29+00:00", "2024-04-13T14:45:17+00:00", "2024-04-13T14:46:21+00:00", "2024-04-13T14:48:26+00:00", "2024-04-13T14:49:54+00:00", "2024-04-13T14:52:10+00:00", "2024-04-13T14:53:47+00:00", "2024-04-13T14:55:11+00:00", "2024-04-13T14:56:35+00:00", "2024-04-13T14:57:56+00:00", "2024-04-13T14:59:00+00:00", "2024-04-13T15:01:24+00:00", "2024-04-13T15:03:01+00:00", "2024-04-13T15:04:01+00:00", "2024-04-13T15:05:33+00:00", "2024-04-13T15:07:33+00:00", "2024-04-13T15:08:50+00:00", "2024-04-13T15:10:34+00:00", "2024-04-13T15:13:30+00:00", "2024-04-13T15:14:15+00:00", "2024-04-13T15:17:03+00:00", "2024-04-13T15:19:56+00:00", "2024-04-13T15:23:00+00:00", "2024-04-13T15:23:36+00:00", "2024-04-13T15:27:53+00:00", "2024-04-13T15:30:13+00:00", "2024-04-13T15:31:41+00:00", "2024-04-13T15:33:22+00:00", "2024-04-13T15:34:50+00:00", "2024-04-13T15:36:54+00:00", "2024-04-13T15:38:30+00:00", "2024-04-13T15:40:27+00:00", "2024-04-13T15:43:39+00:00", "2024-04-13T15:44:56+00:00", "2024-04-13T15:47:36+00:00", "2024-04-13T15:49:16+00:00", "2024-04-13T15:50:49+00:00", "2024-04-13T15:52:09+00:00", "2024-04-13T15:53:37+00:00", "2024-04-13T15:54:57+00:00", "2024-04-13T15:56:37+00:00", "2024-04-13T15:58:02+00:00", "2024-04-13T15:59:54+00:00", "2024-04-13T16:01:46+00:00", "2024-04-13T16:03:22+00:00", "2024-04-13T16:04:43+00:00", "2024-04-13T16:06:27+00:00", "2024-04-13T16:08:11+00:00", "2024-04-13T16:09:47+00:00", "2024-04-13T16:11:08+00:00", "2024-04-13T16:14:36+00:00", "2024-04-13T16:15:49+00:00", "2024-04-13T16:17:21+00:00", "2024-04-13T16:19:05+00:00", "2024-04-13T16:24:46+00:00", "2024-04-13T16:26:26+00:00", "2024-04-13T16:27:35+00:00", "2024-04-13T16:30:39+00:00", "2024-04-13T16:33:56+00:00", "2024-04-13T16:35:44+00:00", "2024-04-13T16:37:40+00:00", "2024-04-13T16:39:33+00:00", "2024-04-13T16:41:09+00:00", "2024-04-13T16:43:37+00:00", "2024-04-13T16:45:05+00:00", "2024-04-13T16:46:34+00:00", "2024-04-13T16:48:54+00:00", "2024-04-13T16:51:50+00:00", "2024-04-13T16:52:26+00:00", "2024-04-13T16:55:39+00:00", "2024-04-13T16:57:03+00:00", "2024-04-13T16:59:20+00:00", "2024-04-13T17:01:44+00:00", "2024-04-13T17:02:56+00:00", "2024-04-13T17:05:09+00:00", "2024-04-13T17:06:13+00:00", "2024-04-13T17:08:49+00:00", "2024-04-13T17:11:06+00:00", "2024-04-13T17:12:34+00:00", "2024-04-13T17:16:07+00:00", "2024-04-13T17:17:11+00:00", "2024-04-13T17:19:35+00:00", "2024-04-13T17:21:07+00:00", "2024-04-13T17:24:52+00:00", "2024-04-13T17:28:05+00:00", "2024-04-13T17:30:13+00:00", "2024-04-13T17:33:34+00:00", "2024-04-13T17:34:54+00:00", "2024-04-13T17:37:50+00:00", "2024-04-13T17:40:35+00:00", "2024-04-13T17:43:19+00:00", "2024-04-13T17:45:20+00:00", "2024-04-13T17:51:25+00:00", "2024-04-13T17:54:41+00:00", "2024-04-13T17:58:26+00:00", "2024-04-13T18:01:15+00:00", "2024-04-13T18:05:20+00:00", "2024-04-13T18:06:52+00:00", "2024-04-13T18:09:36+00:00", "2024-04-13T18:13:33+00:00", "2024-04-13T18:14:45+00:00", "2024-04-13T18:16:54+00:00", "2024-04-13T18:18:02+00:00", "2024-04-13T18:20:38+00:00", "2024-04-13T18:23:47+00:00", "2024-04-13T18:26:11+00:00", "2024-04-13T18:28:00+00:00", "2024-04-13T18:29:44+00:00", "2024-04-13T18:33:29+00:00", "2024-04-13T18:35:01+00:00", "2024-04-13T18:40:10+00:00", "2024-04-13T18:41:43+00:00", "2024-04-13T18:43:39+00:00", "2024-04-13T18:46:47+00:00", "2024-04-13T18:47:48+00:00", "2024-04-13T18:50:00+00:00", "2024-04-13T18:54:17+00:00", "2024-04-13T18:58:22+00:00", "2024-04-13T18:59:42+00:00", "2024-04-13T19:02:10+00:00", "2024-04-13T19:04:27+00:00", "2024-04-13T19:07:11+00:00", "2024-04-13T19:11:12+00:00", "2024-04-13T19:13:00+00:00", "2024-04-13T19:15:53+00:00", "2024-04-13T19:16:41+00:00", "2024-04-13T19:21:50+00:00", "2024-04-13T19:24:46+00:00", "2024-04-13T19:26:07+00:00", "2024-04-13T19:30:43+00:00", "2024-04-13T19:33:12+00:00", "2024-04-13T19:37:40+00:00", "2024-04-13T19:38:53+00:00", "2024-04-13T19:40:37+00:00", "2024-04-13T19:45:58+00:00", "2024-04-13T19:50:22+00:00", "2024-04-13T19:51:50+00:00", "2024-04-13T19:54:39+00:00", "2024-04-13T19:56:55+00:00", "2024-04-13T19:59:04+00:00", "2024-04-13T20:00:36+00:00", "2024-04-13T20:04:24+00:00", "2024-04-13T20:06:05+00:00", "2024-04-13T20:10:01+00:00", "2024-04-13T20:12:34+00:00", "2024-04-13T20:14:38+00:00", "2024-04-13T20:16:50+00:00", "2024-04-13T20:19:11+00:00", "2024-04-13T20:22:15+00:00", "2024-04-13T20:23:51+00:00", "2024-04-13T20:27:48+00:00", "2024-04-13T20:32:33+00:00", "2024-04-13T20:35:13+00:00", "2024-04-13T20:37:21+00:00", "2024-04-13T20:40:54+00:00", "2024-04-13T20:43:50+00:00", "2024-04-13T20:46:15+00:00", "2024-04-13T20:50:31+00:00", "2024-04-13T20:53:24+00:00", "2024-04-13T20:56:08+00:00", "2024-04-13T20:58:33+00:00", "2024-04-13T21:00:29+00:00", "2024-04-13T21:03:42+00:00", "2024-04-13T21:09:43+00:00", "2024-04-13T21:12:15+00:00", "2024-04-13T21:17:52+00:00", "2024-04-13T21:20:37+00:00", "2024-04-13T21:23:58+00:00", "2024-04-13T21:27:54+00:00", "2024-04-13T21:29:47+00:00", "2024-04-13T21:31:23+00:00", "2024-04-13T21:36:00+00:00", "2024-04-13T21:38:01+00:00", "2024-04-13T21:40:38+00:00", "2024-04-13T21:43:06+00:00", "2024-04-13T21:45:23+00:00", "2024-04-13T21:47:40+00:00", "2024-04-13T21:53:33+00:00", "2024-04-13T21:55:01+00:00", "2024-04-13T21:59:22+00:00", "2024-04-13T22:00:58+00:00", "2024-04-13T22:05:43+00:00", "2024-04-13T22:09:52+00:00", "2024-04-13T22:11:12+00:00", "2024-04-13T22:16:21+00:00", "2024-04-13T22:18:46+00:00", "2024-04-13T22:21:58+00:00", "2024-04-13T22:25:19+00:00", "2024-04-13T22:27:55+00:00", "2024-04-13T22:31:36+00:00", "2024-04-13T22:34:08+00:00", "2024-04-13T22:36:01+00:00", "2024-04-13T22:39:38+00:00", "2024-04-13T22:44:38+00:00", "2024-04-13T22:47:55+00:00", "2024-04-13T22:51:08+00:00", "2024-04-13T22:53:32+00:00", "2024-04-13T22:55:36+00:00", "2024-04-13T22:57:59+00:00", "2024-04-13T23:00:03+00:00", "2024-04-13T23:02:48+00:00", "2024-04-13T23:07:56+00:00", "2024-04-13T23:11:25+00:00", "2024-04-13T23:14:13+00:00", "2024-04-13T23:17:02+00:00", "2024-04-13T23:20:18+00:00", "2024-04-13T23:21:18+00:00", "2024-04-13T23:26:59+00:00", "2024-04-13T23:28:36+00:00", "2024-04-13T23:30:36+00:00", "2024-04-13T23:34:02+00:00", "2024-04-13T23:36:29+00:00", "2024-04-13T23:39:09+00:00", "2024-04-13T23:41:45+00:00", "2024-04-13T23:44:53+00:00", "2024-04-13T23:47:01+00:00", "2024-04-13T23:49:46+00:00", "2024-04-13T23:52:27+00:00", "2024-04-13T23:55:39+00:00", "2024-04-13T23:57:40+00:00", "2024-04-14T00:01:24+00:00", "2024-04-14T00:04:37+00:00", "2024-04-14T00:07:17+00:00", "2024-04-14T00:08:45+00:00", "2024-04-14T00:11:54+00:00", "2024-04-14T00:14:31+00:00", "2024-04-14T00:17:19+00:00", "2024-04-14T00:18:23+00:00", "2024-04-14T00:21:44+00:00", "2024-04-14T00:24:13+00:00", "2024-04-14T00:27:57+00:00", "2024-04-14T00:29:21+00:00", "2024-04-14T00:33:22+00:00", "2024-04-14T00:37:07+00:00", "2024-04-14T00:41:20+00:00", "2024-04-14T00:42:24+00:00", "2024-04-14T00:47:25+00:00", "2024-04-14T00:50:05+00:00", "2024-04-14T00:52:22+00:00", "2024-04-14T00:55:58+00:00", "2024-04-14T00:58:23+00:00", "2024-04-14T01:00:31+00:00", "2024-04-14T01:06:08+00:00", "2024-04-14T01:08:17+00:00", "2024-04-14T01:09:57+00:00", "2024-04-14T01:12:13+00:00", "2024-04-14T01:13:45+00:00", "2024-04-14T01:19:54+00:00", "2024-04-14T01:22:59+00:00", "2024-04-14T01:26:03+00:00", "2024-04-14T01:29:36+00:00", "2024-04-14T01:32:20+00:00", "2024-04-14T01:34:01+00:00", "2024-04-14T01:38:09+00:00", "2024-04-14T01:39:33+00:00", "2024-04-14T01:43:54+00:00", "2024-04-14T01:46:43+00:00", "2024-04-14T01:49:11+00:00", "2024-04-14T01:50:35+00:00", "2024-04-14T01:54:24+00:00", "2024-04-14T01:59:05+00:00", "2024-04-14T02:01:01+00:00", "2024-04-14T02:02:41+00:00", "2024-04-14T02:05:53+00:00", "2024-04-14T02:08:30+00:00", "2024-04-14T02:11:10+00:00", "2024-04-14T02:15:03+00:00", "2024-04-14T02:16:31+00:00", "2024-04-14T02:20:40+00:00", "2024-04-14T02:22:20+00:00", "2024-04-14T02:27:05+00:00", "2024-04-14T02:29:49+00:00", "2024-04-14T02:30:41+00:00", "2024-04-14T02:33:30+00:00", "2024-04-14T02:35:38+00:00", "2024-04-14T02:39:11+00:00", "2024-04-14T02:41:00+00:00", "2024-04-14T02:43:44+00:00", "2024-04-14T02:46:49+00:00", "2024-04-14T02:49:49+00:00", "2024-04-14T02:52:02+00:00", "2024-04-14T02:53:38+00:00", "2024-04-14T02:58:07+00:00", "2024-04-14T02:59:59+00:00", "2024-04-14T03:02:40+00:00", "2024-04-14T03:04:20+00:00", "2024-04-14T03:07:16+00:00", "2024-04-14T03:09:45+00:00", "2024-04-14T03:13:38+00:00", "2024-04-14T03:15:06+00:00", "2024-04-14T03:18:15+00:00", "2024-04-14T03:19:55+00:00", "2024-04-14T03:22:28+00:00", "2024-04-14T03:24:28+00:00", "2024-04-14T03:26:24+00:00", "2024-04-14T03:28:49+00:00", "2024-04-14T03:31:46+00:00", "2024-04-14T03:34:10+00:00", "2024-04-14T03:37:23+00:00", "2024-04-14T03:41:43+00:00", "2024-04-14T03:44:08+00:00", "2024-04-14T03:46:40+00:00", "2024-04-14T03:50:17+00:00", "2024-04-14T03:53:05+00:00", "2024-04-14T03:55:30+00:00", "2024-04-14T03:58:03+00:00", "2024-04-14T04:04:00+00:00", "2024-04-14T04:05:44+00:00", "2024-04-14T04:10:17+00:00", "2024-04-14T04:14:02+00:00", "2024-04-14T04:16:18+00:00", "2024-04-14T04:19:45+00:00", "2024-04-14T04:23:31+00:00", "2024-04-14T04:25:27+00:00", "2024-04-14T04:29:32+00:00", "2024-04-14T04:31:04+00:00", "2024-04-14T04:36:13+00:00", "2024-04-14T04:40:54+00:00", "2024-04-14T04:43:26+00:00", "2024-04-14T04:45:58+00:00", "2024-04-14T04:49:23+00:00", "2024-04-14T04:50:59+00:00", "2024-04-14T04:54:12+00:00", "2024-04-14T04:56:37+00:00", "2024-04-14T05:01:29+00:00", "2024-04-14T05:02:37+00:00", "2024-04-14T05:06:50+00:00", "2024-04-14T05:08:06+00:00", "2024-04-14T05:12:51+00:00", "2024-04-14T05:15:03+00:00", "2024-04-14T05:17:12+00:00", "2024-04-14T05:21:36+00:00", "2024-04-14T05:23:41+00:00", "2024-04-14T05:26:37+00:00", "2024-04-14T05:30:14+00:00", "2024-04-14T05:34:02+00:00", "2024-04-14T05:36:15+00:00", "2024-04-14T05:41:41+00:00", "2024-04-14T05:43:01+00:00", "2024-04-14T05:46:52+00:00", "2024-04-14T05:51:00+00:00", "2024-04-14T05:57:46+00:00", "2024-04-14T06:00:31+00:00", "2024-04-14T06:03:51+00:00", "2024-04-14T06:05:03+00:00", "2024-04-14T06:09:08+00:00", "2024-04-14T06:11:53+00:00", "2024-04-14T06:13:49+00:00", "2024-04-14T06:18:34+00:00", "2024-04-14T06:20:38+00:00", "2024-04-14T06:24:03+00:00", "2024-04-14T06:29:20+00:00", "2024-04-14T06:32:52+00:00", "2024-04-14T06:36:01+00:00", "2024-04-14T06:38:09+00:00", "2024-04-14T06:40:54+00:00", "2024-04-14T06:46:10+00:00", "2024-04-14T06:49:39+00:00", "2024-04-14T06:51:07+00:00", "2024-04-14T06:54:15+00:00", "2024-04-14T06:57:32+00:00", "2024-04-14T07:00:21+00:00", "2024-04-14T07:03:33+00:00", "2024-04-14T07:06:14+00:00", "2024-04-14T07:09:27+00:00", "2024-04-14T07:12:32+00:00", "2024-04-14T07:15:16+00:00", "2024-04-14T07:20:00+00:00", "2024-04-14T07:24:13+00:00", "2024-04-14T07:28:21+00:00", "2024-04-14T07:30:58+00:00", "2024-04-14T07:33:06+00:00", "2024-04-14T07:37:51+00:00", "2024-04-14T07:41:55+00:00", "2024-04-14T07:46:12+00:00", "2024-04-14T07:48:44+00:00", "2024-04-14T07:53:13+00:00", "2024-04-14T07:55:41+00:00", "2024-04-14T08:01:14+00:00", "2024-04-14T08:05:07+00:00", "2024-04-14T08:05:47+00:00", "2024-04-14T08:13:25+00:00", "2024-04-14T08:21:46+00:00", "2024-04-14T08:24:27+00:00", "2024-04-14T08:28:59+00:00", "2024-04-14T08:33:44+00:00", "2024-04-14T08:36:37+00:00", "2024-04-14T08:38:53+00:00", "2024-04-14T08:42:38+00:00", "2024-04-14T08:48:23+00:00", "2024-04-14T08:52:08+00:00", "2024-04-14T08:54:41+00:00", "2024-04-14T08:57:29+00:00", "2024-04-14T09:00:58+00:00", "2024-04-14T09:03:10+00:00", "2024-04-14T09:05:19+00:00", "2024-04-14T09:09:43+00:00", "2024-04-14T09:12:00+00:00", "2024-04-14T09:14:45+00:00", "2024-04-14T09:17:45+00:00", "2024-04-14T09:20:13+00:00", "2024-04-14T09:23:54+00:00", "2024-04-14T09:26:38+00:00", "2024-04-14T09:30:03+00:00", "2024-04-14T09:32:55+00:00", "2024-04-14T09:35:40+00:00", "2024-04-14T09:41:01+00:00", "2024-04-14T09:44:54+00:00", "2024-04-14T09:47:26+00:00", "2024-04-14T09:50:59+00:00", "2024-04-14T09:56:04+00:00", "2024-04-14T10:00:01+00:00", "2024-04-14T10:04:50+00:00", "2024-04-14T10:06:54+00:00", "2024-04-14T10:17:48+00:00", "2024-04-14T10:25:01+00:00", "2024-04-14T10:35:23+00:00", "2024-04-14T10:41:04+00:00", "2024-04-14T10:58:59+00:00", "2024-04-14T11:06:36+00:00", "2024-04-14T11:10:53+00:00", "2024-04-14T11:15:17+00:00", "2024-04-14T11:21:22+00:00", "2024-04-14T11:31:08+00:00", "2024-04-14T11:40:25+00:00", "2024-04-14T11:45:42+00:00", "2024-04-14T11:50:55+00:00", "2024-04-14T11:54:48+00:00", "2024-04-14T11:57:16+00:00", "2024-04-14T12:03:58+00:00", "2024-04-14T12:09:26+00:00", "2024-04-14T12:16:43+00:00", "2024-04-14T12:25:45+00:00", "2024-04-14T12:29:22+00:00", "2024-04-14T12:34:19+00:00", "2024-04-14T12:39:40+00:00", "2024-04-14T12:45:37+00:00", "2024-04-14T12:49:22+00:00", "2024-04-14T12:54:23+00:00", "2024-04-14T12:59:04+00:00", "2024-04-14T13:04:21+00:00", "2024-04-14T13:07:01+00:00", "2024-04-14T13:11:42+00:00", "2024-04-14T13:15:48+00:00", "2024-04-14T13:34:31+00:00", "2024-04-14T13:46:45+00:00", "2024-04-14T13:54:51+00:00", "2024-04-14T14:00:12+00:00", "2024-04-14T14:05:21+00:00", "2024-04-14T14:13:53+00:00", "2024-04-14T14:16:26+00:00", "2024-04-14T14:20:25+00:00", "2024-04-14T14:23:50+00:00", "2024-04-14T14:26:48+00:00", "2024-04-14T14:35:49+00:00", "2024-04-14T14:50:39+00:00", "2024-04-14T14:55:12+00:00", "2024-04-14T15:02:22+00:00", "2024-04-14T15:10:17+00:00", "2024-04-14T15:15:23+00:00", "2024-04-14T15:18:52+00:00", "2024-04-14T15:24:04+00:00", "2024-04-14T15:26:13+00:00", "2024-04-14T15:37:12+00:00", "2024-04-14T15:47:14+00:00", "2024-04-14T15:54:48+00:00", "2024-04-14T16:07:55+00:00", "2024-04-14T16:17:01+00:00", "2024-04-14T16:25:00+00:00", "2024-04-14T16:33:10+00:00", "2024-04-14T16:37:39+00:00", "2024-04-14T16:43:04+00:00", "2024-04-14T16:47:17+00:00", "2024-04-14T16:50:14+00:00", "2024-04-14T16:56:19+00:00", "2024-04-14T17:02:44+00:00", "2024-04-14T17:10:02+00:00", "2024-04-14T17:25:33+00:00", "2024-04-14T17:30:47+00:00", "2024-04-14T17:36:20+00:00", "2024-04-14T17:46:30+00:00", "2024-04-14T17:51:35+00:00", "2024-04-14T17:55:24+00:00", "2024-04-14T18:03:10+00:00", "2024-04-14T18:07:42+00:00", "2024-04-14T18:21:17+00:00", "2024-04-14T18:31:48+00:00", "2024-04-14T18:36:45+00:00", "2024-04-14T18:41:46+00:00", "2024-04-14T18:49:36+00:00", "2024-04-14T18:57:34+00:00", "2024-04-14T18:59:06+00:00", "2024-04-14T19:07:11+00:00", "2024-04-14T19:12:08+00:00", "2024-04-14T19:18:26+00:00", "2024-04-14T19:28:16+00:00", "2024-04-14T19:33:25+00:00", "2024-04-14T19:38:58+00:00", "2024-04-14T19:44:27+00:00", "2024-04-14T19:58:14+00:00", "2024-04-14T20:04:23+00:00", "2024-04-14T20:12:41+00:00", "2024-04-14T20:22:43+00:00", "2024-04-14T20:32:41+00:00", "2024-04-14T20:38:39+00:00", "2024-04-14T20:44:01+00:00", "2024-04-14T20:49:46+00:00", "2024-04-14T20:55:03+00:00", "2024-04-14T21:00:56+00:00", "2024-04-14T21:12:47+00:00", "2024-04-14T21:18:28+00:00", "2024-04-14T21:21:12+00:00", "2024-04-14T21:44:54+00:00", "2024-04-14T21:52:48+00:00", "2024-04-14T21:56:13+00:00", "2024-04-14T22:11:52+00:00", "2024-04-14T22:19:34+00:00", "2024-04-14T22:25:39+00:00", "2024-04-14T22:31:57+00:00", "2024-04-14T22:37:22+00:00", "2024-04-14T22:46:57+00:00", "2024-04-14T22:54:35+00:00", "2024-04-14T22:55:35+00:00", "2024-04-14T22:57:03+00:00", "2024-04-14T22:58:15+00:00", "2024-04-14T23:00:47+00:00", "2024-04-14T23:01:51+00:00", "2024-04-14T23:06:00+00:00", "2024-04-14T23:08:09+00:00", "2024-04-14T23:09:14+00:00", "2024-04-14T23:10:59+00:00", "2024-04-14T23:12:31+00:00", "2024-04-14T23:14:51+00:00", "2024-04-14T23:16:11+00:00", "2024-04-14T23:17:28+00:00", "2024-04-14T23:19:28+00:00", "2024-04-14T23:22:29+00:00", "2024-04-14T23:23:33+00:00", "2024-04-14T23:27:02+00:00", "2024-04-14T23:31:30+00:00", "2024-04-14T23:36:40+00:00", "2024-04-14T23:39:00+00:00", "2024-04-14T23:40:05+00:00", "2024-04-14T23:42:29+00:00", "2024-04-14T23:49:14+00:00", "2024-04-14T23:55:16+00:00", "2024-04-14T23:58:57+00:00", "2024-04-15T00:01:42+00:00", "2024-04-15T00:08:39+00:00", "2024-04-15T00:10:40+00:00", "2024-04-15T00:15:29+00:00", "2024-04-15T00:21:43+00:00", "2024-04-15T00:22:15+00:00", "2024-04-15T00:25:48+00:00", "2024-04-15T00:27:01+00:00", "2024-04-15T00:32:27+00:00", "2024-04-15T00:38:40+00:00", "2024-04-15T00:41:25+00:00", "2024-04-15T00:47:18+00:00", "2024-04-15T00:50:15+00:00", "2024-04-15T00:55:16+00:00", "2024-04-15T00:59:01+00:00", "2024-04-15T01:05:54+00:00", "2024-04-15T01:11:43+00:00", "2024-04-15T01:17:04+00:00", "2024-04-15T01:22:37+00:00", "2024-04-15T01:33:11+00:00", "2024-04-15T01:42:18+00:00", "2024-04-15T01:44:06+00:00", "2024-04-15T01:56:25+00:00", "2024-04-15T01:58:21+00:00", "2024-04-15T02:02:34+00:00", "2024-04-15T02:03:50+00:00", "2024-04-15T02:06:02+00:00", "2024-04-15T04:06:06+00:00", "2024-04-15T19:53:55+00:00", "2024-04-16T03:55:52+00:00", "2024-04-16T04:01:25+00:00", "2024-04-16T04:03:13+00:00", "2024-04-16T04:05:21+00:00", "2024-04-16T04:09:02+00:00", "2024-04-16T04:11:34+00:00", "2024-04-16T04:13:43+00:00", "2024-04-16T04:16:59+00:00", "2024-04-16T04:21:00+00:00", "2024-04-16T04:25:17+00:00", "2024-04-16T04:27:49+00:00", "2024-04-16T04:30:01+00:00", "2024-04-16T04:33:54+00:00", "2024-04-16T04:39:39+00:00", "2024-04-16T04:42:11+00:00", "2024-04-16T04:47:08+00:00", "2024-04-16T04:49:41+00:00", "2024-04-16T04:54:13+00:00", "2024-04-16T04:56:06+00:00", "2024-04-16T05:02:11+00:00", "2024-04-16T05:06:48+00:00", "2024-04-16T05:10:09+00:00", "2024-04-16T05:16:46+00:00", "2024-04-16T05:22:11+00:00", "2024-04-16T05:26:20+00:00", "2024-04-16T05:29:43+00:00", "2024-04-16T05:33:28+00:00", "2024-04-16T05:36:44+00:00", "2024-04-16T05:42:09+00:00", "2024-04-16T05:43:49+00:00", "2024-04-16T05:47:46+00:00", "2024-04-16T05:52:10+00:00", "2024-04-16T05:54:27+00:00", "2024-04-16T06:01:36+00:00", "2024-04-16T06:04:40+00:00", "2024-04-16T06:07:40+00:00", "2024-04-16T06:14:06+00:00", "2024-04-16T06:17:10+00:00", "2024-04-16T06:20:23+00:00", "2024-04-16T06:22:35+00:00", "2024-04-16T06:24:28+00:00", "2024-04-16T06:27:36+00:00", "2024-04-16T06:31:41+00:00", "2024-04-16T06:36:38+00:00", "2024-04-16T06:41:07+00:00", "2024-04-16T06:43:44+00:00", "2024-04-16T06:49:04+00:00", "2024-04-16T06:51:21+00:00", "2024-04-16T06:56:21+00:00", "2024-04-16T07:01:22+00:00", "2024-04-16T07:03:10+00:00", "2024-04-16T07:07:07+00:00", "2024-04-16T07:10:39+00:00", "2024-04-16T07:14:52+00:00", "2024-04-16T07:17:01+00:00", "2024-04-16T07:20:57+00:00", "2024-04-16T07:23:45+00:00", "2024-04-16T07:29:46+00:00", "2024-04-16T07:34:15+00:00", "2024-04-16T07:39:20+00:00", "2024-04-16T07:40:08+00:00", "2024-04-16T07:47:06+00:00", "2024-04-16T07:50:35+00:00", "2024-04-16T07:53:15+00:00", "2024-04-16T07:56:51+00:00", "2024-04-16T08:01:00+00:00", "2024-04-16T08:06:21+00:00", "2024-04-16T08:09:13+00:00", "2024-04-16T08:10:29+00:00", "2024-04-16T08:12:46+00:00", "2024-04-16T08:16:07+00:00", "2024-04-16T08:19:19+00:00", "2024-04-16T08:25:04+00:00", "2024-04-16T08:25:44+00:00", "2024-04-16T08:31:33+00:00", "2024-04-16T08:34:42+00:00", "2024-04-16T08:35:06+00:00", "2024-04-16T08:40:47+00:00", "2024-04-16T08:44:23+00:00", "2024-04-16T08:48:56+00:00", "2024-04-16T08:53:09+00:00", "2024-04-16T08:53:49+00:00", "2024-04-16T08:56:57+00:00", "2024-04-16T08:59:18+00:00", "2024-04-16T09:01:54+00:00", "2024-04-16T09:06:47+00:00", "2024-04-16T09:11:04+00:00", "2024-04-16T09:14:12+00:00", "2024-04-16T09:16:17+00:00", "2024-04-16T09:19:58+00:00", "2024-04-16T09:24:47+00:00", "2024-04-16T09:29:43+00:00", "2024-04-16T09:32:52+00:00", "2024-04-16T09:37:33+00:00", "2024-04-16T09:40:25+00:00", "2024-04-16T09:43:58+00:00", "2024-04-16T09:48:35+00:00", "2024-04-16T09:53:40+00:00", "2024-04-16T09:56:08+00:00", "2024-04-16T09:57:57+00:00", "2024-04-16T10:00:49+00:00", "2024-04-16T10:04:06+00:00", "2024-04-16T10:04:54+00:00", "2024-04-16T10:09:26+00:00", "2024-04-16T10:11:43+00:00", "2024-04-16T10:17:48+00:00", "2024-04-16T10:20:00+00:00", "2024-04-16T10:25:53+00:00", "2024-04-16T10:27:26+00:00", "2024-04-16T10:33:39+00:00", "2024-04-16T10:35:31+00:00", "2024-04-16T10:37:23+00:00", "2024-04-16T10:42:36+00:00", "2024-04-16T10:46:20+00:00", "2024-04-16T10:47:41+00:00", "2024-04-16T10:49:45+00:00", "2024-04-16T10:52:58+00:00", "2024-04-16T10:56:14+00:00", "2024-04-16T10:59:42+00:00", "2024-04-16T11:04:55+00:00", "2024-04-16T11:08:56+00:00", "2024-04-16T11:11:08+00:00", "2024-04-16T11:13:04+00:00", "2024-04-16T11:14:56+00:00", "2024-04-16T11:19:45+00:00", "2024-04-16T11:22:30+00:00", "2024-04-16T11:25:42+00:00", "2024-04-16T11:28:02+00:00", "2024-04-16T11:31:04+00:00", "2024-04-16T11:34:42+00:00", "2024-04-16T11:36:54+00:00", "2024-04-16T11:41:30+00:00", "2024-04-16T11:44:19+00:00", "2024-04-16T11:46:31+00:00", "2024-04-16T11:48:15+00:00", "2024-04-16T11:50:56+00:00", "2024-04-16T11:52:28+00:00", "2024-04-16T11:55:17+00:00", "2024-04-16T11:57:57+00:00", "2024-04-16T11:59:33+00:00", "2024-04-16T12:01:46+00:00", "2024-04-16T12:04:10+00:00", "2024-04-16T12:06:39+00:00", "2024-04-16T12:09:43+00:00", "2024-04-16T12:12:12+00:00", "2024-04-16T12:16:05+00:00", "2024-04-16T12:18:09+00:00", "2024-04-16T12:22:06+00:00", "2024-04-16T12:24:58+00:00", "2024-04-16T12:26:38+00:00", "2024-04-16T12:32:51+00:00", "2024-04-16T12:35:32+00:00", "2024-04-16T12:40:29+00:00", "2024-04-16T12:44:38+00:00", "2024-04-16T12:46:02+00:00", "2024-04-16T12:47:35+00:00", "2024-04-16T12:49:35+00:00", "2024-04-16T12:52:39+00:00", "2024-04-16T12:54:20+00:00", "2024-04-16T12:57:44+00:00", "2024-04-16T13:00:05+00:00", "2024-04-16T13:01:49+00:00", "2024-04-16T13:03:45+00:00", "2024-04-16T13:09:30+00:00", "2024-04-16T13:11:38+00:00", "2024-04-16T13:17:15+00:00", "2024-04-16T13:20:00+00:00", "2024-04-16T13:22:52+00:00", "2024-04-16T13:26:37+00:00", "2024-04-16T13:28:09+00:00", "2024-04-16T13:31:09+00:00", "2024-04-16T13:33:42+00:00", "2024-04-16T13:36:18+00:00", "2024-04-16T13:38:59+00:00", "2024-04-16T13:43:16+00:00", "2024-04-16T13:45:40+00:00", "2024-04-16T13:47:36+00:00", "2024-04-16T13:53:17+00:00", "2024-04-16T13:55:58+00:00", "2024-04-16T14:04:39+00:00", "2024-04-16T14:09:20+00:00", "2024-04-16T14:14:36+00:00", "2024-04-16T14:20:33+00:00", "2024-04-16T14:25:46+00:00", "2024-04-16T14:28:42+00:00", "2024-04-16T14:33:31+00:00", "2024-04-16T14:39:32+00:00", "2024-04-16T14:48:42+00:00", "2024-04-16T14:50:42+00:00", "2024-04-16T14:57:44+00:00", "2024-04-16T15:00:48+00:00", "2024-04-16T15:06:05+00:00", "2024-04-16T15:10:18+00:00", "2024-04-16T15:14:43+00:00", "2024-04-16T15:24:16+00:00", "2024-04-16T15:27:41+00:00", "2024-04-16T15:33:58+00:00", "2024-04-16T15:37:43+00:00", "2024-04-16T15:42:27+00:00", "2024-04-16T15:46:08+00:00", "2024-04-16T15:50:25+00:00", "2024-04-16T15:52:37+00:00", "2024-04-16T15:57:06+00:00", "2024-04-16T16:00:10+00:00", "2024-04-16T16:03:31+00:00", "2024-04-16T16:06:24+00:00", "2024-04-16T16:08:56+00:00", "2024-04-16T16:11:53+00:00", "2024-04-16T16:15:46+00:00", "2024-04-16T16:18:06+00:00", "2024-04-16T16:22:31+00:00", "2024-04-16T16:25:07+00:00", "2024-04-16T16:27:35+00:00", "2024-04-16T16:30:36+00:00", "2024-04-16T16:35:28+00:00", "2024-04-16T16:38:09+00:00", "2024-04-16T16:40:25+00:00", "2024-04-16T16:43:54+00:00", "2024-04-16T16:46:30+00:00", "2024-04-16T16:49:47+00:00", "2024-04-16T16:52:15+00:00", "2024-04-16T16:56:15+00:00", "2024-04-16T16:58:47+00:00", "2024-04-16T17:03:00+00:00", "2024-04-16T17:04:28+00:00", "2024-04-16T17:08:13+00:00", "2024-04-16T17:09:49+00:00", "2024-04-16T17:14:18+00:00", "2024-04-16T17:16:58+00:00", "2024-04-16T17:18:30+00:00", "2024-04-16T17:23:43+00:00", "2024-04-16T17:25:27+00:00", "2024-04-16T17:29:48+00:00", "2024-04-16T17:32:53+00:00", "2024-04-16T17:35:41+00:00", "2024-04-16T17:38:26+00:00", "2024-04-16T17:42:50+00:00", "2024-04-16T17:45:15+00:00", "2024-04-16T17:50:19+00:00", "2024-04-16T17:53:16+00:00", "2024-04-16T17:55:37+00:00", "2024-04-16T17:59:05+00:00", "2024-04-16T18:01:22+00:00", "2024-04-16T18:06:15+00:00", "2024-04-16T18:12:00+00:00", "2024-04-16T18:15:04+00:00", "2024-04-16T18:18:45+00:00", "2024-04-16T18:21:42+00:00", "2024-04-16T18:28:27+00:00", "2024-04-16T18:33:36+00:00", "2024-04-16T18:40:21+00:00", "2024-04-16T18:43:10+00:00", "2024-04-16T18:47:26+00:00", "2024-04-16T18:53:03+00:00", "2024-04-16T18:57:12+00:00", "2024-04-16T19:04:09+00:00", "2024-04-16T19:13:02+00:00", "2024-04-16T19:15:31+00:00", "2024-04-16T19:25:13+00:00", "2024-04-16T19:26:13+00:00", "2024-04-16T19:36:27+00:00", "2024-04-16T19:41:12+00:00", "2024-04-16T19:45:40+00:00", "2024-04-16T19:51:21+00:00", "2024-04-16T19:56:54+00:00", "2024-04-16T20:03:55+00:00", "2024-04-16T20:08:52+00:00", "2024-04-16T20:14:13+00:00", "2024-04-16T20:19:42+00:00", "2024-04-16T20:23:18+00:00", "2024-04-16T20:26:31+00:00", "2024-04-16T20:30:15+00:00", "2024-04-16T20:36:36+00:00", "2024-04-16T20:41:05+00:00", "2024-04-16T20:46:13+00:00", "2024-04-16T20:50:07+00:00", "2024-04-16T20:52:12+00:00", "2024-04-16T21:00:09+00:00", "2024-04-16T21:05:02+00:00", "2024-04-16T21:11:38+00:00", "2024-04-16T21:17:39+00:00", "2024-04-16T21:22:36+00:00", "2024-04-16T21:25:45+00:00", "2024-04-16T21:31:01+00:00", "2024-04-16T21:43:16+00:00", "2024-04-16T21:51:21+00:00", "2024-04-16T21:55:42+00:00", "2024-04-16T22:04:58+00:00", "2024-04-16T22:08:35+00:00", "2024-04-16T22:13:56+00:00", "2024-04-16T22:18:29+00:00", "2024-04-16T22:21:41+00:00", "2024-04-16T22:25:18+00:00", "2024-04-16T22:26:22+00:00", "2024-04-16T22:31:35+00:00", "2024-04-16T22:36:00+00:00", "2024-04-16T22:38:36+00:00", "2024-04-16T22:40:41+00:00", "2024-04-16T22:46:58+00:00", "2024-04-16T22:52:39+00:00", "2024-04-16T22:58:44+00:00", "2024-04-16T23:02:33+00:00", "2024-04-16T23:08:52+00:00", "2024-04-16T23:13:09+00:00", "2024-04-16T23:17:45+00:00", "2024-04-16T23:21:38+00:00", "2024-04-16T23:23:50+00:00", "2024-04-16T23:29:27+00:00", "2024-04-16T23:34:36+00:00", "2024-04-16T23:37:05+00:00", "2024-04-16T23:42:50+00:00", "2024-04-16T23:48:22+00:00", "2024-04-16T23:53:23+00:00", "2024-04-16T23:57:16+00:00", "2024-04-17T00:01:05+00:00", "2024-04-17T00:09:57+00:00", "2024-04-17T00:11:18+00:00", "2024-04-17T00:14:34+00:00", "2024-04-17T00:18:30+00:00", "2024-04-17T00:19:39+00:00", "2024-04-17T00:25:51+00:00", "2024-04-17T00:31:53+00:00", "2024-04-17T00:35:34+00:00", "2024-04-17T00:38:27+00:00", "2024-04-17T00:41:03+00:00", "2024-04-17T00:46:36+00:00", "2024-04-17T00:51:53+00:00", "2024-04-17T00:54:41+00:00", "2024-04-17T00:57:54+00:00", "2024-04-17T01:02:34+00:00", "2024-04-17T01:06:19+00:00", "2024-04-17T01:11:36+00:00", "2024-04-17T01:13:04+00:00", "2024-04-17T01:16:24+00:00", "2024-04-17T01:25:25+00:00", "2024-04-17T01:30:30+00:00", "2024-04-17T01:31:38+00:00", "2024-04-17T01:37:11+00:00", "2024-04-17T01:40:44+00:00", "2024-04-17T01:46:01+00:00", "2024-04-17T01:48:37+00:00", "2024-04-17T01:51:42+00:00", "2024-04-17T01:55:55+00:00", "2024-04-17T01:59:47+00:00", "2024-04-17T02:02:24+00:00", "2024-04-17T02:05:50+00:00", "2024-04-17T02:08:50+00:00", "2024-04-17T02:12:59+00:00", "2024-04-17T02:17:36+00:00", "2024-04-17T02:20:53+00:00", "2024-04-17T02:25:50+00:00", "2024-04-17T02:29:22+00:00", "2024-04-17T02:33:03+00:00", "2024-04-17T02:35:48+00:00", "2024-04-17T02:39:52+00:00", "2024-04-17T02:43:21+00:00", "2024-04-17T02:44:49+00:00", "2024-04-17T02:49:34+00:00", "2024-04-17T02:52:02+00:00", "2024-04-17T02:53:26+00:00", "2024-04-17T02:57:23+00:00", "2024-04-17T03:01:36+00:00", "2024-04-17T03:05:17+00:00", "2024-04-17T03:06:33+00:00", "2024-04-17T03:10:22+00:00", "2024-04-17T03:12:18+00:00", "2024-04-17T03:15:11+00:00", "2024-04-17T03:18:36+00:00", "2024-04-17T03:21:32+00:00", "2024-04-17T03:26:09+00:00", "2024-04-17T03:29:29+00:00", "2024-04-17T03:31:58+00:00", "2024-04-17T03:35:51+00:00", "2024-04-17T03:37:51+00:00", "2024-04-17T03:41:56+00:00", "2024-04-17T03:48:08+00:00", "2024-04-17T03:51:21+00:00", "2024-04-17T03:53:33+00:00", "2024-04-17T03:57:26+00:00", "2024-04-17T03:58:58+00:00", "2024-04-17T04:04:15+00:00", "2024-04-17T04:06:28+00:00", "2024-04-17T04:08:20+00:00", "2024-04-17T04:12:49+00:00", "2024-04-17T04:16:57+00:00", "2024-04-17T04:20:30+00:00", "2024-04-17T04:22:46+00:00", "2024-04-17T04:25:35+00:00", "2024-04-17T04:27:27+00:00", "2024-04-17T04:32:00+00:00", "2024-04-17T04:34:08+00:00", "2024-04-17T04:39:25+00:00", "2024-04-17T04:41:33+00:00", "2024-04-17T04:47:30+00:00", "2024-04-17T04:50:35+00:00", "2024-04-17T04:53:59+00:00", "2024-04-17T04:55:35+00:00", "2024-04-17T04:56:39+00:00", "2024-04-17T05:03:04+00:00", "2024-04-17T05:06:57+00:00", "2024-04-17T05:11:21+00:00", "2024-04-17T05:12:54+00:00", "2024-04-17T05:15:14+00:00", "2024-04-17T05:19:27+00:00", "2024-04-17T05:23:07+00:00", "2024-04-17T05:26:44+00:00", "2024-04-17T05:31:37+00:00", "2024-04-17T05:38:18+00:00", "2024-04-17T05:47:39+00:00", "2024-04-17T05:52:32+00:00", "2024-04-17T05:54:40+00:00", "2024-04-17T06:00:13+00:00", "2024-04-17T06:02:14+00:00", "2024-04-17T06:08:27+00:00", "2024-04-17T06:13:20+00:00", "2024-04-17T06:21:09+00:00", "2024-04-17T06:28:46+00:00", "2024-04-17T06:33:55+00:00", "2024-04-17T06:40:12+00:00", "2024-04-17T06:45:09+00:00", "2024-04-17T06:49:14+00:00", "2024-04-17T06:53:31+00:00", "2024-04-17T06:59:08+00:00", "2024-04-17T07:02:01+00:00", "2024-04-17T07:07:42+00:00", "2024-04-17T07:13:03+00:00", "2024-04-17T07:19:08+00:00", "2024-04-17T07:23:56+00:00", "2024-04-17T07:30:30+00:00", "2024-04-17T07:42:04+00:00", "2024-04-17T07:46:13+00:00", "2024-04-17T07:54:24+00:00", "2024-04-17T08:02:34+00:00", "2024-04-17T08:07:39+00:00", "2024-04-17T08:10:23+00:00", "2024-04-17T08:14:36+00:00", "2024-04-17T08:18:33+00:00", "2024-04-17T08:20:17+00:00", "2024-04-17T08:25:25+00:00", "2024-04-17T08:30:31+00:00", "2024-04-17T08:37:43+00:00", "2024-04-17T08:44:32+00:00", "2024-04-17T08:49:37+00:00", "2024-04-17T08:52:09+00:00", "2024-04-17T08:59:59+00:00", "2024-04-17T09:09:13+00:00", "2024-04-17T09:13:10+00:00", "2024-04-17T09:19:43+00:00", "2024-04-17T09:25:27+00:00", "2024-04-17T09:28:20+00:00", "2024-04-17T09:36:26+00:00", "2024-04-17T09:50:52+00:00", "2024-04-17T09:57:02+00:00", "2024-04-17T10:00:14+00:00", "2024-04-17T10:17:01+00:00", "2024-04-17T10:24:47+00:00", "2024-04-17T10:41:10+00:00", "2024-04-17T10:58:29+00:00", "2024-04-17T11:03:30+00:00", "2024-04-17T11:05:50+00:00", "2024-04-17T11:12:52+00:00", "2024-04-17T11:17:29+00:00", "2024-04-17T11:23:06+00:00", "2024-04-17T11:29:35+00:00", "2024-04-17T11:33:21+00:00", "2024-04-17T11:53:45+00:00", "2024-04-17T12:16:35+00:00", "2024-04-17T12:28:25+00:00", "2024-04-17T12:34:26+00:00", "2024-04-17T12:38:15+00:00", "2024-04-17T12:42:16+00:00", "2024-04-17T12:47:08+00:00", "2024-04-17T12:53:05+00:00", "2024-04-17T12:56:54+00:00", "2024-04-17T13:01:58+00:00", "2024-04-17T13:10:32+00:00", "2024-04-17T13:13:24+00:00", "2024-04-17T13:20:41+00:00", "2024-04-17T13:24:58+00:00", "2024-04-17T13:29:30+00:00", "2024-04-17T13:32:23+00:00", "2024-04-17T13:35:35+00:00", "2024-04-17T13:46:21+00:00", "2024-04-17T13:53:38+00:00", "2024-04-17T14:00:27+00:00", "2024-04-17T14:05:00+00:00", "2024-04-17T14:08:09+00:00", "2024-04-17T14:27:08+00:00", "2024-04-17T14:28:40+00:00", "2024-04-17T14:34:13+00:00", "2024-04-17T14:40:06+00:00", "2024-04-17T14:44:55+00:00", "2024-04-17T14:47:28+00:00", "2024-04-17T14:55:37+00:00", "2024-04-17T14:58:10+00:00", "2024-04-17T15:05:55+00:00", "2024-04-17T15:20:46+00:00", "2024-04-17T15:26:55+00:00", "2024-04-17T15:36:53+00:00", "2024-04-17T15:38:33+00:00", "2024-04-17T15:45:03+00:00", "2024-04-17T15:47:35+00:00", "2024-04-17T15:52:52+00:00", "2024-04-17T15:57:04+00:00", "2024-04-17T16:03:01+00:00", "2024-04-17T16:05:30+00:00", "2024-04-17T16:16:19+00:00", "2024-04-17T16:22:20+00:00", "2024-04-17T16:26:09+00:00", "2024-04-17T16:31:18+00:00", "2024-04-17T16:35:54+00:00", "2024-04-17T16:44:52+00:00", "2024-04-17T16:52:53+00:00", "2024-04-17T16:59:02+00:00", "2024-04-17T17:04:06+00:00", "2024-04-17T17:10:27+00:00", "2024-04-17T17:16:44+00:00", "2024-04-17T17:26:26+00:00", "2024-04-17T17:32:15+00:00", "2024-04-17T17:34:39+00:00", "2024-04-17T17:43:44+00:00", "2024-04-17T17:49:53+00:00", "2024-04-17T18:02:08+00:00", "2024-04-17T18:04:00+00:00", "2024-04-17T18:15:06+00:00", "2024-04-17T18:19:39+00:00", "2024-04-17T18:28:25+00:00", "2024-04-17T18:31:37+00:00", "2024-04-17T18:37:22+00:00", "2024-04-17T18:42:27+00:00", "2024-04-17T18:47:12+00:00", "2024-04-17T19:05:59+00:00", "2024-04-17T19:09:36+00:00", "2024-04-17T19:15:53+00:00", "2024-04-17T19:22:02+00:00", "2024-04-17T19:26:23+00:00", "2024-04-17T19:29:23+00:00", "2024-04-17T19:40:46+00:00", "2024-04-17T19:45:34+00:00", "2024-04-17T19:52:08+00:00", "2024-04-17T19:59:01+00:00", "2024-04-17T20:00:56+00:00", "2024-04-17T20:06:29+00:00", "2024-04-17T20:14:00+00:00", "2024-04-17T20:18:05+00:00", "2024-04-17T20:22:58+00:00", "2024-04-17T20:27:31+00:00", "2024-04-17T20:40:09+00:00", "2024-04-17T20:46:01+00:00", "2024-04-17T20:50:54+00:00", "2024-04-17T21:01:32+00:00", "2024-04-17T21:02:48+00:00", "2024-04-17T21:09:09+00:00", "2024-04-17T21:15:46+00:00", "2024-04-17T21:18:03+00:00", "2024-04-17T21:22:36+00:00", "2024-04-17T21:31:13+00:00", "2024-04-17T21:35:10+00:00", "2024-04-17T21:41:03+00:00", "2024-04-17T21:47:32+00:00", "2024-04-17T21:54:01+00:00", "2024-04-17T22:00:35+00:00", "2024-04-17T22:06:20+00:00", "2024-04-17T22:13:26+00:00", "2024-04-17T22:18:02+00:00", "2024-04-17T22:22:19+00:00", "2024-04-17T22:25:19+00:00", "2024-04-17T22:29:36+00:00", "2024-04-17T22:33:53+00:00", "2024-04-17T22:41:46+00:00", "2024-04-17T22:49:36+00:00", "2024-04-17T22:52:12+00:00", "2024-04-17T22:56:17+00:00", "2024-04-17T23:01:03+00:00", "2024-04-17T23:05:16+00:00", "2024-04-17T23:13:20+00:00", "2024-04-17T23:25:54+00:00", "2024-04-17T23:33:44+00:00", "2024-04-17T23:40:09+00:00", "2024-04-17T23:59:47+00:00", "2024-04-18T00:05:40+00:00", "2024-04-18T00:13:13+00:00", "2024-04-18T00:15:54+00:00", "2024-04-18T00:20:06+00:00", "2024-04-18T00:21:23+00:00", "2024-04-18T00:26:59+00:00", "2024-04-18T00:31:08+00:00", "2024-04-18T00:34:57+00:00", "2024-04-18T00:39:29+00:00", "2024-04-18T00:43:50+00:00", "2024-04-18T00:48:19+00:00", "2024-04-18T00:50:40+00:00", "2024-04-18T00:51:20+00:00", "2024-04-18T00:54:08+00:00", "2024-04-18T01:00:33+00:00", "2024-04-18T01:03:26+00:00", "2024-04-18T01:06:54+00:00", "2024-04-18T01:10:35+00:00", "2024-04-18T01:12:12+00:00", "2024-04-18T01:13:52+00:00", "2024-04-18T01:19:41+00:00", "2024-04-18T01:21:57+00:00", "2024-04-18T01:23:26+00:00", "2024-04-18T01:25:02+00:00", "2024-04-18T01:28:11+00:00", "2024-04-18T01:30:35+00:00", "2024-04-18T01:33:43+00:00", "2024-04-18T01:39:00+00:00", "2024-04-18T01:40:57+00:00", "2024-04-18T02:31:18+00:00", "2024-04-18T02:36:51+00:00", "2024-04-18T02:39:04+00:00", "2024-04-18T02:41:36+00:00", "2024-04-18T20:06:51+00:00", "2024-05-03T00:08:47+00:00", "2024-05-03T00:11:11+00:00", "2024-05-03T00:15:04+00:00", "2024-05-03T00:17:20+00:00", "2024-05-03T00:19:24+00:00", "2024-05-03T00:23:28+00:00", "2024-05-03T00:25:40+00:00", "2024-05-03T00:26:28+00:00", "2024-05-03T00:33:36+00:00", "2024-05-03T00:37:45+00:00", "2024-05-03T00:42:01+00:00", "2024-05-03T00:46:25+00:00", "2024-05-03T00:47:05+00:00", "2024-05-03T00:52:09+00:00", "2024-05-03T00:56:46+00:00", "2024-05-03T01:00:46+00:00", "2024-05-03T01:04:38+00:00", "2024-05-03T01:05:46+00:00", "2024-05-03T01:09:34+00:00", "2024-05-03T01:12:30+00:00", "2024-05-03T01:15:38+00:00", "2024-05-03T01:16:47+00:00", "2024-05-03T01:22:19+00:00", "2024-05-03T01:28:55+00:00", "2024-05-03T01:30:59+00:00", "2024-05-03T01:32:35+00:00", "2024-05-03T01:35:43+00:00", "2024-05-05T13:13:32+00:00", "2024-05-05T13:19:13+00:00", "2024-05-05T13:22:05+00:00", "2024-05-05T13:25:17+00:00", "2024-05-05T20:37:44+00:00", "2024-05-06T19:39:50+00:00", "2024-05-07T04:50:54+00:00", "2024-05-07T04:54:03+00:00", "2024-05-07T04:58:23+00:00", "2024-05-07T05:00:31+00:00", "2024-05-07T05:02:43+00:00", "2024-05-07T05:07:11+00:00", "2024-05-07T05:08:39+00:00", "2024-05-07T05:10:35+00:00", "2024-05-07T05:50:45+00:00", "2024-05-07T12:14:30+00:00", "2024-05-08T00:59:57+00:00", "2024-05-08T01:02:33+00:00", "2024-05-08T01:10:41+00:00", "2024-05-08T01:16:22+00:00", "2024-05-08T01:20:34+00:00", "2024-05-08T22:10:45+00:00", "2024-05-11T01:23:24+00:00", "2024-05-11T01:31:36+00:00", "2024-05-11T01:36:45+00:00", "2024-05-11T01:42:29+00:00", "2024-05-11T01:46:57+00:00", "2024-05-11T01:48:49+00:00", "2024-05-11T01:52:57+00:00", "2024-05-11T01:57:18+00:00", "2024-05-11T02:00:10+00:00", "2024-05-11T02:08:06+00:00", "2024-05-11T02:14:10+00:00", "2024-05-11T02:20:43+00:00", "2024-05-11T02:26:51+00:00", "2024-05-11T02:28:03+00:00", "2024-05-11T02:32:19+00:00", "2024-05-11T02:33:52+00:00", "2024-05-11T02:37:24+00:00", "2024-05-11T02:39:20+00:00", "2024-05-11T02:44:41+00:00", "2024-05-11T02:47:34+00:00", "2024-05-11T02:49:46+00:00", "2024-05-11T02:52:14+00:00", "2024-05-11T02:54:07+00:00", "2024-05-11T02:55:51+00:00", "2024-05-11T16:58:52+00:00"], "elevations": [null, null, null, null, null, null, null, null, null, null, null, null, null, null, null, null, null, null, null, null, null, null, null, null, null, null, null, null, null, null, null, null, null, null, null, null, null, null, null, null, null, null, null, null, null, null, null, null, null, null, null, null, null, null, null, null, null, null, null, null, null, null, null, null, null, null, null, null, null, null, null, null, null, null, null, null, null, null, null, null, null, null, null, null, null, null, null, null, null, null, null, null, null, null, null, null, null, null, null, null, null, null, null, null, null, null, null, null, null, null, null, null, null, null, null, null, null, null, null, null, null, null, null, null, null, null, null, null, null, null, null, null, null, null, null, null, null, null, null, null, null, null, null, null, null, null, null, null, null, null, null, null, null, null, null, null, null, null, null, null, null, null, null, null, null, null, null, null, null, null, null, null, null, null, null, null, null, null, null, null, null, null, null, null, null, null, null, null, null, null, null, null, null, null, null, null, null, null, null, null, null, null, null, null, null, null, null, null, null, null, null, null, null, null, null, null, null, null, null, null, null, null, null, null, null, null, null, null, null, null, null, null, null, null, null, null, null, null, null, null, null, null, null, null, null, null, null, null, null, null, null, null, null, null, null, null, null, null, null, null, null, null, null, null, null, null, null, null, null, null, null, null, null, null, null, null, null, null, null, null, null, null, null, null, null, null, null, null, null, null, null, null, null, null, null, null, null, null, null, null, null, null, null, null, null, null, null, null, null, null, null, null, null, null, null, null, null, null, null, null, null, null, null, null, null, null, null, null, null, null, null, null, null, null, null, null, null, null, null, null, null, null, null, null, null, null, null, null, null, null, null, null, null, null, null, null, null, null, null, null, null, null, null, null, null, null, null, null, null, null, null, null, null, null, null, null, null, null, null, null, null, null, null, null, null, null, null, null, null, null, null, null, null, null, null, null, null, null, null, null, null, null, null, null, null, null, null, null, null, null, null, null, null, null, null, null, null, null, null, null, null, null, null, null, null, null, null, null, null, null, null, null, null, null, null, null, null, null, null, null, null, null, null, null, null, null, null, null, null, null, null, null, null, null, null, null, null, null, null, null, null, null, null, null, null, null, null, null, null, null, null, null, null, null, null, null, null, null, null, null, null, null, null, null, null, null, null, null, null, null, null, null, null, null, null, null, null, null, null, null, null, null, null, null, null, null, null, null, null, null, null, null, null, null, null, null, null, null, null, null, null, null, null, null, null, null, null, null, null, null, null, null, null, null, null, null, null, null, null, null, null, null, null, null, null, null, null, null, null, null, null, null, null, null, null, null, null, null, null, null, null, null, null, null, null, null, null, null, null, null, null, null, null, null, null, null, null, null, null, null, null, null, null, null, null, null, null, null, null, null, null, null, null, null, null, null, null, null, null, null, null, null, null, null, null, null, null, null, null, null, null, null, null, null, null, null, null, null, null, null, null, null, null, null, null, null, null, null, null, null, null, null, null, null, null, null, null, null, null, null, null, null, null, null, null, null, null, null, null, null, null, null, null, null, null, null, null, null, null, null, null, null, null, null, null, null, null, null, null, null, null, null, null, null, null, null, null, null, null, null, null, null, null, null, null, null, null, null, null, null, null, null, null, null, null, null, null, null, null, null, null, null, null, null, null, null, null, null, null, null, null, null, null, null, null, null, null, null, null, null, null, null, null, null, null, null, null, null, null, null, null, null, null, null, null, null, null, null, null, null, null, null, null, null, null, null, null, null, null, null, null, null, null, null, null, null, null, null, null, null, null, null, null, null, null, null, null, null, null, null, null, null, null, null, null, null, null, null, null, null, null, null, null, null, null, null, null, null, null, null, null, null, null, null, null, null, null, null, null, null, null, null, null, null, null, null, null, null, null, null, null, null, null, null, null, null, null, null, null, null, null, null, null, null, null, null, null, null, null, null, null, null, null, null, null, null, null, null, null, null, null, null, null, null, null, null, null, null, null, null, null, null, null, null, null, null, null, null, null, null, null, null, null, null, null, null, null, null, null, null, null, null, null, null, null, null, null, null, null, null, null, null, null, null, null, null, null, null, null, null, null, null, null, null, null, null, null, null, null, null, null, null, null, null, null, null, null, null, null, null, null, null, null, null, null, null, null, null, null, null, null, null, null, null, null, null, null, null, null, null, null, null, null, null, null, null, null, null, null, null, null, null, null, null, null, null, null, null, null, null, null, null, null, null, null, null, null, null, null, null, null, null, null, null, null, null, null, null, null, null, null, null, null, null, null, null, null, null, null, null, null, null, null, null, null, null, null, null, null, null, null, null, null, null, null, null, null, null, null, null, null, null, null, null, null, null, null, null, null, null, null, null, null, null, null, null, null, null, null, null, null, null, null, null, null, null, null, null, null, null, null, null, null, null, null, null, null, null, null, null, null, null, null, null, null, null, null, null, null, null, null, null, null, null, null, null, null, null, null, null, null, null, null, null, null, null, null, null, null, null, null, null, null, null, null, null, null, null, null, null, null, null, null, null, null, null, null, null, null, null, null, null, null, null, null, null, null, null, null, null, null, null, null, null, null, null, null, null, null, null, null, null, null, null, null, null, null, null, null, null, null, null, null, null, null, null, null, null, null, null, null, null, null, null, null, null, null, null, null, null, null, null, null, null, null, null, null, null, null, null, null, null, null, null, null, null, null, null, null, null, null, null, null, null, null, null, null, null, null, null, null, null, null, null, null, null, null, null, null, null, null, null, null, null, null, null, null, null, null, null, null, null, null, null, null, null, null, null, null, null, null, null, null, null, null, null, null, null, null, null, null, null, null, null, null, null, null, null, null, null, null, null, null, null, null, null, null, null, null, null, null, null, null, null, null, null, null, null, null, null, null, null, null, null, null, null, null, null, null, null, null, null, null, null, null, null, null, null, null, null, null, null, null, null, null, null, null, null, null, null, null, null, null, null, null, null, null, null, null, null, null, null, null, null, null, null, null, null, null, null, null, null, null, null, null, null, null, null, null, null, null, null, null, null, null, null, null, null, null, null, null, null, null, null, null, null, null, null, null, null, null, null, null, null, null, null, null, null, null, null, null, null, null, null, null, null, null, null, null, null, null, null, null, null, null, null, null, null, null, null, null, null, null, null, null, null, null, null, null, null, null, null, null, null, null, null, null, null, null, null, null, null, null, null, null, null, null, null, null, null, null, null, null, null, null, null, null, null, null, null, null, null, null, null, null, null, null, null, null, null, null, null, null, null, null, null, null, null, null, null, null, null, null, null, null, null, null, null, null, null, null, null, null, null, null, null, null, null, null, null, null, null, null, null, null, null, null, null, null, null, null, null, null, null, null, null, null, null, null, null, null, null, null, null, null, null, null, null, null, null, null, null, null, null, null, null, null, null, null, null, null, null, null, null, null, null, null, null, null, null, null, null, null, null, null, null, null, null, null, null, null, null, null, null, null, null, null, null, null, null, null, null, null, null, null, null, null, null, null, null, null, null, null, null, null, null, null, null, null, null, null, null, null, null, null, null, null, null, null, null, null, null, null, null, null, null, null, null, null, null, null, null, null, null, null, null, null, null, null, null, null, null, null, null, null, null, null, null, null, null, null, null, null, null, null, null, null, null, null, null, null, null, null, null, null, null, null, null, null, null, null, null, null]}