{"type": "Feature", "properties": {"leg_id": 18, "name": "20201221 - Vancouver to Sydney", "stated_nm": 59.1, "computed_nm": 59.1}, "geometry": {"type": "LineString", "coordinates": [[-123.114388, 49.272101], [-123.116495, 49.271508], [-123.123234, 49.270312], [-123.126569, 49.269977], [-123.130047, 49.270571], [-123.136632, 49.275497], [-123.137974, 49.276214], [-123.140618, 49.2788], [-123.145524, 49.280893], [-123.158385, 49.286225], [-123.166928, 49.288225], [-123.176386, 49.290639], [-123.185195, 49.29403], [-123.192308, 49.29498], [-123.209195, 49.295117], [-123.215662, 49.295469], [-123.225617, 49.296072], [-123.230972, 49.296225], [-123.289213, 49.276247], [-123.290008, 49.273862], [-123.291292, 49.269243], [-123.292302, 49.265426], [-123.292563, 49.262728], [-123.292791, 49.258759], [-123.293153, 49.255562], [-123.293502, 49.252713], [-123.293722, 49.249612], [-123.293977, 49.244621], [-123.294638, 49.237406], [-123.294822, 49.234256], [-123.295063, 49.230757], [-123.295104, 49.228127], [-123.295205, 49.223903], [-123.295544, 49.219992], [-123.29628, 49.216482], [-123.297668, 49.211848], [-123.298731, 49.208899], [-123.299914, 49.205244], [-123.300772, 49.202476], [-123.301686, 49.199059], [-123.303571, 49.192391], [-123.304553, 49.189217], [-123.305847, 49.185557], [-123.306817, 49.182649], [-123.308249, 49.179157], [-123.30939, 49.176218], [-123.310473, 49.172485], [-123.312229, 49.168111], [-123.312969, 49.165702], [-123.314042, 49.162864], [-123.315002, 49.16028], [-123.315899, 49.156892], [-123.31736, 49.153281], [-123.318233, 49.151128], [-123.319257, 49.148128], [-123.320259, 49.145162], [-123.321141, 49.142503], [-123.322074, 49.139931], [-123.3228, 49.137242], [-123.323787, 49.134727], [-123.325052, 49.131569], [-123.325817, 49.12943], [-123.326781, 49.126874], [-123.32771, 49.124515], [-123.329032, 49.121709], [-123.32992, 49.119397], [-123.330843, 49.117086], [-123.332519, 49.11336], [-123.334693, 49.109218], [-123.336536, 49.10496], [-123.337628, 49.102261], [-123.340123, 49.095949], [-123.342169, 49.091966], [-123.343534, 49.088946], [-123.34502, 49.086146], [-123.346502, 49.083443], [-123.347753, 49.080963], [-123.348916, 49.078716], [-123.350827, 49.075401], [-123.351927, 49.072023], [-123.352489, 49.069859], [-123.353003, 49.067738], [-123.352931, 49.065207], [-123.351284, 49.062708], [-123.349373, 49.059946], [-123.349967, 49.056407], [-123.350433, 49.053308], [-123.350797, 49.051089], [-123.351295, 49.048658], [-123.350445, 49.046929], [-123.350011, 49.044554], [-123.350896, 49.041947], [-123.351039, 49.039628], [-123.348329, 49.037418], [-123.34886, 49.035234], [-123.348737, 49.032753], [-123.348199, 49.030221], [-123.348398, 49.02661], [-123.34692, 49.023487], [-123.345032, 49.019937], [-123.344272, 49.017172], [-123.343736, 49.014441], [-123.343221, 49.01217], [-123.341782, 49.008738], [-123.341199, 49.006178], [-123.34036, 49.003669], [-123.340059, 49.000809], [-123.339782, 48.997528], [-123.339299, 48.994626], [-123.338146, 48.991304], [-123.336134, 48.987789], [-123.334366, 48.984915], [-123.332428, 48.981996], [-123.331334, 48.979299], [-123.331129, 48.976669], [-123.330393, 48.970718], [-123.329949, 48.968427], [-123.329442, 48.965986], [-123.329031, 48.963789], [-123.328551, 48.961752], [-123.327587, 48.958546], [-123.327021, 48.956485], [-123.326046, 48.953177], [-123.325599, 48.951152], [-123.325219, 48.949121], [-123.32456, 48.946308], [-123.324076, 48.943863], [-123.323398, 48.941425], [-123.322638, 48.938444], [-123.32204, 48.936571], [-123.32103, 48.934838], [-123.319579, 48.932259], [-123.318163, 48.929573], [-123.316749, 48.927187], [-123.315746, 48.925457], [-123.314553, 48.923332], [-123.312689, 48.920254], [-123.311421, 48.917828], [-123.309344, 48.914553], [-123.307746, 48.911151], [-123.306706, 48.908569], [-123.305778, 48.906659], [-123.304373, 48.904422], [-123.3032, 48.902247], [-123.301792, 48.899661], [-123.300761, 48.897694], [-123.298903, 48.894403], [-123.296856, 48.891032], [-123.296487, 48.887457], [-123.296873, 48.884412], [-123.297441, 48.881021], [-123.298139, 48.877542], [-123.300321, 48.874587], [-123.305066, 48.87018], [-123.309331, 48.865303], [-123.310434, 48.862179], [-123.313097, 48.8599], [-123.317938, 48.858574], [-123.326121, 48.858468], [-123.331964, 48.859347], [-123.340758, 48.860425], [-123.346306, 48.860054], [-123.351802, 48.858128], [-123.355238, 48.855938], [-123.357116, 48.854327], [-123.358431, 48.851994], [-123.357458, 48.848971], [-123.356256, 48.845871], [-123.354413, 48.841498], [-123.353404, 48.838104], [-123.351514, 48.834849], [-123.34856, 48.829327], [-123.348191, 48.826001], [-123.348006, 48.822773], [-123.346707, 48.818113], [-123.346747, 48.81248], [-123.346418, 48.8049], [-123.346447, 48.802241], [-123.345998, 48.797759], [-123.345837, 48.794807], [-123.347979, 48.790528], [-123.349423, 48.787887], [-123.350291, 48.785522], [-123.351039, 48.782916], [-123.351511, 48.780869], [-123.352305, 48.777399], [-123.353035, 48.773536], [-123.354788, 48.769212], [-123.355263, 48.762621], [-123.354748, 48.757977], [-123.352781, 48.754291], [-123.350559, 48.749315], [-123.34807, 48.741228], [-123.345065, 48.72783], [-123.344745, 48.724725], [-123.34452, 48.708493], [-123.345057, 48.705202], [-123.345565, 48.697093], [-123.347688, 48.687937], [-123.347775, 48.683831], [-123.347923, 48.675447], [-123.348824, 48.672733], [-123.352334, 48.667913], [-123.355722, 48.664937], [-123.36224, 48.66174], [-123.368579, 48.659113], [-123.373009, 48.656922], [-123.37694, 48.654682], [-123.383815, 48.651798], [-123.387776, 48.651224], [-123.391415, 48.651807], [-123.392794, 48.654158], [-123.394634, 48.654049], [-123.394577, 48.654], [-123.394089, 48.653915], [-123.390543, 48.652961], [-123.388724, 48.657822], [-123.386604, 48.66318], [-123.384556, 48.667002], [-123.383683, 48.669466], [-123.382523, 48.672571], [-123.379106, 48.674734], [-123.37186, 48.676785], [-123.364613, 48.679199], [-123.360916, 48.682182], [-123.357782, 48.684569], [-123.356001, 48.687318], [-123.354475, 48.69073], [-123.353422, 48.696287], [-123.353047, 48.698422], [-123.351988, 48.704619], [-123.350592, 48.712617], [-123.349339, 48.718602], [-123.34799, 48.725328], [-123.347379, 48.730558], [-123.346691, 48.737824], [-123.346083, 48.741123], [-123.346208, 48.743454], [-123.347502, 48.746093], [-123.348946, 48.749893], [-123.348618, 48.752468], [-123.346822, 48.758776], [-123.34459, 48.763196], [-123.340904, 48.767048], [-123.338492, 48.769396], [-123.334067, 48.773166], [-123.33074, 48.77629], [-123.32641, 48.783307], [-123.323878, 48.787844], [-123.321275, 48.792499], [-123.317631, 48.795718], [-123.314777, 48.796992], [-123.311101, 48.797337], [-123.307054, 48.796234]]}, "times": ["2020-12-21T18:13:58+00:00", "2020-12-21T18:15:38+00:00", "2020-12-21T18:19:30+00:00", "2020-12-21T18:20:46+00:00", "2020-12-21T18:22:39+00:00", "2020-12-21T18:27:47+00:00", "2020-12-21T18:32:52+00:00", "2020-12-21T18:50:05+00:00", "2020-12-21T18:52:46+00:00", "2020-12-21T18:58:22+00:00", "2020-12-21T19:02:03+00:00", "2020-12-21T19:06:39+00:00", "2020-12-21T19:10:03+00:00", "2020-12-21T19:13:00+00:00", "2020-12-21T19:20:09+00:00", "2020-12-21T19:24:33+00:00", "2020-12-21T19:27:45+00:00", "2020-12-21T19:30:45+00:00", "2020-12-21T20:05:27+00:00", "2020-12-21T20:06:51+00:00", "2020-12-21T20:10:11+00:00", "2020-12-21T20:11:07+00:00", "2020-12-21T20:13:23+00:00", "2020-12-21T20:15:51+00:00", "2020-12-21T20:16:47+00:00", "2020-12-21T20:18:24+00:00", "2020-12-21T20:20:28+00:00", "2020-12-21T20:23:48+00:00", "2020-12-21T20:26:24+00:00", "2020-12-21T20:28:33+00:00", "2020-12-21T20:29:57+00:00", "2020-12-21T20:31:09+00:00", "2020-12-21T20:34:25+00:00", "2020-12-21T20:35:37+00:00", "2020-12-21T20:38:42+00:00", "2020-12-21T20:40:30+00:00", "2020-12-21T20:42:06+00:00", "2020-12-21T20:43:30+00:00", "2020-12-21T20:45:26+00:00", "2020-12-21T20:46:22+00:00", "2020-12-21T20:51:19+00:00", "2020-12-21T20:52:11+00:00", "2020-12-21T20:53:59+00:00", "2020-12-21T20:55:07+00:00", "2020-12-21T20:57:15+00:00", "2020-12-21T20:59:23+00:00", "2020-12-21T21:00:59+00:00", "2020-12-21T21:02:52+00:00", "2020-12-21T21:03:52+00:00", "2020-12-21T21:05:32+00:00", "2020-12-21T21:06:28+00:00", "2020-12-21T21:08:16+00:00", "2020-12-21T21:09:52+00:00", "2020-12-21T21:10:40+00:00", "2020-12-21T21:12:37+00:00", "2020-12-21T21:13:45+00:00", "2020-12-21T21:15:13+00:00", "2020-12-21T21:16:21+00:00", "2020-12-21T21:17:53+00:00", "2020-12-21T21:19:09+00:00", "2020-12-21T21:20:33+00:00", "2020-12-21T21:21:45+00:00", "2020-12-21T21:22:57+00:00", "2020-12-21T21:24:42+00:00", "2020-12-21T21:25:34+00:00", "2020-12-21T21:26:50+00:00", "2020-12-21T21:28:14+00:00", "2020-12-21T21:30:02+00:00", "2020-12-21T21:32:50+00:00", "2020-12-21T21:34:14+00:00", "2020-12-21T21:35:42+00:00", "2020-12-21T21:39:27+00:00", "2020-12-21T21:40:19+00:00", "2020-12-21T21:42:07+00:00", "2020-12-21T21:43:03+00:00", "2020-12-21T21:44:03+00:00", "2020-12-21T21:45:23+00:00", "2020-12-21T21:46:39+00:00", "2020-12-21T21:48:03+00:00", "2020-12-21T21:49:59+00:00", "2020-12-21T21:50:31+00:00", "2020-12-21T21:51:39+00:00", "2020-12-21T21:52:31+00:00", "2020-12-21T21:54:00+00:00", "2020-12-21T21:55:33+00:00", "2020-12-21T21:56:57+00:00", "2020-12-21T21:58:29+00:00", "2020-12-21T21:59:41+00:00", "2020-12-21T22:00:57+00:00", "2020-12-21T22:01:49+00:00", "2020-12-21T22:03:01+00:00", "2020-12-21T22:04:13+00:00", "2020-12-21T22:05:25+00:00", "2020-12-21T22:07:09+00:00", "2020-12-21T22:08:18+00:00", "2020-12-21T22:09:22+00:00", "2020-12-21T22:10:38+00:00", "2020-12-21T22:12:26+00:00", "2020-12-21T22:13:42+00:00", "2020-12-21T22:16:22+00:00", "2020-12-21T22:17:18+00:00", "2020-12-21T22:18:54+00:00", "2020-12-21T22:19:59+00:00", "2020-12-21T22:21:55+00:00", "2020-12-21T22:22:31+00:00", "2020-12-21T22:23:55+00:00", "2020-12-21T22:25:19+00:00", "2020-12-21T22:26:47+00:00", "2020-12-21T22:28:11+00:00", "2020-12-21T22:29:35+00:00", "2020-12-21T22:31:44+00:00", "2020-12-21T22:33:00+00:00", "2020-12-21T22:34:40+00:00", "2020-12-21T22:35:44+00:00", "2020-12-21T22:37:44+00:00", "2020-12-21T22:40:00+00:00", "2020-12-21T22:41:08+00:00", "2020-12-21T22:42:00+00:00", "2020-12-21T22:43:05+00:00", "2020-12-21T22:43:53+00:00", "2020-12-21T22:45:25+00:00", "2020-12-21T22:46:33+00:00", "2020-12-21T22:47:49+00:00", "2020-12-21T22:49:05+00:00", "2020-12-21T22:49:45+00:00", "2020-12-21T22:51:01+00:00", "2020-12-21T22:52:13+00:00", "2020-12-21T22:53:41+00:00", "2020-12-21T22:54:45+00:00", "2020-12-21T22:55:49+00:00", "2020-12-21T22:56:38+00:00", "2020-12-21T22:57:42+00:00", "2020-12-21T22:59:02+00:00", "2020-12-21T23:00:30+00:00", "2020-12-21T23:01:22+00:00", "2020-12-21T23:02:26+00:00", "2020-12-21T23:03:46+00:00", "2020-12-21T23:04:58+00:00", "2020-12-21T23:06:42+00:00", "2020-12-21T23:08:19+00:00", "2020-12-21T23:09:35+00:00", "2020-12-21T23:10:27+00:00", "2020-12-21T23:11:35+00:00", "2020-12-21T23:12:23+00:00", "2020-12-21T23:13:43+00:00", "2020-12-21T23:14:27+00:00", "2020-12-21T23:15:52+00:00", "2020-12-21T23:18:16+00:00", "2020-12-21T23:19:32+00:00", "2020-12-21T23:21:16+00:00", "2020-12-21T23:23:00+00:00", "2020-12-21T23:24:36+00:00", "2020-12-21T23:26:24+00:00", "2020-12-21T23:30:13+00:00", "2020-12-21T23:32:33+00:00", "2020-12-21T23:33:57+00:00", "2020-12-21T23:35:17+00:00", "2020-12-21T23:37:01+00:00", "2020-12-21T23:40:38+00:00", "2020-12-21T23:42:34+00:00", "2020-12-21T23:46:14+00:00", "2020-12-21T23:47:26+00:00", "2020-12-21T23:50:30+00:00", "2020-12-21T23:51:31+00:00", "2020-12-21T23:52:43+00:00", "2020-12-21T23:53:39+00:00", "2020-12-21T23:55:55+00:00", "2020-12-21T23:57:03+00:00", "2020-12-21T23:59:40+00:00", "2020-12-22T00:00:28+00:00", "2020-12-22T00:02:52+00:00", "2020-12-22T00:05:00+00:00", "2020-12-22T00:06:16+00:00", "2020-12-22T00:08:12+00:00", "2020-12-22T00:10:20+00:00", "2020-12-22T00:12:41+00:00", "2020-12-22T00:16:45+00:00", "2020-12-22T00:17:53+00:00", "2020-12-22T00:21:14+00:00", "2020-12-22T00:22:18+00:00", "2020-12-22T00:24:54+00:00", "2020-12-22T00:26:02+00:00", "2020-12-22T00:27:06+00:00", "2020-12-22T00:28:11+00:00", "2020-12-22T00:29:19+00:00", "2020-12-22T00:31:23+00:00", "2020-12-22T00:33:11+00:00", "2020-12-22T00:36:00+00:00", "2020-12-22T00:38:48+00:00", "2020-12-22T00:41:12+00:00", "2020-12-22T00:42:57+00:00", "2020-12-22T00:47:17+00:00", "2020-12-22T00:50:33+00:00", "2020-12-22T00:57:50+00:00", "2020-12-22T01:00:38+00:00", "2020-12-22T01:08:07+00:00", "2020-12-22T01:10:47+00:00", "2020-12-22T01:14:19+00:00", "2020-12-22T01:19:32+00:00", "2020-12-22T01:23:04+00:00", "2020-12-22T01:26:53+00:00", "2020-12-22T01:28:13+00:00", "2020-12-22T01:32:49+00:00", "2020-12-22T01:34:41+00:00", "2020-12-22T01:39:02+00:00", "2020-12-22T01:42:10+00:00", "2020-12-22T01:43:50+00:00", "2020-12-22T01:47:14+00:00", "2020-12-22T01:50:31+00:00", "2020-12-22T01:51:47+00:00", "2020-12-22T01:54:07+00:00", "2020-12-22T01:56:27+00:00", "2020-12-22T01:58:56+00:00", "2021-02-17T21:18:51+00:00", "2021-02-18T18:19:02+00:00", "2021-02-18T22:00:44+00:00", "2021-02-18T22:05:00+00:00", "2021-02-18T22:10:13+00:00", "2021-02-18T22:11:41+00:00", "2021-02-18T22:13:37+00:00", "2021-02-18T22:14:54+00:00", "2021-02-18T22:17:46+00:00", "2021-02-18T22:21:50+00:00", "2021-02-18T22:27:10+00:00", "2021-02-18T22:30:07+00:00", "2021-02-18T22:32:03+00:00", "2021-02-18T22:33:59+00:00", "2021-02-18T22:37:11+00:00", "2021-02-18T22:41:24+00:00", "2021-02-18T22:43:40+00:00", "2021-02-18T22:47:57+00:00", "2021-02-18T22:55:06+00:00", "2021-02-18T23:00:27+00:00", "2021-02-18T23:04:59+00:00", "2021-02-18T23:11:44+00:00", "2021-02-18T23:16:24+00:00", "2021-02-18T23:18:45+00:00", "2021-02-18T23:19:45+00:00", "2021-02-18T23:23:01+00:00", "2021-02-18T23:26:02+00:00", "2021-02-18T23:27:42+00:00", "2021-02-18T23:33:55+00:00", "2021-02-18T23:37:11+00:00", "2021-02-18T23:41:40+00:00", "2021-02-18T23:44:56+00:00", "2021-02-18T23:49:01+00:00", "2021-02-18T23:51:50+00:00", "2021-02-18T23:58:39+00:00", "2021-02-19T00:03:19+00:00", "2021-02-19T00:06:08+00:00", "2021-02-19T00:08:24+00:00", "2021-02-19T00:09:56+00:00", "2021-02-19T00:11:28+00:00", "2021-02-19T00:13:36+00:00"], "elevations": [null, null, null, null, null, null, null, null, null, null, null, null, null, null, null, null, null, null, null, null, null, null, null, null, null, null, null, null, null, null, null, null, null, null, null, null, null, null, null, null, null, null, null, null, null, null, null, null, null, null, null, null, null, null, null, null, null, null, null, null, null, null, null, null, null, null, null, null, null, null, null, null, null, null, null, null, null, null, null, null, null, null, null, null, null, null, null, null, null, null, null, null, null, null, null, null, null, null, null, null, null, null, null, null, null, null, null, null, null, null, null, null, null, null, null, null, null, null, null, null, null, null, null, null, null, null, null, null, null, null, null, null, null, null, null, null, null, null, null, null, null, null, null, null, null, null, null, null, null, null, null, null, null, null, null, null, null, null, null, null, null, null, null, null, null, null, null, null, null, null, null, null, null, null, null, null, null, null, null, null, null, null, null, null, null, null, null, null, null, null, null, null, null, null, null, null, null, null, null, null, null, null, null, null, null, null, null, null, null, null, null, null, null, null, null, null, null, null, null, null, null, null, null, null, null, null, null, null, null, null, null, null, null, null, null, null, null, null, null, null, null, null, null, null, null, null, null, null, null, null, null, null, null, null]}