{"type": "Feature", "properties": {"leg_id": 78, "name": "20250226 - Opua to Tauranga", "stated_nm": 280.1, "computed_nm": 280.1}, "geometry": {"type": "LineString", "coordinates": [[174.124688, -35.272977], [174.117524, -35.2716], [174.113806, -35.270065], [174.111679, -35.267025], [174.110358, -35.264803], [174.108704, -35.261957], [174.106903, -35.258713], [174.105766, -35.254168], [174.106243, -35.251491], [174.107223, -35.246769], [174.109009, -35.244087], [174.111038, -35.241457], [174.113182, -35.23849], [174.114431, -35.236653], [174.116782, -35.233208], [174.11895, -35.230602], [174.122009, -35.228701], [174.125381, -35.22667], [174.127446, -35.225443], [174.131279, -35.22317], [174.134354, -35.221353], [174.137451, -35.219465], [174.140883, -35.217337], [174.14295, -35.216071], [174.146774, -35.213697], [174.14988, -35.211783], [174.152961, -35.209885], [174.156333, -35.207789], [174.158371, -35.206517], [174.162147, -35.204159], [174.165192, -35.202261], [174.168228, -35.200355], [174.171578, -35.198301], [174.173599, -35.19703], [174.177331, -35.194694], [174.180397, -35.192796], [174.183472, -35.190897], [174.186906, -35.188858], [174.189036, -35.187642], [174.192925, -35.185387], [174.196082, -35.183527], [174.199256, -35.181713], [174.202782, -35.17982], [174.20521, -35.179774], [174.209838, -35.180412], [174.213609, -35.180971], [174.217309, -35.181499], [174.22137, -35.182101], [174.223866, -35.182481], [174.228494, -35.183214], [174.232261, -35.183807], [174.236008, -35.184431], [174.240032, -35.185335], [174.242477, -35.185894], [174.246939, -35.186923], [174.25052, -35.187735], [174.25406, -35.18857], [174.257986, -35.189481], [174.260427, -35.190051], [174.264999, -35.191098], [174.268738, -35.191919], [174.272483, -35.192808], [174.276652, -35.193732], [174.279216, -35.194255], [174.283937, -35.195239], [174.287582, -35.196045], [174.291997, -35.19696], [174.295651, -35.197711], [174.299357, -35.198496], [174.302776, -35.199277], [174.302643, -35.199414], [174.296821, -35.196737], [174.293526, -35.195415], [174.289955, -35.19427], [174.287084, -35.192291], [174.287923, -35.188969], [174.290375, -35.185848], [174.293082, -35.183712], [174.295937, -35.181694], [174.298442, -35.179368], [174.300942, -35.176779], [174.303337, -35.174397], [174.306266, -35.172519], [174.30973, -35.171293], [174.313019, -35.170121], [174.316475, -35.168774], [174.320654, -35.167506], [174.324867, -35.166966], [174.328563, -35.166985], [174.331371, -35.167401], [174.335311, -35.168546], [174.338649, -35.169595], [174.342447, -35.170968], [174.344231, -35.172494], [174.34616, -35.175564], [174.34821, -35.177962], [174.350735, -35.180543], [174.352386, -35.182292], [174.355042, -35.185101], [174.357264, -35.18752], [174.359916, -35.190344], [174.361675, -35.19216], [174.364364, -35.194925], [174.366694, -35.197367], [174.369222, -35.200228], [174.370811, -35.202064], [174.372808, -35.205511], [174.372762, -35.207681], [174.373382, -35.211119], [174.373931, -35.214077], [174.374702, -35.218182], [174.375405, -35.221531], [174.376212, -35.224853], [174.377071, -35.227818], [174.377919, -35.230732], [174.379661, -35.234707], [174.381539, -35.237674], [174.383507, -35.2407], [174.385187, -35.243255], [174.386775, -35.24576], [174.388863, -35.249364], [174.390587, -35.252274], [174.392441, -35.25519], [174.394087, -35.257874], [174.39562, -35.260392], [174.39756, -35.264166], [174.399132, -35.267233], [174.400765, -35.27036], [174.402252, -35.273188], [174.403711, -35.275825], [174.405786, -35.279411], [174.407501, -35.282384], [174.409293, -35.285303], [174.411133, -35.287654], [174.412964, -35.289941], [174.415619, -35.29323], [174.417725, -35.295812], [174.419784, -35.298405], [174.421621, -35.300731], [174.423355, -35.302969], [174.425834, -35.30622], [174.428263, -35.309412], [174.430694, -35.31259], [174.432175, -35.314484], [174.434845, -35.317837], [174.436874, -35.320539], [174.438934, -35.323206], [174.441357, -35.326337], [174.442738, -35.32817], [174.445153, -35.331448], [174.447174, -35.334194], [174.44925, -35.337009], [174.451408, -35.339896], [174.452934, -35.341936], [174.455498, -35.345375], [174.457596, -35.348163], [174.459671, -35.350896], [174.46212, -35.354116], [174.463532, -35.355985], [174.465988, -35.359248], [174.468109, -35.362074], [174.470246, -35.364871], [174.472552, -35.367985], [174.473932, -35.369835], [174.476479, -35.373235], [174.478584, -35.37605], [174.480659, -35.378832], [174.482826, -35.381643], [174.484433, -35.383684], [174.487098, -35.38714], [174.489259, -35.389952], [174.491485, -35.392817], [174.493944, -35.396039], [174.495381, -35.397968], [174.497941, -35.401377], [174.5001, -35.404359], [174.502089, -35.407212], [174.504159, -35.410098], [174.505692, -35.412185], [174.508239, -35.415684], [174.510392, -35.418528], [174.512573, -35.421401], [174.514778, -35.424268], [174.516443, -35.426429], [174.519432, -35.430008], [174.521859, -35.432767], [174.524345, -35.435558], [174.526772, -35.438322], [174.528622, -35.440396], [174.53183, -35.443851], [174.534423, -35.446585], [174.537072, -35.449336], [174.539757, -35.452068], [174.541816, -35.454142], [174.545212, -35.457518], [174.547897, -35.460228], [174.550453, -35.462975], [174.552964, -35.465683], [174.554772, -35.467744], [174.557884, -35.471119], [174.560218, -35.473715], [174.562577, -35.476332], [174.565002, -35.479061], [174.566767, -35.481032], [174.569671, -35.484386], [174.572005, -35.487144], [174.574295, -35.489792], [174.57692, -35.492808], [174.578466, -35.494629], [174.581209, -35.497814], [174.583489, -35.500536], [174.585854, -35.503229], [174.588572, -35.506293], [174.590077, -35.508015], [174.592584, -35.510931], [174.594834, -35.513577], [174.597022, -35.516101], [174.599658, -35.51916], [174.60114, -35.520921], [174.603736, -35.523996], [174.606065, -35.526754], [174.608407, -35.529387], [174.610764, -35.532097], [174.612497, -35.534146], [174.615349, -35.537554], [174.617638, -35.54031], [174.619765, -35.542963], [174.622008, -35.545701], [174.62375, -35.547818], [174.626708, -35.551393], [174.628891, -35.554114], [174.631134, -35.556913], [174.633447, -35.559758], [174.635118, -35.56185], [174.637918, -35.565345], [174.6397, -35.568801], [174.640809, -35.572528], [174.64159, -35.575164], [174.64254, -35.578262], [174.643525, -35.581521], [174.644508, -35.584801], [174.645252, -35.587294], [174.64618, -35.590405], [174.647161, -35.593933], [174.648082, -35.597379], [174.648587, -35.599545], [174.649338, -35.602636], [174.650065, -35.605568], [174.650816, -35.608341], [174.651203, -35.609899], [174.652013, -35.612917], [174.652903, -35.616012], [174.653559, -35.618459], [174.65456, -35.621176], [174.656074, -35.624478], [174.657714, -35.62719], [174.65959, -35.630391], [174.660726, -35.632231], [174.66272, -35.635467], [174.664368, -35.638238], [174.666038, -35.64098], [174.668021, -35.644257], [174.669124, -35.646099], [174.67105, -35.649326], [174.672877, -35.652703], [174.674599, -35.65602], [174.675929, -35.658513], [174.677124, -35.660703], [174.678634, -35.663798], [174.680318, -35.667064], [174.682037, -35.670558], [174.683128, -35.672651], [174.68496, -35.676068], [174.686473, -35.679223], [174.68808, -35.682448], [174.689374, -35.684915], [174.690527, -35.687024], [174.692262, -35.690302], [174.693825, -35.693178], [174.695532, -35.696624], [174.696706, -35.699004], [174.698379, -35.702176], [174.700142, -35.705516], [174.701955, -35.708899], [174.70366, -35.712086], [174.704901, -35.714308], [174.706642, -35.717541], [174.708445, -35.720746], [174.710305, -35.723985], [174.711462, -35.725966], [174.713272, -35.729171], [174.714956, -35.732307], [174.716545, -35.735338], [174.717991, -35.737816], [174.719269, -35.739988], [174.7211, -35.74324], [174.722952, -35.74646], [174.7249, -35.749716], [174.726036, -35.751668], [174.728028, -35.754892], [174.730143, -35.758184], [174.732186, -35.761359], [174.73367, -35.763728], [174.735102, -35.765911], [174.737236, -35.769205], [174.738945, -35.771884], [174.740707, -35.77458], [174.742287, -35.777057], [174.743627, -35.779188], [174.745681, -35.78252], [174.747716, -35.785844], [174.749916, -35.789163], [174.75121, -35.791127], [174.753296, -35.79421], [174.755346, -35.79736], [174.757386, -35.800529], [174.759001, -35.802989], [174.760147, -35.804936], [174.761878, -35.807972], [174.763865, -35.811231], [174.765991, -35.814568], [174.767295, -35.816625], [174.769509, -35.820025], [174.771232, -35.8227], [174.77333, -35.825904], [174.775358, -35.829032], [174.776861, -35.831202], [174.779205, -35.834542], [174.781113, -35.837273], [174.782998, -35.840031], [174.784829, -35.842709], [174.786443, -35.844983], [174.788773, -35.848309], [174.790665, -35.851019], [174.792775, -35.854131], [174.794285, -35.856335], [174.796285, -35.859236], [174.798325, -35.862179], [174.8004, -35.865174], [174.802535, -35.868169], [174.803894, -35.870155], [174.806076, -35.873396], [174.808157, -35.876456], [174.810462, -35.879744], [174.811753, -35.881568], [174.813959, -35.884604], [174.81627, -35.88775], [174.818429, -35.890917], [174.819952, -35.893076], [174.822205, -35.896398], [174.824356, -35.899541], [174.826485, -35.902622], [174.827978, -35.904854], [174.829564, -35.907044], [174.831856, -35.910278], [174.833658, -35.913532], [174.835472, -35.917244], [174.836488, -35.919312], [174.839295, -35.922587], [174.841424, -35.925304], [174.843559, -35.927989], [174.84611, -35.931141], [174.847551, -35.93293], [174.849999, -35.936005], [174.852058, -35.938585], [174.854195, -35.941182], [174.856515, -35.944488], [174.857758, -35.946343], [174.859841, -35.949621], [174.861481, -35.952461], [174.86296, -35.955365], [174.864495, -35.958376], [174.865703, -35.96072], [174.867813, -35.964599], [174.869492, -35.967784], [174.871278, -35.970951], [174.873185, -35.97413], [174.874683, -35.976552], [174.877053, -35.98044], [174.879058, -35.983576], [174.88102, -35.986666], [174.882903, -35.989729], [174.88432, -35.992089], [174.886611, -35.995789], [174.888467, -35.9987], [174.890281, -36.001624], [174.892144, -36.004625], [174.893637, -36.006988], [174.896079, -36.010586], [174.898018, -36.013446], [174.899917, -36.016302], [174.902187, -36.019563], [174.903411, -36.021306], [174.905472, -36.024228], [174.907432, -36.026844], [174.909386, -36.029446], [174.911629, -36.032481], [174.912888, -36.034237], [174.914902, -36.037236], [174.916724, -36.039909], [174.918587, -36.042635], [174.920499, -36.04573], [174.921575, -36.04747], [174.923561, -36.050549], [174.925339, -36.053201], [174.927132, -36.055839], [174.929088, -36.059059], [174.930176, -36.060869], [174.932243, -36.06436], [174.93399, -36.067394], [174.935638, -36.070403], [174.937024, -36.072784], [174.938624, -36.075359], [174.940689, -36.079306], [174.941893, -36.082439], [174.943252, -36.085658], [174.944465, -36.08862], [174.945475, -36.091105], [174.947083, -36.095025], [174.948341, -36.098242], [174.949554, -36.101322], [174.950685, -36.104206], [174.951661, -36.106669], [174.953025, -36.110321], [174.954265, -36.113878], [174.955628, -36.11751], [174.956421, -36.119698], [174.957717, -36.123318], [174.958959, -36.126801], [174.960297, -36.130335], [174.961269, -36.132944], [174.962158, -36.135323], [174.963532, -36.138979], [174.964859, -36.142558], [174.966201, -36.146093], [174.966999, -36.148252], [174.968315, -36.151787], [174.969521, -36.154736], [174.970779, -36.157717], [174.972245, -36.161151], [174.973052, -36.163056], [174.974412, -36.166269], [174.97587, -36.169673], [174.977387, -36.173117], [174.978559, -36.17573], [174.97965, -36.178196], [174.981369, -36.18193], [174.982872, -36.184847], [174.984599, -36.188338], [174.985652, -36.190592], [174.987304, -36.193827], [174.988677, -36.197176], [174.989538, -36.200426], [174.990296, -36.203461], [174.99083, -36.205732], [174.991669, -36.208975], [174.992655, -36.212272], [174.993699, -36.215752], [174.994237, -36.217746], [174.995193, -36.221075], [174.995962, -36.224136], [174.996872, -36.227323], [174.997602, -36.229656], [174.998286, -36.232464], [174.999141, -36.236001], [175.000015, -36.239225], [175.000619, -36.241403], [175.001403, -36.244835], [175.001994, -36.247446], [175.002493, -36.249422], [175.002934, -36.25144], [175.003474, -36.253944], [175.003915, -36.255758], [175.004303, -36.257469], [175.004786, -36.259864], [175.005248, -36.262272], [175.005659, -36.264247], [175.006161, -36.266854], [175.006643, -36.269394], [175.007046, -36.27127], [175.007589, -36.274196], [175.008139, -36.277405], [175.008676, -36.280531], [175.00906, -36.282495], [175.009736, -36.286222], [175.010325, -36.289397], [175.010889, -36.292107], [175.011551, -36.29533], [175.012161, -36.298568], [175.012801, -36.301975], [175.013468, -36.305114], [175.013952, -36.30742], [175.014633, -36.310864], [175.015228, -36.314057], [175.015933, -36.317722], [175.016453, -36.320012], [175.017135, -36.323659], [175.017766, -36.327094], [175.018401, -36.330855], [175.018829, -36.333284], [175.019501, -36.337193], [175.019979, -36.340495], [175.020453, -36.343914], [175.02077, -36.346082], [175.021301, -36.34967], [175.02178, -36.35292], [175.022374, -36.356375], [175.022716, -36.358467], [175.023216, -36.361826], [175.023646, -36.364661], [175.024183, -36.367997], [175.024586, -36.37013], [175.025259, -36.37391], [175.025828, -36.377225], [175.026332, -36.379881], [175.026698, -36.38179], [175.027282, -36.385241], [175.027867, -36.388659], [175.02837, -36.391464], [175.028743, -36.393431], [175.029348, -36.396983], [175.029923, -36.400503], [175.03043, -36.403379], [175.030833, -36.40533], [175.031419, -36.408592], [175.031947, -36.41184], [175.032341, -36.414425], [175.032765, -36.416885], [175.033168, -36.419887], [175.033569, -36.423137], [175.033816, -36.425381], [175.034307, -36.4288], [175.034673, -36.432019], [175.035053, -36.435281], [175.035259, -36.43716], [175.0357, -36.440529], [175.036021, -36.443613], [175.036281, -36.446253], [175.036601, -36.448853], [175.037095, -36.452116], [175.037552, -36.455323], [175.037794, -36.457429], [175.038183, -36.46067], [175.038655, -36.463933], [175.039045, -36.4668], [175.039231, -36.468558], [175.039571, -36.471624], [175.039938, -36.474393], [175.04018, -36.476605], [175.04044, -36.479042], [175.040741, -36.481922], [175.041036, -36.484527], [175.041221, -36.486585], [175.041499, -36.489414], [175.041713, -36.491905], [175.041829, -36.493696], [175.041946, -36.496123], [175.041916, -36.498426], [175.041976, -36.500805], [175.042011, -36.502731], [175.042007, -36.505592], [175.042058, -36.508142], [175.042114, -36.510193], [175.042155, -36.513204], [175.042164, -36.515773], [175.042151, -36.517891], [175.04219, -36.520224], [175.042201, -36.523148], [175.042198, -36.525587], [175.042244, -36.527736], [175.042282, -36.530473], [175.042222, -36.532774], [175.042176, -36.534721], [175.042226, -36.537716], [175.042262, -36.540127], [175.042267, -36.542287], [175.042237, -36.544763], [175.042261, -36.547698], [175.04227, -36.550105], [175.042225, -36.552054], [175.042242, -36.554879], [175.042232, -36.557336], [175.042229, -36.559385], [175.042246, -36.562424], [175.042318, -36.564984], [175.04239, -36.56731], [175.0425, -36.569757], [175.042567, -36.572689], [175.042704, -36.575127], [175.042789, -36.577131], [175.042888, -36.58001], [175.04301, -36.582393], [175.043074, -36.584183], [175.042276, -36.587297], [175.041283, -36.59115], [175.041595, -36.594455], [175.041873, -36.597086], [175.042312, -36.601132], [175.042823, -36.60441], [175.043297, -36.607689], [175.043937, -36.610957], [175.044346, -36.61355], [175.045418, -36.617488], [175.046478, -36.6204], [175.046852, -36.623632], [175.047249, -36.6269], [175.047015, -36.629485], [175.046898, -36.63348], [175.047004, -36.636786], [175.047775, -36.640063], [175.048599, -36.643341], [175.049259, -36.645914], [175.050003, -36.649569], [175.049599, -36.652625], [175.049363, -36.655724], [175.049487, -36.659447], [175.049423, -36.661499], [175.049423, -36.665018], [175.049415, -36.668081], [175.049905, -36.671181], [175.050955, -36.674803], [175.051391, -36.676739], [175.051094, -36.680126], [175.050842, -36.683154], [175.050766, -36.686211], [175.049715, -36.689742], [175.048879, -36.691659], [175.04702, -36.694805], [175.045349, -36.697511], [175.044304, -36.700471], [175.04271, -36.703754], [175.041215, -36.705492], [175.039001, -36.708716], [175.037086, -36.711574], [175.035095, -36.714416], [175.033126, -36.717275], [175.031627, -36.719566], [175.029312, -36.723042], [175.027314, -36.725855], [175.025285, -36.728682], [175.021897, -36.731268], [175.019572, -36.732361], [175.015686, -36.734316], [175.012306, -36.736015], [175.008796, -36.737663], [175.005325, -36.739348], [175.002474, -36.740678], [174.998269, -36.74268], [174.994759, -36.744367], [174.991195, -36.74602], [174.987588, -36.747627], [174.984642, -36.748915], [174.98117, -36.751637], [174.978249, -36.754018], [174.975244, -36.756321], [174.972444, -36.75877], [174.970723, -36.76103], [174.967339, -36.763959], [174.964143, -36.766098], [174.960938, -36.768242], [174.957809, -36.770413], [174.95548, -36.772185], [174.951843, -36.774962], [174.948821, -36.777201], [174.945717, -36.779507], [174.942596, -36.781804], [174.940056, -36.783507], [174.936157, -36.786123], [174.93296, -36.788346], [174.929727, -36.790588], [174.9264, -36.792788], [174.923808, -36.794542], [174.919808, -36.797216], [174.916291, -36.799155], [174.911794, -36.799423], [174.908079, -36.797685], [174.906235, -36.795894], [174.903221, -36.793009], [174.900401, -36.790021], [174.89858, -36.786772], [174.898683, -36.786796], [174.90068, -36.793417], [174.901618, -36.796456], [174.900783, -36.800031], [174.898378, -36.801838], [174.895559, -36.804582], [174.891266, -36.807084], [174.887642, -36.808931], [174.884132, -36.810856], [174.881187, -36.811961], [174.87658, -36.813476], [174.872894, -36.814668], [174.86917, -36.815658], [174.865341, -36.816634], [174.862376, -36.817434], [174.858139, -36.819074], [174.854714, -36.820615], [174.851251, -36.82215], [174.847725, -36.823741], [174.844941, -36.824929], [174.840592, -36.826417], [174.836792, -36.827639], [174.832962, -36.828914], [174.828896, -36.830051], [174.826238, -36.830887], [174.822578, -36.832156], [174.818291, -36.833642], [174.813851, -36.835034], [174.809341, -36.836049], [174.804948, -36.835906], [174.801259, -36.835712], [174.795258, -36.835262], [174.790382, -36.834556], [174.785798, -36.833244], [174.781215, -36.832347], [174.777375, -36.83188], [174.771622, -36.830696], [174.768242, -36.828487], [174.767427, -36.825243], [174.767181, -36.822501], [174.766951, -36.823139], [174.766824, -36.827863], [174.763373, -36.829102], [174.758773, -36.829668], [174.753893, -36.829733], [174.750447, -36.829494], [174.745162, -36.827856], [174.744479, -36.825308], [174.744852, -36.825054], [174.744932, -36.825306], [174.748375, -36.829477], [174.752533, -36.830389], [174.756569, -36.83131], [174.760728, -36.832051], [174.76361, -36.832566], [174.767167, -36.833174], [174.771355, -36.833969], [174.775552, -36.834812], [174.779748, -36.83567], [174.78404, -36.836546], [174.787507, -36.836933], [174.793549, -36.837265], [174.798355, -36.837406], [174.803306, -36.837502], [174.808149, -36.837334], [174.810184, -36.838065], [174.812678, -36.839701], [174.816956, -36.837711], [174.820016, -36.836102], [174.82217, -36.835143], [174.82604, -36.833488], [174.828598, -36.83221], [174.831652, -36.830706], [174.83372, -36.829711], [174.837197, -36.828045], [174.84059, -36.82667], [174.844472, -36.825049], [174.847572, -36.82376], [174.851216, -36.822036], [174.854539, -36.82061], [174.85865, -36.819406], [174.861573, -36.818602], [174.86586, -36.817323], [174.869844, -36.816071], [174.873865, -36.814768], [174.876819, -36.813828], [174.881093, -36.812499], [174.885396, -36.811064], [174.8891, -36.809629], [174.890938, -36.808839], [174.894277, -36.807364], [174.898102, -36.805983], [174.901195, -36.804885], [174.903285, -36.804256], [174.90774, -36.802887], [174.912079, -36.801581], [174.915573, -36.800254], [174.917962, -36.799154], [174.921914, -36.796997], [174.924967, -36.795067], [174.927818, -36.793038], [174.929673, -36.791526], [174.933404, -36.788759], [174.936431, -36.786383], [174.939034, -36.784176], [174.941719, -36.781478], [174.943161, -36.77957], [174.945481, -36.776108], [174.947296, -36.77322], [174.949122, -36.770122], [174.950445, -36.767746], [174.951661, -36.765302], [174.953217, -36.762074], [174.954823, -36.758567], [174.955867, -36.756254], [174.957026, -36.75355], [174.958375, -36.750269], [174.959736, -36.746864], [174.960595, -36.744857], [174.962036, -36.741405], [174.963206, -36.738465], [174.964227, -36.735931], [174.964946, -36.734175], [174.966114, -36.7313], [174.967, -36.728898], [174.967821, -36.726884], [174.968862, -36.724319], [174.969987, -36.721656], [174.971082, -36.718792], [174.971653, -36.717089], [174.972648, -36.714022], [174.973557, -36.710554], [174.97496, -36.707162], [174.976148, -36.704837], [174.977454, -36.702252], [174.979408, -36.699049], [174.981719, -36.695949], [174.983902, -36.692818], [174.986199, -36.689497], [174.987798, -36.6873], [174.990525, -36.68358], [174.993123, -36.680835], [174.995894, -36.678359], [174.997738, -36.676775], [175.000356, -36.674561], [175.003316, -36.672728], [175.006033, -36.671215], [175.007656, -36.670205], [175.010216, -36.668487], [175.012585, -36.66689], [175.014282, -36.665725], [175.016877, -36.663931], [175.01908, -36.662424], [175.021103, -36.661078], [175.024282, -36.658984], [175.026962, -36.657265], [175.028844, -36.656036], [175.03125, -36.654477], [175.033961, -36.652703], [175.036687, -36.650894], [175.0385, -36.649514], [175.041682, -36.647035], [175.044114, -36.645166], [175.045905, -36.643843], [175.047974, -36.642345], [175.05013, -36.640772], [175.052429, -36.639145], [175.054088, -36.637962], [175.056733, -36.636114], [175.058976, -36.634546], [175.060621, -36.633407], [175.062962, -36.631793], [175.065028, -36.630345], [175.066769, -36.629059], [175.069214, -36.627258], [175.071429, -36.625613], [175.073361, -36.624194], [175.076782, -36.621698], [175.079544, -36.619654], [175.081519, -36.618167], [175.084081, -36.616254], [175.087219, -36.613934], [175.090296, -36.611629], [175.092098, -36.61029], [175.095251, -36.607892], [175.098139, -36.605715], [175.10059, -36.603869], [175.102687, -36.602332], [175.105651, -36.600163], [175.108643, -36.598013], [175.110809, -36.596418], [175.11353, -36.594513], [175.116435, -36.592381], [175.119328, -36.590308], [175.121093, -36.589055], [175.124338, -36.586729], [175.127171, -36.584707], [175.129853, -36.582777], [175.131748, -36.581406], [175.134864, -36.579166], [175.137579, -36.577203], [175.140494, -36.575128], [175.14244, -36.573735], [175.14563, -36.571438], [175.148148, -36.569638], [175.151004, -36.567607], [175.152977, -36.566227], [175.156166, -36.563953], [175.158965, -36.561916], [175.161935, -36.559776], [175.164051, -36.558271], [175.167549, -36.555861], [175.17039, -36.553907], [175.173434, -36.551835], [175.175636, -36.550399], [175.179107, -36.548087], [175.18193, -36.546328], [175.185213, -36.54431], [175.188115, -36.542548], [175.19136, -36.540585], [175.194799, -36.538452], [175.198556, -36.536258], [175.201924, -36.534284], [175.205589, -36.532089], [175.209148, -36.529918], [175.213018, -36.527524], [175.215088, -36.526297], [175.218667, -36.524088], [175.221996, -36.521911], [175.225411, -36.519688], [175.227865, -36.518097], [175.231315, -36.516131], [175.234852, -36.513931], [175.238182, -36.511853], [175.241018, -36.510009], [175.24291, -36.508852], [175.246566, -36.506749], [175.250859, -36.505258], [175.25451, -36.503521], [175.256736, -36.502396], [175.260722, -36.500536], [175.264724, -36.498841], [175.268256, -36.497379], [175.272484, -36.496355], [175.275065, -36.495619], [175.279663, -36.494056], [175.283286, -36.492842], [175.286935, -36.491586], [175.290822, -36.490238], [175.293157, -36.489372], [175.297455, -36.48789], [175.301479, -36.486662], [175.30587, -36.485809], [175.30886, -36.485605], [175.312721, -36.484879], [175.316504, -36.482989], [175.320502, -36.480577], [175.324065, -36.478255], [175.326889, -36.477327], [175.331872, -36.477336], [175.334305, -36.478262], [175.336464, -36.480429], [175.33642, -36.480526], [175.335814, -36.473988], [175.33583, -36.47077], [175.336388, -36.467439], [175.337225, -36.463833], [175.33897, -36.461969], [175.345032, -36.460346], [175.349717, -36.46008], [175.354538, -36.459969], [175.3593, -36.459601], [175.366586, -36.458526], [175.371306, -36.457757], [175.376014, -36.457152], [175.380714, -36.456625], [175.384024, -36.45625], [175.387551, -36.455707], [175.392335, -36.455405], [175.397217, -36.455258], [175.402291, -36.455041], [175.407376, -36.455935], [175.414834, -36.458551], [175.419403, -36.460722], [175.423721, -36.462746], [175.427826, -36.464647], [175.430762, -36.466059], [175.43403, -36.467468], [175.438073, -36.469211], [175.442162, -36.471024], [175.446303, -36.472897], [175.450378, -36.474736], [175.452987, -36.475943], [175.458748, -36.478538], [175.462944, -36.480295], [175.467124, -36.482009], [175.471249, -36.483708], [175.473893, -36.48477], [175.479767, -36.487123], [175.484069, -36.48885], [175.488236, -36.490515], [175.492419, -36.491965], [175.495178, -36.492974], [175.501029, -36.495438], [175.505119, -36.497507], [175.509179, -36.499645], [175.513214, -36.501748], [175.515567, -36.503143], [175.519455, -36.504749], [175.521359, -36.505277], [175.523234, -36.505853], [175.525689, -36.506844], [175.528011, -36.508928], [175.529673, -36.509391], [175.532406, -36.509011], [175.534704, -36.508552], [175.536865, -36.507518], [175.53936, -36.50645], [175.541398, -36.505508], [175.544276, -36.506541], [175.546425, -36.509785], [175.548823, -36.511732], [175.550965, -36.512945], [175.554001, -36.515532], [175.556285, -36.518112], [175.559523, -36.520584], [175.561322, -36.521735], [175.564595, -36.523476], [175.566645, -36.526469], [175.568544, -36.529794], [175.569759, -36.531292], [175.572587, -36.533523], [175.5746, -36.536694], [175.576301, -36.538524], [175.577428, -36.541688], [175.579341, -36.543671], [175.581703, -36.544414], [175.583993, -36.544261], [175.586812, -36.544303], [175.589407, -36.547058], [175.591274, -36.549249], [175.59462, -36.551833], [175.598053, -36.554132], [175.600929, -36.555959], [175.602987, -36.55725], [175.605906, -36.559034], [175.608983, -36.56099], [175.612083, -36.562981], [175.61498, -36.564824], [175.618551, -36.567024], [175.621602, -36.56881], [175.624261, -36.570417], [175.627479, -36.5724], [175.631042, -36.57461], [175.634666, -36.576826], [175.63767, -36.578644], [175.640046, -36.580022], [175.643952, -36.5823], [175.647374, -36.584355], [175.650785, -36.586375], [175.652543, -36.587438], [175.655951, -36.589526], [175.659372, -36.591581], [175.662911, -36.593719], [175.665202, -36.595084], [175.668737, -36.597176], [175.672065, -36.599157], [175.675232, -36.601096], [175.678024, -36.602898], [175.681442, -36.605026], [175.684829, -36.607126], [175.688293, -36.609337], [175.691133, -36.611144], [175.693807, -36.612866], [175.69699, -36.614871], [175.700164, -36.616826], [175.703577, -36.61904], [175.70554, -36.62044], [175.708771, -36.62278], [175.711324, -36.624265], [175.714099, -36.625762], [175.716359, -36.627036], [175.719899, -36.629266], [175.723384, -36.631447], [175.725945, -36.63304], [175.729177, -36.635076], [175.732407, -36.637104], [175.735692, -36.63921], [175.738871, -36.641267], [175.742489, -36.643593], [175.745888, -36.645736], [175.749114, -36.647804], [175.751892, -36.649563], [175.755127, -36.65161], [175.758809, -36.653908], [175.762062, -36.655949], [175.764353, -36.657356], [175.767486, -36.659299], [175.771118, -36.661568], [175.774866, -36.663851], [175.777589, -36.665511], [175.781443, -36.667844], [175.784963, -36.669992], [175.787995, -36.67178], [175.790532, -36.673258], [175.793909, -36.675288], [175.797196, -36.677348], [175.799703, -36.678729], [175.802622, -36.680042], [175.805908, -36.681653], [175.809071, -36.683641], [175.811015, -36.68528], [175.813644, -36.687637], [175.81637, -36.690138], [175.818695, -36.692399], [175.820633, -36.694385], [175.823262, -36.697049], [175.825933, -36.699758], [175.827888, -36.701794], [175.83014, -36.704142], [175.832769, -36.706765], [175.835499, -36.709327], [175.837372, -36.711021], [175.840179, -36.713675], [175.842646, -36.716779], [175.844781, -36.719717], [175.845961, -36.721679], [175.847159, -36.725183], [175.848022, -36.728368], [175.848919, -36.73174], [175.849309, -36.733449], [175.848475, -36.736976], [175.84517, -36.73921], [175.842969, -36.740643], [175.841589, -36.741888], [175.838433, -36.7454], [175.835767, -36.74846], [175.834315, -36.750078], [175.831673, -36.75261], [175.828903, -36.755212], [175.825859, -36.758024], [175.823183, -36.76064], [175.821579, -36.7622], [175.818505, -36.765068], [175.816071, -36.76747], [175.813408, -36.769864], [175.81059, -36.772043], [175.808426, -36.773622], [175.80487, -36.776106], [175.801888, -36.777925], [175.798229, -36.780245], [175.795785, -36.78186], [175.791725, -36.784336], [175.788056, -36.786553], [175.784646, -36.788795], [175.782103, -36.790452], [175.778678, -36.792512], [175.775643, -36.7944], [175.771992, -36.796762], [175.768414, -36.799193], [175.766445, -36.800459], [175.762664, -36.802853], [175.759895, -36.804884], [175.756541, -36.807339], [175.753927, -36.809246], [175.751139, -36.811157], [175.748413, -36.812613], [175.746514, -36.812118], [175.745361, -36.809803], [175.743108, -36.807522], [175.740168, -36.805181], [175.737841, -36.803395], [175.734797, -36.800969], [175.732353, -36.798271], [175.731021, -36.796445], [175.731302, -36.796437], [175.7368, -36.797543], [175.740624, -36.79873], [175.744263, -36.800165], [175.74801, -36.801789], [175.751336, -36.80301], [175.756562, -36.80426], [175.761399, -36.805685], [175.767364, -36.806123], [175.770497, -36.806152], [175.774551, -36.80622], [175.779747, -36.806244], [175.783943, -36.806252], [175.788155, -36.806227], [175.791214, -36.806725], [175.795116, -36.807813], [175.799972, -36.809186], [175.803864, -36.810288], [175.807785, -36.811384], [175.810756, -36.812229], [175.814635, -36.813357], [175.819481, -36.814825], [175.82325, -36.816203], [175.826867, -36.817919], [175.829282, -36.819535], [175.832056, -36.821993], [175.83558, -36.825147], [175.838385, -36.827711], [175.841164, -36.830336], [175.843279, -36.832272], [175.845993, -36.834893], [175.849389, -36.838167], [175.852043, -36.840832], [175.85446, -36.843659], [175.855679, -36.846136], [175.857138, -36.849397], [175.859009, -36.853535], [175.860535, -36.856858], [175.862084, -36.860186], [175.863259, -36.862725], [175.864848, -36.866026], [175.866913, -36.870159], [175.868561, -36.873499], [175.870644, -36.877673], [175.873435, -36.883204], [175.875168, -36.886564], [175.877319, -36.890824], [175.879234, -36.894578], [175.882752, -36.900992], [175.88501, -36.903966], [175.887268, -36.906936], [175.889739, -36.910156], [175.891255, -36.912139], [175.894706, -36.916645], [175.897476, -36.920286], [175.899765, -36.923283], [175.901487, -36.92556], [175.903769, -36.928537], [175.906668, -36.932251], [175.908974, -36.935206], [175.91127, -36.938154], [175.913031, -36.94039], [175.915273, -36.943243], [175.918106, -36.94687], [175.92038, -36.949758], [175.922677, -36.952637], [175.92448, -36.954809], [175.926773, -36.957644], [175.929604, -36.961271], [175.931861, -36.964146], [175.934121, -36.967012], [175.935832, -36.969203], [175.938076, -36.972085], [175.940863, -36.975686], [175.943045, -36.978543], [175.945259, -36.981461], [175.946893, -36.983595], [175.949118, -36.986485], [175.95195, -36.990066], [175.954209, -36.992922], [175.956497, -36.995796], [175.958587, -36.998413], [175.961091, -37.001549], [175.963371, -37.004432], [175.96569, -37.007314], [175.968017, -37.010216], [175.969778, -37.012433], [175.971813, -37.015504], [175.973939, -37.019556], [175.975654, -37.022801], [175.977394, -37.026045], [175.979164, -37.029321], [175.980515, -37.031726], [175.983079, -37.036361], [175.985145, -37.040184], [175.986869, -37.043436], [175.988512, -37.0465], [175.99044, -37.050016], [175.992195, -37.053269], [175.993905, -37.056483], [175.995682, -37.059849], [175.99706, -37.062473], [175.999, -37.06608], [176.000763, -37.069242], [176.002533, -37.072443], [176.004249, -37.075654], [176.005537, -37.078124], [176.007228, -37.081325], [176.009385, -37.085378], [176.011077, -37.088629], [176.01284, -37.091845], [176.014152, -37.094305], [176.015843, -37.097451], [176.01751, -37.101585], [176.018525, -37.104957], [176.019531, -37.108348], [176.02027, -37.110873], [176.021266, -37.114178], [176.022445, -37.118356], [176.023293, -37.121699], [176.024162, -37.125047], [176.024806, -37.127581], [176.025675, -37.130905], [176.026711, -37.135105], [176.02758, -37.13853], [176.028411, -37.141903], [176.029379, -37.145527], [176.030671, -37.150288], [176.031571, -37.153733], [176.03244, -37.157169], [176.033388, -37.160883], [176.033971, -37.163152], [176.035103, -37.167427], [176.036774, -37.173553], [176.03788, -37.177627], [176.03853, -37.180041], [176.040093, -37.18553], [176.041191, -37.189082], [176.04226, -37.192661], [176.043213, -37.195959], [176.044093, -37.198932], [176.045434, -37.203366], [176.046684, -37.207454], [176.047791, -37.211025], [176.048655, -37.213884], [176.0495, -37.216539], [176.050629, -37.220064], [176.051688, -37.223509], [176.052757, -37.227007], [176.053824, -37.230564], [176.056014, -37.237683], [176.057161, -37.24128], [176.058274, -37.244843], [176.059388, -37.24849], [176.060097, -37.250775], [176.061729, -37.255992], [176.062936, -37.259716], [176.06411, -37.26345], [176.065297, -37.267234], [176.066074, -37.269614], [176.067757, -37.274875], [176.069038, -37.278702], [176.070259, -37.282533], [176.071514, -37.286357], [176.072474, -37.289255], [176.074104, -37.294077], [176.075446, -37.297872], [176.076874, -37.302068], [176.078307, -37.30614], [176.079361, -37.309089], [176.080703, -37.312714], [176.081993, -37.316342], [176.083375, -37.319869], [176.084755, -37.323441], [176.085621, -37.325584], [176.08744, -37.330184], [176.088746, -37.333422], [176.090065, -37.336796], [176.091413, -37.340407], [176.092282, -37.34249], [176.0942, -37.347314], [176.095307, -37.350715], [176.095101, -37.354153], [176.094739, -37.357843], [176.094559, -37.360083], [176.094033, -37.365142], [176.093627, -37.368917], [176.093262, -37.372699], [176.09296, -37.37658], [176.092842, -37.378744], [176.092544, -37.383333], [176.092317, -37.386673], [176.092026, -37.390057], [176.091779, -37.393621], [176.091584, -37.395833], [176.091172, -37.39996], [176.090759, -37.403334], [176.090393, -37.406762], [176.090037, -37.41034], [176.089766, -37.412535], [176.089263, -37.416517], [176.088913, -37.419632], [176.088501, -37.422902], [176.088016, -37.42648], [176.087753, -37.428628], [176.087197, -37.432608], [176.086761, -37.435889], [176.086388, -37.439133], [176.08593, -37.442679], [176.085637, -37.444847], [176.085098, -37.448859], [176.084748, -37.452096], [176.084564, -37.45512], [176.084232, -37.458529], [176.084315, -37.460703], [176.085609, -37.464432], [176.086816, -37.467454], [176.088127, -37.470559], [176.089504, -37.473972], [176.090352, -37.476023], [176.091896, -37.479681], [176.093772, -37.483843], [176.095229, -37.48724], [176.096324, -37.489812], [176.097786, -37.493301], [176.09907, -37.496614], [176.100388, -37.49982], [176.101443, -37.502407], [176.102776, -37.505347], [176.104386, -37.508992], [176.106246, -37.513284], [176.107531, -37.516125], [176.108724, -37.518908], [176.110283, -37.522432], [176.111862, -37.525879], [176.113515, -37.529559], [176.114319, -37.531279], [176.115792, -37.53454], [176.117289, -37.537871], [176.118781, -37.541207], [176.119766, -37.543409], [176.121187, -37.54656], [176.12266, -37.549997], [176.124176, -37.553432], [176.125496, -37.556417], [176.126628, -37.558277], [176.129065, -37.561755], [176.131066, -37.564646], [176.133002, -37.567539], [176.134638, -37.569988], [176.136635, -37.572916], [176.138739, -37.576065], [176.140693, -37.578965], [176.142335, -37.581467], [176.144114, -37.584124], [176.146195, -37.587269], [176.148549, -37.590423], [176.150592, -37.592681], [176.152827, -37.595125], [176.155263, -37.597817], [176.15754, -37.600295], [176.159279, -37.602332], [176.160903, -37.605283], [176.162553, -37.607627], [176.163485, -37.609006], [176.165121, -37.611639], [176.166914, -37.614026], [176.167283, -37.615779], [176.166551, -37.619216], [176.165995, -37.622668], [176.164659, -37.62528], [176.164299, -37.626809], [176.163904, -37.629618], [176.163864, -37.632093], [176.164505, -37.634165], [176.166041, -37.63603], [176.168717, -37.638559], [176.172671, -37.640699], [176.174988, -37.641934], [176.178078, -37.644411], [176.179423, -37.647143], [176.179947, -37.650642], [176.179886, -37.652677], [176.179849, -37.656143], [176.179576, -37.659486], [176.178581, -37.662723], [176.177821, -37.665109], [176.176255, -37.668663], [176.176269, -37.671139], [176.177613, -37.672109], [176.177688, -37.672048], [176.177451, -37.672144], [176.178001, -37.681163], [176.178025, -37.681175], [176.177508, -37.671968], [176.177355, -37.672186], [176.175863, -37.669128], [176.176003, -37.666832], [176.17723, -37.662653], [176.177943, -37.660639], [176.179329, -37.656363], [176.179646, -37.652785], [176.179985, -37.649203], [176.179579, -37.646576], [176.178986, -37.643296], [176.178523, -37.640148], [176.178579, -37.639213], [176.178598, -37.639148], [176.176437, -37.637398], [176.178096, -37.637268]]}, "times": ["2025-02-26T19:02:17+00:00", "2025-02-27T17:34:21+00:00", "2025-02-27T17:36:21+00:00", "2025-02-27T17:39:22+00:00", "2025-02-27T17:40:24+00:00", "2025-02-27T17:43:22+00:00", "2025-02-27T17:45:22+00:00", "2025-02-27T17:49:21+00:00", "2025-02-27T17:50:25+00:00", "2025-02-27T17:54:21+00:00", "2025-02-27T17:56:21+00:00", "2025-02-27T17:58:21+00:00", "2025-02-27T18:00:15+00:00", "2025-02-27T18:01:22+00:00", "2025-02-27T18:04:22+00:00", "2025-02-27T18:06:22+00:00", "2025-02-27T18:08:22+00:00", "2025-02-27T18:10:15+00:00", "2025-02-27T18:11:22+00:00", "2025-02-27T18:14:22+00:00", "2025-02-27T18:16:22+00:00", "2025-02-27T18:18:22+00:00", "2025-02-27T18:20:15+00:00", "2025-02-27T18:21:22+00:00", "2025-02-27T18:24:22+00:00", "2025-02-27T18:26:22+00:00", "2025-02-27T18:28:22+00:00", "2025-02-27T18:30:15+00:00", "2025-02-27T18:31:22+00:00", "2025-02-27T18:34:22+00:00", "2025-02-27T18:36:22+00:00", "2025-02-27T18:38:22+00:00", "2025-02-27T18:40:15+00:00", "2025-02-27T18:41:22+00:00", "2025-02-27T18:44:22+00:00", "2025-02-27T18:46:22+00:00", "2025-02-27T18:48:22+00:00", "2025-02-27T18:50:15+00:00", "2025-02-27T18:51:23+00:00", "2025-02-27T18:54:23+00:00", "2025-02-27T18:56:23+00:00", "2025-02-27T18:58:23+00:00", "2025-02-27T19:00:15+00:00", "2025-02-27T19:01:23+00:00", "2025-02-27T19:04:23+00:00", "2025-02-27T19:06:23+00:00", "2025-02-27T19:08:23+00:00", "2025-02-27T19:10:15+00:00", "2025-02-27T19:11:23+00:00", "2025-02-27T19:14:23+00:00", "2025-02-27T19:16:23+00:00", "2025-02-27T19:18:23+00:00", "2025-02-27T19:20:15+00:00", "2025-02-27T19:21:23+00:00", "2025-02-27T19:24:23+00:00", "2025-02-27T19:26:23+00:00", "2025-02-27T19:28:23+00:00", "2025-02-27T19:30:15+00:00", "2025-02-27T19:31:23+00:00", "2025-02-27T19:34:24+00:00", "2025-02-27T19:36:24+00:00", "2025-02-27T19:38:24+00:00", "2025-02-27T19:40:15+00:00", "2025-02-27T19:41:24+00:00", "2025-02-27T19:44:24+00:00", "2025-02-27T19:46:24+00:00", "2025-02-27T19:48:26+00:00", "2025-02-27T19:50:30+00:00", "2025-02-27T19:52:26+00:00", "2025-02-27T19:56:27+00:00", "2025-02-27T20:31:43+00:00", "2025-02-27T21:06:25+00:00", "2025-02-27T21:08:25+00:00", "2025-02-27T21:10:25+00:00", "2025-02-27T21:12:25+00:00", "2025-02-27T21:14:25+00:00", "2025-02-27T21:17:25+00:00", "2025-02-27T21:19:25+00:00", "2025-02-27T21:21:25+00:00", "2025-02-27T21:22:44+00:00", "2025-02-27T21:25:25+00:00", "2025-02-27T21:27:25+00:00", "2025-02-27T21:29:25+00:00", "2025-02-27T21:31:25+00:00", "2025-02-27T21:32:44+00:00", "2025-02-27T21:35:25+00:00", "2025-02-27T21:37:25+00:00", "2025-02-27T21:40:25+00:00", "2025-02-27T21:42:25+00:00", "2025-02-27T21:44:25+00:00", "2025-02-27T21:47:25+00:00", "2025-02-27T21:49:25+00:00", "2025-02-27T21:52:25+00:00", "2025-02-27T21:54:25+00:00", "2025-02-27T21:57:25+00:00", "2025-02-27T21:59:25+00:00", "2025-02-27T22:02:25+00:00", "2025-02-27T22:04:25+00:00", "2025-02-27T22:07:25+00:00", "2025-02-27T22:09:25+00:00", "2025-02-27T22:12:25+00:00", "2025-02-27T22:14:25+00:00", "2025-02-27T22:17:25+00:00", "2025-02-27T22:19:25+00:00", "2025-02-27T22:22:25+00:00", "2025-02-27T22:24:25+00:00", "2025-02-27T22:27:25+00:00", "2025-02-27T22:30:25+00:00", "2025-02-27T22:32:45+00:00", "2025-02-27T22:34:25+00:00", "2025-02-27T22:37:25+00:00", "2025-02-27T22:39:25+00:00", "2025-02-27T22:41:25+00:00", "2025-02-27T22:42:45+00:00", "2025-02-27T22:44:25+00:00", "2025-02-27T22:47:25+00:00", "2025-02-27T22:49:25+00:00", "2025-02-27T22:51:25+00:00", "2025-02-27T22:52:45+00:00", "2025-02-27T22:54:25+00:00", "2025-02-27T22:57:25+00:00", "2025-02-27T22:59:25+00:00", "2025-02-27T23:01:25+00:00", "2025-02-27T23:02:45+00:00", "2025-02-27T23:04:25+00:00", "2025-02-27T23:07:25+00:00", "2025-02-27T23:09:25+00:00", "2025-02-27T23:11:25+00:00", "2025-02-27T23:12:45+00:00", "2025-02-27T23:14:25+00:00", "2025-02-27T23:17:25+00:00", "2025-02-27T23:19:25+00:00", "2025-02-27T23:21:25+00:00", "2025-02-27T23:22:45+00:00", "2025-02-27T23:24:25+00:00", "2025-02-27T23:27:26+00:00", "2025-02-27T23:29:26+00:00", "2025-02-27T23:31:26+00:00", "2025-02-27T23:32:45+00:00", "2025-02-27T23:34:26+00:00", "2025-02-27T23:37:26+00:00", "2025-02-27T23:39:26+00:00", "2025-02-27T23:42:26+00:00", "2025-02-27T23:43:26+00:00", "2025-02-27T23:46:26+00:00", "2025-02-27T23:48:26+00:00", "2025-02-27T23:50:26+00:00", "2025-02-27T23:52:26+00:00", "2025-02-27T23:53:26+00:00", "2025-02-27T23:56:26+00:00", "2025-02-27T23:58:26+00:00", "2025-02-28T00:00:26+00:00", "2025-02-28T00:02:26+00:00", "2025-02-28T00:03:26+00:00", "2025-02-28T00:06:26+00:00", "2025-02-28T00:08:26+00:00", "2025-02-28T00:10:26+00:00", "2025-02-28T00:12:26+00:00", "2025-02-28T00:13:26+00:00", "2025-02-28T00:16:26+00:00", "2025-02-28T00:18:26+00:00", "2025-02-28T00:20:26+00:00", "2025-02-28T00:22:26+00:00", "2025-02-28T00:23:26+00:00", "2025-02-28T00:26:26+00:00", "2025-02-28T00:28:26+00:00", "2025-02-28T00:30:26+00:00", "2025-02-28T00:32:26+00:00", "2025-02-28T00:33:26+00:00", "2025-02-28T00:36:26+00:00", "2025-02-28T00:38:26+00:00", "2025-02-28T00:40:26+00:00", "2025-02-28T00:42:26+00:00", "2025-02-28T00:43:26+00:00", "2025-02-28T00:46:26+00:00", "2025-02-28T00:48:26+00:00", "2025-02-28T00:50:26+00:00", "2025-02-28T00:52:26+00:00", "2025-02-28T00:53:26+00:00", "2025-02-28T00:56:26+00:00", "2025-02-28T00:58:26+00:00", "2025-02-28T01:00:26+00:00", "2025-02-28T01:02:26+00:00", "2025-02-28T01:03:26+00:00", "2025-02-28T01:06:26+00:00", "2025-02-28T01:08:26+00:00", "2025-02-28T01:10:26+00:00", "2025-02-28T01:12:26+00:00", "2025-02-28T01:13:26+00:00", "2025-02-28T01:16:26+00:00", "2025-02-28T01:18:26+00:00", "2025-02-28T01:20:26+00:00", "2025-02-28T01:22:26+00:00", "2025-02-28T01:23:26+00:00", "2025-02-28T01:26:26+00:00", "2025-02-28T01:28:26+00:00", "2025-02-28T01:30:26+00:00", "2025-02-28T01:32:26+00:00", "2025-02-28T01:33:26+00:00", "2025-02-28T01:36:26+00:00", "2025-02-28T01:38:26+00:00", "2025-02-28T01:40:26+00:00", "2025-02-28T01:42:26+00:00", "2025-02-28T01:43:26+00:00", "2025-02-28T01:46:26+00:00", "2025-02-28T01:48:26+00:00", "2025-02-28T01:50:26+00:00", "2025-02-28T01:52:26+00:00", "2025-02-28T01:53:26+00:00", "2025-02-28T01:56:26+00:00", "2025-02-28T01:58:26+00:00", "2025-02-28T02:00:26+00:00", "2025-02-28T02:02:26+00:00", "2025-02-28T02:03:26+00:00", "2025-02-28T02:06:26+00:00", "2025-02-28T02:08:26+00:00", "2025-02-28T02:10:26+00:00", "2025-02-28T02:12:26+00:00", "2025-02-28T02:13:26+00:00", "2025-02-28T02:16:26+00:00", "2025-02-28T02:18:26+00:00", "2025-02-28T02:20:26+00:00", "2025-02-28T02:22:26+00:00", "2025-02-28T02:23:26+00:00", "2025-02-28T02:26:26+00:00", "2025-02-28T02:28:26+00:00", "2025-02-28T02:30:26+00:00", "2025-02-28T02:32:26+00:00", "2025-02-28T02:33:26+00:00", "2025-02-28T02:36:26+00:00", "2025-02-28T02:38:26+00:00", "2025-02-28T02:40:26+00:00", "2025-02-28T02:42:26+00:00", "2025-02-28T02:43:26+00:00", "2025-02-28T02:46:26+00:00", "2025-02-28T02:48:26+00:00", "2025-02-28T02:51:26+00:00", "2025-02-28T02:53:26+00:00", "2025-02-28T02:56:26+00:00", "2025-02-28T02:58:26+00:00", "2025-02-28T03:01:26+00:00", "2025-02-28T03:02:59+00:00", "2025-02-28T03:05:26+00:00", "2025-02-28T03:08:26+00:00", "2025-02-28T03:11:26+00:00", "2025-02-28T03:13:27+00:00", "2025-02-28T03:16:27+00:00", "2025-02-28T03:19:27+00:00", "2025-02-28T03:22:27+00:00", "2025-02-28T03:24:27+00:00", "2025-02-28T03:27:27+00:00", "2025-02-28T03:30:27+00:00", "2025-02-28T03:33:02+00:00", "2025-02-28T03:35:28+00:00", "2025-02-28T03:38:28+00:00", "2025-02-28T03:40:28+00:00", "2025-02-28T03:42:28+00:00", "2025-02-28T03:43:28+00:00", "2025-02-28T03:46:29+00:00", "2025-02-28T03:48:29+00:00", "2025-02-28T03:50:29+00:00", "2025-02-28T03:52:29+00:00", "2025-02-28T03:53:29+00:00", "2025-02-28T03:56:29+00:00", "2025-02-28T03:58:29+00:00", "2025-02-28T04:01:29+00:00", "2025-02-28T04:03:00+00:00", "2025-02-28T04:04:29+00:00", "2025-02-28T04:07:29+00:00", "2025-02-28T04:09:29+00:00", "2025-02-28T04:12:29+00:00", "2025-02-28T04:13:29+00:00", "2025-02-28T04:16:29+00:00", "2025-02-28T04:18:29+00:00", "2025-02-28T04:21:29+00:00", "2025-02-28T04:23:00+00:00", "2025-02-28T04:24:29+00:00", "2025-02-28T04:27:29+00:00", "2025-02-28T04:29:29+00:00", "2025-02-28T04:31:29+00:00", "2025-02-28T04:33:05+00:00", "2025-02-28T04:35:29+00:00", "2025-02-28T04:38:29+00:00", "2025-02-28T04:40:29+00:00", "2025-02-28T04:43:00+00:00", "2025-02-28T04:44:29+00:00", "2025-02-28T04:47:29+00:00", "2025-02-28T04:49:29+00:00", "2025-02-28T04:52:30+00:00", "2025-02-28T04:53:30+00:00", "2025-02-28T04:56:30+00:00", "2025-02-28T04:58:30+00:00", "2025-02-28T05:01:31+00:00", "2025-02-28T05:03:00+00:00", "2025-02-28T05:04:31+00:00", "2025-02-28T05:07:31+00:00", "2025-02-28T05:09:31+00:00", "2025-02-28T05:12:31+00:00", "2025-02-28T05:13:31+00:00", "2025-02-28T05:16:32+00:00", "2025-02-28T05:18:32+00:00", "2025-02-28T05:21:32+00:00", "2025-02-28T05:23:00+00:00", "2025-02-28T05:24:32+00:00", "2025-02-28T05:27:32+00:00", "2025-02-28T05:29:32+00:00", "2025-02-28T05:31:32+00:00", "2025-02-28T05:33:00+00:00", "2025-02-28T05:34:32+00:00", "2025-02-28T05:37:32+00:00", "2025-02-28T05:39:32+00:00", "2025-02-28T05:42:33+00:00", "2025-02-28T05:43:37+00:00", "2025-02-28T05:46:37+00:00", "2025-02-28T05:48:37+00:00", "2025-02-28T05:51:37+00:00", "2025-02-28T05:53:00+00:00", "2025-02-28T05:54:37+00:00", "2025-02-28T05:57:37+00:00", "2025-02-28T05:59:37+00:00", "2025-02-28T06:02:37+00:00", "2025-02-28T06:03:37+00:00", "2025-02-28T06:06:37+00:00", "2025-02-28T06:08:37+00:00", "2025-02-28T06:10:37+00:00", "2025-02-28T06:13:00+00:00", "2025-02-28T06:14:37+00:00", "2025-02-28T06:17:37+00:00", "2025-02-28T06:19:37+00:00", "2025-02-28T06:21:37+00:00", "2025-02-28T06:23:00+00:00", "2025-02-28T06:24:37+00:00", "2025-02-28T06:27:37+00:00", "2025-02-28T06:29:37+00:00", "2025-02-28T06:31:37+00:00", "2025-02-28T06:33:13+00:00", "2025-02-28T06:35:37+00:00", "2025-02-28T06:38:37+00:00", "2025-02-28T06:40:37+00:00", "2025-02-28T06:43:00+00:00", "2025-02-28T06:44:37+00:00", "2025-02-28T06:47:37+00:00", "2025-02-28T06:49:37+00:00", "2025-02-28T06:52:37+00:00", "2025-02-28T06:53:37+00:00", "2025-02-28T06:56:37+00:00", "2025-02-28T06:59:37+00:00", "2025-02-28T07:02:37+00:00", "2025-02-28T07:03:37+00:00", "2025-02-28T07:06:37+00:00", "2025-02-28T07:08:37+00:00", "2025-02-28T07:11:37+00:00", "2025-02-28T07:13:00+00:00", "2025-02-28T07:14:42+00:00", "2025-02-28T07:17:42+00:00", "2025-02-28T07:19:42+00:00", "2025-02-28T07:22:42+00:00", "2025-02-28T07:23:42+00:00", "2025-02-28T07:26:42+00:00", "2025-02-28T07:28:42+00:00", "2025-02-28T07:30:42+00:00", "2025-02-28T07:32:42+00:00", "2025-02-28T07:33:42+00:00", "2025-02-28T07:36:42+00:00", "2025-02-28T07:38:42+00:00", "2025-02-28T07:40:42+00:00", "2025-02-28T07:42:42+00:00", "2025-02-28T07:43:42+00:00", "2025-02-28T07:46:42+00:00", "2025-02-28T07:48:42+00:00", "2025-02-28T07:50:42+00:00", "2025-02-28T07:52:42+00:00", "2025-02-28T07:53:42+00:00", "2025-02-28T07:56:42+00:00", "2025-02-28T07:58:42+00:00", "2025-02-28T08:00:42+00:00", "2025-02-28T08:02:42+00:00", "2025-02-28T08:03:42+00:00", "2025-02-28T08:06:42+00:00", "2025-02-28T08:08:42+00:00", "2025-02-28T08:10:42+00:00", "2025-02-28T08:12:42+00:00", "2025-02-28T08:13:42+00:00", "2025-02-28T08:16:42+00:00", "2025-02-28T08:18:42+00:00", "2025-02-28T08:20:42+00:00", "2025-02-28T08:22:42+00:00", "2025-02-28T08:23:47+00:00", "2025-02-28T08:26:47+00:00", "2025-02-28T08:28:47+00:00", "2025-02-28T08:30:47+00:00", "2025-02-28T08:32:47+00:00", "2025-02-28T08:33:47+00:00", "2025-02-28T08:36:47+00:00", "2025-02-28T08:38:47+00:00", "2025-02-28T08:40:47+00:00", "2025-02-28T08:42:47+00:00", "2025-02-28T08:43:47+00:00", "2025-02-28T08:46:47+00:00", "2025-02-28T08:48:47+00:00", "2025-02-28T08:50:47+00:00", "2025-02-28T08:52:47+00:00", "2025-02-28T08:53:47+00:00", "2025-02-28T08:56:48+00:00", "2025-02-28T08:58:48+00:00", "2025-02-28T09:00:48+00:00", "2025-02-28T09:02:48+00:00", "2025-02-28T09:03:48+00:00", "2025-02-28T09:06:48+00:00", "2025-02-28T09:08:48+00:00", "2025-02-28T09:10:48+00:00", "2025-02-28T09:13:15+00:00", "2025-02-28T09:14:48+00:00", "2025-02-28T09:17:48+00:00", "2025-02-28T09:19:48+00:00", "2025-02-28T09:21:48+00:00", "2025-02-28T09:23:15+00:00", "2025-02-28T09:24:48+00:00", "2025-02-28T09:27:48+00:00", "2025-02-28T09:29:48+00:00", "2025-02-28T09:31:48+00:00", "2025-02-28T09:33:15+00:00", "2025-02-28T09:34:48+00:00", "2025-02-28T09:37:48+00:00", "2025-02-28T09:39:48+00:00", "2025-02-28T09:42:48+00:00", "2025-02-28T09:43:48+00:00", "2025-02-28T09:46:48+00:00", "2025-02-28T09:48:48+00:00", "2025-02-28T09:51:48+00:00", "2025-02-28T09:53:15+00:00", "2025-02-28T09:54:48+00:00", "2025-02-28T09:57:48+00:00", "2025-02-28T09:59:48+00:00", "2025-02-28T10:02:48+00:00", "2025-02-28T10:03:48+00:00", "2025-02-28T10:06:48+00:00", "2025-02-28T10:08:48+00:00", "2025-02-28T10:10:48+00:00", "2025-02-28T10:12:48+00:00", "2025-02-28T10:13:48+00:00", "2025-02-28T10:16:52+00:00", "2025-02-28T10:18:52+00:00", "2025-02-28T10:21:52+00:00", "2025-02-28T10:23:15+00:00", "2025-02-28T10:24:52+00:00", "2025-02-28T10:27:52+00:00", "2025-02-28T10:29:52+00:00", "2025-02-28T10:31:53+00:00", "2025-02-28T10:33:22+00:00", "2025-02-28T10:35:53+00:00", "2025-02-28T10:38:53+00:00", "2025-02-28T10:40:53+00:00", "2025-02-28T10:43:15+00:00", "2025-02-28T10:44:53+00:00", "2025-02-28T10:47:53+00:00", "2025-02-28T10:49:53+00:00", "2025-02-28T10:52:54+00:00", "2025-02-28T10:53:54+00:00", "2025-02-28T10:56:54+00:00", "2025-02-28T10:58:54+00:00", "2025-02-28T11:01:54+00:00", "2025-02-28T11:03:23+00:00", "2025-02-28T11:05:57+00:00", "2025-02-28T11:08:57+00:00", "2025-02-28T11:11:57+00:00", "2025-02-28T11:13:57+00:00", "2025-02-28T11:16:57+00:00", "2025-02-28T11:19:57+00:00", "2025-02-28T11:23:15+00:00", "2025-02-28T11:25:58+00:00", "2025-02-28T11:28:58+00:00", "2025-02-28T11:32:58+00:00", "2025-02-28T11:35:58+00:00", "2025-02-28T11:38:58+00:00", "2025-02-28T11:41:58+00:00", "2025-02-28T11:43:58+00:00", "2025-02-28T11:48:58+00:00", "2025-02-28T11:51:58+00:00", "2025-02-28T11:53:58+00:00", "2025-02-28T11:56:58+00:00", "2025-02-28T11:59:58+00:00", "2025-02-28T12:02:58+00:00", "2025-02-28T12:05:01+00:00", "2025-02-28T12:08:01+00:00", "2025-02-28T12:11:01+00:00", "2025-02-28T12:13:27+00:00", "2025-02-28T12:16:01+00:00", "2025-02-28T12:19:01+00:00", "2025-02-28T12:21:01+00:00", "2025-02-28T12:23:15+00:00", "2025-02-28T12:25:01+00:00", "2025-02-28T12:28:01+00:00", "2025-02-28T12:30:01+00:00", "2025-02-28T12:33:01+00:00", "2025-02-28T12:35:01+00:00", "2025-02-28T12:38:01+00:00", "2025-02-28T12:40:01+00:00", "2025-02-28T12:43:01+00:00", "2025-02-28T12:45:01+00:00", "2025-02-28T12:48:01+00:00", "2025-02-28T12:50:01+00:00", "2025-02-28T12:53:01+00:00", "2025-02-28T12:55:01+00:00", "2025-02-28T12:58:01+00:00", "2025-02-28T13:00:01+00:00", "2025-02-28T13:03:01+00:00", "2025-02-28T13:05:01+00:00", "2025-02-28T13:08:01+00:00", "2025-02-28T13:10:01+00:00", "2025-02-28T13:13:01+00:00", "2025-02-28T13:15:01+00:00", "2025-02-28T13:18:01+00:00", "2025-02-28T13:21:01+00:00", "2025-02-28T13:23:30+00:00", "2025-02-28T13:25:01+00:00", "2025-02-28T13:28:01+00:00", "2025-02-28T13:31:01+00:00", "2025-02-28T13:33:30+00:00", "2025-02-28T13:35:01+00:00", "2025-02-28T13:38:01+00:00", "2025-02-28T13:41:01+00:00", "2025-02-28T13:43:30+00:00", "2025-02-28T13:45:01+00:00", "2025-02-28T13:48:01+00:00", "2025-02-28T13:51:01+00:00", "2025-02-28T13:53:33+00:00", "2025-02-28T13:56:01+00:00", "2025-02-28T13:59:01+00:00", "2025-02-28T14:02:01+00:00", "2025-02-28T14:04:01+00:00", "2025-02-28T14:07:01+00:00", "2025-02-28T14:10:01+00:00", "2025-02-28T14:13:01+00:00", "2025-02-28T14:15:01+00:00", "2025-02-28T14:18:01+00:00", "2025-02-28T14:21:01+00:00", "2025-02-28T14:23:34+00:00", "2025-02-28T14:26:01+00:00", "2025-02-28T14:29:01+00:00", "2025-02-28T14:32:01+00:00", "2025-02-28T14:34:01+00:00", "2025-02-28T14:37:01+00:00", "2025-02-28T14:40:01+00:00", "2025-02-28T14:43:01+00:00", "2025-02-28T14:45:02+00:00", "2025-02-28T14:48:02+00:00", "2025-02-28T14:51:02+00:00", "2025-02-28T14:53:35+00:00", "2025-02-28T14:57:02+00:00", "2025-02-28T15:00:02+00:00", "2025-02-28T15:03:30+00:00", "2025-02-28T15:06:02+00:00", "2025-02-28T15:09:02+00:00", "2025-02-28T15:12:02+00:00", "2025-02-28T15:14:02+00:00", "2025-02-28T15:17:02+00:00", "2025-02-28T15:20:03+00:00", "2025-02-28T15:23:30+00:00", "2025-02-28T15:26:03+00:00", "2025-02-28T15:29:03+00:00", "2025-02-28T15:32:03+00:00", "2025-02-28T15:34:03+00:00", "2025-02-28T15:38:03+00:00", "2025-02-28T15:41:03+00:00", "2025-02-28T15:43:37+00:00", "2025-02-28T15:47:03+00:00", "2025-02-28T15:50:03+00:00", "2025-02-28T15:53:30+00:00", "2025-02-28T15:56:03+00:00", "2025-02-28T15:59:03+00:00", "2025-02-28T16:02:03+00:00", "2025-02-28T16:04:03+00:00", "2025-02-28T16:08:03+00:00", "2025-02-28T16:11:03+00:00", "2025-02-28T16:13:39+00:00", "2025-02-28T16:17:03+00:00", "2025-02-28T16:20:03+00:00", "2025-02-28T16:23:30+00:00", "2025-02-28T16:26:03+00:00", "2025-02-28T16:29:03+00:00", "2025-02-28T16:32:03+00:00", "2025-02-28T16:34:03+00:00", "2025-02-28T16:38:03+00:00", "2025-02-28T16:41:03+00:00", "2025-02-28T16:43:41+00:00", "2025-02-28T16:47:03+00:00", "2025-02-28T16:50:03+00:00", "2025-02-28T16:53:30+00:00", "2025-02-28T16:56:03+00:00", "2025-02-28T16:59:03+00:00", "2025-02-28T17:02:03+00:00", "2025-02-28T17:04:03+00:00", "2025-02-28T17:08:03+00:00", "2025-02-28T17:11:03+00:00", "2025-02-28T17:13:03+00:00", "2025-02-28T17:14:03+00:00", "2025-02-28T17:17:03+00:00", "2025-02-28T17:19:03+00:00", "2025-02-28T17:21:03+00:00", "2025-02-28T17:23:03+00:00", "2025-02-28T17:24:03+00:00", "2025-02-28T17:27:03+00:00", "2025-02-28T17:29:03+00:00", "2025-02-28T17:31:03+00:00", "2025-02-28T17:33:03+00:00", "2025-02-28T17:34:03+00:00", "2025-02-28T17:37:03+00:00", "2025-02-28T17:39:03+00:00", "2025-02-28T17:41:03+00:00", "2025-02-28T17:43:03+00:00", "2025-02-28T17:44:03+00:00", "2025-02-28T17:47:03+00:00", "2025-02-28T17:49:03+00:00", "2025-02-28T17:51:03+00:00", "2025-02-28T17:53:03+00:00", "2025-02-28T17:54:03+00:00", "2025-02-28T17:57:03+00:00", "2025-02-28T17:59:03+00:00", "2025-02-28T18:01:03+00:00", "2025-02-28T18:03:03+00:00", "2025-02-28T18:04:03+00:00", "2025-02-28T18:07:03+00:00", "2025-02-28T18:09:03+00:00", "2025-02-28T18:11:03+00:00", "2025-02-28T18:13:03+00:00", "2025-02-28T18:14:03+00:00", "2025-02-28T18:17:03+00:00", "2025-02-28T18:19:03+00:00", "2025-02-28T18:21:03+00:00", "2025-02-28T18:23:03+00:00", "2025-02-28T18:24:03+00:00", "2025-02-28T18:27:03+00:00", "2025-02-28T18:29:03+00:00", "2025-02-28T18:31:03+00:00", "2025-02-28T18:33:03+00:00", "2025-02-28T18:34:03+00:00", "2025-02-28T18:37:03+00:00", "2025-02-28T18:39:03+00:00", "2025-02-28T18:41:03+00:00", "2025-02-28T18:43:03+00:00", "2025-02-28T18:44:03+00:00", "2025-02-28T18:47:03+00:00", "2025-02-28T18:49:03+00:00", "2025-02-28T18:51:03+00:00", "2025-02-28T18:53:03+00:00", "2025-02-28T18:54:05+00:00", "2025-02-28T18:57:05+00:00", "2025-02-28T18:59:05+00:00", "2025-02-28T19:01:05+00:00", "2025-02-28T19:03:05+00:00", "2025-02-28T19:04:08+00:00", "2025-02-28T19:07:08+00:00", "2025-02-28T19:09:08+00:00", "2025-02-28T19:11:08+00:00", "2025-02-28T19:13:08+00:00", "2025-02-28T19:14:08+00:00", "2025-02-28T19:17:08+00:00", "2025-02-28T19:19:08+00:00", "2025-02-28T19:21:08+00:00", "2025-02-28T19:23:08+00:00", "2025-02-28T19:24:08+00:00", "2025-02-28T19:27:08+00:00", "2025-02-28T19:29:08+00:00", "2025-02-28T19:31:08+00:00", "2025-02-28T19:33:08+00:00", "2025-02-28T19:34:08+00:00", "2025-02-28T19:37:08+00:00", "2025-02-28T19:39:08+00:00", "2025-02-28T19:41:08+00:00", "2025-02-28T19:43:09+00:00", "2025-02-28T19:44:09+00:00", "2025-02-28T19:47:09+00:00", "2025-02-28T19:49:09+00:00", "2025-02-28T19:51:09+00:00", "2025-02-28T19:53:45+00:00", "2025-02-28T19:55:09+00:00", "2025-02-28T19:58:09+00:00", "2025-02-28T20:00:09+00:00", "2025-02-28T20:03:09+00:00", "2025-02-28T23:21:21+00:00", "2025-03-01T03:20:20+00:00", "2025-03-01T03:22:20+00:00", "2025-03-01T03:24:20+00:00", "2025-03-01T03:25:57+00:00", "2025-03-01T03:28:20+00:00", "2025-03-01T03:31:20+00:00", "2025-03-01T03:33:20+00:00", "2025-03-01T03:35:20+00:00", "2025-03-01T03:36:20+00:00", "2025-03-01T03:39:20+00:00", "2025-03-01T03:41:20+00:00", "2025-03-01T03:43:20+00:00", "2025-03-01T03:45:20+00:00", "2025-03-01T03:46:20+00:00", "2025-03-01T03:49:20+00:00", "2025-03-01T03:51:20+00:00", "2025-03-01T03:53:20+00:00", "2025-03-01T03:55:20+00:00", "2025-03-01T03:56:20+00:00", "2025-03-01T03:59:20+00:00", "2025-03-01T04:01:20+00:00", "2025-03-01T04:03:20+00:00", "2025-03-01T04:05:20+00:00", "2025-03-01T04:06:00+00:00", "2025-03-01T04:08:23+00:00", "2025-03-01T04:10:23+00:00", "2025-03-01T04:12:23+00:00", "2025-03-01T04:14:23+00:00", "2025-03-01T04:16:00+00:00", "2025-03-01T04:17:23+00:00", "2025-03-01T04:20:23+00:00", "2025-03-01T04:22:23+00:00", "2025-03-01T04:24:23+00:00", "2025-03-01T04:26:00+00:00", "2025-03-01T04:27:23+00:00", "2025-03-01T04:30:23+00:00", "2025-03-01T04:32:23+00:00", "2025-03-01T04:34:24+00:00", "2025-03-01T04:36:00+00:00", "2025-03-01T06:01:45+00:00", "2025-03-01T06:06:01+00:00", "2025-03-01T06:08:01+00:00", "2025-03-01T06:10:01+00:00", "2025-03-01T06:11:45+00:00", "2025-03-01T06:13:01+00:00", "2025-03-01T06:16:01+00:00", "2025-03-01T06:21:45+00:00", "2025-03-01T12:50:52+00:00", "2025-03-01T20:50:22+00:00", "2025-03-01T21:41:44+00:00", "2025-03-01T21:43:44+00:00", "2025-03-01T21:45:44+00:00", "2025-03-01T21:47:44+00:00", "2025-03-01T21:48:29+00:00", "2025-03-01T21:50:44+00:00", "2025-03-01T21:52:44+00:00", "2025-03-01T21:54:44+00:00", "2025-03-01T21:56:44+00:00", "2025-03-01T21:58:30+00:00", "2025-03-01T21:59:44+00:00", "2025-03-01T22:02:44+00:00", "2025-03-01T22:04:44+00:00", "2025-03-01T22:06:44+00:00", "2025-03-01T22:08:30+00:00", "2025-03-01T22:10:44+00:00", "2025-03-01T22:13:45+00:00", "2025-03-01T22:16:45+00:00", "2025-03-01T22:18:30+00:00", "2025-03-01T22:19:45+00:00", "2025-03-01T22:22:45+00:00", "2025-03-01T22:25:45+00:00", "2025-03-01T22:28:30+00:00", "2025-03-01T22:29:45+00:00", "2025-03-01T22:32:45+00:00", "2025-03-01T22:34:45+00:00", "2025-03-01T22:36:45+00:00", "2025-03-01T22:38:45+00:00", "2025-03-01T22:41:45+00:00", "2025-03-01T22:44:45+00:00", "2025-03-01T22:47:45+00:00", "2025-03-01T22:48:45+00:00", "2025-03-01T22:51:45+00:00", "2025-03-01T22:54:45+00:00", "2025-03-01T22:56:45+00:00", "2025-03-01T22:58:45+00:00", "2025-03-01T23:01:45+00:00", "2025-03-01T23:04:45+00:00", "2025-03-01T23:07:45+00:00", "2025-03-01T23:09:45+00:00", "2025-03-01T23:12:45+00:00", "2025-03-01T23:15:45+00:00", "2025-03-01T23:18:30+00:00", "2025-03-01T23:19:45+00:00", "2025-03-01T23:22:45+00:00", "2025-03-01T23:25:45+00:00", "2025-03-01T23:28:30+00:00", "2025-03-01T23:30:45+00:00", "2025-03-01T23:33:45+00:00", "2025-03-01T23:35:45+00:00", "2025-03-01T23:38:30+00:00", "2025-03-01T23:39:45+00:00", "2025-03-01T23:42:45+00:00", "2025-03-01T23:44:45+00:00", "2025-03-01T23:46:45+00:00", "2025-03-01T23:48:30+00:00", "2025-03-01T23:49:45+00:00", "2025-03-01T23:52:45+00:00", "2025-03-01T23:54:45+00:00", "2025-03-01T23:56:45+00:00", "2025-03-01T23:58:37+00:00", "2025-03-02T00:00:45+00:00", "2025-03-02T00:03:45+00:00", "2025-03-02T00:06:45+00:00", "2025-03-02T00:08:45+00:00", "2025-03-02T00:11:45+00:00", "2025-03-02T00:14:45+00:00", "2025-03-02T00:17:45+00:00", "2025-03-02T00:19:45+00:00", "2025-03-02T00:22:47+00:00", "2025-03-02T00:25:47+00:00", "2025-03-02T00:28:30+00:00", "2025-03-02T00:30:47+00:00", "2025-03-02T00:33:47+00:00", "2025-03-02T00:36:47+00:00", "2025-03-02T00:38:47+00:00", "2025-03-02T00:41:47+00:00", "2025-03-02T00:44:47+00:00", "2025-03-02T00:47:47+00:00", "2025-03-02T00:49:47+00:00", "2025-03-02T00:53:47+00:00", "2025-03-02T00:55:47+00:00", "2025-03-02T00:57:47+00:00", "2025-03-02T00:58:41+00:00", "2025-03-02T01:00:47+00:00", "2025-03-02T01:02:47+00:00", "2025-03-02T01:04:47+00:00", "2025-03-02T01:06:47+00:00", "2025-03-02T01:08:30+00:00", "2025-03-02T01:09:47+00:00", "2025-03-02T01:12:47+00:00", "2025-03-02T01:14:47+00:00", "2025-03-02T01:17:47+00:00", "2025-03-02T01:18:47+00:00", "2025-03-02T01:21:47+00:00", "2025-03-02T01:24:47+00:00", "2025-03-02T01:28:30+00:00", "2025-03-02T01:30:47+00:00", "2025-03-02T01:34:47+00:00", "2025-03-02T01:38:30+00:00", "2025-03-02T01:40:47+00:00", "2025-03-02T01:44:47+00:00", "2025-03-02T01:48:30+00:00", "2025-03-02T01:50:47+00:00", "2025-03-02T01:53:47+00:00", "2025-03-02T01:56:47+00:00", "2025-03-02T01:58:47+00:00", "2025-03-02T02:01:47+00:00", "2025-03-02T02:04:47+00:00", "2025-03-02T02:07:47+00:00", "2025-03-02T02:09:47+00:00", "2025-03-02T02:13:47+00:00", "2025-03-02T02:16:47+00:00", "2025-03-02T02:18:47+00:00", "2025-03-02T02:21:47+00:00", "2025-03-02T02:24:47+00:00", "2025-03-02T02:27:47+00:00", "2025-03-02T02:29:47+00:00", "2025-03-02T02:33:48+00:00", "2025-03-02T02:37:51+00:00", "2025-03-02T02:39:51+00:00", "2025-03-02T02:44:51+00:00", "2025-03-02T02:48:45+00:00", "2025-03-02T02:50:51+00:00", "2025-03-02T02:54:51+00:00", "2025-03-02T02:58:45+00:00", "2025-03-02T03:00:51+00:00", "2025-03-02T03:03:51+00:00", "2025-03-02T03:06:51+00:00", "2025-03-02T03:08:51+00:00", "2025-03-02T03:11:51+00:00", "2025-03-02T03:14:51+00:00", "2025-03-02T03:17:51+00:00", "2025-03-02T03:19:51+00:00", "2025-03-02T03:22:51+00:00", "2025-03-02T03:25:51+00:00", "2025-03-02T03:28:48+00:00", "2025-03-02T03:30:51+00:00", "2025-03-02T03:33:51+00:00", "2025-03-02T03:36:51+00:00", "2025-03-02T03:38:51+00:00", "2025-03-02T03:41:51+00:00", "2025-03-02T03:44:51+00:00", "2025-03-02T03:47:51+00:00", "2025-03-02T03:49:51+00:00", "2025-03-02T03:52:51+00:00", "2025-03-02T03:55:51+00:00", "2025-03-02T03:58:45+00:00", "2025-03-02T04:00:51+00:00", "2025-03-02T04:03:51+00:00", "2025-03-02T04:05:51+00:00", "2025-03-02T04:08:45+00:00", "2025-03-02T04:10:51+00:00", "2025-03-02T04:13:51+00:00", "2025-03-02T04:15:51+00:00", "2025-03-02T04:18:45+00:00", "2025-03-02T04:20:51+00:00", "2025-03-02T04:23:51+00:00", "2025-03-02T04:25:51+00:00", "2025-03-02T04:28:45+00:00", "2025-03-02T04:30:52+00:00", "2025-03-02T04:33:52+00:00", "2025-03-02T04:35:52+00:00", "2025-03-02T04:38:45+00:00", "2025-03-02T04:40:52+00:00", "2025-03-02T04:43:52+00:00", "2025-03-02T04:45:52+00:00", "2025-03-02T04:48:45+00:00", "2025-03-02T04:50:52+00:00", "2025-03-02T04:53:52+00:00", "2025-03-02T04:55:52+00:00", "2025-03-02T04:58:45+00:00", "2025-03-02T05:00:52+00:00", "2025-03-02T05:03:56+00:00", "2025-03-02T05:05:56+00:00", "2025-03-02T05:08:45+00:00", "2025-03-02T05:09:56+00:00", "2025-03-02T05:12:56+00:00", "2025-03-02T05:14:56+00:00", "2025-03-02T05:17:56+00:00", "2025-03-02T05:18:56+00:00", "2025-03-02T05:21:56+00:00", "2025-03-02T05:23:56+00:00", "2025-03-02T05:26:56+00:00", "2025-03-02T05:28:45+00:00", "2025-03-02T05:29:56+00:00", "2025-03-02T05:32:56+00:00", "2025-03-02T05:34:56+00:00", "2025-03-02T05:37:56+00:00", "2025-03-02T05:38:56+00:00", "2025-03-02T05:41:56+00:00", "2025-03-02T05:44:56+00:00", "2025-03-02T05:46:57+00:00", "2025-03-02T05:48:45+00:00", "2025-03-02T05:49:57+00:00", "2025-03-02T05:52:57+00:00", "2025-03-02T05:54:57+00:00", "2025-03-02T05:57:01+00:00", "2025-03-02T05:58:45+00:00", "2025-03-02T06:00:01+00:00", "2025-03-02T06:03:01+00:00", "2025-03-02T06:05:01+00:00", "2025-03-02T06:08:01+00:00", "2025-03-02T06:09:01+00:00", "2025-03-02T06:12:01+00:00", "2025-03-02T06:14:01+00:00", "2025-03-02T06:17:02+00:00", "2025-03-02T06:18:45+00:00", "2025-03-02T06:20:02+00:00", "2025-03-02T06:23:02+00:00", "2025-03-02T06:25:02+00:00", "2025-03-02T06:28:02+00:00", "2025-03-02T12:24:44+00:00", "2025-03-02T22:12:24+00:00", "2025-03-02T22:14:24+00:00", "2025-03-02T22:16:24+00:00", "2025-03-02T22:18:15+00:00", "2025-03-02T22:19:24+00:00", "2025-03-02T22:22:24+00:00", "2025-03-02T22:24:24+00:00", "2025-03-02T22:26:24+00:00", "2025-03-02T22:28:15+00:00", "2025-03-02T22:31:24+00:00", "2025-03-02T22:33:24+00:00", "2025-03-02T22:35:24+00:00", "2025-03-02T22:37:24+00:00", "2025-03-02T22:38:19+00:00", "2025-03-02T22:40:24+00:00", "2025-03-02T22:42:24+00:00", "2025-03-02T22:44:24+00:00", "2025-03-02T22:46:24+00:00", "2025-03-02T22:48:15+00:00", "2025-03-02T22:51:25+00:00", "2025-03-02T22:53:25+00:00", "2025-03-02T22:55:25+00:00", "2025-03-02T22:57:25+00:00", "2025-03-02T22:58:20+00:00", "2025-03-02T23:00:25+00:00", "2025-03-02T23:02:25+00:00", "2025-03-02T23:04:25+00:00", "2025-03-02T23:06:25+00:00", "2025-03-02T23:08:15+00:00", "2025-03-02T23:09:25+00:00", "2025-03-02T23:12:25+00:00", "2025-03-02T23:14:25+00:00", "2025-03-02T23:16:25+00:00", "2025-03-02T23:18:15+00:00", "2025-03-02T23:19:25+00:00", "2025-03-02T23:22:25+00:00", "2025-03-02T23:24:25+00:00", "2025-03-02T23:26:25+00:00", "2025-03-02T23:28:15+00:00", "2025-03-02T23:29:25+00:00", "2025-03-02T23:32:25+00:00", "2025-03-02T23:34:25+00:00", "2025-03-02T23:36:25+00:00", "2025-03-02T23:38:15+00:00", "2025-03-02T23:39:25+00:00", "2025-03-02T23:42:25+00:00", "2025-03-02T23:46:25+00:00", "2025-03-02T23:50:26+00:00", "2025-03-02T23:55:26+00:00", "2025-03-02T23:58:15+00:00", "2025-03-03T00:00:26+00:00", "2025-03-03T00:05:26+00:00", "2025-03-03T00:08:24+00:00", "2025-03-03T00:12:26+00:00", "2025-03-03T00:16:26+00:00", "2025-03-03T00:18:29+00:00", "2025-03-03T00:22:29+00:00", "2025-03-03T00:25:29+00:00", "2025-03-03T00:27:29+00:00", "2025-03-03T00:29:29+00:00", "2025-03-03T00:32:29+00:00", "2025-03-03T00:34:29+00:00", "2025-03-03T00:37:29+00:00", "2025-03-03T00:39:29+00:00", "2025-03-03T00:42:29+00:00", "2025-03-03T00:45:29+00:00", "2025-03-03T00:48:15+00:00", "2025-03-03T00:50:29+00:00", "2025-03-03T00:53:29+00:00", "2025-03-03T00:56:29+00:00", "2025-03-03T00:58:29+00:00", "2025-03-03T01:01:29+00:00", "2025-03-03T01:04:29+00:00", "2025-03-03T01:08:15+00:00", "2025-03-03T01:11:29+00:00", "2025-03-03T01:14:29+00:00", "2025-03-03T01:17:29+00:00", "2025-03-03T01:19:29+00:00", "2025-03-03T01:22:29+00:00", "2025-03-03T01:25:29+00:00", "2025-03-03T01:27:29+00:00", "2025-03-03T01:29:29+00:00", "2025-03-03T01:32:29+00:00", "2025-03-03T01:35:29+00:00", "2025-03-03T01:38:29+00:00", "2025-03-03T01:40:29+00:00", "2025-03-03T01:43:29+00:00", "2025-03-03T01:46:29+00:00", "2025-03-03T01:48:30+00:00", "2025-03-03T01:51:29+00:00", "2025-03-03T01:53:29+00:00", "2025-03-03T01:56:29+00:00", "2025-03-03T01:58:29+00:00", "2025-03-03T02:00:29+00:00", "2025-03-03T02:03:29+00:00", "2025-03-03T02:05:29+00:00", "2025-03-03T02:08:29+00:00", "2025-03-03T02:09:29+00:00", "2025-03-03T02:12:29+00:00", "2025-03-03T02:14:29+00:00", "2025-03-03T02:17:29+00:00", "2025-03-03T02:18:31+00:00", "2025-03-03T02:21:29+00:00", "2025-03-03T02:24:29+00:00", "2025-03-03T02:26:29+00:00", "2025-03-03T02:28:31+00:00", "2025-03-03T02:31:29+00:00", "2025-03-03T02:34:29+00:00", "2025-03-03T02:36:29+00:00", "2025-03-03T02:38:30+00:00", "2025-03-03T02:40:29+00:00", "2025-03-03T02:43:29+00:00", "2025-03-03T02:45:29+00:00", "2025-03-03T02:48:29+00:00", "2025-03-03T02:50:29+00:00", "2025-03-03T02:53:29+00:00", "2025-03-03T02:55:29+00:00", "2025-03-03T02:58:30+00:00", "2025-03-03T03:00:29+00:00", "2025-03-03T03:03:29+00:00", "2025-03-03T03:06:29+00:00", "2025-03-03T03:08:33+00:00", "2025-03-03T03:11:29+00:00", "2025-03-03T03:14:29+00:00", "2025-03-03T03:16:29+00:00", "2025-03-03T03:18:34+00:00", "2025-03-03T03:21:29+00:00", "2025-03-03T03:24:29+00:00", "2025-03-03T03:26:29+00:00", "2025-03-03T03:28:35+00:00", "2025-03-03T03:31:29+00:00", "2025-03-03T03:34:29+00:00", "2025-03-03T03:37:29+00:00", "2025-03-03T03:38:35+00:00", "2025-03-03T03:41:29+00:00", "2025-03-03T03:44:29+00:00", "2025-03-03T03:47:29+00:00", "2025-03-03T03:49:29+00:00", "2025-03-03T03:52:29+00:00", "2025-03-03T03:55:29+00:00", "2025-03-03T03:58:29+00:00", "2025-03-03T04:00:29+00:00", "2025-03-03T04:03:29+00:00", "2025-03-03T04:06:29+00:00", "2025-03-03T04:08:36+00:00", "2025-03-03T04:11:29+00:00", "2025-03-03T04:14:29+00:00", "2025-03-03T04:17:29+00:00", "2025-03-03T04:19:29+00:00", "2025-03-03T04:22:29+00:00", "2025-03-03T04:25:29+00:00", "2025-03-03T04:28:29+00:00", "2025-03-03T04:30:37+00:00", "2025-03-03T04:33:37+00:00", "2025-03-03T04:36:37+00:00", "2025-03-03T04:38:37+00:00", "2025-03-03T04:41:37+00:00", "2025-03-03T04:44:37+00:00", "2025-03-03T04:47:37+00:00", "2025-03-03T04:49:37+00:00", "2025-03-03T04:52:37+00:00", "2025-03-03T04:55:37+00:00", "2025-03-03T04:58:30+00:00", "2025-03-03T05:00:37+00:00", "2025-03-03T05:03:37+00:00", "2025-03-03T05:05:37+00:00", "2025-03-03T05:08:30+00:00", "2025-03-03T05:09:37+00:00", "2025-03-03T05:12:37+00:00", "2025-03-03T05:15:37+00:00", "2025-03-03T05:18:30+00:00", "2025-03-03T05:21:37+00:00", "2025-03-03T05:25:37+00:00", "2025-03-03T05:27:37+00:00", "2025-03-03T05:28:40+00:00", "2025-03-03T05:31:37+00:00", "2025-03-03T05:33:37+00:00", "2025-03-03T05:36:37+00:00", "2025-03-03T05:38:30+00:00", "2025-03-03T05:39:37+00:00", "2025-03-03T05:42:37+00:00", "2025-03-03T05:44:37+00:00", "2025-03-03T05:46:37+00:00", "2025-03-03T05:48:30+00:00", "2025-03-03T05:50:37+00:00", "2025-03-03T05:53:37+00:00", "2025-03-03T05:55:38+00:00", "2025-03-03T05:57:38+00:00", "2025-03-03T05:59:38+00:00", "2025-03-03T06:02:38+00:00", "2025-03-03T06:04:38+00:00", "2025-03-03T06:07:38+00:00", "2025-03-03T06:08:42+00:00", "2025-03-03T06:11:40+00:00", "2025-03-03T06:13:41+00:00", "2025-03-03T06:15:41+00:00", "2025-03-03T06:18:30+00:00", "2025-03-03T06:19:41+00:00", "2025-03-03T06:22:41+00:00", "2025-03-03T06:24:41+00:00", "2025-03-03T06:26:41+00:00", "2025-03-03T06:28:41+00:00", "2025-03-03T06:30:41+00:00", "2025-03-03T06:33:41+00:00", "2025-03-03T06:38:37+00:00", "2025-03-03T06:40:46+00:00", "2025-03-03T06:43:46+00:00", "2025-03-03T06:46:47+00:00", "2025-03-03T06:48:49+00:00", "2025-03-03T06:51:47+00:00", "2025-03-03T06:54:47+00:00", "2025-03-03T06:57:47+00:00", "2025-03-03T11:54:52+00:00", "2025-03-03T18:05:49+00:00", "2025-03-03T18:07:51+00:00", "2025-03-03T18:09:51+00:00", "2025-03-03T18:12:00+00:00", "2025-03-03T18:12:56+00:00", "2025-03-03T18:16:50+00:00", "2025-03-03T18:18:59+00:00", "2025-03-03T18:21:53+00:00", "2025-03-03T18:22:53+00:00", "2025-03-03T18:24:54+00:00", "2025-03-03T18:27:54+00:00", "2025-03-03T18:29:55+00:00", "2025-03-03T18:31:55+00:00", "2025-03-03T18:32:55+00:00", "2025-03-03T18:34:55+00:00", "2025-03-03T18:37:55+00:00", "2025-03-03T18:39:55+00:00", "2025-03-03T18:41:55+00:00", "2025-03-03T18:42:55+00:00", "2025-03-03T18:44:55+00:00", "2025-03-03T18:47:55+00:00", "2025-03-03T18:49:55+00:00", "2025-03-03T18:51:56+00:00", "2025-03-03T18:52:56+00:00", "2025-03-03T18:54:56+00:00", "2025-03-03T18:57:56+00:00", "2025-03-03T18:59:56+00:00", "2025-03-03T19:01:57+00:00", "2025-03-03T19:02:57+00:00", "2025-03-03T19:04:57+00:00", "2025-03-03T19:07:57+00:00", "2025-03-03T19:09:57+00:00", "2025-03-03T19:11:57+00:00", "2025-03-03T19:12:57+00:00", "2025-03-03T19:14:57+00:00", "2025-03-03T19:17:57+00:00", "2025-03-03T19:19:57+00:00", "2025-03-03T19:21:57+00:00", "2025-03-03T19:23:00+00:00", "2025-03-03T19:24:57+00:00", "2025-03-03T19:27:59+00:00", "2025-03-03T19:30:05+00:00", "2025-03-03T19:32:57+00:00", "2025-03-03T19:35:57+00:00", "2025-03-03T19:38:05+00:00", "2025-03-03T19:40:57+00:00", "2025-03-03T19:42:57+00:00", "2025-03-03T19:46:57+00:00", "2025-03-03T19:48:57+00:00", "2025-03-03T19:50:57+00:00", "2025-03-03T19:52:57+00:00", "2025-03-03T19:53:57+00:00", "2025-03-03T19:57:57+00:00", "2025-03-03T19:59:59+00:00", "2025-03-03T20:01:59+00:00", "2025-03-03T20:03:00+00:00", "2025-03-03T20:05:00+00:00", "2025-03-03T20:08:00+00:00", "2025-03-03T20:10:00+00:00", "2025-03-03T20:12:00+00:00", "2025-03-03T20:13:00+00:00", "2025-03-03T20:15:00+00:00", "2025-03-03T20:18:00+00:00", "2025-03-03T20:20:00+00:00", "2025-03-03T20:22:00+00:00", "2025-03-03T20:23:00+00:00", "2025-03-03T20:25:00+00:00", "2025-03-03T20:28:00+00:00", "2025-03-03T20:30:00+00:00", "2025-03-03T20:32:00+00:00", "2025-03-03T20:33:00+00:00", "2025-03-03T20:35:04+00:00", "2025-03-03T20:38:04+00:00", "2025-03-03T20:40:04+00:00", "2025-03-03T20:42:05+00:00", "2025-03-03T20:43:04+00:00", "2025-03-03T20:45:05+00:00", "2025-03-03T20:48:05+00:00", "2025-03-03T20:50:05+00:00", "2025-03-03T20:52:05+00:00", "2025-03-03T20:53:05+00:00", "2025-03-03T20:56:05+00:00", "2025-03-03T20:58:05+00:00", "2025-03-03T21:00:05+00:00", "2025-03-03T21:02:05+00:00", "2025-03-03T21:03:05+00:00", "2025-03-03T21:05:05+00:00", "2025-03-03T21:08:05+00:00", "2025-03-03T21:10:05+00:00", "2025-03-03T21:12:05+00:00", "2025-03-03T21:13:45+00:00", "2025-03-03T21:15:05+00:00", "2025-03-03T21:18:49+00:00", "2025-03-03T21:20:49+00:00", "2025-03-03T21:22:49+00:00", "2025-03-03T21:23:53+00:00", "2025-03-03T21:26:53+00:00", "2025-03-03T21:28:53+00:00", "2025-03-03T21:30:53+00:00", "2025-03-03T21:32:59+00:00", "2025-03-03T21:33:54+00:00", "2025-03-03T21:36:52+00:00", "2025-03-03T21:38:52+00:00", "2025-03-03T21:40:52+00:00", "2025-03-03T21:42:52+00:00", "2025-03-03T21:43:52+00:00", "2025-03-03T21:45:53+00:00", "2025-03-03T21:48:53+00:00", "2025-03-03T21:50:53+00:00", "2025-03-03T21:52:54+00:00", "2025-03-03T21:53:54+00:00", "2025-03-03T21:55:54+00:00", "2025-03-03T21:58:54+00:00", "2025-03-03T22:00:54+00:00", "2025-03-03T22:02:54+00:00", "2025-03-03T22:03:54+00:00", "2025-03-03T22:05:54+00:00", "2025-03-03T22:08:54+00:00", "2025-03-03T22:10:54+00:00", "2025-03-03T22:12:54+00:00", "2025-03-03T22:13:54+00:00", "2025-03-03T22:15:54+00:00", "2025-03-03T22:18:54+00:00", "2025-03-03T22:20:58+00:00", "2025-03-03T22:22:58+00:00", "2025-03-03T22:24:00+00:00", "2025-03-03T22:27:58+00:00", "2025-03-03T22:29:58+00:00", "2025-03-03T22:31:58+00:00", "2025-03-03T22:33:58+00:00", "2025-03-03T22:34:58+00:00", "2025-03-03T22:38:00+00:00", "2025-03-03T22:41:06+00:00", "2025-03-03T22:43:58+00:00", "2025-03-03T22:44:58+00:00", "2025-03-03T22:48:30+00:00", "2025-03-03T22:50:30+00:00", "2025-03-03T22:52:30+00:00", "2025-03-03T22:54:00+00:00", "2025-03-03T22:55:31+00:00", "2025-03-03T22:58:31+00:00", "2025-03-03T23:00:52+00:00", "2025-03-03T23:02:53+00:00", "2025-03-03T23:04:00+00:00", "2025-03-03T23:05:58+00:00", "2025-03-03T23:08:00+00:00", "2025-03-03T23:10:00+00:00", "2025-03-03T23:12:00+00:00", "2025-03-03T23:14:00+00:00", "2025-03-03T23:18:02+00:00", "2025-03-03T23:20:02+00:00", "2025-03-03T23:22:02+00:00", "2025-03-03T23:24:00+00:00", "2025-03-03T23:25:02+00:00", "2025-03-03T23:28:08+00:00", "2025-03-03T23:30:08+00:00", "2025-03-03T23:32:08+00:00", "2025-03-03T23:34:00+00:00", "2025-03-03T23:35:08+00:00", "2025-03-03T23:38:08+00:00", "2025-03-03T23:40:08+00:00", "2025-03-03T23:42:08+00:00", "2025-03-03T23:44:00+00:00", "2025-03-03T23:45:08+00:00", "2025-03-03T23:48:08+00:00", "2025-03-03T23:50:08+00:00", "2025-03-03T23:52:31+00:00", "2025-03-03T23:54:00+00:00", "2025-03-03T23:56:07+00:00", "2025-03-03T23:58:07+00:00", "2025-03-04T00:00:07+00:00", "2025-03-04T00:02:07+00:00", "2025-03-04T00:04:00+00:00", "2025-03-04T00:05:08+00:00", "2025-03-04T00:08:08+00:00", "2025-03-04T00:10:08+00:00", "2025-03-04T00:12:08+00:00", "2025-03-04T00:14:00+00:00", "2025-03-04T00:15:09+00:00", "2025-03-04T00:18:11+00:00", "2025-03-04T00:20:11+00:00", "2025-03-04T00:22:12+00:00", "2025-03-04T00:24:00+00:00", "2025-03-04T00:25:12+00:00", "2025-03-04T00:28:12+00:00", "2025-03-04T00:30:12+00:00", "2025-03-04T00:32:12+00:00", "2025-03-04T00:34:00+00:00", "2025-03-04T00:35:12+00:00", "2025-03-04T00:38:12+00:00", "2025-03-04T00:40:12+00:00", "2025-03-04T00:42:12+00:00", "2025-03-04T00:44:12+00:00", "2025-03-04T00:45:12+00:00", "2025-03-04T00:48:13+00:00", "2025-03-04T00:50:13+00:00", "2025-03-04T00:52:13+00:00", "2025-03-04T00:54:13+00:00", "2025-03-04T00:55:13+00:00", "2025-03-04T00:58:13+00:00", "2025-03-04T01:00:13+00:00", "2025-03-04T01:02:13+00:00", "2025-03-04T01:04:13+00:00", "2025-03-04T01:05:13+00:00", "2025-03-04T01:08:13+00:00", "2025-03-04T01:10:13+00:00", "2025-03-04T01:12:13+00:00", "2025-03-04T01:14:13+00:00", "2025-03-04T01:15:13+00:00", "2025-03-04T01:18:13+00:00", "2025-03-04T01:20:13+00:00", "2025-03-04T01:22:13+00:00", "2025-03-04T01:24:13+00:00", "2025-03-04T01:25:13+00:00", "2025-03-04T01:28:13+00:00", "2025-03-04T01:30:13+00:00", "2025-03-04T01:32:15+00:00", "2025-03-04T01:34:15+00:00", "2025-03-04T01:35:15+00:00", "2025-03-04T01:38:23+00:00", "2025-03-04T01:41:15+00:00", "2025-03-04T01:43:23+00:00", "2025-03-04T01:45:13+00:00", "2025-03-04T01:48:16+00:00", "2025-03-04T01:50:16+00:00", "2025-03-04T01:53:16+00:00", "2025-03-04T01:54:20+00:00", "2025-03-04T01:57:16+00:00", "2025-03-04T02:00:16+00:00", "2025-03-04T02:03:16+00:00", "2025-03-04T02:04:16+00:00", "2025-03-04T02:06:16+00:00", "2025-03-04T02:09:17+00:00", "2025-03-04T02:11:17+00:00", "2025-03-04T02:14:15+00:00", "2025-03-04T02:15:18+00:00", "2025-03-04T02:18:19+00:00", "2025-03-04T02:20:22+00:00", "2025-03-04T02:23:22+00:00", "2025-03-04T02:24:22+00:00", "2025-03-04T02:27:22+00:00", "2025-03-04T02:29:22+00:00", "2025-03-04T02:32:22+00:00", "2025-03-04T02:34:15+00:00", "2025-03-04T02:35:26+00:00", "2025-03-04T02:38:57+00:00", "2025-03-04T02:41:09+00:00", "2025-03-04T02:43:19+00:00", "2025-03-04T02:44:22+00:00", "2025-03-04T02:47:21+00:00", "2025-03-04T02:49:22+00:00", "2025-03-04T02:52:23+00:00", "2025-03-04T02:54:15+00:00", "2025-03-04T02:56:23+00:00", "2025-03-04T02:59:23+00:00", "2025-03-04T03:02:23+00:00", "2025-03-04T03:04:23+00:00", "2025-03-04T03:07:23+00:00", "2025-03-04T03:10:23+00:00", "2025-03-04T03:13:23+00:00", "2025-03-04T03:16:23+00:00", "2025-03-04T03:19:23+00:00", "2025-03-04T03:24:15+00:00", "2025-03-04T03:26:21+00:00", "2025-03-04T03:30:21+00:00", "2025-03-04T03:33:21+00:00", "2025-03-04T03:35:21+00:00", "2025-03-04T03:38:21+00:00", "2025-03-04T03:41:21+00:00", "2025-03-04T03:44:15+00:00", "2025-03-04T03:46:21+00:00", "2025-03-04T03:49:21+00:00", "2025-03-04T03:52:21+00:00", "2025-03-04T03:54:26+00:00", "2025-03-04T03:57:24+00:00", "2025-03-04T04:00:24+00:00", "2025-03-04T04:03:24+00:00", "2025-03-04T04:05:24+00:00", "2025-03-04T04:08:24+00:00", "2025-03-04T04:10:24+00:00", "2025-03-04T04:13:24+00:00", "2025-03-04T04:15:24+00:00", "2025-03-04T04:18:24+00:00", "2025-03-04T04:20:24+00:00", "2025-03-04T04:23:24+00:00", "2025-03-04T04:24:27+00:00", "2025-03-04T04:27:24+00:00", "2025-03-04T04:30:24+00:00", "2025-03-04T04:34:26+00:00", "2025-03-08T14:54:33+00:00", "2025-03-09T02:31:38+00:00", "2025-03-18T05:39:30+00:00", "2025-03-18T05:39:32+00:00", "2025-03-18T05:49:30+00:00", "2025-03-20T21:23:59+00:00", "2025-03-20T23:41:56+00:00", "2025-03-20T23:45:56+00:00", "2025-03-20T23:48:56+00:00", "2025-03-20T23:49:56+00:00", "2025-03-20T23:52:56+00:00", "2025-03-20T23:54:56+00:00", "2025-03-20T23:57:56+00:00", "2025-03-20T23:59:01+00:00", "2025-03-21T00:01:56+00:00", "2025-03-21T00:03:56+00:00", "2025-03-21T00:13:49+00:00", "2025-03-22T02:49:28+00:00", "2025-03-22T22:22:20+00:00", "2025-03-22T22:27:09+00:00"], "elevations": [10.1, 8.5, 6.0, 5.0, 6.3, 11.0, 10.3, 9.0, 10.1, 13.5, 14.0, 11.5, 9.8, 9.0, 8.5, 6.5, 5.5, 4.8, 5.0, 5.0, 5.0, 5.0, 4.8, 5.0, 5.0, 5.0, 5.0, 5.8, 7.3, 9.0, 9.0, 8.0, 8.1, 8.7, 9.0, 9.0, 9.0, 8.8, 11.0, 12.0, 12.0, 11.5, 9.8, 9.3, 7.0, 7.0, 7.0, 6.8, 7.7, 7.5, 8.0, 8.5, 8.1, 7.3, 6.0, 6.0, 6.0, 4.8, 4.7, 4.0, 4.0, 5.0, 5.5, 5.7, 6.0, 6.0, 7.0, 6.5, 6.0, 8.8, 4.7, 9.5, 7.5, 7.5, 6.7, 5.3, 6.0, 6.0, 6.5, 6.7, 7.0, 7.5, 8.0, 8.0, 6.7, 7.0, 6.3, 7.5, 6.3, 5.8, 6.5, 5.0, 5.0, 4.8, 5.0, 5.0, 4.5, 4.2, 4.0, 4.0, 0.1, 0.0, 0.0, 0.0, -0.6, 0.8, 3.3, 3.3, 3.8, 2.3, 2.0, 3.0, 3.0, 4.1, 4.7, 5.0, 4.5, 4.0, 2.8, 2.7, 4.0, 3.0, 3.0, 2.4, 3.0, 3.0, 5.0, 6.5, 6.8, 8.3, 9.5, 10.5, 10.0, 10.2, 10.0, 10.0, 10.0, 10.0, 10.8, 10.3, 10.0, 3.7, 3.5, 2.6, 2.0, 1.5, 1.0, 0.8, 1.3, 3.5, 4.5, 4.0, 5.0, 7.9, 6.0, 5.5, 4.5, 4.8, 5.3, 5.5, 5.0, 5.5, 6.1, 7.0, 8.5, 10.5, 10.0, 11.0, 10.9, 10.5, 10.0, 8.5, 8.1, 8.0, 7.5, 6.5, 5.5, 6.0, 6.1, 6.0, 6.0, 6.0, 6.0, 5.8, 5.5, 5.0, 5.0, 5.0, 4.3, 3.5, 4.0, 4.0, 4.0, 4.1, 4.0, 4.0, 4.5, 5.0, 4.8, 5.0, 5.0, 4.0, 2.5, 0.8, 1.0, 1.0, 1.0, 1.8, 2.0, 2.5, 3.0, 3.0, 2.4, 3.0, 3.0, 3.0, 3.0, 2.8, 3.0, 4.0, 3.0, 3.5, 3.0, 2.8, 3.0, 3.0, 3.0, 3.0, 2.8, 3.0, 3.0, 3.0, 4.0, 3.8, 4.0, 3.7, 5.0, 4.8, 6.0, 6.0, 5.5, 6.3, 6.3, 5.3, 4.7, 4.1, 4.7, 6.0, 6.5, 6.8, 6.0, 3.7, 3.3, 2.0, 2.0, 5.0, 4.1, 4.0, 4.0, 3.5, 4.0, 2.8, 2.7, 2.5, 3.7, 4.0, 4.1, 4.0, 4.0, 4.3, 4.0, 2.8, 3.0, 3.0, 2.0, 2.1, 2.0, 2.5, 3.0, 3.0, 2.8, 1.7, 1.5, 1.3, 2.1, 2.0, 2.0, 2.0, 2.0, 2.6, 3.0, 3.0, 3.5, 4.1, 4.0, 4.0, 4.0, 3.5, 3.3, 4.0, 4.0, 3.5, 2.8, 4.0, 4.0, 3.5, 3.5, 3.5, 3.0, 3.0, 3.0, 3.0, 2.1, 2.0, 1.3, 2.0, 2.4, 3.0, 3.5, 4.0, 4.0, 4.1, 4.0, 4.0, 4.3, 4.5, 3.3, 4.0, 3.5, 4.0, 4.1, 4.7, 7.0, 6.0, 6.0, 6.1, 6.0, 6.0, 6.0, 6.1, 6.0, 6.0, 6.0, 6.0, 6.1, 6.0, 7.0, 7.0, 6.8, 7.0, 7.0, 7.0, 8.1, 7.0, 7.0, 7.7, 7.5, 8.4, 9.0, 10.5, 10.0, 10.3, 10.2, 11.0, 11.0, 11.0, 10.2, 10.3, 10.0, 10.0, 9.5, 9.0, 8.9, 9.0, 8.0, 8.0, 8.0, 8.1, 9.0, 12.5, 8.0, 10.5, 11.9, 11.0, 11.5, 11.0, 11.0, 10.4, 10.0, 10.0, 9.0, 8.8, 8.7, 8.0, 8.0, 8.0, 8.1, 8.0, 7.0, 7.0, 7.0, 6.8, 7.0, 7.0, 7.0, 8.0, 8.1, 9.0, 8.0, 8.0, 9.3, 10.2, 9.0, 9.0, 9.0, 9.0, 8.8, 12.0, 10.0, 9.0, 8.0, 8.1, 8.7, 8.0, 8.0, 8.0, 8.1, 7.0, 7.3, 7.0, 8.1, 8.3, 8.0, 8.0, 8.0, 7.9, 8.0, 8.0, 8.0, 8.1, 7.0, 6.5, 6.3, 7.0, 6.8, 7.3, 8.5, 9.0, 8.3, 8.1, 8.3, 7.0, 7.0, 6.8, 7.7, 7.0, 10.3, 11.5, 11.9, 11.5, 11.3, 13.5, 12.4, 11.3, 12.3, 13.0, 12.9, 13.0, 12.0, 12.1, 12.0, 11.7, 11.1, 13.0, 14.7, 15.0, 14.9, 15.0, 15.0, 15.1, 15.0, 15.0, 14.2, 14.2, 15.0, 16.3, 16.9, 15.7, 14.0, 13.0, 12.2, 12.7, 12.0, 11.3, 10.8, 11.0, 11.5, 11.7, 12.2, 11.8, 11.0, 10.0, 10.0, 10.1, 9.5, 9.7, 8.8, 9.5, 10.0, 10.0, 10.2, 10.0, 8.0, 8.0, 8.1, 8.0, 7.3, 7.7, 8.1, 8.0, 7.7, 8.0, 8.1, 8.0, 8.0, 9.3, 10.9, 12.0, 12.0, 12.7, 13.1, 13.3, 14.0, 14.8, 16.8, 15.0, 13.7, 12.1, 10.0, 9.0, 7.3, 6.8, 7.3, 8.0, 8.1, 12.5, 11.7, 10.7, 10.4, 10.2, 10.0, 10.4, 10.2, 10.7, 11.0, 10.9, 11.0, 10.7, 10.4, 10.8, 11.0, 11.0, 10.9, 11.3, 12.0, 12.1, 12.0, 11.0, 10.9, 11.0, 11.0, 10.3, 10.3, 11.0, 10.0, 10.1, 10.2, 10.7, 10.1, 7.5, 7.7, 8.0, 8.1, 8.3, 9.0, 8.9, 13.0, 15.0, 14.9, 15.0, 15.0, 15.0, 12.1, 8.3, 8.0, 9.0, 8.9, 9.0, 9.0, 8.5, 9.0, 8.9, 9.0, 9.0, 9.0, 8.0, 7.4, 5.0, 5.0, 5.0, 5.0, 6.1, 6.0, 6.0, 6.5, 6.8, 7.0, 7.0, 8.5, 8.5, 9.8, 9.7, 9.5, 9.5, 11.0, 10.8, 10.7, 9.0, 9.0, 9.5, 10.5, 11.3, 12.0, 12.0, 12.0, 11.0, 9.6, 6.5, 6.5, 6.0, 11.2, 12.7, 12.0, 13.5, 14.0, 14.0, 14.1, 14.0, 14.0, 14.0, 16.0, 13.6, 13.5, 13.5, 11.0, 11.0, 10.1, 11.0, 10.5, 12.5, 10.5, 10.1, 10.5, 10.0, 8.5, 7.5, 9.1, 11.0, 10.0, 9.0, 9.0, 8.9, 9.0, 11.5, 8.7, 8.1, 9.3, 10.0, 10.7, 10.8, 10.4, 11.0, 10.0, 10.7, 18.2, 9.3, 7.0, 7.0, 7.0, 8.1, 8.5, 9.0, 9.0, 9.5, 10.1, 10.0, 10.0, 8.5, 7.0, 6.8, 6.0, 6.0, 6.0, 6.5, 6.8, 7.0, 7.0, 7.0, 8.5, 10.2, 10.7, 11.0, 11.0, 11.0, 8.8, 9.0, 12.5, 12.0, 11.5, 11.5, 8.9, 12.0, 12.0, 14.5, 16.5, 13.7, 12.0, 11.9, 21.6, 21.9, 11.5, 13.0, 14.0, 14.0, 14.2, 14.0, 15.0, 14.0, 15.0, 14.8, 15.0, 14.0, 14.0, 14.0, 13.5, 11.5, 12.7, 13.0, 12.8, 13.0, 13.0, 14.0, 14.2, 14.3, 14.0, 15.0, 14.0, 14.4, 14.0, 14.7, 14.0, 16.1, 16.0, 16.0, 15.0, 14.9, 14.0, 14.0, 10.2, 9.2, 9.0, 8.3, 8.1, 6.7, 4.7, 5.7, 6.1, 6.5, 7.0, 7.7, 8.1, 8.7, 9.5, 10.0, 9.5, 8.8, 9.3, 10.0, 10.0, 10.0, 10.2, 10.3, 11.0, 11.0, 10.9, 8.0, 8.0, 8.1, 8.0, 8.0, 7.0, 6.8, 6.8, 6.0, 6.0, 6.1, 6.0, 6.0, 8.5, 7.8, 8.5, 9.0, 6.0, 6.8, 6.5, 7.0, 7.5, 8.0, 8.8, 8.3, 8.0, 7.0, 6.0, 6.1, 5.7, 5.0, 5.8, 6.2, 7.0, 8.1, 8.8, 9.0, 8.9, 9.0, 9.7, 9.0, 6.8, 5.3, 5.7, 4.3, 4.1, 5.0, 6.0, 7.9, 5.7, 6.0, 5.3, 5.1, 6.0, 6.1, 6.0, 7.0, 5.6, 4.6, 5.0, 4.8, 4.8, 4.3, 4.0, 3.8, 3.0, 3.3, 4.1, 6.5, 11.0, 8.3, 6.1, 5.3, 6.0, 6.0, 6.1, 2.7, 7.0, 8.1, 8.5, 9.0, 8.3, 8.1, 8.0, 8.0, 8.0, 8.1, 7.8, 7.0, 7.0, 6.8, 6.5, 5.0, 7.3, 4.1, 4.8, 5.0, 4.7, 4.1, 3.2, 3.0, 3.0, 2.8, 3.0, 3.0, 3.0, 2.8, 2.7, 2.0, 2.0, 2.1, 2.0, 2.0, 2.0, 2.0, 2.1, 2.0, 5.3, 7.0, 7.8, 8.0, 7.0, 7.3, 7.0, 7.4, 8.0, 8.0, 7.0, 6.8, 7.0, 4.0, 5.5, 7.0, 8.1, 8.0, 7.5, 7.3, 8.5, 8.9, 9.0, 9.0, 9.0, 8.8, 7.7, 5.5, 7.3, 4.4, 10.6, 12.0, 12.0, 12.0, 12.2, 12.0, 11.0, 11.0, 11.0, 10.7, 11.0, 11.5, 12.0, 13.0, 12.8, 13.0, 8.5, 7.5, 9.0, 6.7, 6.5, 6.0, 6.5, 12.5, 12.2, 13.5, 15.5, 13.5, 9.5, 8.2, 9.0, 9.5, 10.0, 10.0, 7.2, 9.8, 11.0, 11.0, 11.0, 10.7, 11.2, 11.0, 7.0, 6.5, 6.7, 6.0, 7.3, 8.3, 9.0, 9.2, 10.2, 8.8, 9.0, 8.9, 6.0, 6.8, 6.9, 6.3, 7.5, 8.1, 9.5, 8.5, 10.3, 11.5, 11.0, 11.3, 10.0, 9.1, 9.8, 10.3, 8.7, 8.6, 10.7, 11.0, 11.9, 11.8, 10.3, 9.8, 9.7, 8.0, 8.0, 8.1, 6.7, 7.0, 7.7, 8.1, 8.0, 8.3, 9.0, 8.9, 10.0, 9.7, 9.0, 9.3, 8.9, 8.0, 8.7, 8.8, 8.3, 9.0, 9.7, 11.0, 10.9, 11.0, 10.5, 10.3, 8.9, 9.0, 9.0, 9.0, 8.8, 9.0, 9.0, 9.7, 10.2, 10.8, 11.5, 11.3, 10.1, 9.3, 8.0, 8.0, 8.4, 9.0, 10.0, 10.7, 12.3, 13.3, 13.0, 11.3, 11.0, 10.7, 9.0, 9.0, 8.3, 8.0, 8.0, 8.0, 8.7, 9.3, 10.0, 10.0, 10.3, 10.0, 10.0, 10.0, 10.0, 10.0, 10.7, 10.7, 10.7, 11.0, 11.0, 11.3, 11.7, 11.0, 10.2, 9.7, 9.0, 6.8, 6.3, 6.7, 6.0, 6.5, 7.0, 6.0, 6.0, 6.1, 6.3, 8.3, 8.5, 8.1, 11.5, 12.0, 12.2, 12.0, 12.0, 12.0, 12.0, 12.2, 12.0, 12.0, 12.0, 12.0, 12.2, 12.0, 12.0, 12.0, 12.2, 12.0, 12.0, 14.3, 14.0, 11.9, 9.5, 10.0, 10.7, 12.2, 12.3, 12.0, 12.0, 9.3, 10.8, 13.0, 12.0, 10.9, 11.0, 9.0, 13.7, 12.6, 11.3, 11.0, 10.9, 13.2, 12.0, 12.5, 13.5, 13.0, 12.8, 13.5, 9.5, 9.0, 8.1, 7.0, 8.0, 8.0, 6.5, 6.1, 6.7, 15.0, 15.5, 15.0, 14.8, 13.7, 10.0, 11.0, 11.5, 12.2, 12.0, 13.5, 20.5, 16.5, 14.8, 9.3, 9.5, 9.0, 8.5, 6.8, 7.0, 6.0, 6.5, 8.5, 6.8, 8.7, 10.0, 10.0, 10.0, 9.0, 9.0, 10.0, 10.0, 10.0, 11.0, 12.0, 12.8, 12.0, 11.0, 11.0, 10.5, 10.2, 10.0, 10.0, 10.5, 11.0, 10.8, 12.0, 12.5, 13.0, 17.0, 16.2, 16.3, 19.0, 20.0, 19.0, 14.5, 11.7, 12.0, 11.5, 11.0, 10.2, 10.0, 9.5, 10.0, 10.0, 10.2, 10.0, 10.0, 11.5, 11.5, 10.8, 10.3, 10.5, 9.0, 8.5, 8.1, 9.3, 10.0, 11.0, 11.0, 10.8, 10.5, 8.0, 6.5, 10.5, 6.8, 7.5, 7.5, 8.0, 8.5, 10.2, 10.0, 20.5, 12.5, 12.0, 8.5, 12.0, 7.5, 6.0, 6.5, 7.8, 7.3, 8.0, 8.0, 8.0, 8.1, 9.3, 8.5, 8.5, 5.0, 8.5, 9.0, 7.0, 7.0, 6.8, 7.0, 7.0, 8.0, 9.0, 9.1, 10.0, 12.5, 15.0, 15.8, 14.3, 10.0, 5.5, 2.5, 6.1, 6.0, 7.0, 6.0, 2.0, 4.2, 2.0, 5.5, 9.0, 4.7, 5.8, 8.0, 7.5, 3.5, 4.2, 3.0, 0.0, 0.0, 0.0, 0.7, 3.3, 6.5, 10.5, 11.0, 8.8, 7.0, 7.0, 3.0, 7.0, 7.7, 8.5, 8.0, 40.5, 48.5, 20.3, 27.2, 16.0, 13.5, 13.0, 12.7, 12.2, 10.5, 10.0, 11.0, 12.2, 11.5, 10.0, 9.5, 9.0, 8.8, 9.0, 8.5, 8.0, 8.0, 8.0, 9.1, 11.5, 13.5, 13.5, 12.8, 13.3, 14.0, 13.5, 13.0, 12.8, 13.0, 9.5, 6.0, 6.5, 6.8, 6.3, 6.0, 4.5, 5.5, 6.1, 6.0, 6.5, 7.0, 6.5, 7.7, 5.5, 4.0, 3.5, 3.1, 3.0, 6.5, 5.0, 6.1, 7.0, 10.0, 9.0, 9.8, 10.0, 10.5, 11.0, 10.5, 10.4, 11.0, 11.0, 10.5, 10.2, 9.7, 8.0, 4.5, 11.0, 8.1, 9.0, 9.7, 13.0, 12.8, 10.3, 18.7, 12.7, 12.2, 10.7, 11.0, 12.5, 13.0, 12.7, 11.9, 9.4, 8.0, 8.1, 9.0, 8.0, 9.3, 10.2, 10.2, 9.0, 11.3, 11.9, 8.0, 9.7, 10.2, 10.2, 11.0, 10.7, 8.1, 4.5, 6.5, 7.0, 7.0, 7.3, 9.3, 49.7, 9.7, 25.0, 5.6, null, null, 6.4, 19.8, 9.7, 12.8, 14.0, 14.9, 14.5, 14.0, 13.0, 13.1, 14.0, 14.0, 12.0, 12.0, 8.8, 9.6]}