{"type": "Feature", "properties": {"leg_id": 37, "name": "20220727 - Tahiti to Bora Bora", "stated_nm": 143.2, "computed_nm": 143.2}, "geometry": {"type": "LineString", "coordinates": [[-149.852652, -17.492202], [-149.854016, -17.492916], [-149.856394, -17.492464], [-149.858466, -17.490787], [-149.860361, -17.488474], [-149.860969, -17.486854], [-149.859842, -17.485324], [-149.858977, -17.484204], [-149.86114, -17.482823], [-149.862974, -17.481473], [-149.867258, -17.47777], [-149.870125, -17.475259], [-149.873581, -17.472109], [-149.877569, -17.468485], [-149.879707, -17.467042], [-149.884325, -17.465551], [-149.886142, -17.464905], [-149.888563, -17.464116], [-149.893165, -17.462276], [-149.897301, -17.460682], [-149.901718, -17.458841], [-149.906561, -17.456827], [-149.908645, -17.455839], [-149.91069, -17.454835], [-149.915214, -17.452896], [-149.919164, -17.451165], [-149.922182, -17.44968], [-149.924067, -17.448921], [-149.927017, -17.447638], [-149.929215, -17.446368], [-149.931973, -17.445201], [-149.934883, -17.443683], [-149.938712, -17.441882], [-149.940318, -17.44089], [-149.944629, -17.438755], [-149.949769, -17.436494], [-149.951576, -17.435519], [-149.955224, -17.433816], [-149.957759, -17.432557], [-149.960405, -17.431386], [-149.962587, -17.430268], [-149.966761, -17.42859], [-149.969947, -17.426765], [-149.972971, -17.42543], [-149.974908, -17.424639], [-149.978477, -17.422934], [-149.981734, -17.421716], [-149.987489, -17.419728], [-149.990435, -17.418639], [-149.992963, -17.417633], [-149.995325, -17.416934], [-149.996853, -17.416276], [-149.998795, -17.415245], [-150.000329, -17.414097], [-150.002037, -17.412971], [-150.003954, -17.411676], [-150.006987, -17.410371], [-150.009406, -17.408964], [-150.011988, -17.406745], [-150.014075, -17.40596], [-150.016441, -17.404224], [-150.018528, -17.40275], [-150.020301, -17.401404], [-150.022197, -17.400125], [-150.024013, -17.398277], [-150.026734, -17.396316], [-150.029149, -17.395189], [-150.030189, -17.394462], [-150.031537, -17.393662], [-150.03314, -17.393083], [-150.035056, -17.392248], [-150.036716, -17.391297], [-150.038821, -17.390199], [-150.040304, -17.389443], [-150.041623, -17.389056], [-150.044486, -17.388067], [-150.045826, -17.387312], [-150.047814, -17.385919], [-150.051576, -17.383707], [-150.052992, -17.382457], [-150.054874, -17.381283], [-150.056454, -17.380193], [-150.059735, -17.378141], [-150.062825, -17.376567], [-150.065014, -17.375129], [-150.0673, -17.373741], [-150.069369, -17.372488], [-150.070815, -17.371518], [-150.072468, -17.370316], [-150.074786, -17.369223], [-150.077212, -17.367742], [-150.079101, -17.36637], [-150.081585, -17.364463], [-150.084641, -17.36301], [-150.08739, -17.362219], [-150.089074, -17.36191], [-150.091299, -17.360795], [-150.093529, -17.359092], [-150.095524, -17.358045], [-150.098068, -17.356534], [-150.099507, -17.355835], [-150.102254, -17.3543], [-150.105065, -17.352331], [-150.107206, -17.350776], [-150.109702, -17.349409], [-150.114716, -17.346551], [-150.119027, -17.344], [-150.123284, -17.34184], [-150.129059, -17.339791], [-150.136983, -17.337221], [-150.14168, -17.335249], [-150.143388, -17.334289], [-150.148668, -17.332313], [-150.149664, -17.331692], [-150.153363, -17.329773], [-150.156048, -17.328555], [-150.15823, -17.327182], [-150.160486, -17.32624], [-150.16274, -17.325451], [-150.165205, -17.324318], [-150.16892, -17.323617], [-150.171422, -17.323011], [-150.174342, -17.322479], [-150.176374, -17.321806], [-150.178902, -17.32108], [-150.181015, -17.320633], [-150.183861, -17.319721], [-150.186461, -17.319139], [-150.189966, -17.317971], [-150.192202, -17.317345], [-150.194541, -17.316292], [-150.196483, -17.315493], [-150.198494, -17.314305], [-150.201965, -17.312411], [-150.207019, -17.310344], [-150.209345, -17.309217], [-150.213987, -17.30731], [-150.21566, -17.306276], [-150.218318, -17.305099], [-150.222066, -17.303807], [-150.225181, -17.302497], [-150.227625, -17.301246], [-150.229158, -17.300164], [-150.231133, -17.299036], [-150.233426, -17.297965], [-150.235414, -17.296901], [-150.237998, -17.295529], [-150.240318, -17.294557], [-150.242988, -17.293357], [-150.245462, -17.292486], [-150.247325, -17.2917], [-150.24973, -17.290448], [-150.253045, -17.28892], [-150.255299, -17.288187], [-150.258648, -17.286476], [-150.260892, -17.285641], [-150.263734, -17.284469], [-150.266367, -17.283457], [-150.269275, -17.28246], [-150.272454, -17.281302], [-150.274427, -17.280652], [-150.276947, -17.279748], [-150.281025, -17.278794], [-150.282963, -17.278172], [-150.285142, -17.27739], [-150.287668, -17.276618], [-150.289808, -17.275892], [-150.292076, -17.274939], [-150.294106, -17.273659], [-150.29599, -17.272907], [-150.297732, -17.272007], [-150.301877, -17.270924], [-150.307086, -17.269537], [-150.309157, -17.268777], [-150.313276, -17.267659], [-150.315295, -17.266635], [-150.317908, -17.26599], [-150.320497, -17.264857], [-150.323076, -17.263541], [-150.32506, -17.262576], [-150.328716, -17.261095], [-150.330796, -17.260526], [-150.333079, -17.259836], [-150.334738, -17.259015], [-150.336468, -17.257727], [-150.338175, -17.256394], [-150.339184, -17.25552], [-150.341061, -17.253888], [-150.343139, -17.25255], [-150.345702, -17.251297], [-150.348777, -17.250002], [-150.3513, -17.249032], [-150.354502, -17.247578], [-150.356316, -17.246708], [-150.358838, -17.24534], [-150.361274, -17.244096], [-150.362912, -17.242959], [-150.364651, -17.242002], [-150.367624, -17.240832], [-150.370339, -17.239518], [-150.372343, -17.238231], [-150.374919, -17.237128], [-150.376731, -17.23604], [-150.379104, -17.235072], [-150.382294, -17.233623], [-150.383572, -17.233036], [-150.38589, -17.231568], [-150.388068, -17.230443], [-150.391723, -17.229202], [-150.394062, -17.228173], [-150.396175, -17.227192], [-150.397898, -17.226581], [-150.400996, -17.225304], [-150.40289, -17.224304], [-150.406169, -17.223112], [-150.407482, -17.222652], [-150.410332, -17.221629], [-150.413855, -17.220161], [-150.415447, -17.21926], [-150.418781, -17.217535], [-150.421004, -17.21669], [-150.423957, -17.215727], [-150.427004, -17.2147], [-150.428643, -17.214278], [-150.431205, -17.213427], [-150.432379, -17.212706], [-150.434846, -17.211959], [-150.438531, -17.210537], [-150.440651, -17.209757], [-150.443011, -17.209065], [-150.445315, -17.208309], [-150.447099, -17.207677], [-150.449298, -17.206818], [-150.451934, -17.205739], [-150.45426, -17.204986], [-150.456632, -17.204332], [-150.459817, -17.202943], [-150.462882, -17.201812], [-150.465378, -17.200273], [-150.46743, -17.199205], [-150.470137, -17.197568], [-150.471994, -17.19676], [-150.473326, -17.196057], [-150.4751, -17.194534], [-150.477517, -17.193237], [-150.480276, -17.191875], [-150.482153, -17.191116], [-150.483889, -17.190301], [-150.486157, -17.188924], [-150.489332, -17.187665], [-150.490372, -17.186943], [-150.492001, -17.185928], [-150.496147, -17.183992], [-150.498222, -17.182848], [-150.500769, -17.182069], [-150.50314, -17.181205], [-150.507365, -17.180234], [-150.509028, -17.179577], [-150.51149, -17.179025], [-150.513751, -17.178284], [-150.516905, -17.177574], [-150.5197, -17.176639], [-150.521812, -17.176026], [-150.525288, -17.174968], [-150.527826, -17.174683], [-150.530992, -17.1739], [-150.533562, -17.173544], [-150.53603, -17.172699], [-150.540171, -17.170881], [-150.541757, -17.17008], [-150.543674, -17.169232], [-150.546129, -17.16747], [-150.547632, -17.166706], [-150.549745, -17.165294], [-150.551882, -17.164146], [-150.553898, -17.162912], [-150.556476, -17.161812], [-150.558592, -17.160696], [-150.562368, -17.158918], [-150.563781, -17.157685], [-150.567435, -17.155621], [-150.569391, -17.154638], [-150.571043, -17.153678], [-150.573656, -17.151802], [-150.575449, -17.150305], [-150.578153, -17.148413], [-150.58035, -17.1467], [-150.583039, -17.145078], [-150.584705, -17.143637], [-150.587269, -17.141871], [-150.588994, -17.140631], [-150.590737, -17.139605], [-150.592667, -17.138522], [-150.596493, -17.13646], [-150.599657, -17.13499], [-150.603062, -17.13398], [-150.606992, -17.132468], [-150.610466, -17.131087], [-150.612851, -17.129922], [-150.618422, -17.127834], [-150.620065, -17.127149], [-150.622544, -17.125624], [-150.624358, -17.124106], [-150.625541, -17.123151], [-150.627116, -17.121945], [-150.6302, -17.120524], [-150.631936, -17.119252], [-150.635431, -17.117099], [-150.637923, -17.115528], [-150.639809, -17.114384], [-150.64207, -17.112922], [-150.645181, -17.111482], [-150.646703, -17.110447], [-150.650219, -17.108816], [-150.651675, -17.107862], [-150.654005, -17.106497], [-150.656772, -17.105169], [-150.659604, -17.104066], [-150.661056, -17.103136], [-150.662909, -17.102405], [-150.664443, -17.101488], [-150.666708, -17.100072], [-150.669352, -17.098863], [-150.671424, -17.097931], [-150.673225, -17.096677], [-150.675751, -17.095694], [-150.680947, -17.093738], [-150.683554, -17.092713], [-150.687319, -17.091468], [-150.691695, -17.089688], [-150.692958, -17.089277], [-150.696175, -17.088054], [-150.701355, -17.085877], [-150.703429, -17.085035], [-150.708568, -17.083385], [-150.709813, -17.082743], [-150.716292, -17.080606], [-150.717847, -17.079883], [-150.720568, -17.078676], [-150.722655, -17.077612], [-150.724416, -17.077053], [-150.727105, -17.076024], [-150.730221, -17.074629], [-150.732802, -17.073686], [-150.735155, -17.072891], [-150.73778, -17.071913], [-150.740218, -17.070634], [-150.742924, -17.069673], [-150.745639, -17.068417], [-150.748538, -17.067105], [-150.750221, -17.066539], [-150.753142, -17.065487], [-150.756037, -17.064232], [-150.759124, -17.063268], [-150.762591, -17.062447], [-150.7645, -17.061555], [-150.767502, -17.060587], [-150.771174, -17.05956], [-150.772841, -17.058841], [-150.775193, -17.057907], [-150.779526, -17.056378], [-150.782178, -17.055673], [-150.784386, -17.054614], [-150.786944, -17.054143], [-150.788914, -17.053368], [-150.790497, -17.05263], [-150.793226, -17.051316], [-150.796028, -17.049797], [-150.800799, -17.046912], [-150.802876, -17.045934], [-150.806326, -17.044923], [-150.807914, -17.044325], [-150.809563, -17.044058], [-150.812184, -17.043644], [-150.815441, -17.04199], [-150.817209, -17.041401], [-150.820687, -17.039896], [-150.823736, -17.038445], [-150.826498, -17.036543], [-150.828867, -17.035265], [-150.830949, -17.034033], [-150.83455, -17.031725], [-150.836414, -17.030348], [-150.839019, -17.028663], [-150.842412, -17.026233], [-150.84505, -17.02463], [-150.84698, -17.023323], [-150.849191, -17.021792], [-150.851284, -17.020514], [-150.854123, -17.018358], [-150.856494, -17.016135], [-150.858495, -17.014795], [-150.861061, -17.012628], [-150.863293, -17.011521], [-150.865857, -17.010435], [-150.867996, -17.009427], [-150.871514, -17.008067], [-150.873327, -17.006953], [-150.877029, -17.004888], [-150.87889, -17.004087], [-150.881012, -17.002585], [-150.882452, -17.001101], [-150.884225, -16.999598], [-150.886772, -16.997628], [-150.888208, -16.99661], [-150.891393, -16.994996], [-150.892431, -16.993985], [-150.895637, -16.991127], [-150.897382, -16.989544], [-150.898718, -16.987726], [-150.901368, -16.985781], [-150.902826, -16.984593], [-150.905831, -16.982995], [-150.910272, -16.98104], [-150.912327, -16.980339], [-150.914796, -16.979463], [-150.917586, -16.97786], [-150.919565, -16.976539], [-150.922393, -16.975203], [-150.924799, -16.974152], [-150.926685, -16.973368], [-150.929417, -16.972019], [-150.931183, -16.971052], [-150.933591, -16.969813], [-150.935596, -16.968398], [-150.937788, -16.967088], [-150.939978, -16.965538], [-150.940944, -16.963938], [-150.942669, -16.962217], [-150.94449, -16.960991], [-150.946591, -16.95943], [-150.948405, -16.958515], [-150.950819, -16.956865], [-150.952634, -16.95582], [-150.953837, -16.954466], [-150.955394, -16.953179], [-150.958097, -16.951323], [-150.959237, -16.949999], [-150.9611, -16.948328], [-150.96446, -16.945878], [-150.965764, -16.944353], [-150.967731, -16.942773], [-150.970432, -16.940949], [-150.972937, -16.938991], [-150.974378, -16.937883], [-150.975875, -16.93648], [-150.978463, -16.934517], [-150.980946, -16.932216], [-150.98188, -16.931526], [-150.984199, -16.929737], [-150.987747, -16.926741], [-150.989761, -16.924922], [-150.991642, -16.923541], [-150.993612, -16.921483], [-150.994892, -16.91984], [-150.996365, -16.918101], [-150.997761, -16.916652], [-150.999535, -16.914584], [-151.000231, -16.913435], [-151.001245, -16.911496], [-151.00224, -16.909969], [-151.003254, -16.908985], [-151.004983, -16.907827], [-151.008897, -16.904852], [-151.010731, -16.903323], [-151.011872, -16.901494], [-151.012533, -16.900206], [-151.014122, -16.898381], [-151.015941, -16.896766], [-151.017477, -16.895455], [-151.019456, -16.893189], [-151.020381, -16.892343], [-151.021203, -16.891208], [-151.022626, -16.889036], [-151.023969, -16.887154], [-151.025425, -16.885755], [-151.026326, -16.884383], [-151.02814, -16.882637], [-151.029143, -16.881538], [-151.0301, -16.880473], [-151.03122, -16.879033], [-151.032427, -16.877812], [-151.034769, -16.876817], [-151.037364, -16.876561], [-151.041005, -16.875446], [-151.043328, -16.874938], [-151.048658, -16.874199], [-151.052567, -16.873622], [-151.054269, -16.873414], [-151.057421, -16.872867], [-151.060246, -16.872544], [-151.063423, -16.872129], [-151.065981, -16.871357], [-151.067697, -16.870468], [-151.068664, -16.869501], [-151.070138, -16.868167], [-151.072204, -16.866781], [-151.075678, -16.864798], [-151.077128, -16.863859], [-151.078909, -16.862797], [-151.080091, -16.861987], [-151.082145, -16.860719], [-151.084339, -16.85895], [-151.086182, -16.857656], [-151.087648, -16.856451], [-151.088557, -16.855548], [-151.089564, -16.854702], [-151.093093, -16.852798], [-151.094147, -16.852005], [-151.095425, -16.850675], [-151.09664, -16.84966], [-151.098622, -16.848367], [-151.099321, -16.847624], [-151.101642, -16.846154], [-151.103079, -16.845255], [-151.104529, -16.844404], [-151.10631, -16.84312], [-151.107663, -16.842111], [-151.108643, -16.841191], [-151.109944, -16.840048], [-151.111546, -16.838956], [-151.115436, -16.837229], [-151.116364, -16.836185], [-151.117148, -16.834933], [-151.118145, -16.833749], [-151.12035, -16.832317], [-151.121877, -16.831267], [-151.123121, -16.829848], [-151.124293, -16.828693], [-151.126636, -16.827093], [-151.128201, -16.825801], [-151.129204, -16.824796], [-151.130404, -16.82322], [-151.131737, -16.821758], [-151.133018, -16.820651], [-151.134106, -16.819464], [-151.134938, -16.818274], [-151.135785, -16.817359], [-151.136724, -16.816381], [-151.137722, -16.815365], [-151.139962, -16.812541], [-151.140551, -16.811421], [-151.141773, -16.809812], [-151.142478, -16.808623], [-151.143951, -16.806751], [-151.145041, -16.80538], [-151.146145, -16.804035], [-151.147648, -16.802253], [-151.148488, -16.800805], [-151.14943, -16.799348], [-151.150099, -16.798127], [-151.151089, -16.796779], [-151.152207, -16.79512], [-151.15299, -16.79392], [-151.155148, -16.791901], [-151.156009, -16.790911], [-151.15771, -16.789515], [-151.158821, -16.788543], [-151.160392, -16.787971], [-151.16225, -16.789244], [-151.166028, -16.790425], [-151.168708, -16.790959], [-151.170805, -16.791154], [-151.174993, -16.792649], [-151.176587, -16.793623], [-151.180402, -16.795309], [-151.182551, -16.796313], [-151.184357, -16.797569], [-151.185867, -16.798043], [-151.192932, -16.79992], [-151.195277, -16.800728], [-151.198036, -16.801434], [-151.201257, -16.802315], [-151.204562, -16.80223], [-151.206558, -16.80256], [-151.209281, -16.803049], [-151.211036, -16.80312], [-151.215065, -16.803863], [-151.21887, -16.804531], [-151.220704, -16.805101], [-151.223047, -16.805434], [-151.226695, -16.80636], [-151.228915, -16.806672], [-151.23205, -16.806749], [-151.234267, -16.807054], [-151.237275, -16.807397], [-151.239756, -16.808164], [-151.242793, -16.808977], [-151.245318, -16.810057], [-151.247519, -16.810617], [-151.250034, -16.811271], [-151.254371, -16.812965], [-151.258056, -16.814294], [-151.260318, -16.815276], [-151.264324, -16.81642], [-151.26777, -16.817763], [-151.274334, -16.819618], [-151.279861, -16.820539], [-151.28547, -16.821542], [-151.292146, -16.822211], [-151.296913, -16.822992], [-151.302582, -16.823826], [-151.305853, -16.824267], [-151.309655, -16.825022], [-151.313484, -16.826577], [-151.315566, -16.82751], [-151.317751, -16.828407], [-151.320418, -16.828997], [-151.323109, -16.829762], [-151.325352, -16.830385], [-151.328342, -16.830876], [-151.331604, -16.830904], [-151.334593, -16.830802], [-151.336996, -16.830816], [-151.339099, -16.830058], [-151.342066, -16.829738], [-151.344105, -16.830329], [-151.346801, -16.83166], [-151.348706, -16.833071], [-151.350238, -16.834709], [-151.352118, -16.837044], [-151.353818, -16.839395], [-151.355463, -16.840991], [-151.357035, -16.842387], [-151.360929, -16.843621], [-151.361638, -16.844817], [-151.360122, -16.845585], [-151.359965, -16.845348], [-151.361152, -16.844879], [-151.361107, -16.844679], [-151.357829, -16.84238], [-151.355992, -16.841292], [-151.354138, -16.839562], [-151.353411, -16.837613], [-151.354323, -16.835651], [-151.356119, -16.833932], [-151.358818, -16.832941], [-151.360932, -16.831935], [-151.364226, -16.830057], [-151.36714, -16.827864], [-151.370808, -16.824482], [-151.372193, -16.822732], [-151.375664, -16.818497], [-151.377501, -16.816233], [-151.38154, -16.812017], [-151.386517, -16.809257], [-151.394822, -16.804188], [-151.395475, -16.80232], [-151.396466, -16.796257], [-151.399582, -16.787622], [-151.400732, -16.785944], [-151.405025, -16.78327], [-151.406935, -16.781378], [-151.410202, -16.775708], [-151.413753, -16.772343], [-151.416348, -16.76918], [-151.418552, -16.764803], [-151.42392, -16.756123], [-151.424849, -16.754819], [-151.427168, -16.752227], [-151.428152, -16.748744], [-151.428882, -16.745844], [-151.430142, -16.742508], [-151.431713, -16.738182], [-151.433375, -16.735322], [-151.435942, -16.732347], [-151.437637, -16.72945], [-151.438764, -16.726102], [-151.439453, -16.723581], [-151.440687, -16.722665], [-151.441952, -16.721482], [-151.44302, -16.719487], [-151.44803, -16.715868], [-151.449442, -16.715119], [-151.452463, -16.714258], [-151.45691, -16.714135], [-151.45858, -16.714337], [-151.46487, -16.713998], [-151.467215, -16.714075], [-151.470358, -16.71387], [-151.474847, -16.713545], [-151.477987, -16.713513], [-151.481619, -16.713502], [-151.48426, -16.712695], [-151.484275, -16.7106], [-151.484478, -16.706257], [-151.4853, -16.70245], [-151.485902, -16.695777], [-151.486052, -16.693154], [-151.486806, -16.689516], [-151.487457, -16.685713], [-151.487684, -16.683645], [-151.48712, -16.682995], [-151.487231, -16.682901], [-151.490573, -16.682582], [-151.494558, -16.681038], [-151.497321, -16.679463], [-151.500484, -16.677891], [-151.504098, -16.676144], [-151.50704, -16.674317], [-151.509842, -16.672314], [-151.51162, -16.670647], [-151.513837, -16.668261], [-151.515576, -16.667002], [-151.517762, -16.66552], [-151.520354, -16.663605], [-151.521924, -16.66205], [-151.524403, -16.65987], [-151.52604, -16.658746], [-151.528506, -16.656163], [-151.530074, -16.656459], [-151.533397, -16.658265], [-151.534951, -16.659081], [-151.537238, -16.660863], [-151.538632, -16.663777], [-151.540342, -16.667222], [-151.542293, -16.66816], [-151.54598, -16.669001], [-151.55028, -16.66878], [-151.553073, -16.668691], [-151.556584, -16.668432], [-151.560181, -16.668158], [-151.562972, -16.667771], [-151.565305, -16.667607], [-151.567389, -16.666884], [-151.569193, -16.66567], [-151.572425, -16.663594], [-151.574506, -16.661909], [-151.578805, -16.659268], [-151.581403, -16.657441], [-151.58338, -16.656142], [-151.588418, -16.652806], [-151.591595, -16.65076], [-151.595437, -16.649307], [-151.600162, -16.64741], [-151.603729, -16.646223], [-151.609207, -16.64451], [-151.61821, -16.641372], [-151.620013, -16.640846], [-151.624646, -16.639383], [-151.626304, -16.638926], [-151.632487, -16.63693], [-151.635306, -16.636053], [-151.640745, -16.63456], [-151.642593, -16.633665], [-151.647585, -16.630992], [-151.650962, -16.62941], [-151.653671, -16.628181], [-151.657877, -16.626581], [-151.660343, -16.625569], [-151.664276, -16.623942], [-151.669699, -16.622121], [-151.674496, -16.620411], [-151.677021, -16.61955], [-151.68257, -16.617325], [-151.68499, -16.616075], [-151.688811, -16.614096], [-151.693936, -16.611545], [-151.696144, -16.610419], [-151.700977, -16.607807], [-151.703415, -16.606527], [-151.708382, -16.603468], [-151.711349, -16.601539], [-151.712658, -16.600125], [-151.71396, -16.598654], [-151.71583, -16.597396], [-151.717486, -16.596261], [-151.721115, -16.593462], [-151.722268, -16.592131], [-151.724708, -16.589828], [-151.726753, -16.587897], [-151.728479, -16.586553], [-151.731024, -16.584989], [-151.733586, -16.582841], [-151.734591, -16.581961], [-151.737653, -16.57903], [-151.739499, -16.577452], [-151.74151, -16.575768], [-151.743953, -16.574061], [-151.747047, -16.573182], [-151.749521, -16.572431], [-151.751661, -16.571204], [-151.753981, -16.569763], [-151.755862, -16.568778], [-151.760304, -16.566756], [-151.761869, -16.565815], [-151.764897, -16.564403], [-151.767334, -16.563138], [-151.769556, -16.562008], [-151.772765, -16.560546], [-151.777173, -16.558372], [-151.779161, -16.556959], [-151.781117, -16.555893], [-151.783897, -16.554125], [-151.786228, -16.552566], [-151.787658, -16.551646], [-151.789868, -16.550005], [-151.791512, -16.547973], [-151.792336, -16.54541], [-151.79264, -16.543357], [-151.794138, -16.538108], [-151.794869, -16.534983], [-151.795395, -16.531284], [-151.795416, -16.528975], [-151.79438, -16.52267], [-151.793606, -16.517709], [-151.7935, -16.515569], [-151.792993, -16.512445], [-151.791958, -16.508363], [-151.791601, -16.506386], [-151.790541, -16.502865], [-151.788537, -16.49858], [-151.787359, -16.496787], [-151.785595, -16.494676], [-151.783953, -16.493597], [-151.78155, -16.492772], [-151.779514, -16.492885], [-151.776734, -16.494034], [-151.77507, -16.495111], [-151.771203, -16.497022], [-151.767007, -16.498901], [-151.762099, -16.50103], [-151.759936, -16.501558], [-151.758413, -16.500365], [-151.758291, -16.499888], [-151.764801, -16.501382], [-151.768132, -16.502099], [-151.769995, -16.502601], [-151.771586, -16.503848], [-151.772225, -16.505667], [-151.771593, -16.508288], [-151.770092, -16.510804], [-151.769608, -16.512653], [-151.770625, -16.514728], [-151.772091, -16.516416], [-151.773319, -16.516911], [-151.775037, -16.517998], [-151.77442, -16.519863], [-151.77523, -16.522246], [-151.775384, -16.524861], [-151.775284, -16.527452], [-151.775304, -16.526341], [-151.775402, -16.523523], [-151.777336, -16.520184], [-151.77844, -16.518177], [-151.777729, -16.51829], [-151.775377, -16.516213]]}, "times": ["2022-07-27T00:16:23+00:00", "2022-07-27T00:17:27+00:00", "2022-07-27T00:19:52+00:00", "2022-07-27T00:21:04+00:00", "2022-07-27T00:23:05+00:00", "2022-07-27T00:24:58+00:00", "2022-07-27T00:26:35+00:00", "2022-07-27T00:27:55+00:00", "2022-07-27T00:30:35+00:00", "2022-07-27T00:32:35+00:00", "2022-07-27T00:36:35+00:00", "2022-07-27T00:38:08+00:00", "2022-07-27T00:42:35+00:00", "2022-07-27T00:46:11+00:00", "2022-07-27T00:47:47+00:00", "2022-07-27T00:52:05+00:00", "2022-07-27T00:53:41+00:00", "2022-07-27T00:54:54+00:00", "2022-07-27T01:00:33+00:00", "2022-07-27T01:04:30+00:00", "2022-07-27T01:08:34+00:00", "2022-07-27T01:13:00+00:00", "2022-07-27T01:14:04+00:00", "2022-07-27T01:16:33+00:00", "2022-07-27T01:20:35+00:00", "2022-07-27T01:23:27+00:00", "2022-07-27T01:26:35+00:00", "2022-07-27T01:27:45+00:00", "2022-07-27T01:30:26+00:00", "2022-07-27T01:32:26+00:00", "2022-07-27T01:35:16+00:00", "2022-07-27T01:38:34+00:00", "2022-07-27T01:41:18+00:00", "2022-07-27T01:42:55+00:00", "2022-07-27T01:47:57+00:00", "2022-07-27T01:50:42+00:00", "2022-07-27T01:52:43+00:00", "2022-07-27T01:54:28+00:00", "2022-07-27T01:56:40+00:00", "2022-07-27T01:58:54+00:00", "2022-07-27T02:00:41+00:00", "2022-07-27T02:04:49+00:00", "2022-07-27T02:07:54+00:00", "2022-07-27T02:10:43+00:00", "2022-07-27T02:11:47+00:00", "2022-07-27T02:15:01+00:00", "2022-07-27T02:18:47+00:00", "2022-07-27T02:22:23+00:00", "2022-07-27T02:24:41+00:00", "2022-07-27T02:26:42+00:00", "2022-07-27T02:29:31+00:00", "2022-07-27T02:30:19+00:00", "2022-07-27T02:32:04+00:00", "2022-07-27T02:33:41+00:00", "2022-07-27T02:35:17+00:00", "2022-07-27T02:36:14+00:00", "2022-07-27T02:38:47+00:00", "2022-07-27T02:40:32+00:00", "2022-07-27T02:42:57+00:00", "2022-07-27T02:44:45+00:00", "2022-07-27T02:47:00+00:00", "2022-07-27T02:47:48+00:00", "2022-07-27T02:49:49+00:00", "2022-07-27T02:51:17+00:00", "2022-07-27T02:52:54+00:00", "2022-07-27T02:55:27+00:00", "2022-07-27T02:57:11+00:00", "2022-07-27T02:58:16+00:00", "2022-07-27T02:59:13+00:00", "2022-07-27T03:00:44+00:00", "2022-07-27T03:02:44+00:00", "2022-07-27T03:03:48+00:00", "2022-07-27T03:06:13+00:00", "2022-07-27T03:07:02+00:00", "2022-07-27T03:08:14+00:00", "2022-07-27T03:10:23+00:00", "2022-07-27T03:11:36+00:00", "2022-07-27T03:13:04+00:00", "2022-07-27T03:16:42+00:00", "2022-07-27T03:18:49+00:00", "2022-07-27T03:19:48+00:00", "2022-07-27T03:20:49+00:00", "2022-07-27T03:23:42+00:00", "2022-07-27T03:26:39+00:00", "2022-07-27T03:29:57+00:00", "2022-07-27T03:30:32+00:00", "2022-07-27T03:32:17+00:00", "2022-07-27T03:34:09+00:00", "2022-07-27T03:35:54+00:00", "2022-07-27T03:37:45+00:00", "2022-07-27T03:39:47+00:00", "2022-07-27T03:42:36+00:00", "2022-07-27T03:44:05+00:00", "2022-07-27T03:46:54+00:00", "2022-07-27T03:49:19+00:00", "2022-07-27T03:51:00+00:00", "2022-07-27T03:52:33+00:00", "2022-07-27T03:54:42+00:00", "2022-07-27T03:55:47+00:00", "2022-07-27T03:58:44+00:00", "2022-07-27T04:00:26+00:00", "2022-07-27T04:02:27+00:00", "2022-07-27T04:05:09+00:00", "2022-07-27T04:07:09+00:00", "2022-07-27T04:09:09+00:00", "2022-07-27T04:15:10+00:00", "2022-07-27T04:19:10+00:00", "2022-07-27T04:23:10+00:00", "2022-07-27T04:29:09+00:00", "2022-07-27T04:35:03+00:00", "2022-07-27T04:37:44+00:00", "2022-07-27T04:39:20+00:00", "2022-07-27T04:44:49+00:00", "2022-07-27T04:46:17+00:00", "2022-07-27T04:49:29+00:00", "2022-07-27T04:52:02+00:00", "2022-07-27T04:53:38+00:00", "2022-07-27T04:56:11+00:00", "2022-07-27T04:58:11+00:00", "2022-07-27T05:00:03+00:00", "2022-07-27T05:03:24+00:00", "2022-07-27T05:04:44+00:00", "2022-07-27T05:07:24+00:00", "2022-07-27T05:09:09+00:00", "2022-07-27T05:11:25+00:00", "2022-07-27T05:12:37+00:00", "2022-07-27T05:15:01+00:00", "2022-07-27T05:16:06+00:00", "2022-07-27T05:19:42+00:00", "2022-07-27T05:22:47+00:00", "2022-07-27T05:24:07+00:00", "2022-07-27T05:25:17+00:00", "2022-07-27T05:27:28+00:00", "2022-07-27T05:31:04+00:00", "2022-07-27T05:34:01+00:00", "2022-07-27T05:35:17+00:00", "2022-07-27T05:40:42+00:00", "2022-07-27T05:42:26+00:00", "2022-07-27T05:44:26+00:00", "2022-07-27T05:48:27+00:00", "2022-07-27T05:51:14+00:00", "2022-07-27T05:53:14+00:00", "2022-07-27T05:54:36+00:00", "2022-07-27T05:57:16+00:00", "2022-07-27T05:59:16+00:00", "2022-07-27T06:01:09+00:00", "2022-07-27T06:03:16+00:00", "2022-07-27T06:05:16+00:00", "2022-07-27T06:07:19+00:00", "2022-07-27T06:09:35+00:00", "2022-07-27T06:12:16+00:00", "2022-07-27T06:14:00+00:00", "2022-07-27T06:17:13+00:00", "2022-07-27T06:19:05+00:00", "2022-07-27T06:23:05+00:00", "2022-07-27T06:24:41+00:00", "2022-07-27T06:27:21+00:00", "2022-07-27T06:29:21+00:00", "2022-07-27T06:31:15+00:00", "2022-07-27T06:34:19+00:00", "2022-07-27T06:37:22+00:00", "2022-07-27T06:39:29+00:00", "2022-07-27T06:42:36+00:00", "2022-07-27T06:43:32+00:00", "2022-07-27T06:45:22+00:00", "2022-07-27T06:47:25+00:00", "2022-07-27T06:50:13+00:00", "2022-07-27T06:51:41+00:00", "2022-07-27T06:53:22+00:00", "2022-07-27T06:55:02+00:00", "2022-07-27T06:57:11+00:00", "2022-07-27T07:01:15+00:00", "2022-07-27T07:03:19+00:00", "2022-07-27T07:05:59+00:00", "2022-07-27T07:08:00+00:00", "2022-07-27T07:09:20+00:00", "2022-07-27T07:11:28+00:00", "2022-07-27T07:12:49+00:00", "2022-07-27T07:16:01+00:00", "2022-07-27T07:17:05+00:00", "2022-07-27T07:20:26+00:00", "2022-07-27T07:21:46+00:00", "2022-07-27T07:23:06+00:00", "2022-07-27T07:24:18+00:00", "2022-07-27T07:25:24+00:00", "2022-07-27T07:27:15+00:00", "2022-07-27T07:28:03+00:00", "2022-07-27T07:29:24+00:00", "2022-07-27T07:31:15+00:00", "2022-07-27T07:33:24+00:00", "2022-07-27T07:35:24+00:00", "2022-07-27T07:37:25+00:00", "2022-07-27T07:38:45+00:00", "2022-07-27T07:40:29+00:00", "2022-07-27T07:41:33+00:00", "2022-07-27T07:44:30+00:00", "2022-07-27T07:45:25+00:00", "2022-07-27T07:47:10+00:00", "2022-07-27T07:48:30+00:00", "2022-07-27T07:50:39+00:00", "2022-07-27T07:52:55+00:00", "2022-07-27T07:54:31+00:00", "2022-07-27T07:55:25+00:00", "2022-07-27T07:57:36+00:00", "2022-07-27T07:59:36+00:00", "2022-07-27T08:00:25+00:00", "2022-07-27T08:02:17+00:00", "2022-07-27T08:03:29+00:00", "2022-07-27T08:06:10+00:00", "2022-07-27T08:08:59+00:00", "2022-07-27T08:09:29+00:00", "2022-07-27T08:10:43+00:00", "2022-07-27T08:12:44+00:00", "2022-07-27T08:13:48+00:00", "2022-07-27T08:16:28+00:00", "2022-07-27T08:17:32+00:00", "2022-07-27T08:20:43+00:00", "2022-07-27T08:22:05+00:00", "2022-07-27T08:23:01+00:00", "2022-07-27T08:25:27+00:00", "2022-07-27T08:27:10+00:00", "2022-07-27T08:28:38+00:00", "2022-07-27T08:30:31+00:00", "2022-07-27T08:32:07+00:00", "2022-07-27T08:33:35+00:00", "2022-07-27T08:34:48+00:00", "2022-07-27T08:35:36+00:00", "2022-07-27T08:39:13+00:00", "2022-07-27T08:40:50+00:00", "2022-07-27T08:41:30+00:00", "2022-07-27T08:43:39+00:00", "2022-07-27T08:44:27+00:00", "2022-07-27T08:45:28+00:00", "2022-07-27T08:47:28+00:00", "2022-07-27T08:49:25+00:00", "2022-07-27T08:50:29+00:00", "2022-07-27T08:52:55+00:00", "2022-07-27T08:55:04+00:00", "2022-07-27T08:56:41+00:00", "2022-07-27T08:57:53+00:00", "2022-07-27T08:59:54+00:00", "2022-07-27T09:01:39+00:00", "2022-07-27T09:02:19+00:00", "2022-07-27T09:03:40+00:00", "2022-07-27T09:05:57+00:00", "2022-07-27T09:07:26+00:00", "2022-07-27T09:08:39+00:00", "2022-07-27T09:10:23+00:00", "2022-07-27T09:11:28+00:00", "2022-07-27T09:13:21+00:00", "2022-07-27T09:14:02+00:00", "2022-07-27T09:15:22+00:00", "2022-07-27T09:17:56+00:00", "2022-07-27T09:19:08+00:00", "2022-07-27T09:20:37+00:00", "2022-07-27T09:23:10+00:00", "2022-07-27T09:24:30+00:00", "2022-07-27T09:26:07+00:00", "2022-07-27T09:27:19+00:00", "2022-07-27T09:28:24+00:00", "2022-07-27T09:30:17+00:00", "2022-07-27T09:32:18+00:00", "2022-07-27T09:34:27+00:00", "2022-07-27T09:36:20+00:00", "2022-07-27T09:37:40+00:00", "2022-07-27T09:39:33+00:00", "2022-07-27T09:41:30+00:00", "2022-07-27T09:42:31+00:00", "2022-07-27T09:45:12+00:00", "2022-07-27T09:46:41+00:00", "2022-07-27T09:47:37+00:00", "2022-07-27T09:49:30+00:00", "2022-07-27T09:50:42+00:00", "2022-07-27T09:51:30+00:00", "2022-07-27T09:53:39+00:00", "2022-07-27T09:54:44+00:00", "2022-07-27T09:56:20+00:00", "2022-07-27T09:57:37+00:00", "2022-07-27T10:00:39+00:00", "2022-07-27T10:02:33+00:00", "2022-07-27T10:05:32+00:00", "2022-07-27T10:06:13+00:00", "2022-07-27T10:07:18+00:00", "2022-07-27T10:08:39+00:00", "2022-07-27T10:09:44+00:00", "2022-07-27T10:11:54+00:00", "2022-07-27T10:13:38+00:00", "2022-07-27T10:15:38+00:00", "2022-07-27T10:17:24+00:00", "2022-07-27T10:19:09+00:00", "2022-07-27T10:21:02+00:00", "2022-07-27T10:21:30+00:00", "2022-07-27T10:23:36+00:00", "2022-07-27T10:26:02+00:00", "2022-07-27T10:28:03+00:00", "2022-07-27T10:30:20+00:00", "2022-07-27T10:33:40+00:00", "2022-07-27T10:34:30+00:00", "2022-07-27T10:35:51+00:00", "2022-07-27T10:40:17+00:00", "2022-07-27T10:40:57+00:00", "2022-07-27T10:43:22+00:00", "2022-07-27T10:44:19+00:00", "2022-07-27T10:45:40+00:00", "2022-07-27T10:46:04+00:00", "2022-07-27T10:48:21+00:00", "2022-07-27T10:50:14+00:00", "2022-07-27T10:53:41+00:00", "2022-07-27T10:54:48+00:00", "2022-07-27T10:55:53+00:00", "2022-07-27T10:57:29+00:00", "2022-07-27T10:59:31+00:00", "2022-07-27T11:00:56+00:00", "2022-07-27T11:03:24+00:00", "2022-07-27T11:04:45+00:00", "2022-07-27T11:05:41+00:00", "2022-07-27T11:07:43+00:00", "2022-07-27T11:10:17+00:00", "2022-07-27T11:11:36+00:00", "2022-07-27T11:12:43+00:00", "2022-07-27T11:13:37+00:00", "2022-07-27T11:15:38+00:00", "2022-07-27T11:17:40+00:00", "2022-07-27T11:19:25+00:00", "2022-07-27T11:21:18+00:00", "2022-07-27T11:22:39+00:00", "2022-07-27T11:26:17+00:00", "2022-07-27T11:27:45+00:00", "2022-07-27T11:30:02+00:00", "2022-07-27T11:33:40+00:00", "2022-07-27T11:34:20+00:00", "2022-07-27T11:37:46+00:00", "2022-07-27T11:40:31+00:00", "2022-07-27T11:41:45+00:00", "2022-07-27T11:45:13+00:00", "2022-07-27T11:45:46+00:00", "2022-07-27T11:51:39+00:00", "2022-07-27T11:52:04+00:00", "2022-07-27T11:53:56+00:00", "2022-07-27T11:55:47+00:00", "2022-07-27T11:56:30+00:00", "2022-07-27T11:59:47+00:00", "2022-07-27T12:00:39+00:00", "2022-07-27T12:03:20+00:00", "2022-07-27T12:05:05+00:00", "2022-07-27T12:07:06+00:00", "2022-07-27T12:08:58+00:00", "2022-07-27T12:11:07+00:00", "2022-07-27T12:13:50+00:00", "2022-07-27T12:14:37+00:00", "2022-07-27T12:16:21+00:00", "2022-07-27T12:18:38+00:00", "2022-07-27T12:20:55+00:00", "2022-07-27T12:23:50+00:00", "2022-07-27T12:24:48+00:00", "2022-07-27T12:27:05+00:00", "2022-07-27T12:29:50+00:00", "2022-07-27T12:31:23+00:00", "2022-07-27T12:33:16+00:00", "2022-07-27T12:33:56+00:00", "2022-07-27T12:37:58+00:00", "2022-07-27T12:39:59+00:00", "2022-07-27T12:41:52+00:00", "2022-07-27T12:43:50+00:00", "2022-07-27T12:46:17+00:00", "2022-07-27T12:47:37+00:00", "2022-07-27T12:49:51+00:00", "2022-07-27T12:52:11+00:00", "2022-07-27T12:57:41+00:00", "2022-07-27T12:59:10+00:00", "2022-07-27T13:01:45+00:00", "2022-07-27T13:02:32+00:00", "2022-07-27T13:04:08+00:00", "2022-07-27T13:07:28+00:00", "2022-07-27T13:11:45+00:00", "2022-07-27T13:13:29+00:00", "2022-07-27T13:17:52+00:00", "2022-07-27T13:19:54+00:00", "2022-07-27T13:23:14+00:00", "2022-07-27T13:25:30+00:00", "2022-07-27T13:27:53+00:00", "2022-07-27T13:30:20+00:00", "2022-07-27T13:31:45+00:00", "2022-07-27T13:34:37+00:00", "2022-07-27T13:37:33+00:00", "2022-07-27T13:40:30+00:00", "2022-07-27T13:41:45+00:00", "2022-07-27T13:43:58+00:00", "2022-07-27T13:45:50+00:00", "2022-07-27T13:49:51+00:00", "2022-07-27T13:53:28+00:00", "2022-07-27T13:55:20+00:00", "2022-07-27T13:57:52+00:00", "2022-07-27T13:59:56+00:00", "2022-07-27T14:01:56+00:00", "2022-07-27T14:03:57+00:00", "2022-07-27T14:07:21+00:00", "2022-07-27T14:09:21+00:00", "2022-07-27T14:13:14+00:00", "2022-07-27T14:13:54+00:00", "2022-07-27T14:16:10+00:00", "2022-07-27T14:17:46+00:00", "2022-07-27T14:19:57+00:00", "2022-07-27T14:21:58+00:00", "2022-07-27T14:22:59+00:00", "2022-07-27T14:25:47+00:00", "2022-07-27T14:26:43+00:00", "2022-07-27T14:29:48+00:00", "2022-07-27T14:31:58+00:00", "2022-07-27T14:33:08+00:00", "2022-07-27T14:35:09+00:00", "2022-07-27T14:37:25+00:00", "2022-07-27T14:39:59+00:00", "2022-07-27T14:42:46+00:00", "2022-07-27T14:44:00+00:00", "2022-07-27T14:45:51+00:00", "2022-07-27T14:47:51+00:00", "2022-07-27T14:50:00+00:00", "2022-07-27T14:52:00+00:00", "2022-07-27T14:54:02+00:00", "2022-07-27T14:55:12+00:00", "2022-07-27T14:58:02+00:00", "2022-07-27T14:58:40+00:00", "2022-07-27T15:00:24+00:00", "2022-07-27T15:02:00+00:00", "2022-07-27T15:04:41+00:00", "2022-07-27T15:06:25+00:00", "2022-07-27T15:08:02+00:00", "2022-07-27T15:09:46+00:00", "2022-07-27T15:10:34+00:00", "2022-07-27T15:12:02+00:00", "2022-07-27T15:14:11+00:00", "2022-07-27T15:16:03+00:00", "2022-07-27T15:17:55+00:00", "2022-07-27T15:18:59+00:00", "2022-07-27T15:20:44+00:00", "2022-07-27T15:23:08+00:00", "2022-07-27T15:24:03+00:00", "2022-07-27T15:26:04+00:00", "2022-07-27T15:28:45+00:00", "2022-07-27T15:30:21+00:00", "2022-07-27T15:32:29+00:00", "2022-07-27T15:34:46+00:00", "2022-07-27T15:37:10+00:00", "2022-07-27T15:38:05+00:00", "2022-07-27T15:39:27+00:00", "2022-07-27T15:41:35+00:00", "2022-07-27T15:44:15+00:00", "2022-07-27T15:45:11+00:00", "2022-07-27T15:48:11+00:00", "2022-07-27T15:49:52+00:00", "2022-07-27T15:52:25+00:00", "2022-07-27T15:54:08+00:00", "2022-07-27T15:56:11+00:00", "2022-07-27T15:57:14+00:00", "2022-07-27T15:58:42+00:00", "2022-07-27T16:00:42+00:00", "2022-07-27T16:02:36+00:00", "2022-07-27T16:03:38+00:00", "2022-07-27T16:04:59+00:00", "2022-07-27T16:06:19+00:00", "2022-07-27T16:06:59+00:00", "2022-07-27T16:08:43+00:00", "2022-07-27T16:14:07+00:00", "2022-07-27T16:15:08+00:00", "2022-07-27T16:16:13+00:00", "2022-07-27T16:17:17+00:00", "2022-07-27T16:18:29+00:00", "2022-07-27T16:20:10+00:00", "2022-07-27T16:22:14+00:00", "2022-07-27T16:24:14+00:00", "2022-07-27T16:25:10+00:00", "2022-07-27T16:26:10+00:00", "2022-07-27T16:28:06+00:00", "2022-07-27T16:29:43+00:00", "2022-07-27T16:30:55+00:00", "2022-07-27T16:31:35+00:00", "2022-07-27T16:34:00+00:00", "2022-07-27T16:34:48+00:00", "2022-07-27T16:35:52+00:00", "2022-07-27T16:37:12+00:00", "2022-07-27T16:38:16+00:00", "2022-07-27T16:40:11+00:00", "2022-07-27T16:43:05+00:00", "2022-07-27T16:46:01+00:00", "2022-07-27T16:48:11+00:00", "2022-07-27T16:52:00+00:00", "2022-07-27T16:53:54+00:00", "2022-07-27T16:55:23+00:00", "2022-07-27T16:57:55+00:00", "2022-07-27T17:00:11+00:00", "2022-07-27T17:02:14+00:00", "2022-07-27T17:04:14+00:00", "2022-07-27T17:06:13+00:00", "2022-07-27T17:07:26+00:00", "2022-07-27T17:08:55+00:00", "2022-07-27T17:10:14+00:00", "2022-07-27T17:13:37+00:00", "2022-07-27T17:16:14+00:00", "2022-07-27T17:16:52+00:00", "2022-07-27T17:18:05+00:00", "2022-07-27T17:19:49+00:00", "2022-07-27T17:22:15+00:00", "2022-07-27T17:24:16+00:00", "2022-07-27T17:25:44+00:00", "2022-07-27T17:26:57+00:00", "2022-07-27T17:27:54+00:00", "2022-07-27T17:31:32+00:00", "2022-07-27T17:32:12+00:00", "2022-07-27T17:34:19+00:00", "2022-07-27T17:35:17+00:00", "2022-07-27T17:37:34+00:00", "2022-07-27T17:38:23+00:00", "2022-07-27T17:40:48+00:00", "2022-07-27T17:42:01+00:00", "2022-07-27T17:43:13+00:00", "2022-07-27T17:45:30+00:00", "2022-07-27T17:46:51+00:00", "2022-07-27T17:47:48+00:00", "2022-07-27T17:49:24+00:00", "2022-07-27T17:50:36+00:00", "2022-07-27T17:54:54+00:00", "2022-07-27T17:55:59+00:00", "2022-07-27T17:57:11+00:00", "2022-07-27T17:58:24+00:00", "2022-07-27T18:00:33+00:00", "2022-07-27T18:02:10+00:00", "2022-07-27T18:03:38+00:00", "2022-07-27T18:05:32+00:00", "2022-07-27T18:08:11+00:00", "2022-07-27T18:09:26+00:00", "2022-07-27T18:10:39+00:00", "2022-07-27T18:12:23+00:00", "2022-07-27T18:14:15+00:00", "2022-07-27T18:15:21+00:00", "2022-07-27T18:16:26+00:00", "2022-07-27T18:17:38+00:00", "2022-07-27T18:18:44+00:00", "2022-07-27T18:19:56+00:00", "2022-07-27T18:20:36+00:00", "2022-07-27T18:23:58+00:00", "2022-07-27T18:25:26+00:00", "2022-07-27T18:27:03+00:00", "2022-07-27T18:28:07+00:00", "2022-07-27T18:30:17+00:00", "2022-07-27T18:31:21+00:00", "2022-07-27T18:33:06+00:00", "2022-07-27T18:35:15+00:00", "2022-07-27T18:36:44+00:00", "2022-07-27T18:38:18+00:00", "2022-07-27T18:39:09+00:00", "2022-07-27T18:40:29+00:00", "2022-07-27T18:42:06+00:00", "2022-07-27T18:43:19+00:00", "2022-07-27T18:45:52+00:00", "2022-07-27T18:46:49+00:00", "2022-07-27T18:48:58+00:00", "2022-07-27T18:50:19+00:00", "2022-07-27T18:51:47+00:00", "2022-07-27T18:56:04+00:00", "2022-07-27T18:58:37+00:00", "2022-07-27T19:00:19+00:00", "2022-07-27T19:01:26+00:00", "2022-07-27T19:04:32+00:00", "2022-07-27T19:05:28+00:00", "2022-07-27T19:08:41+00:00", "2022-07-27T19:10:50+00:00", "2022-07-27T19:11:32+00:00", "2022-07-27T19:11:55+00:00", "2022-07-27T19:18:22+00:00", "2022-07-27T19:19:51+00:00", "2022-07-27T19:22:22+00:00", "2022-07-27T19:24:00+00:00", "2022-07-27T19:27:13+00:00", "2022-07-27T19:28:50+00:00", "2022-07-27T19:32:12+00:00", "2022-07-27T19:32:52+00:00", "2022-07-27T19:38:23+00:00", "2022-07-27T19:42:07+00:00", "2022-07-27T19:43:59+00:00", "2022-07-27T19:46:23+00:00", "2022-07-27T19:52:11+00:00", "2022-07-27T19:55:00+00:00", "2022-07-27T19:57:33+00:00", "2022-07-27T20:00:26+00:00", "2022-07-27T20:02:27+00:00", "2022-07-27T20:04:40+00:00", "2022-07-27T20:06:41+00:00", "2022-07-27T20:08:28+00:00", "2022-07-27T20:10:18+00:00", "2022-07-27T20:11:55+00:00", "2022-07-27T20:16:28+00:00", "2022-07-27T20:18:06+00:00", "2022-07-27T20:19:35+00:00", "2022-07-27T20:22:40+00:00", "2022-07-27T20:25:44+00:00", "2022-07-27T20:29:15+00:00", "2022-07-27T20:34:27+00:00", "2022-07-27T20:38:08+00:00", "2022-07-27T20:41:53+00:00", "2022-07-27T20:46:29+00:00", "2022-07-27T20:50:29+00:00", "2022-07-27T20:51:57+00:00", "2022-07-27T20:55:18+00:00", "2022-07-27T20:58:30+00:00", "2022-07-27T20:59:03+00:00", "2022-07-27T21:00:08+00:00", "2022-07-27T21:01:37+00:00", "2022-07-27T21:03:53+00:00", "2022-07-27T21:04:34+00:00", "2022-07-27T21:06:30+00:00", "2022-07-27T21:08:31+00:00", "2022-07-27T21:10:31+00:00", "2022-07-27T21:12:30+00:00", "2022-07-27T21:13:19+00:00", "2022-07-27T21:15:28+00:00", "2022-07-27T21:17:53+00:00", "2022-07-27T21:19:30+00:00", "2022-07-27T21:20:34+00:00", "2022-07-27T21:22:35+00:00", "2022-07-27T21:25:08+00:00", "2022-07-27T21:27:17+00:00", "2022-07-27T21:29:18+00:00", "2022-07-27T21:32:07+00:00", "2022-07-27T21:35:28+00:00", "2022-07-27T21:36:40+00:00", "2022-07-27T21:39:13+00:00", "2022-07-27T21:41:30+00:00", "2022-07-27T21:45:48+00:00", "2022-07-28T18:44:48+00:00", "2022-07-29T01:05:28+00:00", "2022-07-29T01:07:06+00:00", "2022-07-29T01:09:15+00:00", "2022-07-29T01:10:28+00:00", "2022-07-29T01:12:04+00:00", "2022-07-29T01:13:40+00:00", "2022-07-29T01:15:25+00:00", "2022-07-29T01:17:18+00:00", "2022-07-29T01:19:43+00:00", "2022-07-29T01:21:03+00:00", "2022-07-29T01:24:48+00:00", "2022-07-29T01:26:25+00:00", "2022-07-29T01:29:48+00:00", "2022-07-29T01:32:57+00:00", "2022-07-29T01:35:12+00:00", "2022-07-29T01:38:46+00:00", "2022-07-29T01:44:57+00:00", "2022-07-29T01:45:45+00:00", "2022-07-29T01:51:56+00:00", "2022-07-29T01:55:58+00:00", "2022-07-29T01:57:50+00:00", "2022-07-29T02:02:16+00:00", "2022-07-29T02:05:45+00:00", "2022-07-29T02:10:18+00:00", "2022-07-29T02:13:31+00:00", "2022-07-29T02:16:20+00:00", "2022-07-29T02:19:41+00:00", "2022-07-29T02:26:24+00:00", "2022-07-29T02:27:12+00:00", "2022-07-29T02:30:01+00:00", "2022-07-29T02:31:54+00:00", "2022-07-29T02:34:59+00:00", "2022-07-29T02:36:44+00:00", "2022-07-29T02:39:00+00:00", "2022-07-29T02:41:01+00:00", "2022-07-29T02:43:26+00:00", "2022-07-29T02:45:18+00:00", "2022-07-29T02:46:39+00:00", "2022-07-29T02:48:48+00:00", "2022-07-29T02:50:49+00:00", "2022-07-29T02:54:27+00:00", "2022-07-29T02:55:00+00:00", "2022-07-29T02:59:18+00:00", "2022-07-29T03:00:22+00:00", "2022-07-29T03:02:32+00:00", "2022-07-29T03:05:13+00:00", "2022-07-29T03:06:09+00:00", "2022-07-29T03:10:03+00:00", "2022-07-29T03:10:44+00:00", "2022-07-29T03:13:41+00:00", "2022-07-29T03:16:15+00:00", "2022-07-29T03:17:59+00:00", "2022-07-29T03:22:57+00:00", "2022-07-29T03:23:30+00:00", "2022-07-29T03:25:31+00:00", "2022-07-29T03:27:48+00:00", "2022-07-29T03:30:05+00:00", "2022-07-29T03:34:06+00:00", "2022-07-29T03:34:54+00:00", "2022-07-29T03:38:08+00:00", "2022-07-29T03:39:44+00:00", "2022-07-29T03:41:29+00:00", "2022-07-29T04:56:13+00:00", "2022-07-29T20:38:38+00:00", "2022-07-29T22:09:56+00:00", "2022-07-29T22:13:17+00:00", "2022-07-29T22:15:33+00:00", "2022-07-29T22:19:00+00:00", "2022-07-29T22:21:18+00:00", "2022-07-29T22:23:59+00:00", "2022-07-29T22:26:55+00:00", "2022-07-29T22:29:00+00:00", "2022-07-29T22:30:40+00:00", "2022-07-29T22:33:09+00:00", "2022-07-29T22:35:09+00:00", "2022-07-29T22:38:41+00:00", "2022-07-29T22:40:42+00:00", "2022-07-29T22:43:46+00:00", "2022-07-29T22:45:47+00:00", "2022-07-29T22:48:43+00:00", "2022-07-29T22:49:40+00:00", "2022-07-29T22:53:10+00:00", "2022-07-29T22:55:10+00:00", "2022-07-29T22:56:34+00:00", "2022-07-29T22:59:00+00:00", "2022-07-29T23:00:18+00:00", "2022-07-29T23:02:27+00:00", "2022-07-29T23:04:03+00:00", "2022-07-29T23:07:23+00:00", "2022-07-29T23:08:20+00:00", "2022-07-29T23:11:09+00:00", "2022-07-29T23:11:48+00:00", "2022-07-29T23:13:40+00:00", "2022-07-29T23:16:05+00:00", "2022-07-29T23:17:17+00:00", "2022-07-29T23:18:21+00:00", "2022-07-29T23:21:02+00:00", "2022-07-29T23:23:11+00:00", "2022-07-29T23:26:23+00:00", "2022-07-29T23:29:00+00:00", "2022-07-29T23:31:12+00:00", "2022-07-29T23:35:12+00:00", "2022-07-29T23:36:33+00:00", "2022-07-29T23:41:17+00:00", "2022-07-29T23:43:30+00:00", "2022-07-29T23:47:13+00:00", "2022-07-29T23:51:52+00:00", "2022-07-29T23:57:01+00:00", "2022-07-29T23:59:15+00:00", "2022-07-30T00:02:13+00:00", "2022-07-30T00:02:37+00:00", "2022-07-30T00:07:34+00:00", "2022-07-30T00:09:15+00:00", "2022-07-30T00:13:03+00:00", "2022-07-30T00:15:38+00:00", "2022-07-30T00:18:16+00:00", "2022-07-30T00:22:25+00:00", "2022-07-30T00:23:15+00:00", "2022-07-30T00:26:34+00:00", "2022-07-30T00:27:15+00:00", "2022-07-30T00:30:03+00:00", "2022-07-30T00:35:08+00:00", "2022-07-30T00:37:17+00:00", "2022-07-30T00:39:15+00:00", "2022-07-30T00:44:22+00:00", "2022-07-30T00:47:17+00:00", "2022-07-30T00:49:15+00:00", "2022-07-30T00:54:07+00:00", "2022-07-30T00:55:22+00:00", "2022-07-30T01:00:16+00:00", "2022-07-30T01:01:29+00:00", "2022-07-30T01:07:29+00:00", "2022-07-30T01:08:34+00:00", "2022-07-30T01:10:15+00:00", "2022-07-30T01:10:59+00:00", "2022-07-30T01:12:35+00:00", "2022-07-30T01:14:20+00:00", "2022-07-30T01:16:28+00:00", "2022-07-30T01:17:24+00:00", "2022-07-30T01:19:15+00:00", "2022-07-30T01:21:22+00:00", "2022-07-30T01:22:54+00:00", "2022-07-30T01:24:46+00:00", "2022-07-30T01:26:06+00:00", "2022-07-30T01:27:10+00:00", "2022-07-30T01:29:11+00:00", "2022-07-30T01:31:11+00:00", "2022-07-30T01:32:07+00:00", "2022-07-30T01:34:00+00:00", "2022-07-30T01:36:49+00:00", "2022-07-30T01:37:52+00:00", "2022-07-30T01:39:15+00:00", "2022-07-30T01:41:21+00:00", "2022-07-30T01:43:26+00:00", "2022-07-30T01:45:46+00:00", "2022-07-30T01:46:50+00:00", "2022-07-30T01:48:26+00:00", "2022-07-30T01:50:10+00:00", "2022-07-30T01:51:30+00:00", "2022-07-30T01:53:30+00:00", "2022-07-30T01:57:16+00:00", "2022-07-30T01:59:24+00:00", "2022-07-30T02:00:36+00:00", "2022-07-30T02:03:30+00:00", "2022-07-30T02:04:05+00:00", "2022-07-30T02:05:33+00:00", "2022-07-30T02:07:30+00:00", "2022-07-30T02:09:26+00:00", "2022-07-30T02:10:38+00:00", "2022-07-30T02:11:42+00:00", "2022-07-30T02:15:51+00:00", "2022-07-30T02:17:59+00:00", "2022-07-30T02:20:56+00:00", "2022-07-30T02:21:27+00:00", "2022-07-30T02:27:29+00:00", "2022-07-30T02:29:45+00:00", "2022-07-30T02:31:29+00:00", "2022-07-30T02:33:29+00:00", "2022-07-30T02:36:43+00:00", "2022-07-30T02:38:11+00:00", "2022-07-30T02:41:08+00:00", "2022-07-30T02:44:45+00:00", "2022-07-30T02:46:05+00:00", "2022-07-30T02:47:57+00:00", "2022-07-30T02:51:30+00:00", "2022-07-30T02:53:10+00:00", "2022-07-30T02:54:38+00:00", "2022-07-30T02:57:03+00:00", "2022-07-30T02:59:11+00:00", "2022-07-30T03:03:35+00:00", "2022-07-30T03:07:35+00:00", "2022-07-30T03:11:05+00:00", "2022-07-30T03:13:21+00:00", "2022-07-30T03:16:09+00:00", "2022-07-31T00:15:21+00:00", "2022-07-31T22:06:49+00:00", "2022-07-31T22:08:54+00:00", "2022-07-31T22:10:38+00:00", "2022-07-31T22:12:14+00:00", "2022-07-31T22:13:51+00:00", "2022-07-31T22:15:29+00:00", "2022-07-31T22:18:40+00:00", "2022-07-31T22:19:29+00:00", "2022-07-31T22:21:44+00:00", "2022-07-31T22:23:28+00:00", "2022-07-31T22:26:42+00:00", "2022-07-31T22:28:26+00:00", "2022-07-31T22:30:51+00:00", "2022-07-31T22:33:15+00:00", "2022-07-31T22:35:25+00:00", "2022-07-31T22:38:13+00:00", "2022-07-31T22:39:17+00:00", "2022-07-31T22:41:42+00:00", "2022-07-31T22:45:27+00:00", "2022-07-31T22:47:03+00:00", "2022-07-31T22:52:53+00:00", "2022-08-01T00:27:43+00:00"], "elevations": [null, 8.0, null, 10.0, null, 10.5, 15.0, 16.0, 11.0, 11.0, 10.7, 7.0, 8.5, 6.4, 12.0, 10.0, 11.0, 8.7, 9.0, 9.2, 8.0, 9.0, 7.0, 8.2, 7.0, 8.0, 6.7, 6.0, 7.0, 27.0, 12.5, 11.5, -1.0, 7.0, 21.4, 2.0, 0.0, null, -2.0, null, 3.0, 10.5, 9.0, 10.0, 10.0, 10.5, 10.0, 11.0, 11.0, 11.0, 14.0, 12.0, null, 11.0, 8.0, 8.0, 6.0, 9.0, 11.0, 2.3, null, 5.0, null, 13.0, 12.0, 8.0, 9.0, 8.0, null, 8.0, 5.0, null, 8.0, 8.0, 8.0, 7.0, 8.0, 8.4, 7.0, 5.0, null, 6.0, 6.4, 6.0, 14.0, 6.0, null, null, 5.7, 5.7, 10.0, 28.7, null, 10.0, 12.0, 6.7, 13.0, 8.0, 6.0, null, 8.7, 10.0, 10.0, 11.0, 10.2, 10.0, 9.5, 8.7, 9.5, 9.0, 9.0, 8.4, null, 8.5, 9.0, 18.6, 9.0, null, 8.0, 8.4, 2.0, 2.0, null, 9.0, 10.5, 9.0, 8.0, 6.0, null, 4.4, 5.0, 5.0, null, 18.0, null, 13.5, null, 8.0, 7.0, 8.0, 13.5, 15.0, 14.0, 10.0, 10.0, 10.5, 10.0, 10.0, 9.0, null, 8.4, 10.0, 10.0, 9.0, 8.4, null, 10.0, 10.0, 10.7, null, 12.0, 11.0, 12.5, 12.0, 12.0, null, 12.0, 10.5, 11.0, 12.0, null, 10.7, 11.0, 8.0, 10.0, 10.0, 9.8, null, 13.0, 11.0, 11.0, 10.5, null, 11.0, 11.0, 10.0, null, 10.0, 8.4, 8.0, 9.0, 7.0, null, 6.7, null, 7.0, 8.0, 8.0, 28.0, null, null, 7.0, 8.0, 8.0, 8.0, 6.4, null, 7.0, null, 8.0, 7.0, 6.4, 8.0, 8.0, null, 8.0, 12.0, 12.0, 3.0, 14.0, 5.0, 7.0, 16.0, null, 10.0, null, 12.0, null, 10.0, 5.0, 2.0, null, 6.0, 6.0, 9.0, 8.4, 7.0, 8.0, 6.0, 6.0, null, 11.0, null, 8.0, 9.0, 9.0, null, 8.0, 8.4, 8.0, null, 11.0, null, 10.0, null, 10.5, 13.0, null, 7.0, 16.0, 14.5, null, 12.0, 28.0, 36.0, 18.0, 16.5, 17.0, 13.0, null, 10.0, 18.0, null, 8.4, 7.0, 17.0, null, 13.0, null, 12.5, 11.0, 14.0, 12.0, 12.0, 8.4, null, 6.0, 8.0, 5.0, 6.0, null, 4.4, null, 15.0, 11.0, 13.0, 6.7, 6.0, -2.0, 1.0, 0.3, null, 3.0, -6.0, -6.0, -5.0, null, -5.4, null, -5.0, -8.0, null, -1.3, 5.0, 11.0, 30.0, 15.0, null, 51.0, null, 47.0, 34.0, 2.0, 5.0, null, 28.7, 0.0, -1.0, -1.7, null, 11.0, 11.5, null, 5.2, null, 3.5, 5.0, 6.4, 5.0, 6.0, null, 7.0, 6.4, null, 1.0, 6.0, 10.0, 7.0, 6.7, 9.0, null, 1.0, 4.0, 5.7, 9.0, null, 22.0, 8.4, 9.0, 10.0, 7.0, 9.0, 8.4, 4.0, 7.0, 4.0, 6.7, 6.0, 7.0, 6.0, 5.7, 5.0, null, 6.0, 5.2, 1.0, 7.0, 6.0, 4.4, 8.0, 8.0, 9.0, 6.4, null, -6.0, 8.0, 7.1, 9.0, 10.0, 9.0, 14.5, 15.5, null, 46.0, null, 10.5, -7.0, 8.0, 5.0, 5.0, 9.0, null, 8.0, -9.0, 11.0, -1.0, 0.0, null, 4.0, -8.0, null, 5.0, 3.5, 3.0, 1.0, 2.0, 14.0, 16.0, 2.3, 3.0, null, 3.0, 2.0, null, 6.2, null, 9.0, 6.0, null, 6.2, null, 2.0, 13.0, 9.0, 4.0, null, 4.4, 5.0, 8.5, null, 6.7, null, 7.0, 10.0, 19.0, 5.0, 14.5, 14.0, null, 14.0, null, 12.5, 5.0, 9.0, null, 12.0, null, 29.9, null, null, 28.0, null, 18.0, 24.8, null, 14.0, 12.0, null, 17.0, 16.5, 17.0, null, 19.0, null, 50.0, null, 8.4, null, 5.0, 9.0, null, 4.0, 6.0, 8.4, 6.0, 5.5, 2.7, null, 7.0, null, 30.0, 33.0, 5.0, 6.0, 15.0, null, 5.0, null, 7.5, null, 16.0, 8.0, 0.3, null, null, 11.0, 4.0, 3.0, -5.8, 12.0, 9.0, null, 9.0, null, 7.7, null, 7.0, 7.0, null, null, 11.7, 13.0, 8.0, null, 9.0, 10.0, -5.0, 6.4, null, 11.0, null, 9.0, 7.0, 4.4, null, 9.0, null, 10.0, null, 14.0, 6.4, null, 10.0, 7.0, null, 4.0, null, 10.5, 10.0, 14.0, null, 11.0, 11.0, 8.4, null, 11.5, null, 10.0, 11.0, 10.5, 11.0, 14.0, 14.0, 20.6, 17.0, 20.0, null, 16.0, 16.5, 16.5, null, 9.5, 12.5, 7.0, 44.0, 47.0, 9.7, 10.5, 6.0, 6.7, 8.5, 7.0, 4.7, 7.0, 18.0, 19.0, 14.5, 21.0, 22.0, 13.0, 15.0, 12.5, 14.0, 16.0, 14.0, 15.5, 14.0, 16.5, 10.0, 9.0, 11.5, 16.0, 13.0, 12.5, 13.5, null, 7.0, 14.0, null, 12.5, 10.0, 10.0, 9.0, 12.0, 14.5, null, 13.0, 14.0, 10.0, 15.3, 9.0, 8.0, 10.0, 12.0, 14.5, 9.0, 14.0, 14.5, null, 18.7, 13.0, null, null, null, 10.0, 19.5, 17.0, 0.5, 20.0, 19.0, null, 8.0, 5.0, 10.0, 17.0, null, null, null, null, null, null, null, null, null, null, null, null, null, null, null, null, null, null, null, null, null, null, null, null, null, null, null, null, null, null, null, null, null, null, null, null, null, null, null, null, null, null, null, null, null, null, null, 9.1, 16.1, null, 7.0, 8.0, 1.7, 4.0, 4.0, 9.0, -2.9, -17.0, -4.0, 3.5, 8.4, -26.0, 3.0, 3.0, 2.3, 6.0, 9.0, 10.0, null, 15.8, null, 10.0, 14.0, 6.0, null, 4.7, 11.0, null, 11.0, 13.0, 12.5, 4.0, 9.5, null, 7.2, 17.0, 21.0, 12.0, 15.5, null, 14.5, 11.0, null, 13.7, 5.0, 7.0, 11.0, 14.3, null, 5.0, null, 7.0, 16.0, 17.0, 11.3, 13.0, 9.0, 10.0, 14.8, null, 5.0, 6.4, 7.0, 8.5, 6.2, 11.0, 9.5, 10.5, 10.0, null, null, 13.0, null, 8.0, 12.5, 8.0, null, 11.0, null, 7.0, null, 6.0, 12.0, null, 7.0, null, 8.2, 4.0, 6.0, 5.0, 5.0, 8.4, null, 17.0, 9.0, null, 11.0, 12.5, 5.0, null, 9.0, 10.0, -7.8, 15.0, 19.0, null, 13.0, 12.0, 18.0, 16.5, 14.0, 14.0, 14.5, 10.0, 9.0, 12.0, null, 9.5, 6.0, 3.0, null, 12.0, 19.0, 16.5, 11.5, 11.5, 10.0, null, 14.5, 21.0, 7.0, 9.0, null, 7.0, 18.6, 2.0, null, -1.0, 17.0, 12.5, 11.5, null, 2.0, 12.5, 6.5, null, 13.0, 23.0, 38.9, null, 11.9, null]}