{"type": "Feature", "properties": {"leg_id": 71, "name": "20240407 - Hobart to Flinders Island", "stated_nm": 266.3, "computed_nm": 266.3}, "geometry": {"type": "LineString", "coordinates": [[147.312149, -42.825294], [147.319916, -42.828874], [147.323697, -42.831532], [147.32721, -42.836764], [147.33164, -42.844237], [147.338435, -42.854247], [147.340055, -42.856957], [147.343293, -42.863822], [147.344343, -42.868106], [147.345486, -42.874256], [147.345901, -42.880249], [147.343509, -42.883197], [147.338623, -42.884444], [147.33571, -42.884571], [147.33428, -42.883864], [147.334267, -42.88385], [147.341272, -42.885893], [147.342687, -42.887533], [147.345236, -42.889882], [147.345498, -42.888993], [147.341626, -42.886799], [147.335673, -42.884716], [147.334555, -42.883852], [147.335359, -42.884176], [147.343756, -42.886539], [147.352098, -42.893995], [147.355018, -42.896845], [147.360872, -42.902207], [147.3663, -42.906882], [147.371279, -42.910913], [147.371765, -42.913015], [147.372137, -42.919102], [147.372125, -42.929215], [147.371647, -42.939237], [147.371625, -42.953732], [147.371219, -42.955848], [147.369399, -42.957826], [147.365296, -42.959228], [147.365278, -42.968288], [147.36535, -42.984172], [147.366095, -42.987023], [147.370873, -43.00239], [147.373388, -43.01179], [147.378352, -43.02832], [147.381103, -43.036993], [147.383807, -43.044808], [147.385514, -43.047208], [147.393698, -43.055547], [147.40368, -43.064882], [147.4129, -43.07307], [147.415472, -43.074442], [147.432752, -43.082472], [147.441638, -43.0868], [147.44921, -43.088385], [147.454343, -43.089328], [147.469638, -43.09248], [147.491515, -43.097407], [147.505688, -43.100837], [147.514228, -43.102732], [147.522922, -43.104783], [147.534062, -43.106018], [147.54102, -43.106918], [147.555345, -43.108553], [147.558166, -43.107749], [147.568012, -43.106003], [147.576513, -43.10526], [147.58824, -43.104898], [147.59287, -43.105119], [147.600873, -43.107002], [147.605997, -43.107707], [147.61494, -43.108622], [147.640545, -43.110812], [147.652285, -43.112038], [147.65667, -43.11239], [147.667193, -43.113512], [147.678545, -43.114207], [147.681884, -43.113624], [147.692047, -43.111735], [147.697265, -43.110715], [147.706553, -43.107848], [147.716658, -43.103332], [147.722573, -43.100001], [147.728053, -43.098699], [147.733029, -43.099584], [147.737467, -43.101013], [147.738557, -43.101604], [147.738434, -43.101602], [147.733183, -43.099019], [147.728162, -43.099108], [147.721433, -43.100572], [147.716197, -43.102564], [147.714346, -43.105096], [147.709442, -43.112734], [147.693585, -43.12427], [147.691768, -43.125586], [147.689128, -43.128082], [147.685277, -43.131197], [147.682247, -43.135185], [147.677038, -43.145297], [147.674303, -43.15384], [147.671057, -43.153975], [147.668234, -43.155651], [147.669528, -43.160638], [147.672402, -43.172462], [147.674732, -43.177198], [147.677337, -43.1826], [147.680753, -43.189169], [147.684348, -43.195688], [147.687268, -43.200077], [147.68964, -43.204247], [147.693304, -43.209934], [147.697003, -43.213852], [147.702024, -43.219076], [147.705932, -43.223245], [147.71, -43.227663], [147.713475, -43.231118], [147.7171, -43.235038], [147.721817, -43.240758], [147.723339, -43.242948], [147.725578, -43.246261], [147.728165, -43.249672], [147.730337, -43.252419], [147.732997, -43.255498], [147.736444, -43.259048], [147.7401, -43.26308], [147.741371, -43.264491], [147.746564, -43.268592], [147.751577, -43.271662], [147.754699, -43.273817], [147.758211, -43.27622], [147.763722, -43.280425], [147.766318, -43.282534], [147.768614, -43.284369], [147.771303, -43.285974], [147.773588, -43.286947], [147.775788, -43.287815], [147.778743, -43.288995], [147.783022, -43.290578], [147.792483, -43.29274], [147.797087, -43.293882], [147.801046, -43.294617], [147.80669, -43.295925], [147.812281, -43.297206], [147.818159, -43.298198], [147.823132, -43.299096], [147.828045, -43.300386], [147.831895, -43.301721], [147.835218, -43.303126], [147.837253, -43.30404], [147.840488, -43.304703], [147.843866, -43.305437], [147.847789, -43.306402], [147.850069, -43.307298], [147.853895, -43.308302], [147.856354, -43.308503], [147.858995, -43.30928], [147.862008, -43.31029], [147.865375, -43.311197], [147.870598, -43.311964], [147.875019, -43.311898], [147.878257, -43.311773], [147.880912, -43.311727], [147.883999, -43.311343], [147.887267, -43.31138], [147.890205, -43.311127], [147.89456, -43.310993], [147.898461, -43.310567], [147.901944, -43.310142], [147.905959, -43.310038], [147.908148, -43.310262], [147.911711, -43.30975], [147.916253, -43.308672], [147.919843, -43.307654], [147.923639, -43.306767], [147.927414, -43.305877], [147.932474, -43.305085], [147.936762, -43.304319], [147.938982, -43.304044], [147.944206, -43.302968], [147.94848, -43.302234], [147.953534, -43.301433], [147.958139, -43.300696], [147.962294, -43.299718], [147.965993, -43.299118], [147.969202, -43.298745], [147.972416, -43.298287], [147.976335, -43.297278], [147.979598, -43.296535], [147.983032, -43.295662], [147.987522, -43.294844], [147.992214, -43.293511], [147.994981, -43.292737], [147.998024, -43.292502], [148.001754, -43.291748], [148.005367, -43.291048], [148.008971, -43.290314], [148.012694, -43.289781], [148.016232, -43.289228], [148.019689, -43.288587], [148.022561, -43.288171], [148.026635, -43.287465], [148.029932, -43.286667], [148.034421, -43.285593], [148.038399, -43.285042], [148.042331, -43.284301], [148.045684, -43.283695], [148.048638, -43.283523], [148.049815, -43.282256], [148.049216, -43.27689], [148.048899, -43.273314], [148.048835, -43.269307], [148.048431, -43.266859], [148.048107, -43.264891], [148.047556, -43.262137], [148.047307, -43.259219], [148.047227, -43.257101], [148.047029, -43.254323], [148.046681, -43.251023], [148.046154, -43.247393], [148.045823, -43.243813], [148.045268, -43.240497], [148.045363, -43.23776], [148.045058, -43.234049], [148.044663, -43.229552], [148.044402, -43.227049], [148.043432, -43.221843], [148.042815, -43.219191], [148.041796, -43.213333], [148.041416, -43.210331], [148.039972, -43.205342], [148.038404, -43.200213], [148.037397, -43.19665], [148.035759, -43.189962], [148.0347, -43.183302], [148.033335, -43.175158], [148.032794, -43.170876], [148.030852, -43.153093], [148.030612, -43.149572], [148.029507, -43.141252], [148.02931, -43.138623], [148.028008, -43.129702], [148.0261, -43.118912], [148.027055, -43.116764], [148.028887, -43.111122], [148.031147, -43.105705], [148.033079, -43.100198], [148.034097, -43.09705], [148.0345, -43.095262], [148.034811, -43.093278], [148.035789, -43.091202], [148.036126, -43.089313], [148.03687, -43.087249], [148.037777, -43.085212], [148.038744, -43.083338], [148.039737, -43.081102], [148.040671, -43.078366], [148.041451, -43.076063], [148.042523, -43.073083], [148.04296, -43.071385], [148.043581, -43.069643], [148.044396, -43.067465], [148.044781, -43.065434], [148.045207, -43.063577], [148.046045, -43.062111], [148.046433, -43.060482], [148.049134, -43.053336], [148.050512, -43.050634], [148.051709, -43.048158], [148.053506, -43.045786], [148.055757, -43.043197], [148.058185, -43.04066], [148.059856, -43.038362], [148.061857, -43.035469], [148.06324, -43.033282], [148.065797, -43.029794], [148.068252, -43.027213], [148.070115, -43.025032], [148.071827, -43.022363], [148.073539, -43.019367], [148.075167, -43.016751], [148.076603, -43.014718], [148.078193, -43.012088], [148.079856, -43.009873], [148.081238, -43.008167], [148.082287, -43.006353], [148.083939, -43.003926], [148.084971, -43.002179], [148.086679, -42.999546], [148.088328, -42.997578], [148.089957, -42.995519], [148.091605, -42.993441], [148.093285, -42.991341], [148.094933, -42.989649], [148.096906, -42.987258], [148.098632, -42.984902], [148.099981, -42.982357], [148.101327, -42.979974], [148.102679, -42.977504], [148.103637, -42.975446], [148.10471, -42.973614], [148.10574, -42.971736], [148.106735, -42.969798], [148.107628, -42.967703], [148.108407, -42.965417], [148.109249, -42.963888], [148.110321, -42.961203], [148.11107, -42.959071], [148.111447, -42.956384], [148.111595, -42.954585], [148.11245, -42.952364], [148.114688, -42.949267], [148.116032, -42.946564], [148.117701, -42.944728], [148.119548, -42.942317], [148.120841, -42.940426], [148.122118, -42.937982], [148.123235, -42.935457], [148.124351, -42.933143], [148.125491, -42.930785], [148.126398, -42.929141], [148.127841, -42.925809], [148.12949, -42.922807], [148.131033, -42.919278], [148.132163, -42.914497], [148.132957, -42.911337], [148.133737, -42.908651], [148.135017, -42.906742], [148.137633, -42.902999], [148.138833, -42.900982], [148.140505, -42.898333], [148.14248, -42.894811], [148.143558, -42.89233], [148.145581, -42.889003], [148.147458, -42.885641], [148.149837, -42.883152], [148.152639, -42.880857], [148.15551, -42.87855], [148.157669, -42.876795], [148.160002, -42.874291], [148.161456, -42.872866], [148.162907, -42.870962], [148.164034, -42.868812], [148.165257, -42.86678], [148.167128, -42.864178], [148.168143, -42.862425], [148.169695, -42.860042], [148.171335, -42.856093], [148.172711, -42.853971], [148.17432, -42.851914], [148.175834, -42.84995], [148.178074, -42.846823], [148.178849, -42.845351], [148.179915, -42.843403], [148.180755, -42.841697], [148.182214, -42.838312], [148.182852, -42.836571], [148.183421, -42.834632], [148.183696, -42.83203], [148.183686, -42.829212], [148.183307, -42.827023], [148.18289, -42.824495], [148.182888, -42.821792], [148.183355, -42.819726], [148.183327, -42.817197], [148.18377, -42.814926], [148.184492, -42.812421], [148.184665, -42.8105], [148.185026, -42.807831], [148.18535, -42.8055], [148.185535, -42.803609], [148.186159, -42.801008], [148.186485, -42.799252], [148.187019, -42.796836], [148.187906, -42.794393], [148.188872, -42.792153], [148.189339, -42.78979], [148.190208, -42.787126], [148.191597, -42.784637], [148.19295, -42.782997], [148.194871, -42.780887], [148.196711, -42.77862], [148.198457, -42.776454], [148.200483, -42.773555], [148.202222, -42.771089], [148.203542, -42.769171], [148.205441, -42.766738], [148.206938, -42.764846], [148.208546, -42.762321], [148.210731, -42.759612], [148.212104, -42.757628], [148.213843, -42.755408], [148.215212, -42.753746], [148.216958, -42.751423], [148.218111, -42.749325], [148.21914, -42.747293], [148.220119, -42.745494], [148.221235, -42.74332], [148.222228, -42.741623], [148.223465, -42.739584], [148.224725, -42.737701], [148.226022, -42.734571], [148.227432, -42.732335], [148.228931, -42.730214], [148.229828, -42.727937], [148.230459, -42.725801], [148.231388, -42.723823], [148.232709, -42.720545], [148.234328, -42.718148], [148.235328, -42.715529], [148.235824, -42.713492], [148.236852, -42.71137], [148.237603, -42.708891], [148.238205, -42.707006], [148.238747, -42.705305], [148.239745, -42.70204], [148.240484, -42.699627], [148.241788, -42.69743], [148.243321, -42.694561], [148.244836, -42.692441], [148.246599, -42.689446], [148.248395, -42.687406], [148.249705, -42.685646], [148.251796, -42.683169], [148.253051, -42.680865], [148.255754, -42.677515], [148.257038, -42.674962], [148.258211, -42.67263], [148.259086, -42.670727], [148.259985, -42.668618], [148.261306, -42.665737], [148.261905, -42.663712], [148.262906, -42.661638], [148.263544, -42.659102], [148.264102, -42.657105], [148.265257, -42.655314], [148.267017, -42.653015], [148.268912, -42.650906], [148.270992, -42.648297], [148.272852, -42.646099], [148.274103, -42.64466], [148.275885, -42.642074], [148.277378, -42.640059], [148.278121, -42.637692], [148.279336, -42.635434], [148.280048, -42.633621], [148.28128, -42.631557], [148.282528, -42.629497], [148.283891, -42.627776], [148.285596, -42.625532], [148.287158, -42.623526], [148.288558, -42.621736], [148.290593, -42.62022], [148.293415, -42.618466], [148.295791, -42.616924], [148.29813, -42.615024], [148.299359, -42.613404], [148.301314, -42.611094], [148.302542, -42.609489], [148.30297, -42.607061], [148.302882, -42.604934], [148.303725, -42.601881], [148.30492, -42.599613], [148.305311, -42.597231], [148.30522, -42.594961], [148.305902, -42.59322], [148.305763, -42.590977], [148.306847, -42.588967], [148.306933, -42.586306], [148.306087, -42.583755], [148.306116, -42.581011], [148.307786, -42.577782], [148.308279, -42.575718], [148.308692, -42.573232], [148.308758, -42.571327], [148.308785, -42.56913], [148.309146, -42.566909], [148.308865, -42.565028], [148.308293, -42.562784], [148.308176, -42.559878], [148.308135, -42.558131], [148.308011, -42.55563], [148.307722, -42.553457], [148.307442, -42.550606], [148.307922, -42.548433], [148.308048, -42.545926], [148.308045, -42.542847], [148.307421, -42.539512], [148.307786, -42.536966], [148.308529, -42.534638], [148.308856, -42.532276], [148.309426, -42.529313], [148.310016, -42.526942], [148.309953, -42.524469], [148.309259, -42.522087], [148.310503, -42.519713], [148.312077, -42.516703], [148.31315, -42.514157], [148.314051, -42.512366], [148.3152, -42.510256], [148.316374, -42.508003], [148.3175, -42.50498], [148.31848, -42.502117], [148.319239, -42.499704], [148.320218, -42.497157], [148.3214, -42.494706], [148.322056, -42.492932], [148.323022, -42.490677], [148.324241, -42.487916], [148.324766, -42.486035], [148.325435, -42.484175], [148.326335, -42.481623], [148.327524, -42.478672], [148.32872, -42.476275], [148.329737, -42.473821], [148.330859, -42.471296], [148.332009, -42.469368], [148.333113, -42.466569], [148.333802, -42.4642], [148.334539, -42.461762], [148.335807, -42.459036], [148.338236, -42.455579], [148.340121, -42.453095], [148.341103, -42.451036], [148.34239, -42.448631], [148.343096, -42.446593], [148.343764, -42.444528], [148.344952, -42.442267], [148.346106, -42.44015], [148.347265, -42.438081], [148.347886, -42.436146], [148.348088, -42.43286], [148.348998, -42.430212], [148.349884, -42.428077], [148.351092, -42.425159], [148.351938, -42.422689], [148.352447, -42.42095], [148.353254, -42.418164], [148.354236, -42.415785], [148.35456, -42.414047], [148.354952, -42.411745], [148.355597, -42.409146], [148.356069, -42.406334], [148.356474, -42.404633], [148.356797, -42.402339], [148.35714, -42.40015], [148.358064, -42.397961], [148.359433, -42.394135], [148.359919, -42.391933], [148.360397, -42.389439], [148.360429, -42.387519], [148.36061, -42.384708], [148.36077, -42.382392], [148.360947, -42.380027], [148.360951, -42.37771], [148.361159, -42.374876], [148.360843, -42.3728], [148.361122, -42.37104], [148.362544, -42.368852], [148.363753, -42.36623], [148.364624, -42.364463], [148.365287, -42.362622], [148.366074, -42.360875], [148.367411, -42.357745], [148.36867, -42.355594], [148.369473, -42.353797], [148.370091, -42.35201], [148.370777, -42.350088], [148.371084, -42.348133], [148.371465, -42.34602], [148.371864, -42.344058], [148.37172, -42.34193], [148.371964, -42.339974], [148.372897, -42.338064], [148.373746, -42.335982], [148.374058, -42.334158], [148.374807, -42.33235], [148.375582, -42.330429], [148.376811, -42.328703], [148.377887, -42.32702], [148.378759, -42.325357], [148.379036, -42.322752], [148.378542, -42.320546], [148.378474, -42.317869], [148.378084, -42.315747], [148.378536, -42.311428], [148.378635, -42.309029], [148.37838, -42.306263], [148.38047, -42.304313], [148.383286, -42.301552], [148.383857, -42.299237], [148.384117, -42.296564], [148.385524, -42.294838], [148.386455, -42.291627], [148.387549, -42.289078], [148.387831, -42.285469], [148.389074, -42.282641], [148.391529, -42.279321], [148.393692, -42.277217], [148.395315, -42.275112], [148.396668, -42.272646], [148.397425, -42.269724], [148.39804, -42.267391], [148.398468, -42.265019], [148.399282, -42.261166], [148.398882, -42.257537], [148.39904, -42.253763], [148.399184, -42.250583], [148.399369, -42.246976], [148.399561, -42.243878], [148.399335, -42.24078], [148.399329, -42.238729], [148.399209, -42.235457], [148.398556, -42.231394], [148.39832, -42.228911], [148.398144, -42.226222], [148.398079, -42.224014], [148.398363, -42.218748], [148.398585, -42.216239], [148.398644, -42.21277], [148.39917, -42.209218], [148.399739, -42.205097], [148.399986, -42.203106], [148.400198, -42.197413], [148.399417, -42.194081], [148.397042, -42.190627], [148.394238, -42.187938], [148.392303, -42.186082], [148.389769, -42.183372], [148.387632, -42.181361], [148.384376, -42.178439], [148.381559, -42.176157], [148.378252, -42.173722], [148.365317, -42.170548], [148.358937, -42.169387], [148.350707, -42.168393], [148.347983, -42.168585], [148.323592, -42.167607], [148.316076, -42.167396], [148.312944, -42.168584], [148.309072, -42.173098], [148.309603, -42.174463], [148.30958, -42.174347], [148.310531, -42.170312], [148.31281, -42.168347], [148.326283, -42.158963], [148.331691, -42.156345], [148.339582, -42.152623], [148.347812, -42.148238], [148.354347, -42.14556], [148.359781, -42.143717], [148.363266, -42.142269], [148.366732, -42.139683], [148.36998, -42.134363], [148.374843, -42.12625], [148.376498, -42.123337], [148.381817, -42.112802], [148.38573, -42.10296], [148.388723, -42.096712], [148.391437, -42.091664], [148.39774, -42.079208], [148.402757, -42.068777], [148.40562, -42.062549], [148.410218, -42.052682], [148.410807, -42.051753], [148.417688, -42.037635], [148.41844, -42.035607], [148.423113, -42.025155], [148.428097, -42.013068], [148.428723, -42.011802], [148.432373, -42.000845], [148.436887, -41.988922], [148.438569, -41.985073], [148.441205, -41.978804], [148.448793, -41.963313], [148.451164, -41.958185], [148.45338, -41.953042], [148.455759, -41.946708], [148.456889, -41.943002], [148.458583, -41.937053], [148.461575, -41.92832], [148.462142, -41.926027], [148.464812, -41.918732], [148.466438, -41.914131], [148.470513, -41.902295], [148.472347, -41.897802], [148.480748, -41.872635], [148.483818, -41.862265], [148.485942, -41.85412], [148.487687, -41.848152], [148.488682, -41.843967], [148.493308, -41.827635], [148.493888, -41.825177], [148.496283, -41.817735], [148.503025, -41.798463], [148.507267, -41.785092], [148.508232, -41.772375], [148.508355, -41.766733], [148.50907, -41.754205], [148.50925, -41.746968], [148.51045, -41.730263], [148.512073, -41.701667], [148.512932, -41.692582], [148.513725, -41.686533], [148.514722, -41.676173], [148.515682, -41.66251], [148.51613, -41.658242], [148.51653, -41.651187], [148.516574, -41.643034], [148.513113, -41.635792], [148.506278, -41.620753], [148.505975, -41.619813], [148.503538, -41.607567], [148.500025, -41.586412], [148.497987, -41.57615], [148.491407, -41.547473], [148.490337, -41.542203], [148.48625, -41.523895], [148.482882, -41.50763], [148.481645, -41.500955], [148.4807, -41.49486], [148.480975, -41.48332], [148.483912, -41.455385], [148.484152, -41.45092], [148.485483, -41.435977], [148.488578, -41.406725], [148.489763, -41.394097], [148.490853, -41.376998], [148.49125, -41.366545], [148.491888, -41.359307], [148.49225, -41.352558], [148.493388, -41.339992], [148.494845, -41.327577], [148.497029, -41.323086], [148.49767, -41.321608], [148.502267, -41.312805], [148.504202, -41.308478], [148.507062, -41.302783], [148.509172, -41.298165], [148.512827, -41.29076], [148.517947, -41.279323], [148.521843, -41.269343], [148.52345, -41.265628], [148.525702, -41.259458], [148.528207, -41.253185], [148.530962, -41.24566], [148.532347, -41.241744], [148.53454, -41.235503], [148.536948, -41.228137], [148.539166, -41.221173], [148.540559, -41.216502], [148.542113, -41.21184], [148.544567, -41.20309], [148.545226, -41.199801], [148.546963, -41.193107], [148.548257, -41.189013], [148.549373, -41.184838], [148.551652, -41.17758], [148.553078, -41.171914], [148.55441, -41.167143], [148.555732, -41.162732], [148.556322, -41.159865], [148.559692, -41.148263], [148.560361, -41.145348], [148.563483, -41.134335], [148.564144, -41.131427], [148.565436, -41.125824], [148.566171, -41.122769], [148.567038, -41.118567], [148.567683, -41.115353], [148.568395, -41.111315], [148.568961, -41.107749], [148.569621, -41.103408], [148.57018, -41.100122], [148.570073, -41.097314], [148.570299, -41.093589], [148.570135, -41.091743], [148.569914, -41.088781], [148.570604, -41.085437], [148.570594, -41.082472], [148.571305, -41.078068], [148.571378, -41.075641], [148.571972, -41.071894], [148.572811, -41.067872], [148.573711, -41.063987], [148.574849, -41.059279], [148.575452, -41.055859], [148.575557, -41.053509], [148.577043, -41.04628], [148.577631, -41.044129], [148.578667, -41.04052], [148.579184, -41.038428], [148.579632, -41.036538], [148.580118, -41.034139], [148.581098, -41.030943], [148.581684, -41.028359], [148.582491, -41.025412], [148.583641, -41.022728], [148.585618, -41.017038], [148.586892, -41.014], [148.58758, -41.012066], [148.588797, -41.007997], [148.58965, -41.005442], [148.590009, -41.003864], [148.590474, -41.001371], [148.590776, -40.999519], [148.592006, -40.995323], [148.593291, -40.991588], [148.593887, -40.989038], [148.594648, -40.985819], [148.595125, -40.983662], [148.596028, -40.980212], [148.596932, -40.977127], [148.597522, -40.97503], [148.598338, -40.972518], [148.598848, -40.970369], [148.600063, -40.965648], [148.601356, -40.961851], [148.601553, -40.960184], [148.602417, -40.957153], [148.603615, -40.952357], [148.604356, -40.950498], [148.605811, -40.946467], [148.606507, -40.943173], [148.606972, -40.940173], [148.607787, -40.936961], [148.60865, -40.934107], [148.60972, -40.930634], [148.610338, -40.926926], [148.61063, -40.923602], [148.611472, -40.920497], [148.612102, -40.917774], [148.612548, -40.915231], [148.612902, -40.912426], [148.613824, -40.908996], [148.614388, -40.906834], [148.615042, -40.904799], [148.615926, -40.901829], [148.616544, -40.899716], [148.617532, -40.897608], [148.617748, -40.895628], [148.618075, -40.893701], [148.618791, -40.890424], [148.619434, -40.888308], [148.620446, -40.885825], [148.621613, -40.883752], [148.622851, -40.880009], [148.623386, -40.876839], [148.623839, -40.874279], [148.624281, -40.871642], [148.624426, -40.869212], [148.624774, -40.866437], [148.6249, -40.864527], [148.624933, -40.861917], [148.624998, -40.857736], [148.625167, -40.85576], [148.625681, -40.852391], [148.626233, -40.848312], [148.626519, -40.846127], [148.627051, -40.843722], [148.627508, -40.841294], [148.628069, -40.839064], [148.628245, -40.836967], [148.628634, -40.83372], [148.628767, -40.830952], [148.629016, -40.828138], [148.629442, -40.825291], [148.629984, -40.821809], [148.630318, -40.819336], [148.630797, -40.81598], [148.63115, -40.813082], [148.631473, -40.810498], [148.631785, -40.807744], [148.631837, -40.805287], [148.631652, -40.802724], [148.631655, -40.799853], [148.631909, -40.797466], [148.63188, -40.795829], [148.631932, -40.792045], [148.631912, -40.789474], [148.632072, -40.787244], [148.632439, -40.784723], [148.632632, -40.782384], [148.633875, -40.7801], [148.63457, -40.778611], [148.634505, -40.776246], [148.634585, -40.774359], [148.634871, -40.77229], [148.634733, -40.770503], [148.634717, -40.765464], [148.634404, -40.763933], [148.633689, -40.758768], [148.633766, -40.755859], [148.633946, -40.753063], [148.634007, -40.750843], [148.633997, -40.748814], [148.633779, -40.746836], [148.633773, -40.743953], [148.633703, -40.740474], [148.633502, -40.735675], [148.633242, -40.733305], [148.632995, -40.727018], [148.632983, -40.725639], [148.633145, -40.72332], [148.633137, -40.719822], [148.632954, -40.717337], [148.632881, -40.715406], [148.632608, -40.712832], [148.632369, -40.7106], [148.632378, -40.707892], [148.632156, -40.704981], [148.632609, -40.702064], [148.632777, -40.700019], [148.632548, -40.697727], [148.632193, -40.694379], [148.632102, -40.691653], [148.631911, -40.68937], [148.631669, -40.684602], [148.631161, -40.679867], [148.630747, -40.677637], [148.630312, -40.67447], [148.630032, -40.671887], [148.629779, -40.667495], [148.629742, -40.665153], [148.629242, -40.661219], [148.62889, -40.657192], [148.628472, -40.655223], [148.628233, -40.65159], [148.627736, -40.647511], [148.627637, -40.645258], [148.627479, -40.642521], [148.627285, -40.640399], [148.626584, -40.637227], [148.626177, -40.634178], [148.625668, -40.630301], [148.625048, -40.626974], [148.624458, -40.623976], [148.623823, -40.62187], [148.623556, -40.618474], [148.623344, -40.615402], [148.623096, -40.612419], [148.622857, -40.608163], [148.622503, -40.605121], [148.622121, -40.601732], [148.621793, -40.598852], [148.621023, -40.592577], [148.620822, -40.589414], [148.619997, -40.583711], [148.619845, -40.581388], [148.618862, -40.576333], [148.616837, -40.564208], [148.616351, -40.562139], [148.615115, -40.555162], [148.614127, -40.550943], [148.613406, -40.548916], [148.612187, -40.543968], [148.611932, -40.541815], [148.610698, -40.53636], [148.608938, -40.530017], [148.608089, -40.525731], [148.607338, -40.522609], [148.605952, -40.517547], [148.604334, -40.511739], [148.60324, -40.507554], [148.601745, -40.502363], [148.600404, -40.496848], [148.598493, -40.489548], [148.596741, -40.483803], [148.595913, -40.480214], [148.594993, -40.476051], [148.59418, -40.472441], [148.592842, -40.467435], [148.591976, -40.463731], [148.590844, -40.460555], [148.589467, -40.4579], [148.588472, -40.455605], [148.584416, -40.447885], [148.583382, -40.445868], [148.581593, -40.44239], [148.577582, -40.434605], [148.575738, -40.430402], [148.573228, -40.425067], [148.571825, -40.422463], [148.569935, -40.418752], [148.564275, -40.40773], [148.562528, -40.403834], [148.560682, -40.399531], [148.55915, -40.396617], [148.55683, -40.391579], [148.554911, -40.387422], [148.553798, -40.385268], [148.55178, -40.381175], [148.550501, -40.378276], [148.548518, -40.373523], [148.546114, -40.367928], [148.543415, -40.362394], [148.5404, -40.355655], [148.539236, -40.353064], [148.535877, -40.346719], [148.534128, -40.343535], [148.530548, -40.335872], [148.528618, -40.332256], [148.526554, -40.32907], [148.520998, -40.321592], [148.517953, -40.317288], [148.509377, -40.305058], [148.507445, -40.302551], [148.498338, -40.29061], [148.492348, -40.28208], [148.489993, -40.278664], [148.486717, -40.273751], [148.484068, -40.270153], [148.480911, -40.268634], [148.474228, -40.265218], [148.470298, -40.263134], [148.464745, -40.260373], [148.461135, -40.258709], [148.45547, -40.255212], [148.452886, -40.253649], [148.44759, -40.251562], [148.443479, -40.250181], [148.439664, -40.248303], [148.433842, -40.248704], [148.429662, -40.249437], [148.425934, -40.249462], [148.420535, -40.248411], [148.41572, -40.247763], [148.410172, -40.247114], [148.406807, -40.246845], [148.402888, -40.246077], [148.395398, -40.244477], [148.393052, -40.24415], [148.392837, -40.243503], [148.397767, -40.243356], [148.397999, -40.239951], [148.389417, -40.237668], [148.385663, -40.23652], [148.376267, -40.234117], [148.364147, -40.231673], [148.361031, -40.231598], [148.354718, -40.232314], [148.34947, -40.232367], [148.335868, -40.232802], [148.330182, -40.233238], [148.322967, -40.234199], [148.318123, -40.235007], [148.312995, -40.236415], [148.305897, -40.238614], [148.302593, -40.239544], [148.296724, -40.240504], [148.292743, -40.241734], [148.288808, -40.242056], [148.286123, -40.239221], [148.283783, -40.237259], [148.278998, -40.23621], [148.274738, -40.235314], [148.271698, -40.233282], [148.267503, -40.231414], [148.265576, -40.228921], [148.263521, -40.22435], [148.261753, -40.220434], [148.259972, -40.218567], [148.256113, -40.216777], [148.250426, -40.216373], [148.245951, -40.214525], [148.244456, -40.214462], [148.249292, -40.213305]]}, "times": ["2024-04-07T00:59:27+00:00", "2024-04-07T01:02:31+00:00", "2024-04-07T01:04:56+00:00", "2024-04-07T01:08:40+00:00", "2024-04-07T01:11:45+00:00", "2024-04-07T01:17:38+00:00", "2024-04-07T01:19:14+00:00", "2024-04-07T01:23:15+00:00", "2024-04-07T01:27:07+00:00", "2024-04-07T01:30:36+00:00", "2024-04-07T01:33:45+00:00", "2024-04-07T01:35:17+00:00", "2024-04-07T01:38:34+00:00", "2024-04-07T01:39:22+00:00", "2024-04-07T01:50:08+00:00", "2024-04-07T02:06:10+00:00", "2024-04-07T02:34:49+00:00", "2024-04-07T02:35:43+00:00", "2024-04-07T02:37:38+00:00", "2024-04-07T02:38:39+00:00", "2024-04-07T02:41:32+00:00", "2024-04-07T02:44:58+00:00", "2024-04-07T02:46:25+00:00", "2024-04-07T02:54:02+00:00", "2024-04-07T02:59:19+00:00", "2024-04-07T03:04:56+00:00", "2024-04-07T03:07:04+00:00", "2024-04-07T03:11:09+00:00", "2024-04-07T03:14:50+00:00", "2024-04-07T03:18:22+00:00", "2024-04-07T03:20:30+00:00", "2024-04-07T03:24:00+00:00", "2024-04-07T03:31:37+00:00", "2024-04-07T03:39:20+00:00", "2024-04-07T03:50:00+00:00", "2024-04-07T03:51:41+00:00", "2024-04-07T03:53:18+00:00", "2024-04-07T03:55:51+00:00", "2024-04-07T04:02:19+00:00", "2024-04-07T04:13:24+00:00", "2024-04-07T04:15:29+00:00", "2024-04-07T04:26:33+00:00", "2024-04-07T04:33:24+00:00", "2024-04-07T04:45:58+00:00", "2024-04-07T04:52:37+00:00", "2024-04-07T04:58:23+00:00", "2024-04-07T04:59:36+00:00", "2024-04-07T05:08:45+00:00", "2024-04-07T05:19:46+00:00", "2024-04-07T05:29:18+00:00", "2024-04-07T05:31:11+00:00", "2024-04-07T05:43:37+00:00", "2024-04-07T05:49:51+00:00", "2024-04-07T05:54:05+00:00", "2024-04-07T05:56:50+00:00", "2024-04-07T06:04:02+00:00", "2024-04-07T06:14:26+00:00", "2024-04-07T06:21:33+00:00", "2024-04-07T06:26:03+00:00", "2024-04-07T06:31:01+00:00", "2024-04-07T06:37:31+00:00", "2024-04-07T06:41:48+00:00", "2024-04-07T06:49:52+00:00", "2024-04-07T06:51:20+00:00", "2024-04-07T06:55:57+00:00", "2024-04-07T07:01:35+00:00", "2024-04-07T07:05:21+00:00", "2024-04-07T07:07:54+00:00", "2024-04-07T07:11:19+00:00", "2024-04-07T07:13:36+00:00", "2024-04-07T07:17:34+00:00", "2024-04-07T07:28:36+00:00", "2024-04-07T07:33:31+00:00", "2024-04-07T07:35:21+00:00", "2024-04-07T07:39:51+00:00", "2024-04-07T07:44:37+00:00", "2024-04-07T07:46:22+00:00", "2024-04-07T07:50:57+00:00", "2024-04-07T07:52:37+00:00", "2024-04-07T07:56:47+00:00", "2024-04-07T08:01:50+00:00", "2024-04-07T08:06:03+00:00", "2024-04-07T08:08:08+00:00", "2024-04-07T08:10:13+00:00", "2024-04-07T08:15:00+00:00", "2024-04-07T11:29:24+00:00", "2024-04-07T19:27:23+00:00", "2024-04-08T01:55:43+00:00", "2024-04-08T01:57:31+00:00", "2024-04-08T02:01:25+00:00", "2024-04-08T02:04:37+00:00", "2024-04-08T02:06:46+00:00", "2024-04-08T02:12:39+00:00", "2024-04-08T02:23:49+00:00", "2024-04-08T02:25:29+00:00", "2024-04-08T02:28:30+00:00", "2024-04-08T02:32:11+00:00", "2024-04-08T02:35:11+00:00", "2024-04-08T02:41:45+00:00", "2024-04-08T02:48:03+00:00", "2024-04-08T02:52:03+00:00", "2024-04-08T02:53:00+00:00", "2024-04-08T02:56:36+00:00", "2024-04-08T03:03:10+00:00", "2024-04-08T03:07:19+00:00", "2024-04-08T03:08:51+00:00", "2024-04-08T03:13:04+00:00", "2024-04-08T03:17:08+00:00", "2024-04-08T03:20:21+00:00", "2024-04-08T03:22:13+00:00", "2024-04-08T03:26:34+00:00", "2024-04-08T03:28:38+00:00", "2024-04-08T03:33:11+00:00", "2024-04-08T03:35:44+00:00", "2024-04-08T03:39:29+00:00", "2024-04-08T03:42:34+00:00", "2024-04-08T03:45:34+00:00", "2024-04-08T03:50:07+00:00", "2024-04-08T03:51:19+00:00", "2024-04-08T03:53:28+00:00", "2024-04-08T03:56:16+00:00", "2024-04-08T03:58:41+00:00", "2024-04-08T04:01:10+00:00", "2024-04-08T04:04:06+00:00", "2024-04-08T04:06:11+00:00", "2024-04-08T04:06:47+00:00", "2024-04-08T04:11:48+00:00", "2024-04-08T04:14:45+00:00", "2024-04-08T04:16:49+00:00", "2024-04-08T04:18:41+00:00", "2024-04-08T04:22:42+00:00", "2024-04-08T04:23:50+00:00", "2024-04-08T04:25:43+00:00", "2024-04-08T04:27:23+00:00", "2024-04-08T04:28:27+00:00", "2024-04-08T04:29:44+00:00", "2024-04-08T04:31:52+00:00", "2024-04-08T04:33:56+00:00", "2024-04-08T04:39:53+00:00", "2024-04-08T04:41:42+00:00", "2024-04-08T04:44:10+00:00", "2024-04-08T04:46:59+00:00", "2024-04-08T04:49:24+00:00", "2024-04-08T04:52:48+00:00", "2024-04-08T04:55:13+00:00", "2024-04-08T04:57:01+00:00", "2024-04-08T04:58:25+00:00", "2024-04-08T04:59:57+00:00", "2024-04-08T05:01:01+00:00", "2024-04-08T05:02:10+00:00", "2024-04-08T05:03:26+00:00", "2024-04-08T05:05:06+00:00", "2024-04-08T05:06:23+00:00", "2024-04-08T05:07:51+00:00", "2024-04-08T05:08:35+00:00", "2024-04-08T05:09:56+00:00", "2024-04-08T05:11:20+00:00", "2024-04-08T05:13:21+00:00", "2024-04-08T05:14:37+00:00", "2024-04-08T05:16:45+00:00", "2024-04-08T05:17:49+00:00", "2024-04-08T05:19:02+00:00", "2024-04-08T05:20:18+00:00", "2024-04-08T05:21:42+00:00", "2024-04-08T05:22:50+00:00", "2024-04-08T05:24:35+00:00", "2024-04-08T05:26:12+00:00", "2024-04-08T05:27:40+00:00", "2024-04-08T05:29:08+00:00", "2024-04-08T05:29:56+00:00", "2024-04-08T05:31:17+00:00", "2024-04-08T05:33:33+00:00", "2024-04-08T05:35:02+00:00", "2024-04-08T05:36:30+00:00", "2024-04-08T05:38:02+00:00", "2024-04-08T05:40:15+00:00", "2024-04-08T05:42:04+00:00", "2024-04-08T05:42:53+00:00", "2024-04-08T05:45:22+00:00", "2024-04-08T05:47:11+00:00", "2024-04-08T05:49:25+00:00", "2024-04-08T05:51:05+00:00", "2024-04-08T05:52:42+00:00", "2024-04-08T05:54:07+00:00", "2024-04-08T05:55:32+00:00", "2024-04-08T05:56:36+00:00", "2024-04-08T05:58:33+00:00", "2024-04-08T05:59:54+00:00", "2024-04-08T06:01:31+00:00", "2024-04-08T06:03:03+00:00", "2024-04-08T06:05:37+00:00", "2024-04-08T06:06:34+00:00", "2024-04-08T06:07:43+00:00", "2024-04-08T06:09:12+00:00", "2024-04-08T06:10:53+00:00", "2024-04-08T06:12:38+00:00", "2024-04-08T06:13:50+00:00", "2024-04-08T06:15:35+00:00", "2024-04-08T06:16:52+00:00", "2024-04-08T06:18:25+00:00", "2024-04-08T06:19:58+00:00", "2024-04-08T06:21:27+00:00", "2024-04-08T06:23:44+00:00", "2024-04-08T06:24:45+00:00", "2024-04-08T06:26:47+00:00", "2024-04-08T06:28:24+00:00", "2024-04-08T06:29:45+00:00", "2024-04-08T06:30:49+00:00", "2024-04-08T06:35:00+00:00", "2024-04-08T06:35:53+00:00", "2024-04-08T06:38:59+00:00", "2024-04-08T06:40:16+00:00", "2024-04-08T06:41:24+00:00", "2024-04-08T06:42:49+00:00", "2024-04-08T06:44:29+00:00", "2024-04-08T06:45:58+00:00", "2024-04-08T06:47:35+00:00", "2024-04-08T06:49:28+00:00", "2024-04-08T06:52:09+00:00", "2024-04-08T06:53:54+00:00", "2024-04-08T06:56:27+00:00", "2024-04-08T06:57:52+00:00", "2024-04-08T06:59:36+00:00", "2024-04-08T07:03:42+00:00", "2024-04-08T07:04:22+00:00", "2024-04-08T07:08:39+00:00", "2024-04-08T07:09:47+00:00", "2024-04-08T07:15:06+00:00", "2024-04-08T07:17:59+00:00", "2024-04-08T07:21:05+00:00", "2024-04-08T07:24:26+00:00", "2024-04-08T07:26:27+00:00", "2024-04-08T07:31:27+00:00", "2024-04-08T07:35:05+00:00", "2024-04-08T07:39:20+00:00", "2024-04-08T07:42:25+00:00", "2024-04-08T07:52:03+00:00", "2024-04-08T07:54:08+00:00", "2024-04-08T07:59:10+00:00", "2024-04-08T08:00:47+00:00", "2024-04-08T08:06:39+00:00", "2024-04-08T08:16:41+00:00", "2024-04-08T08:18:29+00:00", "2024-04-08T08:24:20+00:00", "2024-04-08T08:28:54+00:00", "2024-04-08T08:32:36+00:00", "2024-04-08T08:34:04+00:00", "2024-04-08T08:35:25+00:00", "2024-04-08T08:36:25+00:00", "2024-04-08T08:37:58+00:00", "2024-04-08T08:38:51+00:00", "2024-04-08T08:40:27+00:00", "2024-04-08T08:42:05+00:00", "2024-04-08T08:43:25+00:00", "2024-04-08T08:45:06+00:00", "2024-04-08T08:46:51+00:00", "2024-04-08T08:48:39+00:00", "2024-04-08T08:50:20+00:00", "2024-04-08T08:51:33+00:00", "2024-04-08T08:52:38+00:00", "2024-04-08T08:54:10+00:00", "2024-04-08T08:55:31+00:00", "2024-04-08T08:56:43+00:00", "2024-04-08T08:57:40+00:00", "2024-04-08T08:59:01+00:00", "2024-04-08T09:05:04+00:00", "2024-04-08T09:06:08+00:00", "2024-04-08T09:07:57+00:00", "2024-04-08T09:09:50+00:00", "2024-04-08T09:13:16+00:00", "2024-04-08T09:14:41+00:00", "2024-04-08T09:16:30+00:00", "2024-04-08T09:18:59+00:00", "2024-04-08T09:20:32+00:00", "2024-04-08T09:23:50+00:00", "2024-04-08T09:24:38+00:00", "2024-04-08T09:26:33+00:00", "2024-04-08T09:28:25+00:00", "2024-04-08T09:30:46+00:00", "2024-04-08T09:33:03+00:00", "2024-04-08T09:34:20+00:00", "2024-04-08T09:36:05+00:00", "2024-04-08T09:37:42+00:00", "2024-04-08T09:39:11+00:00", "2024-04-08T09:40:07+00:00", "2024-04-08T09:41:40+00:00", "2024-04-08T09:42:57+00:00", "2024-04-08T09:44:55+00:00", "2024-04-08T09:46:19+00:00", "2024-04-08T09:47:52+00:00", "2024-04-08T09:49:42+00:00", "2024-04-08T09:51:02+00:00", "2024-04-08T09:52:07+00:00", "2024-04-08T09:54:08+00:00", "2024-04-08T09:55:45+00:00", "2024-04-08T09:57:50+00:00", "2024-04-08T09:59:19+00:00", "2024-04-08T10:01:00+00:00", "2024-04-08T10:02:17+00:00", "2024-04-08T10:03:33+00:00", "2024-04-08T10:04:46+00:00", "2024-04-08T10:06:11+00:00", "2024-04-08T10:07:31+00:00", "2024-04-08T10:08:52+00:00", "2024-04-08T10:10:00+00:00", "2024-04-08T10:11:29+00:00", "2024-04-08T10:12:54+00:00", "2024-04-08T10:14:26+00:00", "2024-04-08T10:15:27+00:00", "2024-04-08T10:16:47+00:00", "2024-04-08T10:18:53+00:00", "2024-04-08T10:20:46+00:00", "2024-04-08T10:22:14+00:00", "2024-04-08T10:24:00+00:00", "2024-04-08T10:25:25+00:00", "2024-04-08T10:27:02+00:00", "2024-04-08T10:28:27+00:00", "2024-04-08T10:30:08+00:00", "2024-04-08T10:31:40+00:00", "2024-04-08T10:32:53+00:00", "2024-04-08T10:34:42+00:00", "2024-04-08T10:37:51+00:00", "2024-04-08T10:39:44+00:00", "2024-04-08T10:43:02+00:00", "2024-04-08T10:45:07+00:00", "2024-04-08T10:46:31+00:00", "2024-04-08T10:47:56+00:00", "2024-04-08T10:51:34+00:00", "2024-04-08T10:53:11+00:00", "2024-04-08T10:54:27+00:00", "2024-04-08T10:57:45+00:00", "2024-04-08T10:59:50+00:00", "2024-04-08T11:02:07+00:00", "2024-04-08T11:05:12+00:00", "2024-04-08T11:07:17+00:00", "2024-04-08T11:09:09+00:00", "2024-04-08T11:11:14+00:00", "2024-04-08T11:12:55+00:00", "2024-04-08T11:15:16+00:00", "2024-04-08T11:16:21+00:00", "2024-04-08T11:17:58+00:00", "2024-04-08T11:19:10+00:00", "2024-04-08T11:20:47+00:00", "2024-04-08T11:22:35+00:00", "2024-04-08T11:23:28+00:00", "2024-04-08T11:25:57+00:00", "2024-04-08T11:27:57+00:00", "2024-04-08T11:29:22+00:00", "2024-04-08T11:30:58+00:00", "2024-04-08T11:32:14+00:00", "2024-04-08T11:34:30+00:00", "2024-04-08T11:35:19+00:00", "2024-04-08T11:36:47+00:00", "2024-04-08T11:37:44+00:00", "2024-04-08T11:39:54+00:00", "2024-04-08T11:40:58+00:00", "2024-04-08T11:41:59+00:00", "2024-04-08T11:43:35+00:00", "2024-04-08T11:45:20+00:00", "2024-04-08T11:46:21+00:00", "2024-04-08T11:47:46+00:00", "2024-04-08T11:49:02+00:00", "2024-04-08T11:50:19+00:00", "2024-04-08T11:52:04+00:00", "2024-04-08T11:53:17+00:00", "2024-04-08T11:54:41+00:00", "2024-04-08T11:55:50+00:00", "2024-04-08T11:57:15+00:00", "2024-04-08T11:58:39+00:00", "2024-04-08T11:59:24+00:00", "2024-04-08T12:01:09+00:00", "2024-04-08T12:02:21+00:00", "2024-04-08T12:04:02+00:00", "2024-04-08T12:05:22+00:00", "2024-04-08T12:07:03+00:00", "2024-04-08T12:08:28+00:00", "2024-04-08T12:10:17+00:00", "2024-04-08T12:11:54+00:00", "2024-04-08T12:13:31+00:00", "2024-04-08T12:15:04+00:00", "2024-04-08T12:16:44+00:00", "2024-04-08T12:18:50+00:00", "2024-04-08T12:20:50+00:00", "2024-04-08T12:22:59+00:00", "2024-04-08T12:24:36+00:00", "2024-04-08T12:26:25+00:00", "2024-04-08T12:27:58+00:00", "2024-04-08T12:29:30+00:00", "2024-04-08T12:31:52+00:00", "2024-04-08T12:33:16+00:00", "2024-04-08T12:35:02+00:00", "2024-04-08T12:36:15+00:00", "2024-04-08T12:38:08+00:00", "2024-04-08T12:40:06+00:00", "2024-04-08T12:41:11+00:00", "2024-04-08T12:42:27+00:00", "2024-04-08T12:44:04+00:00", "2024-04-08T12:45:05+00:00", "2024-04-08T12:46:42+00:00", "2024-04-08T12:48:07+00:00", "2024-04-08T12:49:56+00:00", "2024-04-08T12:52:01+00:00", "2024-04-08T12:53:38+00:00", "2024-04-08T12:54:59+00:00", "2024-04-08T12:56:49+00:00", "2024-04-08T12:57:45+00:00", "2024-04-08T13:00:19+00:00", "2024-04-08T13:02:36+00:00", "2024-04-08T13:04:54+00:00", "2024-04-08T13:06:06+00:00", "2024-04-08T13:07:43+00:00", "2024-04-08T13:09:24+00:00", "2024-04-08T13:11:10+00:00", "2024-04-08T13:12:19+00:00", "2024-04-08T13:15:04+00:00", "2024-04-08T13:16:57+00:00", "2024-04-08T13:18:58+00:00", "2024-04-08T13:21:28+00:00", "2024-04-08T13:22:49+00:00", "2024-04-08T13:25:38+00:00", "2024-04-08T13:27:44+00:00", "2024-04-08T13:29:09+00:00", "2024-04-08T13:31:02+00:00", "2024-04-08T13:32:59+00:00", "2024-04-08T13:35:48+00:00", "2024-04-08T13:37:29+00:00", "2024-04-08T13:39:34+00:00", "2024-04-08T13:40:59+00:00", "2024-04-08T13:42:28+00:00", "2024-04-08T13:44:25+00:00", "2024-04-08T13:46:02+00:00", "2024-04-08T13:47:43+00:00", "2024-04-08T13:49:32+00:00", "2024-04-08T13:51:29+00:00", "2024-04-08T13:53:02+00:00", "2024-04-08T13:55:11+00:00", "2024-04-08T13:58:01+00:00", "2024-04-08T13:59:49+00:00", "2024-04-08T14:02:27+00:00", "2024-04-08T14:04:16+00:00", "2024-04-08T14:06:46+00:00", "2024-04-08T14:08:38+00:00", "2024-04-08T14:11:12+00:00", "2024-04-08T14:13:29+00:00", "2024-04-08T14:15:02+00:00", "2024-04-08T14:16:55+00:00", "2024-04-08T14:18:36+00:00", "2024-04-08T14:20:13+00:00", "2024-04-08T14:22:18+00:00", "2024-04-08T14:24:15+00:00", "2024-04-08T14:25:56+00:00", "2024-04-08T14:27:05+00:00", "2024-04-08T14:29:58+00:00", "2024-04-08T14:31:36+00:00", "2024-04-08T14:34:14+00:00", "2024-04-08T14:36:31+00:00", "2024-04-08T14:39:05+00:00", "2024-04-08T14:40:54+00:00", "2024-04-08T14:43:57+00:00", "2024-04-08T14:46:30+00:00", "2024-04-08T14:49:32+00:00", "2024-04-08T14:53:27+00:00", "2024-04-08T14:56:01+00:00", "2024-04-08T14:58:19+00:00", "2024-04-08T15:00:19+00:00", "2024-04-08T15:02:53+00:00", "2024-04-08T15:05:22+00:00", "2024-04-08T15:08:03+00:00", "2024-04-08T15:10:41+00:00", "2024-04-08T15:12:37+00:00", "2024-04-08T15:16:06+00:00", "2024-04-08T15:18:11+00:00", "2024-04-08T15:19:59+00:00", "2024-04-08T15:21:56+00:00", "2024-04-08T15:23:24+00:00", "2024-04-08T15:25:21+00:00", "2024-04-08T15:26:50+00:00", "2024-04-08T15:28:51+00:00", "2024-04-08T15:31:07+00:00", "2024-04-08T15:32:27+00:00", "2024-04-08T15:34:24+00:00", "2024-04-08T15:36:09+00:00", "2024-04-08T15:38:30+00:00", "2024-04-08T15:40:03+00:00", "2024-04-08T15:42:15+00:00", "2024-04-08T15:44:49+00:00", "2024-04-08T15:47:34+00:00", "2024-04-08T15:49:19+00:00", "2024-04-08T15:51:36+00:00", "2024-04-08T15:53:25+00:00", "2024-04-08T15:57:14+00:00", "2024-04-08T15:58:03+00:00", "2024-04-08T16:00:11+00:00", "2024-04-08T16:01:52+00:00", "2024-04-08T16:04:25+00:00", "2024-04-08T16:06:22+00:00", "2024-04-08T16:09:16+00:00", "2024-04-08T16:10:36+00:00", "2024-04-08T16:12:13+00:00", "2024-04-08T16:14:26+00:00", "2024-04-08T16:16:23+00:00", "2024-04-08T16:18:35+00:00", "2024-04-08T16:20:44+00:00", "2024-04-08T16:22:13+00:00", "2024-04-08T16:24:18+00:00", "2024-04-08T16:25:30+00:00", "2024-04-08T16:27:23+00:00", "2024-04-08T16:29:12+00:00", "2024-04-08T16:30:24+00:00", "2024-04-08T16:31:56+00:00", "2024-04-08T16:33:53+00:00", "2024-04-08T16:35:46+00:00", "2024-04-08T16:37:46+00:00", "2024-04-08T16:39:39+00:00", "2024-04-08T16:41:28+00:00", "2024-04-08T16:43:09+00:00", "2024-04-08T16:45:30+00:00", "2024-04-08T16:47:35+00:00", "2024-04-08T16:49:56+00:00", "2024-04-08T16:51:49+00:00", "2024-04-08T16:54:21+00:00", "2024-04-08T16:56:34+00:00", "2024-04-08T16:58:14+00:00", "2024-04-08T17:00:15+00:00", "2024-04-08T17:01:44+00:00", "2024-04-08T17:03:08+00:00", "2024-04-08T17:04:49+00:00", "2024-04-08T17:06:38+00:00", "2024-04-08T17:08:10+00:00", "2024-04-08T17:09:35+00:00", "2024-04-08T17:11:32+00:00", "2024-04-08T17:13:43+00:00", "2024-04-08T17:15:05+00:00", "2024-04-08T17:17:54+00:00", "2024-04-08T17:18:55+00:00", "2024-04-08T17:20:04+00:00", "2024-04-08T17:22:21+00:00", "2024-04-08T17:24:10+00:00", "2024-04-08T17:25:06+00:00", "2024-04-08T17:26:59+00:00", "2024-04-08T17:28:24+00:00", "2024-04-08T17:30:33+00:00", "2024-04-08T17:31:29+00:00", "2024-04-08T17:33:26+00:00", "2024-04-08T17:35:11+00:00", "2024-04-08T17:36:15+00:00", "2024-04-08T17:39:58+00:00", "2024-04-08T17:40:58+00:00", "2024-04-08T17:42:59+00:00", "2024-04-08T17:44:24+00:00", "2024-04-08T17:46:21+00:00", "2024-04-08T17:48:06+00:00", "2024-04-08T17:50:07+00:00", "2024-04-08T17:51:08+00:00", "2024-04-08T17:53:13+00:00", "2024-04-08T17:54:49+00:00", "2024-04-08T17:56:15+00:00", "2024-04-08T17:58:19+00:00", "2024-04-08T17:59:56+00:00", "2024-04-08T18:01:08+00:00", "2024-04-08T18:02:41+00:00", "2024-04-08T18:03:45+00:00", "2024-04-08T18:06:31+00:00", "2024-04-08T18:07:55+00:00", "2024-04-08T18:09:12+00:00", "2024-04-08T18:10:16+00:00", "2024-04-08T18:11:49+00:00", "2024-04-08T18:13:05+00:00", "2024-04-08T18:14:38+00:00", "2024-04-08T18:15:38+00:00", "2024-04-08T18:17:15+00:00", "2024-04-08T18:18:27+00:00", "2024-04-08T18:20:08+00:00", "2024-04-08T18:21:33+00:00", "2024-04-08T18:22:29+00:00", "2024-04-08T18:24:02+00:00", "2024-04-08T18:25:27+00:00", "2024-04-08T18:27:12+00:00", "2024-04-08T18:28:25+00:00", "2024-04-08T18:30:14+00:00", "2024-04-08T18:32:15+00:00", "2024-04-08T18:33:44+00:00", "2024-04-08T18:35:13+00:00", "2024-04-08T18:36:50+00:00", "2024-04-08T18:40:53+00:00", "2024-04-08T18:42:13+00:00", "2024-04-08T18:44:27+00:00", "2024-04-08T18:46:11+00:00", "2024-04-08T18:49:21+00:00", "2024-04-08T18:51:19+00:00", "2024-04-08T18:54:21+00:00", "2024-04-08T18:56:46+00:00", "2024-04-08T18:59:24+00:00", "2024-04-08T19:02:02+00:00", "2024-04-08T19:04:55+00:00", "2024-04-08T19:06:45+00:00", "2024-04-08T19:10:18+00:00", "2024-04-08T19:12:06+00:00", "2024-04-08T19:13:59+00:00", "2024-04-08T19:15:44+00:00", "2024-04-08T19:17:57+00:00", "2024-04-08T19:19:06+00:00", "2024-04-08T19:20:46+00:00", "2024-04-08T19:23:36+00:00", "2024-04-08T19:26:24+00:00", "2024-04-08T19:29:33+00:00", "2024-04-08T19:31:10+00:00", "2024-04-08T19:33:31+00:00", "2024-04-08T19:36:21+00:00", "2024-04-08T19:37:25+00:00", "2024-04-08T19:38:54+00:00", "2024-04-08T19:40:59+00:00", "2024-04-08T19:44:17+00:00", "2024-04-08T19:45:50+00:00", "2024-04-08T19:47:19+00:00", "2024-04-08T19:48:51+00:00", "2024-04-08T19:52:45+00:00", "2024-04-08T19:53:50+00:00", "2024-04-08T19:56:23+00:00", "2024-04-08T19:58:12+00:00", "2024-04-08T20:01:54+00:00", "2024-04-08T20:03:03+00:00", "2024-04-08T20:07:21+00:00", "2024-04-08T20:08:30+00:00", "2024-04-08T20:11:52+00:00", "2024-04-08T20:13:13+00:00", "2024-04-08T20:14:53+00:00", "2024-04-08T20:16:50+00:00", "2024-04-08T20:19:04+00:00", "2024-04-08T20:20:40+00:00", "2024-04-08T20:23:14+00:00", "2024-04-08T20:24:59+00:00", "2024-04-08T20:33:40+00:00", "2024-04-08T20:37:39+00:00", "2024-04-08T20:43:01+00:00", "2024-04-08T20:44:18+00:00", "2024-04-08T20:58:07+00:00", "2024-04-08T21:02:58+00:00", "2024-04-08T21:04:39+00:00", "2024-04-08T21:09:05+00:00", "2024-04-08T22:11:35+00:00", "2024-04-09T16:38:14+00:00", "2024-04-10T01:51:42+00:00", "2024-04-10T01:52:54+00:00", "2024-04-10T02:01:35+00:00", "2024-04-10T02:06:04+00:00", "2024-04-10T02:09:13+00:00", "2024-04-10T02:14:58+00:00", "2024-04-10T02:18:39+00:00", "2024-04-10T02:22:32+00:00", "2024-04-10T02:24:28+00:00", "2024-04-10T02:27:13+00:00", "2024-04-10T02:32:42+00:00", "2024-04-10T02:38:11+00:00", "2024-04-10T02:40:27+00:00", "2024-04-10T02:48:53+00:00", "2024-04-10T02:56:42+00:00", "2024-04-10T03:01:35+00:00", "2024-04-10T03:07:20+00:00", "2024-04-10T03:15:26+00:00", "2024-04-10T03:23:23+00:00", "2024-04-10T03:29:16+00:00", "2024-04-10T03:35:10+00:00", "2024-04-10T03:35:54+00:00", "2024-04-10T03:46:04+00:00", "2024-04-10T03:47:28+00:00", "2024-04-10T03:54:50+00:00", "2024-04-10T04:03:07+00:00", "2024-04-10T04:04:03+00:00", "2024-04-10T04:13:09+00:00", "2024-04-10T04:23:51+00:00", "2024-04-10T04:28:36+00:00", "2024-04-10T04:35:17+00:00", "2024-04-10T04:47:51+00:00", "2024-04-10T04:53:32+00:00", "2024-04-10T04:58:01+00:00", "2024-04-10T05:03:22+00:00", "2024-04-10T05:07:02+00:00", "2024-04-10T05:11:19+00:00", "2024-04-10T05:19:04+00:00", "2024-04-10T05:21:05+00:00", "2024-04-10T05:27:26+00:00", "2024-04-10T05:32:46+00:00", "2024-04-10T05:41:28+00:00", "2024-04-10T05:45:20+00:00", "2024-04-10T06:06:25+00:00", "2024-04-10T06:14:50+00:00", "2024-04-10T06:21:27+00:00", "2024-04-10T06:26:24+00:00", "2024-04-10T06:29:48+00:00", "2024-04-10T06:43:19+00:00", "2024-04-10T06:45:19+00:00", "2024-04-10T06:51:28+00:00", "2024-04-10T07:07:11+00:00", "2024-04-10T07:18:01+00:00", "2024-04-10T07:28:03+00:00", "2024-04-10T07:32:28+00:00", "2024-04-10T07:42:14+00:00", "2024-04-10T07:47:55+00:00", "2024-04-10T08:01:14+00:00", "2024-04-10T08:23:54+00:00", "2024-04-10T08:31:00+00:00", "2024-04-10T08:35:41+00:00", "2024-04-10T08:43:42+00:00", "2024-04-10T08:54:13+00:00", "2024-04-10T08:57:34+00:00", "2024-04-10T09:02:59+00:00", "2024-04-10T09:09:40+00:00", "2024-04-10T09:15:13+00:00", "2024-04-10T09:27:24+00:00", "2024-04-10T09:28:08+00:00", "2024-04-10T09:37:50+00:00", "2024-04-10T09:54:29+00:00", "2024-04-10T10:02:30+00:00", "2024-04-10T10:25:14+00:00", "2024-04-10T10:29:27+00:00", "2024-04-10T10:43:57+00:00", "2024-04-10T10:56:28+00:00", "2024-04-10T11:01:44+00:00", "2024-04-10T11:06:21+00:00", "2024-04-10T11:15:19+00:00", "2024-04-10T11:36:26+00:00", "2024-04-10T11:39:34+00:00", "2024-04-10T11:50:04+00:00", "2024-04-10T12:10:56+00:00", "2024-04-10T12:19:13+00:00", "2024-04-10T12:29:47+00:00", "2024-04-10T12:36:17+00:00", "2024-04-10T12:42:18+00:00", "2024-04-10T12:47:35+00:00", "2024-04-10T12:59:29+00:00", "2024-04-10T13:12:36+00:00", "2024-04-10T13:21:50+00:00", "2024-04-10T13:23:54+00:00", "2024-04-10T13:36:09+00:00", "2024-04-10T13:40:25+00:00", "2024-04-10T13:46:30+00:00", "2024-04-10T13:51:23+00:00", "2024-04-10T13:59:13+00:00", "2024-04-10T14:11:07+00:00", "2024-04-10T14:20:53+00:00", "2024-04-10T14:24:25+00:00", "2024-04-10T14:29:46+00:00", "2024-04-10T14:35:23+00:00", "2024-04-10T14:41:45+00:00", "2024-04-10T14:46:29+00:00", "2024-04-10T14:50:30+00:00", "2024-04-10T14:56:31+00:00", "2024-04-10T15:02:36+00:00", "2024-04-10T15:05:16+00:00", "2024-04-10T15:11:21+00:00", "2024-04-10T15:15:26+00:00", "2024-04-10T15:17:43+00:00", "2024-04-10T15:24:20+00:00", "2024-04-10T15:27:00+00:00", "2024-04-10T15:31:05+00:00", "2024-04-10T15:36:02+00:00", "2024-04-10T15:41:30+00:00", "2024-04-10T15:44:51+00:00", "2024-04-10T15:49:32+00:00", "2024-04-10T15:50:16+00:00", "2024-04-10T15:58:57+00:00", "2024-04-10T15:59:53+00:00", "2024-04-10T16:09:55+00:00", "2024-04-10T16:11:27+00:00", "2024-04-10T16:17:04+00:00", "2024-04-10T16:18:36+00:00", "2024-04-10T16:21:57+00:00", "2024-04-10T16:23:05+00:00", "2024-04-10T16:26:34+00:00", "2024-04-10T16:29:06+00:00", "2024-04-10T16:32:03+00:00", "2024-04-10T16:35:51+00:00", "2024-04-10T16:36:27+00:00", "2024-04-10T16:39:04+00:00", "2024-04-10T16:40:12+00:00", "2024-04-10T16:41:44+00:00", "2024-04-10T16:44:33+00:00", "2024-04-10T16:45:57+00:00", "2024-04-10T16:50:18+00:00", "2024-04-10T16:50:50+00:00", "2024-04-10T16:54:43+00:00", "2024-04-10T16:58:19+00:00", "2024-04-10T17:01:28+00:00", "2024-04-10T17:03:36+00:00", "2024-04-10T17:05:33+00:00", "2024-04-10T17:06:13+00:00", "2024-04-10T17:11:58+00:00", "2024-04-10T17:13:22+00:00", "2024-04-10T17:16:02+00:00", "2024-04-10T17:17:19+00:00", "2024-04-10T17:18:23+00:00", "2024-04-10T17:19:31+00:00", "2024-04-10T17:22:07+00:00", "2024-04-10T17:23:44+00:00", "2024-04-10T17:25:48+00:00", "2024-04-10T17:27:33+00:00", "2024-04-10T17:31:54+00:00", "2024-04-10T17:33:18+00:00", "2024-04-10T17:34:30+00:00", "2024-04-10T17:37:23+00:00", "2024-04-10T17:39:03+00:00", "2024-04-10T17:39:59+00:00", "2024-04-10T17:41:32+00:00", "2024-04-10T17:42:44+00:00", "2024-04-10T17:46:49+00:00", "2024-04-10T17:48:09+00:00", "2024-04-10T17:49:25+00:00", "2024-04-10T17:51:42+00:00", "2024-04-10T17:53:38+00:00", "2024-04-10T17:55:42+00:00", "2024-04-10T17:57:27+00:00", "2024-04-10T17:58:47+00:00", "2024-04-10T18:00:40+00:00", "2024-04-10T18:02:24+00:00", "2024-04-10T18:05:25+00:00", "2024-04-10T18:07:33+00:00", "2024-04-10T18:08:45+00:00", "2024-04-10T18:11:30+00:00", "2024-04-10T18:14:06+00:00", "2024-04-10T18:15:07+00:00", "2024-04-10T18:18:23+00:00", "2024-04-10T18:19:35+00:00", "2024-04-10T18:21:12+00:00", "2024-04-10T18:23:52+00:00", "2024-04-10T18:25:28+00:00", "2024-04-10T18:27:25+00:00", "2024-04-10T18:30:50+00:00", "2024-04-10T18:32:42+00:00", "2024-04-10T18:34:06+00:00", "2024-04-10T18:35:43+00:00", "2024-04-10T18:37:47+00:00", "2024-04-10T18:39:23+00:00", "2024-04-10T18:41:28+00:00", "2024-04-10T18:43:32+00:00", "2024-04-10T18:44:44+00:00", "2024-04-10T18:46:41+00:00", "2024-04-10T18:47:57+00:00", "2024-04-10T18:49:01+00:00", "2024-04-10T18:50:37+00:00", "2024-04-10T18:51:49+00:00", "2024-04-10T18:53:38+00:00", "2024-04-10T18:55:18+00:00", "2024-04-10T18:56:54+00:00", "2024-04-10T18:58:14+00:00", "2024-04-10T19:00:43+00:00", "2024-04-10T19:02:55+00:00", "2024-04-10T19:04:23+00:00", "2024-04-10T19:06:03+00:00", "2024-04-10T19:07:11+00:00", "2024-04-10T19:08:52+00:00", "2024-04-10T19:10:00+00:00", "2024-04-10T19:11:04+00:00", "2024-04-10T19:14:16+00:00", "2024-04-10T19:15:29+00:00", "2024-04-10T19:16:45+00:00", "2024-04-10T19:19:53+00:00", "2024-04-10T19:20:49+00:00", "2024-04-10T19:22:10+00:00", "2024-04-10T19:23:50+00:00", "2024-04-10T19:25:10+00:00", "2024-04-10T19:26:26+00:00", "2024-04-10T19:28:19+00:00", "2024-04-10T19:30:03+00:00", "2024-04-10T19:31:39+00:00", "2024-04-10T19:33:07+00:00", "2024-04-10T19:35:28+00:00", "2024-04-10T19:37:08+00:00", "2024-04-10T19:39:20+00:00", "2024-04-10T19:40:57+00:00", "2024-04-10T19:42:01+00:00", "2024-04-10T19:43:33+00:00", "2024-04-10T19:45:25+00:00", "2024-04-10T19:46:14+00:00", "2024-04-10T19:48:14+00:00", "2024-04-10T19:49:42+00:00", "2024-04-10T19:50:30+00:00", "2024-04-10T19:52:55+00:00", "2024-04-10T19:53:59+00:00", "2024-04-10T19:55:27+00:00", "2024-04-10T19:57:11+00:00", "2024-04-10T19:58:36+00:00", "2024-04-10T20:01:00+00:00", "2024-04-10T20:01:48+00:00", "2024-04-10T20:03:24+00:00", "2024-04-10T20:04:57+00:00", "2024-04-10T20:05:49+00:00", "2024-04-10T20:06:29+00:00", "2024-04-10T20:09:54+00:00", "2024-04-10T20:10:22+00:00", "2024-04-10T20:13:27+00:00", "2024-04-10T20:14:39+00:00", "2024-04-10T20:16:43+00:00", "2024-04-10T20:17:55+00:00", "2024-04-10T20:19:00+00:00", "2024-04-10T20:20:08+00:00", "2024-04-10T20:22:00+00:00", "2024-04-10T20:23:17+00:00", "2024-04-10T20:26:41+00:00", "2024-04-10T20:28:29+00:00", "2024-04-10T20:31:38+00:00", "2024-04-10T20:32:18+00:00", "2024-04-10T20:33:58+00:00", "2024-04-10T20:35:31+00:00", "2024-04-10T20:37:23+00:00", "2024-04-10T20:38:19+00:00", "2024-04-10T20:39:48+00:00", "2024-04-10T20:40:52+00:00", "2024-04-10T20:42:44+00:00", "2024-04-10T20:44:13+00:00", "2024-04-10T20:45:57+00:00", "2024-04-10T20:47:21+00:00", "2024-04-10T20:48:33+00:00", "2024-04-10T20:50:22+00:00", "2024-04-10T20:52:06+00:00", "2024-04-10T20:53:18+00:00", "2024-04-10T20:56:47+00:00", "2024-04-10T20:58:35+00:00", "2024-04-10T20:59:56+00:00", "2024-04-10T21:02:28+00:00", "2024-04-10T21:03:20+00:00", "2024-04-10T21:05:33+00:00", "2024-04-10T21:06:29+00:00", "2024-04-10T21:08:57+00:00", "2024-04-10T21:11:42+00:00", "2024-04-10T21:12:34+00:00", "2024-04-10T21:15:18+00:00", "2024-04-10T21:16:43+00:00", "2024-04-10T21:18:11+00:00", "2024-04-10T21:19:15+00:00", "2024-04-10T21:20:39+00:00", "2024-04-10T21:22:32+00:00", "2024-04-10T21:23:48+00:00", "2024-04-10T21:25:44+00:00", "2024-04-10T21:27:32+00:00", "2024-04-10T21:29:33+00:00", "2024-04-10T21:30:49+00:00", "2024-04-10T21:32:25+00:00", "2024-04-10T21:33:54+00:00", "2024-04-10T21:36:02+00:00", "2024-04-10T21:39:03+00:00", "2024-04-10T21:39:43+00:00", "2024-04-10T21:41:51+00:00", "2024-04-10T21:42:55+00:00", "2024-04-10T21:47:20+00:00", "2024-04-10T21:47:56+00:00", "2024-04-10T21:52:45+00:00", "2024-04-10T21:53:45+00:00", "2024-04-10T21:56:14+00:00", "2024-04-10T22:03:19+00:00", "2024-04-10T22:03:55+00:00", "2024-04-10T22:08:24+00:00", "2024-04-10T22:11:36+00:00", "2024-04-10T22:12:12+00:00", "2024-04-10T22:15:49+00:00", "2024-04-10T22:16:49+00:00", "2024-04-10T22:20:02+00:00", "2024-04-10T22:23:58+00:00", "2024-04-10T22:27:07+00:00", "2024-04-10T22:28:03+00:00", "2024-04-10T22:31:51+00:00", "2024-04-10T22:35:16+00:00", "2024-04-10T22:39:04+00:00", "2024-04-10T22:40:57+00:00", "2024-04-10T22:44:49+00:00", "2024-04-10T22:49:50+00:00", "2024-04-10T22:53:11+00:00", "2024-04-10T22:54:23+00:00", "2024-04-10T22:58:09+00:00", "2024-04-10T23:00:33+00:00", "2024-04-10T23:05:10+00:00", "2024-04-10T23:06:54+00:00", "2024-04-10T23:09:15+00:00", "2024-04-10T23:10:03+00:00", "2024-04-10T23:11:51+00:00", "2024-04-10T23:17:08+00:00", "2024-04-10T23:18:29+00:00", "2024-04-10T23:21:17+00:00", "2024-04-10T23:26:02+00:00", "2024-04-10T23:31:04+00:00", "2024-04-10T23:33:56+00:00", "2024-04-10T23:35:17+00:00", "2024-04-10T23:37:58+00:00", "2024-04-10T23:45:44+00:00", "2024-04-10T23:50:20+00:00", "2024-04-10T23:52:13+00:00", "2024-04-10T23:54:41+00:00", "2024-04-10T23:57:50+00:00", "2024-04-11T00:00:47+00:00", "2024-04-11T00:02:19+00:00", "2024-04-11T00:04:47+00:00", "2024-04-11T00:06:20+00:00", "2024-04-11T00:10:21+00:00", "2024-04-11T00:15:29+00:00", "2024-04-11T00:19:58+00:00", "2024-04-11T00:25:23+00:00", "2024-04-11T00:25:55+00:00", "2024-04-11T00:32:37+00:00", "2024-04-11T00:35:29+00:00", "2024-04-11T00:41:14+00:00", "2024-04-11T00:44:35+00:00", "2024-04-11T00:48:20+00:00", "2024-04-11T00:54:13+00:00", "2024-04-11T00:59:58+00:00", "2024-04-11T01:09:56+00:00", "2024-04-11T01:12:52+00:00", "2024-04-11T01:23:07+00:00", "2024-04-11T01:31:00+00:00", "2024-04-11T01:35:59+00:00", "2024-04-11T01:38:48+00:00", "2024-04-11T01:42:00+00:00", "2024-04-11T01:43:36+00:00", "2024-04-11T01:49:05+00:00", "2024-04-11T01:51:10+00:00", "2024-04-11T01:55:22+00:00", "2024-04-11T01:57:15+00:00", "2024-04-11T02:02:40+00:00", "2024-04-11T02:04:40+00:00", "2024-04-11T02:08:25+00:00", "2024-04-11T02:09:45+00:00", "2024-04-11T02:12:02+00:00", "2024-04-11T02:16:02+00:00", "2024-04-11T02:17:19+00:00", "2024-04-11T02:19:51+00:00", "2024-04-11T02:22:11+00:00", "2024-04-11T02:25:32+00:00", "2024-04-11T02:26:52+00:00", "2024-04-11T02:28:25+00:00", "2024-04-11T02:29:45+00:00", "2024-04-11T02:34:18+00:00", "2024-04-11T02:35:30+00:00", "2024-04-11T02:36:46+00:00", "2024-04-11T02:41:53+00:00", "2024-04-11T02:44:29+00:00", "2024-04-11T02:50:50+00:00", "2024-04-11T02:51:42+00:00", "2024-04-11T02:57:40+00:00", "2024-04-11T03:04:17+00:00", "2024-04-11T03:06:33+00:00", "2024-04-11T03:11:34+00:00", "2024-04-11T03:12:59+00:00", "2024-04-11T03:20:40+00:00", "2024-04-11T03:25:17+00:00", "2024-04-11T03:29:54+00:00", "2024-04-11T03:32:51+00:00", "2024-04-11T03:38:24+00:00", "2024-04-11T03:42:45+00:00", "2024-04-11T03:45:30+00:00", "2024-04-11T03:51:47+00:00", "2024-04-11T03:55:12+00:00", "2024-04-11T03:58:17+00:00", "2024-04-11T04:02:25+00:00", "2024-04-11T04:03:58+00:00", "2024-04-11T04:09:22+00:00", "2024-04-11T04:11:47+00:00", "2024-04-11T04:15:08+00:00", "2024-04-11T04:21:33+00:00", "2024-04-11T04:23:33+00:00", "2024-04-11T04:29:18+00:00", "2024-04-11T04:32:16+00:00", "2024-04-11T04:33:40+00:00", "2024-04-11T04:37:04+00:00", "2024-04-11T04:41:13+00:00", "2024-04-11T04:43:58+00:00", "2024-04-11T04:45:50+00:00", "2024-04-11T04:50:02+00:00"], "elevations": [null, null, null, null, null, null, null, null, null, null, null, null, null, null, null, null, null, null, null, null, null, null, null, null, null, null, null, null, null, null, null, null, null, null, null, null, null, null, null, null, null, null, null, null, null, null, null, null, null, null, null, null, null, null, null, null, null, null, null, null, null, null, null, null, null, null, null, null, null, null, null, null, null, null, null, null, null, null, null, null, null, null, null, null, null, null, null, null, null, null, null, null, null, null, null, null, null, null, null, null, null, null, null, null, null, null, null, null, null, null, null, null, null, null, null, null, null, null, null, null, null, null, null, null, null, null, null, null, null, null, null, null, null, null, null, null, null, null, null, null, null, null, null, null, null, null, null, null, null, null, null, null, null, null, null, null, null, null, null, null, null, null, null, null, null, null, null, null, null, null, null, null, null, null, null, null, null, null, null, null, null, null, null, null, null, null, null, null, null, null, null, null, null, null, null, null, null, null, null, null, null, null, null, null, null, null, null, null, null, null, null, null, null, null, null, null, null, null, null, null, null, null, null, null, null, null, null, null, null, null, null, null, null, null, null, null, null, null, null, null, null, null, null, null, null, null, null, null, null, null, null, null, null, null, null, null, null, null, null, null, null, null, null, null, null, null, null, null, null, null, null, null, null, null, null, null, null, null, null, null, null, null, null, null, null, null, null, null, null, null, null, null, null, null, null, null, null, null, null, null, null, null, null, null, null, null, null, null, null, null, null, null, null, null, null, null, null, null, null, null, null, null, null, null, null, null, null, null, null, null, null, null, null, null, null, null, null, null, null, null, null, null, null, null, null, null, null, null, null, null, null, null, null, null, null, null, null, null, null, null, null, null, null, null, null, null, null, null, null, null, null, null, null, null, null, null, null, null, null, null, null, null, null, null, null, null, null, null, null, null, null, null, null, null, null, null, null, null, null, null, null, null, null, null, null, null, null, null, null, null, null, null, null, null, null, null, null, null, null, null, null, null, null, null, null, null, null, null, null, null, null, null, null, null, null, null, null, null, null, null, null, null, null, null, null, null, null, null, null, null, null, null, null, null, null, null, null, null, null, null, null, null, null, null, null, null, null, null, null, null, null, null, null, null, null, null, null, null, null, null, null, null, null, null, null, null, null, null, null, null, null, null, null, null, null, null, null, null, null, null, null, null, null, null, null, null, null, null, null, null, null, null, null, null, null, null, null, null, null, null, null, null, null, null, null, null, null, null, null, null, null, null, null, null, null, null, null, null, null, null, null, null, null, null, null, null, null, null, null, null, null, null, null, null, null, null, null, null, null, null, null, null, null, null, null, null, null, null, null, null, null, null, null, null, null, null, null, null, null, null, null, null, null, null, null, null, null, null, null, null, null, null, null, null, null, null, null, null, null, null, null, null, null, null, null, null, null, null, null, null, null, null, null, null, null, null, null, null, null, null, null, null, null, null, null, null, null, null, null, null, null, null, null, null, null, null, null, null, null, null, null, null, null, null, null, null, null, null, null, null, null, null, null, null, null, null, null, null, null, null, null, null, null, null, null, null, null, null, null, null, null, null, null, null, null, null, null, null, null, null, null, null, null, null, null, null, null, null, null, null, null, null, null, null, null, null, null, null, null, null, null, null, null, null, null, null, null, null, null, null, null, null, null, null, null, null, null, null, null, null, null, null, null, null, null, null, null, null, null, null, null, null, null, null, null, null, null, null, null, null, null, null, null, null, null, null, null, null, null, null, null, null, null, null, null, null, null, null, null, null, null, null, null, null, null, null, null, null, null, null, null, null, null, null, null, null, null, null, null, null, null, null, null, null, null, null, null, null, null, null, null, null, null, null, null, null, null, null, null, null, null, null, null, null, null, null, null, null, null, null, null, null, null, null, null, null, null, null, null, null, null, null, null, null, null, null, null, null, null, null, null, null, null, null, null, null, null, null, null, null, null, null, null, null, null, null, null, null, null, null, null, null, null, null, null, null, null, null, null, null, null, null, null, null, null, null, null, null, null, null, null, null, null, null, null, null, null, null, null, null, null, null, null, null, null, null, null, null, null, null, null, null, null, null, null, null, null, null, null, null, null, null, null, null, null, null, null, null, null, null, null, null, null, null, null, null, null, null, null, null, null, null, null, null, null, null, null, null, null, null, null, null, null, null, null, null, null, null, null, null, null, null, null, null, null, null, null, null, null, null, null, null, null, null, null, null, null, null, null, null, null, null, null, null, null, null, null, null, null, null, null, null, null, null, null, null, null, null, null, null, null, null, null, null, null, null, null, null, null, null, null, null, null, null, null, null, null, null, null, null, null, null, null, null, null, null, null, null, null, null, null, null, null, null, null, null, null, null, null, null, null, null, null, null, null, null, null, null, null, null, null, null, null, null, null, null, null, null, null, null, null, null, null, null, null, null, null, null, null, null, null, null, null, null, null, null, null, null, null, null, null, null, null, null, null, null]}