{"type": "Feature", "properties": {"leg_id": 16, "name": "20201002 - Vancouver to Sydney", "stated_nm": 73.1, "computed_nm": 73.1}, "geometry": {"type": "LineString", "coordinates": [[-123.136594, 49.275147], [-123.138868, 49.277252], [-123.143361, 49.279902], [-123.147371, 49.281678], [-123.155035, 49.284112], [-123.158548, 49.284793], [-123.165647, 49.286226], [-123.170971, 49.287835], [-123.17706, 49.289502], [-123.181857, 49.290966], [-123.185727, 49.292178], [-123.190803, 49.293204], [-123.195112, 49.294123], [-123.208597, 49.295098], [-123.212791, 49.295438], [-123.217683, 49.296127], [-123.223642, 49.296742], [-123.233068, 49.29713], [-123.239437, 49.296977], [-123.243193, 49.296756], [-123.248815, 49.296236], [-123.252199, 49.295632], [-123.256985, 49.294915], [-123.2709, 49.292753], [-123.271472, 49.292638], [-123.284188, 49.279978], [-123.289273, 49.27518], [-123.293943, 49.270452], [-123.299183, 49.264972], [-123.30811, 49.254963], [-123.318318, 49.242763], [-123.324113, 49.235622], [-123.328103, 49.230525], [-123.335893, 49.220803], [-123.342193, 49.213663], [-123.344242, 49.211155], [-123.351892, 49.202722], [-123.356561, 49.200484], [-123.369595, 49.19511], [-123.382463, 49.189567], [-123.38624, 49.185725], [-123.391628, 49.17987], [-123.395937, 49.174795], [-123.402973, 49.166875], [-123.409895, 49.158712], [-123.415208, 49.152725], [-123.4177, 49.149677], [-123.427663, 49.138273], [-123.429468, 49.13637], [-123.43509, 49.131703], [-123.441052, 49.12689], [-123.448113, 49.121348], [-123.453349, 49.117091], [-123.45491, 49.11565], [-123.46209, 49.113138], [-123.471998, 49.109882], [-123.481667, 49.106252], [-123.486092, 49.103523], [-123.494415, 49.096498], [-123.504145, 49.088703], [-123.510048, 49.083638], [-123.521085, 49.074818], [-123.531415, 49.067037], [-123.53627, 49.063503], [-123.543981, 49.058518], [-123.548342, 49.0555], [-123.555883, 49.048277], [-123.558894, 49.044695], [-123.564747, 49.035663], [-123.568129, 49.030778], [-123.579147, 49.021185], [-123.581688, 49.019193], [-123.585524, 49.016096], [-123.587996, 49.014214], [-123.592247, 49.010244], [-123.594062, 49.00726], [-123.595313, 49.003041], [-123.595362, 48.999151], [-123.593392, 48.991305], [-123.589953, 48.985503], [-123.585538, 48.979385], [-123.582158, 48.976683], [-123.575512, 48.972012], [-123.568423, 48.966678], [-123.56577, 48.964521], [-123.561273, 48.960967], [-123.558073, 48.95848], [-123.55101, 48.9532], [-123.54466, 48.948581], [-123.537308, 48.942523], [-123.532205, 48.938381], [-123.527257, 48.934229], [-123.522266, 48.92998], [-123.51934, 48.927408], [-123.516435, 48.924838], [-123.513737, 48.922417], [-123.507555, 48.916917], [-123.504111, 48.913077], [-123.501091, 48.909377], [-123.496523, 48.905534], [-123.490904, 48.901385], [-123.48667, 48.898371], [-123.481438, 48.895156], [-123.47926, 48.893905], [-123.473445, 48.89063], [-123.468652, 48.887763], [-123.461577, 48.883305], [-123.457435, 48.880871], [-123.453657, 48.878772], [-123.450646, 48.877138], [-123.442148, 48.872502], [-123.433543, 48.867997], [-123.428366, 48.865226], [-123.425376, 48.86276], [-123.422331, 48.859063], [-123.419224, 48.855277], [-123.417523, 48.852913], [-123.41477, 48.84726], [-123.41314, 48.840763], [-123.411155, 48.833742], [-123.409305, 48.828978], [-123.406391, 48.824103], [-123.404721, 48.821117], [-123.399552, 48.816212], [-123.396145, 48.81256], [-123.393513, 48.807408], [-123.390387, 48.800524], [-123.386921, 48.796647], [-123.382817, 48.794427], [-123.374427, 48.789867], [-123.36524, 48.785147], [-123.362302, 48.781195], [-123.356272, 48.773787], [-123.352833, 48.766291], [-123.352266, 48.763684], [-123.351103, 48.758553], [-123.350103, 48.750513], [-123.348942, 48.744195], [-123.347921, 48.740269], [-123.345948, 48.73462], [-123.345512, 48.73009], [-123.345174, 48.726094], [-123.345282, 48.720025], [-123.344831, 48.713992], [-123.34524, 48.709578], [-123.346723, 48.705309], [-123.346551, 48.700575], [-123.348073, 48.693938], [-123.353855, 48.689738], [-123.358285, 48.685965], [-123.365073, 48.68128], [-123.368936, 48.677934], [-123.372757, 48.674938], [-123.377998, 48.672307], [-123.380865, 48.670541], [-123.384508, 48.66491], [-123.386811, 48.659419], [-123.387248, 48.654557], [-123.3883, 48.651721], [-123.391148, 48.65162], [-123.392815, 48.653781], [-123.391172, 48.652952], [-123.389636, 48.655689], [-123.387601, 48.658745], [-123.386332, 48.660431], [-123.383841, 48.663613], [-123.382184, 48.663424], [-123.381523, 48.666057], [-123.381251, 48.669632], [-123.377562, 48.672571], [-123.373474, 48.674577], [-123.370901, 48.676188], [-123.368273, 48.67872], [-123.363223, 48.680479], [-123.357206, 48.681079], [-123.352509, 48.682338], [-123.349097, 48.686425], [-123.346374, 48.692523], [-123.345594, 48.695523], [-123.346707, 48.703842], [-123.347387, 48.708594], [-123.348262, 48.713], [-123.346794, 48.716387], [-123.343319, 48.720889], [-123.339749, 48.72527], [-123.337623, 48.729189], [-123.335824, 48.731821], [-123.334573, 48.734827], [-123.332522, 48.739873], [-123.330472, 48.743877], [-123.328988, 48.751668], [-123.328222, 48.755092], [-123.328462, 48.758305], [-123.327831, 48.761436], [-123.326894, 48.764367], [-123.325849, 48.767181], [-123.325187, 48.769924], [-123.325475, 48.774605], [-123.326858, 48.781053], [-123.325775, 48.783864], [-123.322895, 48.786788], [-123.319262, 48.79216], [-123.316619, 48.79589], [-123.313698, 48.796605], [-123.307618, 48.796433], [-123.305688, 48.796563], [-123.317558, 48.796789], [-123.32078, 48.79445], [-123.324193, 48.790748], [-123.327553, 48.78159], [-123.33003, 48.775152], [-123.332192, 48.767445], [-123.334578, 48.756353], [-123.336045, 48.752442], [-123.338873, 48.745448], [-123.340782, 48.741322], [-123.342254, 48.738368], [-123.344097, 48.73292], [-123.345908, 48.727723], [-123.347927, 48.720207], [-123.349078, 48.716552], [-123.350602, 48.710447], [-123.353293, 48.701462], [-123.353742, 48.700383], [-123.355667, 48.69251], [-123.357009, 48.689324], [-123.360387, 48.684282], [-123.36346, 48.681183], [-123.370248, 48.676277], [-123.376569, 48.673142], [-123.382828, 48.669233], [-123.385568, 48.665019], [-123.388227, 48.65722], [-123.389617, 48.654718], [-123.391563, 48.652198], [-123.392535, 48.653675], [-123.394528, 48.654106]]}, "times": ["2020-10-02T13:12:54+00:00", "2020-10-02T13:13:58+00:00", "2020-10-02T13:17:30+00:00", "2020-10-02T13:18:47+00:00", "2020-10-02T13:23:23+00:00", "2020-10-02T13:24:27+00:00", "2020-10-02T13:27:43+00:00", "2020-10-02T13:30:00+00:00", "2020-10-02T13:33:56+00:00", "2020-10-02T13:35:00+00:00", "2020-10-02T13:37:04+00:00", "2020-10-02T13:40:17+00:00", "2020-10-02T13:41:53+00:00", "2020-10-02T13:47:42+00:00", "2020-10-02T13:49:54+00:00", "2020-10-02T13:51:46+00:00", "2020-10-02T13:55:35+00:00", "2020-10-02T14:01:49+00:00", "2020-10-02T14:03:33+00:00", "2020-10-02T14:06:34+00:00", "2020-10-02T14:08:59+00:00", "2020-10-02T14:09:59+00:00", "2020-10-02T14:13:00+00:00", "2020-10-02T14:20:57+00:00", "2020-10-02T14:21:17+00:00", "2020-10-02T14:34:30+00:00", "2020-10-02T14:39:24+00:00", "2020-10-02T14:43:58+00:00", "2020-10-02T14:49:12+00:00", "2020-10-02T14:58:20+00:00", "2020-10-02T15:08:52+00:00", "2020-10-02T15:15:07+00:00", "2020-10-02T15:20:53+00:00", "2020-10-02T15:27:12+00:00", "2020-10-02T15:32:50+00:00", "2020-10-02T15:34:43+00:00", "2020-10-02T15:41:14+00:00", "2020-10-02T15:46:12+00:00", "2020-10-02T15:50:50+00:00", "2020-10-02T15:57:59+00:00", "2020-10-02T16:01:04+00:00", "2020-10-02T16:05:33+00:00", "2020-10-02T16:09:21+00:00", "2020-10-02T16:15:23+00:00", "2020-10-02T16:21:36+00:00", "2020-10-02T16:26:08+00:00", "2020-10-02T16:28:21+00:00", "2020-10-02T16:36:40+00:00", "2020-10-02T16:37:45+00:00", "2020-10-02T16:41:54+00:00", "2020-10-02T16:45:52+00:00", "2020-10-02T16:50:26+00:00", "2020-10-02T16:54:08+00:00", "2020-10-02T16:54:56+00:00", "2020-10-02T16:59:58+00:00", "2020-10-02T17:03:03+00:00", "2020-10-02T17:08:20+00:00", "2020-10-02T17:10:56+00:00", "2020-10-02T17:15:05+00:00", "2020-10-02T17:21:05+00:00", "2020-10-02T17:26:42+00:00", "2020-10-02T17:32:18+00:00", "2020-10-02T17:38:39+00:00", "2020-10-02T17:41:47+00:00", "2020-10-02T17:47:20+00:00", "2020-10-02T17:49:28+00:00", "2020-10-02T17:55:21+00:00", "2020-10-02T17:59:33+00:00", "2020-10-02T18:04:45+00:00", "2020-10-02T18:08:46+00:00", "2020-10-02T18:16:19+00:00", "2020-10-02T18:17:35+00:00", "2020-10-02T18:20:28+00:00", "2020-10-02T18:21:56+00:00", "2020-10-02T18:25:12+00:00", "2020-10-02T18:26:08+00:00", "2020-10-02T18:28:57+00:00", "2020-10-02T18:31:09+00:00", "2020-10-02T18:34:13+00:00", "2020-10-02T18:39:01+00:00", "2020-10-02T18:41:30+00:00", "2020-10-02T18:43:07+00:00", "2020-10-02T18:46:40+00:00", "2020-10-02T18:50:37+00:00", "2020-10-02T18:52:41+00:00", "2020-10-02T18:56:03+00:00", "2020-10-02T18:56:55+00:00", "2020-10-02T19:00:44+00:00", "2020-10-02T19:05:37+00:00", "2020-10-02T19:08:45+00:00", "2020-10-02T19:12:17+00:00", "2020-10-02T19:16:42+00:00", "2020-10-02T19:18:58+00:00", "2020-10-02T19:20:50+00:00", "2020-10-02T19:22:58+00:00", "2020-10-02T19:24:20+00:00", "2020-10-02T19:29:12+00:00", "2020-10-02T19:31:53+00:00", "2020-10-02T19:34:17+00:00", "2020-10-02T19:36:37+00:00", "2020-10-02T19:40:37+00:00", "2020-10-02T19:43:50+00:00", "2020-10-02T19:45:54+00:00", "2020-10-02T19:47:14+00:00", "2020-10-02T19:50:06+00:00", "2020-10-02T19:52:50+00:00", "2020-10-02T19:57:51+00:00", "2020-10-02T19:59:15+00:00", "2020-10-02T20:01:07+00:00", "2020-10-02T20:03:20+00:00", "2020-10-02T20:07:40+00:00", "2020-10-02T20:13:21+00:00", "2020-10-02T20:16:05+00:00", "2020-10-02T20:16:41+00:00", "2020-10-02T20:20:13+00:00", "2020-10-02T20:23:31+00:00", "2020-10-02T20:24:55+00:00", "2020-10-02T20:30:09+00:00", "2020-10-02T20:32:30+00:00", "2020-10-02T20:37:53+00:00", "2020-10-02T20:39:45+00:00", "2020-10-02T20:43:43+00:00", "2020-10-02T20:45:52+00:00", "2020-10-02T20:49:54+00:00", "2020-10-02T20:52:23+00:00", "2020-10-02T20:56:21+00:00", "2020-10-02T21:02:07+00:00", "2020-10-02T21:04:52+00:00", "2020-10-02T21:07:21+00:00", "2020-10-02T21:13:16+00:00", "2020-10-02T21:18:02+00:00", "2020-10-02T21:22:20+00:00", "2020-10-02T21:26:29+00:00", "2020-10-02T21:32:08+00:00", "2020-10-02T21:35:45+00:00", "2020-10-02T21:39:35+00:00", "2020-10-02T21:46:46+00:00", "2020-10-02T21:53:34+00:00", "2020-10-02T21:55:07+00:00", "2020-10-02T21:59:28+00:00", "2020-10-02T22:02:12+00:00", "2020-10-02T22:06:29+00:00", "2020-10-02T22:11:01+00:00", "2020-10-02T22:17:46+00:00", "2020-10-02T22:20:18+00:00", "2020-10-02T22:23:19+00:00", "2020-10-02T22:27:23+00:00", "2020-10-02T22:32:20+00:00", "2020-10-02T22:35:24+00:00", "2020-10-02T22:39:29+00:00", "2020-10-02T22:43:53+00:00", "2020-10-02T22:46:37+00:00", "2020-10-02T22:51:06+00:00", "2020-10-02T22:54:11+00:00", "2020-10-02T22:56:23+00:00", "2020-10-02T23:00:24+00:00", "2020-10-02T23:05:09+00:00", "2020-10-02T23:09:23+00:00", "2020-10-02T23:10:23+00:00", "2020-10-02T23:12:00+00:00", "2020-10-02T23:14:45+00:00", "2020-12-06T20:50:42+00:00", "2020-12-06T20:52:26+00:00", "2020-12-06T20:55:07+00:00", "2020-12-06T20:56:03+00:00", "2020-12-06T20:58:47+00:00", "2020-12-06T21:01:39+00:00", "2020-12-06T21:06:36+00:00", "2020-12-06T21:09:32+00:00", "2020-12-06T21:13:56+00:00", "2020-12-06T21:15:37+00:00", "2020-12-06T21:17:37+00:00", "2020-12-06T21:23:05+00:00", "2020-12-06T21:26:34+00:00", "2020-12-06T21:33:30+00:00", "2020-12-06T21:34:38+00:00", "2020-12-06T21:39:23+00:00", "2020-12-06T21:43:51+00:00", "2020-12-06T21:45:51+00:00", "2020-12-06T21:52:19+00:00", "2020-12-06T21:57:11+00:00", "2020-12-06T21:59:56+00:00", "2020-12-06T22:03:44+00:00", "2020-12-06T22:09:04+00:00", "2020-12-06T22:12:56+00:00", "2020-12-06T22:15:57+00:00", "2020-12-06T22:19:49+00:00", "2020-12-06T22:24:45+00:00", "2020-12-06T22:29:42+00:00", "2020-12-06T22:31:42+00:00", "2020-12-06T22:37:31+00:00", "2020-12-06T22:40:59+00:00", "2020-12-06T22:43:11+00:00", "2020-12-06T22:45:32+00:00", "2020-12-06T22:48:20+00:00", "2020-12-06T22:50:32+00:00", "2020-12-06T22:53:29+00:00", "2020-12-06T22:56:49+00:00", "2020-12-06T23:02:46+00:00", "2020-12-06T23:04:10+00:00", "2020-12-06T23:07:51+00:00", "2020-12-06T23:11:39+00:00", "2020-12-06T23:13:31+00:00", "2020-12-06T23:14:27+00:00", "2020-12-06T23:17:39+00:00", "2020-12-06T23:45:16+00:00", "2020-12-11T18:57:56+00:00", "2020-12-11T19:01:57+00:00", "2020-12-11T19:04:09+00:00", "2020-12-11T19:10:01+00:00", "2020-12-11T19:15:54+00:00", "2020-12-11T19:19:55+00:00", "2020-12-11T19:27:39+00:00", "2020-12-11T19:30:28+00:00", "2020-12-11T19:35:26+00:00", "2020-12-11T19:39:00+00:00", "2020-12-11T19:41:17+00:00", "2020-12-11T19:45:14+00:00", "2020-12-11T19:49:28+00:00", "2020-12-11T19:55:22+00:00", "2020-12-11T19:58:07+00:00", "2020-12-11T20:02:45+00:00", "2020-12-11T20:09:19+00:00", "2020-12-11T20:10:23+00:00", "2020-12-11T20:15:57+00:00", "2020-12-11T20:19:47+00:00", "2020-12-11T20:22:56+00:00", "2020-12-11T20:24:52+00:00", "2020-12-11T20:30:19+00:00", "2020-12-11T20:32:59+00:00", "2020-12-11T20:38:21+00:00", "2020-12-11T20:41:11+00:00", "2020-12-11T20:44:56+00:00", "2020-12-11T20:46:32+00:00", "2020-12-11T20:48:21+00:00", "2020-12-11T20:49:54+00:00", "2020-12-11T20:52:39+00:00"], "elevations": [null, null, null, null, null, null, null, null, null, null, null, null, null, null, null, null, null, null, null, null, null, null, null, null, null, null, null, null, null, null, null, null, null, null, null, null, null, null, null, null, null, null, null, null, null, null, null, null, null, null, null, null, null, null, null, null, null, null, null, null, null, null, null, null, null, null, null, null, null, null, null, null, null, null, null, null, null, null, null, null, null, null, null, null, null, null, null, null, null, null, null, null, null, null, null, null, null, null, null, null, null, null, null, null, null, null, null, null, null, null, null, null, null, null, null, null, null, null, null, null, null, null, null, null, null, null, null, null, null, null, null, null, null, null, null, null, null, null, null, null, null, null, null, null, null, null, null, null, null, null, null, null, null, null, null, null, null, null, null, null, null, null, null, null, null, null, null, null, null, null, null, null, null, null, null, null, null, null, null, null, null, null, null, null, null, null, null, null, null, null, null, null, null, null, null, null, null, null, null, null, null, null, null, null, null, null, null, null, null, null, null, null, null, null, null, null, null, null, null, null, null, null, null, null, null, null, null, null, null, null, null, null, null, null, null, null, null]}