{"type": "Feature", "properties": {"leg_id": 23, "name": "20210810 - Sydney to Vancouver", "stated_nm": 59.9, "computed_nm": 59.9}, "geometry": {"type": "LineString", "coordinates": [[-123.391558, 48.652345], [-123.388943, 48.656699], [-123.384653, 48.664161], [-123.381736, 48.669826], [-123.379367, 48.672023], [-123.372563, 48.674964], [-123.366219, 48.677953], [-123.359969, 48.681488], [-123.356452, 48.684327], [-123.354283, 48.687245], [-123.352147, 48.690452], [-123.34986, 48.694747], [-123.346725, 48.700546], [-123.345564, 48.704245], [-123.343855, 48.713357], [-123.342675, 48.717688], [-123.342488, 48.722753], [-123.34385, 48.731505], [-123.344586, 48.738182], [-123.343107, 48.744107], [-123.342577, 48.752582], [-123.342463, 48.756833], [-123.342391, 48.760163], [-123.342665, 48.763782], [-123.349197, 48.77318], [-123.352284, 48.77814], [-123.35737, 48.787962], [-123.358752, 48.791193], [-123.362968, 48.797428], [-123.366753, 48.800501], [-123.373582, 48.803394], [-123.382478, 48.806685], [-123.388399, 48.809315], [-123.392518, 48.811602], [-123.395974, 48.814512], [-123.398893, 48.817072], [-123.401155, 48.819302], [-123.404049, 48.822239], [-123.406677, 48.825476], [-123.408658, 48.828767], [-123.410563, 48.83202], [-123.412003, 48.834698], [-123.41359, 48.838556], [-123.412572, 48.842499], [-123.409761, 48.847588], [-123.408753, 48.851231], [-123.407152, 48.85407], [-123.403678, 48.857862], [-123.40166, 48.86005], [-123.398857, 48.864124], [-123.396157, 48.867596], [-123.394277, 48.871449], [-123.393257, 48.873903], [-123.39421, 48.878121], [-123.396847, 48.881601], [-123.399685, 48.884682], [-123.400203, 48.888161], [-123.399682, 48.891042], [-123.399171, 48.893613], [-123.400041, 48.893431], [-123.405919, 48.891782], [-123.409763, 48.893413], [-123.416748, 48.896662], [-123.42761, 48.901692], [-123.437807, 48.906808], [-123.44537, 48.91081], [-123.450962, 48.913635], [-123.460018, 48.916527], [-123.466168, 48.91816], [-123.474357, 48.919939], [-123.482122, 48.923007], [-123.496323, 48.929525], [-123.500501, 48.931681], [-123.507072, 48.935584], [-123.511167, 48.937866], [-123.517615, 48.941176], [-123.524546, 48.944663], [-123.528363, 48.946494], [-123.534428, 48.949584], [-123.538883, 48.951628], [-123.542715, 48.953419], [-123.546322, 48.955638], [-123.550991, 48.959897], [-123.555748, 48.964258], [-123.561315, 48.968285], [-123.567361, 48.972117], [-123.574273, 48.976532], [-123.58166, 48.982708], [-123.586174, 48.986325], [-123.591358, 48.990627], [-123.594806, 48.994352], [-123.59544, 48.99609], [-123.593538, 49.004057], [-123.588288, 49.012992], [-123.586115, 49.015624], [-123.583443, 49.018861], [-123.577313, 49.022163], [-123.572747, 49.024859], [-123.568937, 49.027407], [-123.565652, 49.029792], [-123.562825, 49.031896], [-123.559709, 49.033356], [-123.556031, 49.036372], [-123.55188, 49.039462], [-123.548049, 49.041652], [-123.542785, 49.044517], [-123.539361, 49.046666], [-123.536753, 49.04833], [-123.530998, 49.052037], [-123.525033, 49.056053], [-123.517635, 49.060687], [-123.511003, 49.064569], [-123.503348, 49.069258], [-123.49434, 49.074347], [-123.487957, 49.078345], [-123.484873, 49.080392], [-123.479007, 49.084549], [-123.474969, 49.087324], [-123.471568, 49.090736], [-123.467268, 49.094519], [-123.463198, 49.098197], [-123.458515, 49.102259], [-123.456561, 49.103832], [-123.452742, 49.107106], [-123.449378, 49.109732], [-123.442926, 49.115246], [-123.438838, 49.11898], [-123.437163, 49.120767], [-123.434294, 49.125196], [-123.432763, 49.127466], [-123.42924, 49.132927], [-123.425534, 49.1384], [-123.419828, 49.14764], [-123.418215, 49.150482], [-123.413105, 49.157512], [-123.410784, 49.160886], [-123.408558, 49.163918], [-123.405292, 49.168772], [-123.403302, 49.171375], [-123.401106, 49.174357], [-123.397271, 49.178793], [-123.384483, 49.19094], [-123.379183, 49.19648], [-123.37135, 49.206315], [-123.368178, 49.209372], [-123.361118, 49.215712], [-123.356186, 49.218032], [-123.348642, 49.224153], [-123.346446, 49.226052], [-123.340814, 49.230803], [-123.335903, 49.235333], [-123.33131, 49.240108], [-123.326613, 49.244894], [-123.322113, 49.248795], [-123.317957, 49.252013], [-123.30915, 49.258123], [-123.306188, 49.260115], [-123.300612, 49.264776], [-123.297275, 49.268195], [-123.290967, 49.27609], [-123.287914, 49.279497], [-123.283512, 49.283313], [-123.279005, 49.286143], [-123.272347, 49.290244], [-123.267495, 49.291671], [-123.26167, 49.292685], [-123.244905, 49.293643], [-123.237188, 49.293467], [-123.22209, 49.292073], [-123.208905, 49.290327], [-123.198166, 49.288704], [-123.192257, 49.288342], [-123.184619, 49.288193], [-123.161818, 49.284992], [-123.157518, 49.284163], [-123.150702, 49.282103], [-123.144341, 49.280123], [-123.138756, 49.276857], [-123.132782, 49.272246], [-123.128925, 49.270307], [-123.12329, 49.269874], [-123.117472, 49.271164], [-123.118905, 49.270237], [-123.121358, 49.269133], [-123.137727, 49.271077], [-123.135833, 49.274257], [-123.137839, 49.276599], [-123.141679, 49.279377], [-123.145933, 49.281456], [-123.149957, 49.282097], [-123.156314, 49.282166], [-123.159125, 49.28165], [-123.158291, 49.28157], [-123.149196, 49.282207], [-123.14624, 49.2812], [-123.140399, 49.278206], [-123.136714, 49.275582], [-123.136436, 49.27424], [-123.138421, 49.271723], [-123.137714, 49.271214], [-123.134252, 49.273169], [-123.131799, 49.271658], [-123.127852, 49.269838], [-123.123558, 49.269786], [-123.119423, 49.270493], [-123.117516, 49.270754], [-123.109845, 49.272699], [-123.106292, 49.272686], [-123.107079, 49.272818]]}, "times": ["2021-08-10T23:00:27+00:00", "2021-08-10T23:05:24+00:00", "2021-08-10T23:10:36+00:00", "2021-08-10T23:14:40+00:00", "2021-08-10T23:15:52+00:00", "2021-08-10T23:19:49+00:00", "2021-08-10T23:22:57+00:00", "2021-08-10T23:25:33+00:00", "2021-08-10T23:27:29+00:00", "2021-08-10T23:30:41+00:00", "2021-08-10T23:32:33+00:00", "2021-08-10T23:36:10+00:00", "2021-08-10T23:40:34+00:00", "2021-08-10T23:43:10+00:00", "2021-08-10T23:48:47+00:00", "2021-08-10T23:51:51+00:00", "2021-08-10T23:55:15+00:00", "2021-08-11T00:00:56+00:00", "2021-08-11T00:06:00+00:00", "2021-08-11T00:09:49+00:00", "2021-08-11T00:16:01+00:00", "2021-08-11T00:19:17+00:00", "2021-08-11T00:21:06+00:00", "2021-08-11T00:24:02+00:00", "2021-08-11T00:30:35+00:00", "2021-08-11T00:35:03+00:00", "2021-08-11T00:41:33+00:00", "2021-08-11T00:44:10+00:00", "2021-08-11T00:50:37+00:00", "2021-08-11T00:53:37+00:00", "2021-08-11T00:58:30+00:00", "2021-08-11T01:02:47+00:00", "2021-08-11T01:05:36+00:00", "2021-08-11T01:07:48+00:00", "2021-08-11T01:10:40+00:00", "2021-08-11T01:12:24+00:00", "2021-08-11T01:14:29+00:00", "2021-08-11T01:17:37+00:00", "2021-08-11T01:20:09+00:00", "2021-08-11T01:23:30+00:00", "2021-08-11T01:26:02+00:00", "2021-08-11T01:27:55+00:00", "2021-08-11T01:30:51+00:00", "2021-08-11T01:35:08+00:00", "2021-08-11T01:38:32+00:00", "2021-08-11T01:42:41+00:00", "2021-08-11T01:45:01+00:00", "2021-08-11T01:47:45+00:00", "2021-08-11T01:49:57+00:00", "2021-08-11T01:53:34+00:00", "2021-08-11T01:56:30+00:00", "2021-08-11T02:00:01+00:00", "2021-08-11T02:02:13+00:00", "2021-08-11T02:08:42+00:00", "2021-08-11T02:11:34+00:00", "2021-08-11T02:14:14+00:00", "2021-08-11T02:17:31+00:00", "2021-08-11T02:19:03+00:00", "2021-08-11T02:21:31+00:00", "2021-08-11T11:48:26+00:00", "2021-08-11T16:42:49+00:00", "2021-08-11T16:46:49+00:00", "2021-08-11T16:53:46+00:00", "2021-08-11T17:00:11+00:00", "2021-08-11T17:08:36+00:00", "2021-08-11T17:14:56+00:00", "2021-08-11T17:20:13+00:00", "2021-08-11T17:26:19+00:00", "2021-08-11T17:32:04+00:00", "2021-08-11T17:37:05+00:00", "2021-08-11T17:47:22+00:00", "2021-08-11T17:59:15+00:00", "2021-08-11T18:06:04+00:00", "2021-08-11T18:16:18+00:00", "2021-08-11T18:19:19+00:00", "2021-08-11T18:27:28+00:00", "2021-08-11T18:35:25+00:00", "2021-08-11T18:38:49+00:00", "2021-08-11T18:46:59+00:00", "2021-08-11T18:53:44+00:00", "2021-08-11T18:57:13+00:00", "2021-08-11T19:01:46+00:00", "2021-08-11T19:10:56+00:00", "2021-08-11T19:16:25+00:00", "2021-08-11T19:22:14+00:00", "2021-08-11T19:29:51+00:00", "2021-08-11T19:38:44+00:00", "2021-08-11T19:45:14+00:00", "2021-08-11T19:52:23+00:00", "2021-08-11T19:59:21+00:00", "2021-08-11T20:05:02+00:00", "2021-08-11T20:06:07+00:00", "2021-08-11T20:16:00+00:00", "2021-08-11T20:24:31+00:00", "2021-08-11T20:27:03+00:00", "2021-08-11T20:30:28+00:00", "2021-08-11T20:35:41+00:00", "2021-08-11T20:39:21+00:00", "2021-08-11T20:41:37+00:00", "2021-08-11T20:44:46+00:00", "2021-08-11T20:46:06+00:00", "2021-08-11T20:48:26+00:00", "2021-08-11T20:53:15+00:00", "2021-08-11T20:57:20+00:00", "2021-08-11T20:59:41+00:00", "2021-08-11T21:04:41+00:00", "2021-08-11T21:08:02+00:00", "2021-08-11T21:10:30+00:00", "2021-08-11T21:15:19+00:00", "2021-08-11T21:20:52+00:00", "2021-08-11T21:26:17+00:00", "2021-08-11T21:31:10+00:00", "2021-08-11T21:36:26+00:00", "2021-08-11T21:42:35+00:00", "2021-08-11T21:47:20+00:00", "2021-08-11T21:49:00+00:00", "2021-08-11T21:54:53+00:00", "2021-08-11T21:56:33+00:00", "2021-08-11T22:00:10+00:00", "2021-08-11T22:04:27+00:00", "2021-08-11T22:08:08+00:00", "2021-08-11T22:12:41+00:00", "2021-08-11T22:14:58+00:00", "2021-08-11T22:20:44+00:00", "2021-08-11T22:22:16+00:00", "2021-08-11T22:28:09+00:00", "2021-08-11T22:31:34+00:00", "2021-08-11T22:33:18+00:00", "2021-08-11T22:36:19+00:00", "2021-08-11T22:38:48+00:00", "2021-08-11T22:42:17+00:00", "2021-08-11T22:49:03+00:00", "2021-08-11T22:56:05+00:00", "2021-08-11T22:58:42+00:00", "2021-08-11T23:05:04+00:00", "2021-08-11T23:08:09+00:00", "2021-08-11T23:10:46+00:00", "2021-08-11T23:14:43+00:00", "2021-08-11T23:16:19+00:00", "2021-08-11T23:18:36+00:00", "2021-08-11T23:23:37+00:00", "2021-08-11T23:35:37+00:00", "2021-08-11T23:41:34+00:00", "2021-08-11T23:50:21+00:00", "2021-08-11T23:53:29+00:00", "2021-08-12T00:00:07+00:00", "2021-08-12T00:04:00+00:00", "2021-08-12T00:10:53+00:00", "2021-08-12T00:13:38+00:00", "2021-08-12T00:20:03+00:00", "2021-08-12T00:23:24+00:00", "2021-08-12T00:29:42+00:00", "2021-08-12T00:34:03+00:00", "2021-08-12T00:37:48+00:00", "2021-08-12T00:42:21+00:00", "2021-08-12T00:52:16+00:00", "2021-08-12T00:56:50+00:00", "2021-08-12T01:01:51+00:00", "2021-08-12T01:05:28+00:00", "2021-08-12T01:11:54+00:00", "2021-08-12T01:16:39+00:00", "2021-08-12T01:20:39+00:00", "2021-08-12T01:24:52+00:00", "2021-08-12T01:27:04+00:00", "2021-08-12T01:29:28+00:00", "2021-08-12T01:31:33+00:00", "2021-08-12T01:38:14+00:00", "2021-08-12T01:41:16+00:00", "2021-08-12T01:47:14+00:00", "2021-08-12T01:52:47+00:00", "2021-08-12T01:58:24+00:00", "2021-08-12T02:00:00+00:00", "2021-08-12T02:04:53+00:00", "2021-08-12T02:14:31+00:00", "2021-08-12T02:17:23+00:00", "2021-08-12T02:21:48+00:00", "2021-08-12T02:24:21+00:00", "2021-08-12T02:28:30+00:00", "2021-08-12T02:32:31+00:00", "2021-08-12T02:34:47+00:00", "2021-08-12T02:37:00+00:00", "2021-08-12T02:40:17+00:00", "2021-08-12T02:46:14+00:00", "2021-08-12T03:07:40+00:00", "2021-08-24T02:00:00+00:00", "2021-08-25T01:32:56+00:00", "2021-08-25T01:34:56+00:00", "2021-08-25T01:39:17+00:00", "2021-08-25T01:41:13+00:00", "2021-08-25T01:43:41+00:00", "2021-08-25T01:47:46+00:00", "2021-08-25T01:50:58+00:00", "2021-08-25T03:49:19+00:00", "2021-08-25T04:01:24+00:00", "2021-08-25T04:02:32+00:00", "2021-08-25T04:08:00+00:00", "2021-08-25T04:09:48+00:00", "2021-08-25T04:10:57+00:00", "2021-08-25T04:14:53+00:00", "2021-08-25T12:40:03+00:00", "2021-09-09T20:44:40+00:00", "2021-09-09T20:46:48+00:00", "2021-09-09T20:49:08+00:00", "2021-09-09T20:51:24+00:00", "2021-09-09T20:53:40+00:00", "2021-09-09T20:56:33+00:00", "2021-09-17T04:14:35+00:00", "2021-09-17T04:16:55+00:00", "2021-09-17T08:05:05+00:00"], "elevations": [null, null, null, null, null, null, null, null, null, null, null, null, null, null, null, null, null, null, null, null, null, null, null, null, null, null, null, null, null, null, null, null, null, null, null, null, null, null, null, null, null, null, null, null, null, null, null, null, null, null, null, null, null, null, null, null, null, null, null, null, null, null, null, null, null, null, null, null, null, null, null, null, null, null, null, null, null, null, null, null, null, null, null, null, null, null, null, null, null, null, null, null, null, null, null, null, null, null, null, null, null, null, null, null, null, null, null, null, null, null, null, null, null, null, null, null, null, null, null, null, null, null, null, null, null, null, null, null, null, null, null, null, null, null, null, null, null, null, null, null, null, null, null, null, null, null, null, null, null, null, null, null, null, null, null, null, null, null, null, null, null, null, null, null, null, null, null, null, null, null, null, null, null, null, null, null, null, null, null, null, null, null, null, null, null, null, null, null, null, null, null, null, null, null, null, null, null, null, null, null, null, null, null, null, null, null, null, null, null]}