{"type": "Feature", "properties": {"leg_id": 53, "name": "20230605 - Keppel Island to Port Clinton", "stated_nm": 38.3, "computed_nm": 38.3}, "geometry": {"type": "LineString", "coordinates": [[150.884689, -23.063898], [150.881881, -23.063486], [150.88034, -23.062075], [150.87885, -23.060057], [150.87766, -23.058412], [150.876636, -23.056041], [150.875641, -23.053748], [150.874793, -23.051506], [150.87414, -23.049201], [150.87313, -23.046727], [150.872299, -23.044328], [150.872074, -23.042081], [150.871866, -23.038871], [150.871571, -23.036228], [150.871128, -23.033893], [150.870212, -23.031764], [150.86965, -23.029876], [150.869623, -23.027408], [150.868883, -23.025558], [150.867151, -23.024648], [150.865093, -23.023947], [150.864612, -23.022397], [150.86494, -23.020337], [150.865565, -23.017933], [150.866108, -23.016129], [150.865927, -23.013881], [150.86582, -23.011339], [150.865768, -23.009315], [150.86598, -23.007472], [150.866291, -23.005749], [150.86657, -23.003846], [150.866856, -23.002041], [150.867226, -22.999749], [150.867443, -22.997131], [150.867564, -22.994443], [150.867666, -22.992438], [150.867896, -22.99059], [150.86808, -22.988678], [150.868056, -22.986995], [150.86804, -22.985148], [150.868187, -22.983493], [150.867997, -22.980766], [150.867568, -22.978715], [150.867577, -22.976987], [150.867555, -22.974457], [150.867851, -22.97206], [150.867857, -22.970186], [150.868015, -22.968394], [150.867872, -22.966352], [150.867926, -22.964477], [150.868199, -22.96246], [150.868438, -22.960595], [150.868796, -22.958815], [150.869247, -22.956372], [150.869413, -22.954506], [150.869756, -22.952651], [150.870057, -22.950062], [150.870177, -22.948115], [150.870302, -22.94612], [150.87059, -22.944396], [150.870801, -22.942572], [150.871193, -22.940151], [150.871445, -22.937463], [150.871642, -22.935712], [150.871643, -22.93378], [150.871665, -22.931591], [150.871537, -22.92972], [150.871549, -22.927658], [150.871649, -22.925616], [150.871648, -22.923704], [150.871632, -22.921677], [150.871842, -22.918989], [150.871945, -22.917132], [150.872213, -22.914971], [150.872354, -22.913375], [150.872601, -22.911393], [150.872722, -22.908928], [150.872696, -22.906624], [150.872909, -22.903821], [150.873058, -22.902253], [150.873038, -22.900284], [150.873025, -22.898341], [150.872953, -22.895605], [150.872727, -22.893817], [150.872628, -22.890734], [150.872439, -22.888316], [150.872118, -22.886555], [150.871621, -22.883994], [150.871384, -22.882274], [150.871118, -22.880433], [150.871125, -22.878462], [150.871033, -22.876014], [150.871102, -22.873919], [150.871163, -22.872446], [150.870961, -22.869425], [150.870881, -22.867195], [150.870882, -22.863766], [150.870956, -22.861806], [150.870822, -22.860011], [150.870674, -22.857872], [150.87043, -22.856045], [150.870256, -22.854041], [150.870058, -22.852369], [150.86994, -22.850638], [150.869652, -22.848333], [150.869165, -22.8461], [150.868975, -22.844509], [150.868775, -22.842854], [150.868319, -22.840546], [150.867845, -22.838548], [150.867551, -22.836764], [150.867587, -22.833412], [150.868118, -22.829327], [150.868693, -22.825749], [150.869107, -22.823099], [150.869375, -22.820533], [150.869819, -22.81789], [150.870442, -22.814162], [150.870837, -22.812083], [150.871339, -22.809109], [150.871938, -22.805875], [150.872324, -22.803546], [150.872926, -22.80134], [150.873553, -22.798666], [150.874412, -22.795867], [150.875229, -22.79337], [150.875737, -22.791325], [150.876037, -22.789459], [150.876127, -22.787012], [150.875899, -22.784609], [150.875559, -22.78285], [150.875157, -22.781041], [150.874778, -22.77894], [150.874263, -22.777001], [150.874026, -22.775237], [150.873771, -22.773041], [150.873611, -22.770694], [150.873279, -22.767444], [150.87319, -22.765721], [150.872997, -22.763936], [150.872889, -22.761381], [150.872904, -22.759593], [150.8728, -22.757648], [150.872528, -22.754518], [150.872026, -22.75195], [150.871648, -22.749593], [150.871365, -22.74739], [150.871023, -22.744423], [150.870274, -22.741145], [150.869908, -22.738881], [150.869428, -22.736204], [150.868975, -22.733823], [150.868672, -22.731533], [150.868303, -22.727904], [150.868132, -22.72521], [150.867952, -22.722605], [150.867905, -22.720562], [150.867846, -22.717998], [150.868153, -22.715616], [150.868511, -22.713209], [150.868743, -22.711084], [150.868644, -22.709176], [150.86834, -22.706682], [150.867943, -22.704043], [150.867753, -22.702117], [150.86751, -22.698484], [150.867468, -22.696131], [150.867375, -22.693929], [150.867319, -22.691586], [150.867433, -22.68966], [150.867375, -22.687492], [150.867428, -22.68512], [150.867252, -22.683092], [150.866691, -22.680278], [150.866084, -22.677962], [150.86551, -22.675732], [150.864806, -22.67317], [150.864335, -22.671414], [150.863934, -22.669221], [150.863456, -22.666548], [150.863101, -22.664245], [150.862478, -22.661941], [150.861858, -22.659246], [150.861381, -22.657772], [150.860949, -22.655006], [150.860512, -22.653136], [150.860275, -22.651176], [150.860084, -22.649394], [150.859739, -22.647289], [150.859657, -22.644919], [150.859458, -22.643018], [150.859325, -22.641132], [150.859182, -22.639234], [150.85899, -22.637483], [150.858561, -22.635672], [150.857904, -22.63401], [150.857117, -22.632166], [150.855983, -22.630347], [150.854873, -22.628768], [150.853384, -22.626977], [150.852059, -22.625234], [150.850789, -22.623712], [150.849574, -22.622432], [150.847737, -22.620479], [150.846516, -22.619277], [150.845057, -22.617956], [150.843878, -22.616817], [150.841069, -22.614002], [150.839668, -22.612468], [150.838581, -22.61099], [150.837517, -22.608997], [150.8368, -22.60719], [150.83625, -22.605703], [150.835248, -22.603343], [150.834376, -22.60148], [150.833724, -22.599791], [150.832789, -22.597571], [150.831872, -22.595761], [150.831096, -22.594118], [150.830106, -22.591971], [150.829221, -22.589582], [150.82828, -22.586889], [150.827722, -22.585325], [150.826793, -22.583271], [150.825921, -22.581476], [150.824997, -22.579541], [150.824474, -22.577819], [150.824064, -22.576148], [150.823758, -22.574246], [150.823198, -22.572003], [150.822308, -22.569857], [150.821272, -22.567634], [150.820262, -22.564991], [150.819203, -22.563042], [150.817775, -22.560905], [150.816106, -22.559103], [150.814734, -22.55735], [150.813012, -22.554968], [150.811465, -22.553208], [150.810169, -22.551645], [150.809102, -22.550237], [150.807242, -22.548079], [150.805539, -22.545869], [150.804069, -22.544284], [150.802998, -22.542761], [150.801307, -22.540852], [150.800179, -22.539128], [150.798883, -22.537283], [150.797721, -22.5356], [150.796484, -22.53419], [150.7952, -22.532615], [150.794046, -22.530987], [150.792338, -22.528919], [150.791119, -22.527495], [150.789275, -22.525832], [150.7873, -22.524124], [150.78527, -22.522648], [150.783006, -22.520788], [150.781835, -22.519799], [150.780719, -22.518713], [150.778766, -22.517288], [150.776606, -22.515816], [150.774771, -22.515044], [150.772795, -22.514637], [150.769623, -22.514077], [150.766512, -22.513658], [150.763923, -22.513938], [150.761835, -22.514307], [150.759426, -22.515424], [150.756208, -22.516745], [150.755995, -22.516122], [150.75373, -22.519064], [150.751437, -22.522445], [150.750259, -22.52438], [150.750098, -22.526557], [150.749451, -22.529586], [150.750707, -22.531649], [150.751534, -22.533847], [150.751784, -22.536555], [150.75261, -22.53854], [150.754476, -22.540132], [150.756648, -22.542728], [150.757557, -22.545348], [150.758406, -22.546125]]}, "times": ["2023-06-05T10:09:05+00:00", "2023-06-06T00:09:18+00:00", "2023-06-06T00:10:25+00:00", "2023-06-06T00:11:25+00:00", "2023-06-06T00:12:58+00:00", "2023-06-06T00:14:19+00:00", "2023-06-06T00:15:27+00:00", "2023-06-06T00:17:19+00:00", "2023-06-06T00:18:22+00:00", "2023-06-06T00:19:44+00:00", "2023-06-06T00:21:08+00:00", "2023-06-06T00:22:16+00:00", "2023-06-06T00:23:45+00:00", "2023-06-06T00:25:29+00:00", "2023-06-06T00:26:57+00:00", "2023-06-06T00:28:06+00:00", "2023-06-06T00:29:14+00:00", "2023-06-06T00:30:29+00:00", "2023-06-06T00:32:22+00:00", "2023-06-06T00:35:27+00:00", "2023-06-06T00:39:36+00:00", "2023-06-06T00:40:37+00:00", "2023-06-06T00:41:45+00:00", "2023-06-06T00:43:21+00:00", "2023-06-06T00:44:21+00:00", "2023-06-06T00:45:30+00:00", "2023-06-06T00:46:42+00:00", "2023-06-06T00:47:50+00:00", "2023-06-06T00:49:07+00:00", "2023-06-06T00:50:07+00:00", "2023-06-06T00:51:15+00:00", "2023-06-06T00:52:19+00:00", "2023-06-06T00:53:30+00:00", "2023-06-06T00:54:48+00:00", "2023-06-06T00:56:36+00:00", "2023-06-06T00:57:29+00:00", "2023-06-06T00:58:29+00:00", "2023-06-06T00:59:37+00:00", "2023-06-06T01:00:25+00:00", "2023-06-06T01:01:25+00:00", "2023-06-06T01:02:22+00:00", "2023-06-06T01:04:10+00:00", "2023-06-06T01:05:06+00:00", "2023-06-06T01:06:07+00:00", "2023-06-06T01:07:23+00:00", "2023-06-06T01:08:51+00:00", "2023-06-06T01:09:52+00:00", "2023-06-06T01:10:52+00:00", "2023-06-06T01:12:00+00:00", "2023-06-06T01:13:01+00:00", "2023-06-06T01:13:53+00:00", "2023-06-06T01:14:57+00:00", "2023-06-06T01:15:57+00:00", "2023-06-06T01:17:25+00:00", "2023-06-06T01:18:18+00:00", "2023-06-06T01:19:25+00:00", "2023-06-06T01:20:35+00:00", "2023-06-06T01:21:47+00:00", "2023-06-06T01:22:51+00:00", "2023-06-06T01:23:47+00:00", "2023-06-06T01:24:51+00:00", "2023-06-06T01:26:15+00:00", "2023-06-06T01:27:36+00:00", "2023-06-06T01:28:26+00:00", "2023-06-06T01:29:33+00:00", "2023-06-06T01:30:57+00:00", "2023-06-06T01:31:49+00:00", "2023-06-06T01:32:53+00:00", "2023-06-06T01:34:26+00:00", "2023-06-06T01:35:02+00:00", "2023-06-06T01:36:15+00:00", "2023-06-06T01:37:26+00:00", "2023-06-06T01:38:26+00:00", "2023-06-06T01:39:51+00:00", "2023-06-06T01:40:27+00:00", "2023-06-06T01:41:28+00:00", "2023-06-06T01:43:24+00:00", "2023-06-06T01:44:26+00:00", "2023-06-06T01:45:53+00:00", "2023-06-06T01:46:37+00:00", "2023-06-06T01:47:33+00:00", "2023-06-06T01:48:53+00:00", "2023-06-06T01:50:26+00:00", "2023-06-06T01:51:26+00:00", "2023-06-06T01:53:11+00:00", "2023-06-06T01:54:26+00:00", "2023-06-06T01:55:26+00:00", "2023-06-06T01:57:08+00:00", "2023-06-06T01:58:00+00:00", "2023-06-06T01:59:26+00:00", "2023-06-06T02:00:26+00:00", "2023-06-06T02:01:26+00:00", "2023-06-06T02:03:01+00:00", "2023-06-06T02:03:46+00:00", "2023-06-06T02:05:27+00:00", "2023-06-06T02:07:28+00:00", "2023-06-06T02:08:47+00:00", "2023-06-06T02:09:55+00:00", "2023-06-06T02:10:52+00:00", "2023-06-06T02:12:28+00:00", "2023-06-06T02:13:28+00:00", "2023-06-06T02:14:28+00:00", "2023-06-06T02:15:28+00:00", "2023-06-06T02:16:25+00:00", "2023-06-06T02:18:26+00:00", "2023-06-06T02:19:28+00:00", "2023-06-06T02:20:14+00:00", "2023-06-06T02:21:18+00:00", "2023-06-06T02:22:51+00:00", "2023-06-06T02:23:39+00:00", "2023-06-06T02:24:55+00:00", "2023-06-06T02:26:27+00:00", "2023-06-06T02:29:35+00:00", "2023-06-06T02:31:27+00:00", "2023-06-06T02:33:28+00:00", "2023-06-06T02:34:35+00:00", "2023-06-06T02:36:30+00:00", "2023-06-06T02:39:11+00:00", "2023-06-06T02:40:15+00:00", "2023-06-06T02:42:12+00:00", "2023-06-06T02:44:12+00:00", "2023-06-06T02:46:09+00:00", "2023-06-06T02:47:09+00:00", "2023-06-06T02:49:21+00:00", "2023-06-06T02:51:14+00:00", "2023-06-06T02:52:58+00:00", "2023-06-06T02:54:31+00:00", "2023-06-06T02:55:43+00:00", "2023-06-06T02:57:31+00:00", "2023-06-06T02:59:00+00:00", "2023-06-06T03:00:12+00:00", "2023-06-06T03:01:31+00:00", "2023-06-06T03:02:37+00:00", "2023-06-06T03:03:37+00:00", "2023-06-06T03:04:53+00:00", "2023-06-06T03:05:58+00:00", "2023-06-06T03:07:22+00:00", "2023-06-06T03:08:42+00:00", "2023-06-06T03:09:38+00:00", "2023-06-06T03:10:31+00:00", "2023-06-06T03:12:11+00:00", "2023-06-06T03:13:07+00:00", "2023-06-06T03:14:07+00:00", "2023-06-06T03:15:31+00:00", "2023-06-06T03:17:20+00:00", "2023-06-06T03:18:31+00:00", "2023-06-06T03:19:35+00:00", "2023-06-06T03:21:30+00:00", "2023-06-06T03:22:53+00:00", "2023-06-06T03:24:30+00:00", "2023-06-06T03:25:30+00:00", "2023-06-06T03:27:01+00:00", "2023-06-06T03:28:31+00:00", "2023-06-06T03:30:31+00:00", "2023-06-06T03:31:31+00:00", "2023-06-06T03:32:31+00:00", "2023-06-06T03:33:50+00:00", "2023-06-06T03:35:14+00:00", "2023-06-06T03:36:30+00:00", "2023-06-06T03:37:23+00:00", "2023-06-06T03:38:55+00:00", "2023-06-06T03:39:59+00:00", "2023-06-06T03:41:31+00:00", "2023-06-06T03:42:31+00:00", "2023-06-06T03:43:31+00:00", "2023-06-06T03:45:32+00:00", "2023-06-06T03:46:30+00:00", "2023-06-06T03:48:03+00:00", "2023-06-06T03:49:31+00:00", "2023-06-06T03:50:31+00:00", "2023-06-06T03:51:35+00:00", "2023-06-06T03:52:52+00:00", "2023-06-06T03:53:56+00:00", "2023-06-06T03:55:32+00:00", "2023-06-06T03:57:16+00:00", "2023-06-06T03:58:32+00:00", "2023-06-06T03:59:32+00:00", "2023-06-06T04:00:41+00:00", "2023-06-06T04:01:49+00:00", "2023-06-06T04:03:32+00:00", "2023-06-06T04:04:37+00:00", "2023-06-06T04:06:10+00:00", "2023-06-06T04:07:22+00:00", "2023-06-06T04:08:14+00:00", "2023-06-06T04:09:50+00:00", "2023-06-06T04:11:07+00:00", "2023-06-06T04:12:03+00:00", "2023-06-06T04:12:47+00:00", "2023-06-06T04:14:19+00:00", "2023-06-06T04:15:43+00:00", "2023-06-06T04:16:35+00:00", "2023-06-06T04:17:39+00:00", "2023-06-06T04:18:52+00:00", "2023-06-06T04:19:40+00:00", "2023-06-06T04:21:04+00:00", "2023-06-06T04:22:21+00:00", "2023-06-06T04:23:13+00:00", "2023-06-06T04:24:25+00:00", "2023-06-06T04:25:41+00:00", "2023-06-06T04:27:10+00:00", "2023-06-06T04:28:14+00:00", "2023-06-06T04:29:14+00:00", "2023-06-06T04:30:10+00:00", "2023-06-06T04:31:38+00:00", "2023-06-06T04:32:33+00:00", "2023-06-06T04:33:51+00:00", "2023-06-06T04:34:39+00:00", "2023-06-06T04:36:51+00:00", "2023-06-06T04:38:15+00:00", "2023-06-06T04:39:33+00:00", "2023-06-06T04:41:23+00:00", "2023-06-06T04:42:19+00:00", "2023-06-06T04:42:59+00:00", "2023-06-06T04:44:51+00:00", "2023-06-06T04:46:00+00:00", "2023-06-06T04:47:00+00:00", "2023-06-06T04:48:34+00:00", "2023-06-06T04:49:44+00:00", "2023-06-06T04:51:00+00:00", "2023-06-06T04:52:01+00:00", "2023-06-06T04:54:01+00:00", "2023-06-06T04:55:21+00:00", "2023-06-06T04:56:09+00:00", "2023-06-06T04:57:45+00:00", "2023-06-06T04:58:34+00:00", "2023-06-06T04:59:49+00:00", "2023-06-06T05:01:01+00:00", "2023-06-06T05:02:05+00:00", "2023-06-06T05:03:34+00:00", "2023-06-06T05:04:41+00:00", "2023-06-06T05:06:01+00:00", "2023-06-06T05:07:34+00:00", "2023-06-06T05:08:41+00:00", "2023-06-06T05:10:02+00:00", "2023-06-06T05:11:34+00:00", "2023-06-06T05:13:07+00:00", "2023-06-06T05:14:03+00:00", "2023-06-06T05:15:47+00:00", "2023-06-06T05:17:23+00:00", "2023-06-06T05:18:19+00:00", "2023-06-06T05:18:51+00:00", "2023-06-06T05:20:39+00:00", "2023-06-06T05:22:11+00:00", "2023-06-06T05:23:33+00:00", "2023-06-06T05:24:41+00:00", "2023-06-06T05:26:24+00:00", "2023-06-06T05:27:12+00:00", "2023-06-06T05:28:32+00:00", "2023-06-06T05:29:56+00:00", "2023-06-06T05:30:48+00:00", "2023-06-06T05:32:04+00:00", "2023-06-06T05:33:35+00:00", "2023-06-06T05:35:12+00:00", "2023-06-06T05:36:30+00:00", "2023-06-06T05:37:45+00:00", "2023-06-06T05:39:37+00:00", "2023-06-06T05:41:13+00:00", "2023-06-06T05:42:37+00:00", "2023-06-06T05:43:41+00:00", "2023-06-06T05:44:37+00:00", "2023-06-06T05:46:16+00:00", "2023-06-06T05:47:29+00:00", "2023-06-06T05:48:37+00:00", "2023-06-06T05:49:39+00:00", "2023-06-06T05:51:39+00:00", "2023-06-06T05:53:40+00:00", "2023-06-06T05:55:40+00:00", "2023-06-06T05:56:51+00:00", "2023-06-06T05:58:40+00:00", "2023-06-06T06:00:56+00:00", "2023-06-06T06:05:13+00:00", "2023-06-06T06:09:48+00:00", "2023-06-06T06:12:31+00:00", "2023-06-06T06:14:11+00:00", "2023-06-06T06:15:41+00:00", "2023-06-06T06:18:16+00:00", "2023-06-06T06:20:43+00:00", "2023-06-06T06:22:37+00:00", "2023-06-06T06:24:34+00:00", "2023-06-06T06:26:06+00:00", "2023-06-06T06:27:40+00:00", "2023-06-06T06:30:31+00:00", "2023-06-06T06:32:40+00:00", "2023-06-06T06:35:45+00:00"], "elevations": [16.3, 3.0, 5.0, 11.0, 2.0, 6.0, 6.2, 6.0, 6.0, 6.0, 6.0, 6.0, 6.0, 6.0, 4.7, 5.0, 5.0, 18.0, 15.5, 15.8, 3.0, 0.0, 0.0, 4.0, 2.0, 2.0, null, 2.0, 3.0, 5.0, 5.0, 5.0, 4.0, 3.0, null, 3.0, 3.0, 3.0, null, 4.0, 1.0, 4.5, 4.0, -1.7, null, 6.0, 4.0, 5.0, 6.0, 5.5, 6.0, 6.0, null, 6.0, 6.0, 7.0, 7.0, 7.0, 6.0, 6.0, 7.0, 6.4, 7.0, 5.0, 6.0, 4.0, 7.5, 5.0, 1.0, 0.0, 2.3, 2.0, 4.0, 3.0, 3.0, 3.0, 2.5, 2.0, 8.0, 10.5, 12.0, 4.0, 3.0, 2.0, 3.0, 2.0, 3.0, 2.3, 2.5, 4.0, 3.0, 3.0, null, 1.0, 1.0, 1.0, 2.0, 3.0, 2.0, 2.0, 2.0, 2.0, 3.0, 2.3, 0.5, -2.0, 0.0, null, 0.0, 9.0, 1.0, 2.0, 3.5, 3.0, -0.5, -3.0, 0.8, -3.0, -2.0, -1.0, 0.0, 0.0, 0.0, 16.5, 6.0, 3.5, 3.0, 3.0, 2.2, 0.0, 23.5, 42.0, 42.0, null, null, 37.0, 13.4, 41.0, 2.0, 11.0, 23.0, null, 16.0, 17.0, 10.7, 10.0, 10.0, 10.0, 5.0, 10.0, 10.0, 8.4, 9.5, 10.0, 21.0, 17.0, 10.0, 8.5, 8.4, null, 4.0, 4.0, 7.0, 8.0, 6.0, 7.0, 6.4, 3.0, 3.0, -4.0, 1.0, 6.0, 4.0, 4.0, 4.4, 5.0, 4.0, 0.0, 2.0, 2.0, 3.0, 3.7, 3.0, 4.0, 3.0, 4.0, 4.0, 5.0, 4.0, 0.0, 0.3, 0.0, 0.0, 0.0, 2.0, -4.0, null, -1.0, -1.0, -1.7, 0.0, 1.0, 0.0, 0.0, 1.0, 0.0, 0.0, -0.8, null, 0.0, 0.0, null, -0.5, null, 10.0, -4.4, -1.0, null, -0.5, -1.0, 0.0, 0.0, -0.8, 0.0, 0.0, 0.0, null, 0.0, 1.0, 4.0, null, -4.4, -3.0, -3.0, -3.0, -3.0, -2.0, null, 0.2, null, 1.0, -3.0, 0.0, -6.0, 0.0, -0.8, 0.0, null, -1.0, -1.0, null, -2.5, 0.5, -7.8, 3.0, -1.0, -2.0, 0.0, 1.0, 1.0, 0.2, 0.0, 0.0, 0.0, 0.0, 1.0, 1.0, 1.7, -4.5, -4.0, 0.9, -3.5, -5.5, -2.0, 1.2, 1.0, 0.0, -1.0, 0.0, 0.2, 0.0, 0.0, 0.0, 10.9]}