{"type": "Feature", "properties": {"leg_id": 7, "name": "20191210 - La Paz to Los Islotes", "stated_nm": 78.6, "computed_nm": 78.6}, "geometry": {"type": "LineString", "coordinates": [[-110.398011, 24.560926], [-110.413618, 24.554347], [-110.413863, 24.553198], [-110.412984, 24.538219], [-110.412811, 24.536548], [-110.409929, 24.521772], [-110.409271, 24.519843], [-110.404876, 24.506065], [-110.403671, 24.503985], [-110.397055, 24.491907], [-110.39586, 24.489416], [-110.395717, 24.48206], [-110.392108, 24.471497], [-110.391096, 24.468645], [-110.387845, 24.458985], [-110.38687, 24.45607], [-110.38392, 24.447563], [-110.383243, 24.445235], [-110.379508, 24.436001], [-110.377161, 24.430513], [-110.373286, 24.424388], [-110.369037, 24.41705], [-110.366591, 24.41263], [-110.361023, 24.405602], [-110.359211, 24.401106], [-110.353044, 24.395099], [-110.350326, 24.390238], [-110.346845, 24.383022], [-110.344705, 24.377525], [-110.341223, 24.370472], [-110.338461, 24.36509], [-110.334892, 24.356795], [-110.334041, 24.352001], [-110.336047, 24.346679], [-110.340221, 24.342731], [-110.341723, 24.337099], [-110.343805, 24.330693], [-110.344507, 24.322713], [-110.344018, 24.314075], [-110.344074, 24.309847], [-110.343075, 24.301285], [-110.344204, 24.294037], [-110.34653, 24.285213], [-110.348253, 24.278493], [-110.348761, 24.26911], [-110.348004, 24.262696], [-110.3461, 24.253113], [-110.34508, 24.246981], [-110.33962, 24.238265], [-110.336353, 24.233389], [-110.329298, 24.225561], [-110.324451, 24.222965], [-110.315115, 24.217933], [-110.310437, 24.215983], [-110.304128, 24.211056], [-110.303966, 24.207501], [-110.303593, 24.199233], [-110.303577, 24.196304], [-110.305158, 24.18845], [-110.305543, 24.185822], [-110.310416, 24.178418], [-110.312286, 24.176383], [-110.317433, 24.168441], [-110.318791, 24.166439], [-110.32636, 24.159236], [-110.324531, 24.159138], [-110.323314, 24.15933], [-110.323337, 24.159539], [-110.31754, 24.168236], [-110.317497, 24.168549], [-110.311253, 24.176723], [-110.30566, 24.186539], [-110.303658, 24.197514], [-110.303593, 24.197945], [-110.303552, 24.210638], [-110.303635, 24.211441], [-110.314646, 24.217742], [-110.315436, 24.218566], [-110.322482, 24.229151], [-110.323333, 24.230368], [-110.330933, 24.240256], [-110.332023, 24.241761], [-110.338899, 24.252274], [-110.340178, 24.253981], [-110.34233, 24.265321], [-110.342645, 24.267736], [-110.344509, 24.279088], [-110.34492, 24.281835], [-110.345008, 24.292949], [-110.342903, 24.295525], [-110.331794, 24.29946], [-110.333185, 24.29994], [-110.340091, 24.303066], [-110.341311, 24.307672], [-110.343268, 24.315243], [-110.340992, 24.318978], [-110.332216, 24.320845], [-110.331846, 24.324368], [-110.33395, 24.326308], [-110.335821, 24.334158], [-110.340518, 24.337597], [-110.345461, 24.338715], [-110.346217, 24.336936], [-110.343331, 24.32769], [-110.343225, 24.326468], [-110.34271, 24.31415], [-110.342586, 24.313051], [-110.340628, 24.301533], [-110.33609, 24.299858], [-110.332031, 24.298545], [-110.3321, 24.298567], [-110.344105, 24.293646], [-110.347687, 24.287718], [-110.349095, 24.280789], [-110.355417, 24.273983], [-110.355691, 24.273476], [-110.351628, 24.263733], [-110.350691, 24.262533], [-110.342435, 24.252249], [-110.341251, 24.250816], [-110.333916, 24.240359], [-110.332538, 24.238618], [-110.324997, 24.228486], [-110.323483, 24.22643], [-110.315912, 24.217536], [-110.31342, 24.216356], [-110.304773, 24.213749], [-110.304215, 24.211281], [-110.304107, 24.202763], [-110.304021, 24.20021], [-110.304302, 24.19298], [-110.305593, 24.187588], [-110.308291, 24.182195], [-110.312868, 24.176151], [-110.314708, 24.173355], [-110.318924, 24.168038], [-110.320908, 24.165126], [-110.323433, 24.159774], [-110.323166, 24.160271], [-110.312261, 24.175115], [-110.309073, 24.178977], [-110.30443, 24.19167], [-110.303522, 24.196302], [-110.303078, 24.20979], [-110.303659, 24.213284], [-110.313871, 24.217558], [-110.31647, 24.219155], [-110.32211, 24.22833], [-110.323375, 24.230405], [-110.32917, 24.239295], [-110.330327, 24.24105], [-110.336551, 24.250453], [-110.33752, 24.251927], [-110.34374, 24.261568], [-110.34453, 24.26281], [-110.34743, 24.274356], [-110.347703, 24.275468], [-110.346743, 24.287488], [-110.346532, 24.288319], [-110.338805, 24.29812], [-110.336768, 24.2999], [-110.336961, 24.299884], [-110.340606, 24.308485], [-110.341, 24.310483], [-110.339539, 24.319774], [-110.334997, 24.32293], [-110.336754, 24.326008], [-110.350565, 24.331771], [-110.350281, 24.327686], [-110.350269, 24.314349], [-110.361319, 24.312693], [-110.363408, 24.309585], [-110.362901, 24.305598], [-110.358001, 24.295821], [-110.357151, 24.293658], [-110.352848, 24.28415], [-110.351765, 24.281791], [-110.347684, 24.271666], [-110.3461, 24.26911], [-110.342857, 24.260459], [-110.341745, 24.257393], [-110.336619, 24.248644], [-110.334556, 24.245591], [-110.329879, 24.23737], [-110.328205, 24.234305], [-110.323118, 24.227221], [-110.320523, 24.224316], [-110.314774, 24.218899], [-110.309053, 24.216707], [-110.304371, 24.212014], [-110.303454, 24.205779], [-110.304043, 24.20258], [-110.303836, 24.196307], [-110.304601, 24.192066], [-110.306165, 24.186142], [-110.308743, 24.181466], [-110.312581, 24.175931], [-110.315845, 24.171145], [-110.319566, 24.165496], [-110.324085, 24.160716], [-110.326054, 24.1575]]}, "times": ["2019-12-10T07:03:21+00:00", "2019-12-10T14:36:22+00:00", "2019-12-10T14:37:00+00:00", "2019-12-10T14:46:09+00:00", "2019-12-10T14:47:00+00:00", "2019-12-10T14:55:56+00:00", "2019-12-10T14:57:00+00:00", "2019-12-10T15:05:43+00:00", "2019-12-10T15:07:00+00:00", "2019-12-10T15:15:30+00:00", "2019-12-10T15:17:00+00:00", "2019-12-10T15:27:00+00:00", "2019-12-10T15:35:04+00:00", "2019-12-10T15:37:00+00:00", "2019-12-10T15:44:51+00:00", "2019-12-10T15:47:00+00:00", "2019-12-10T15:54:38+00:00", "2019-12-10T15:57:00+00:00", "2019-12-10T16:04:25+00:00", "2019-12-10T16:14:12+00:00", "2019-12-10T16:17:00+00:00", "2019-12-10T16:24:00+00:00", "2019-12-10T16:27:15+00:00", "2019-12-10T16:33:47+00:00", "2019-12-10T16:37:15+00:00", "2019-12-10T16:43:34+00:00", "2019-12-10T16:47:15+00:00", "2019-12-10T16:53:21+00:00", "2019-12-10T16:57:15+00:00", "2019-12-10T17:03:08+00:00", "2019-12-10T17:07:15+00:00", "2019-12-10T17:12:55+00:00", "2019-12-10T17:17:15+00:00", "2019-12-10T17:22:42+00:00", "2019-12-10T17:27:15+00:00", "2019-12-10T17:32:29+00:00", "2019-12-10T17:37:15+00:00", "2019-12-10T17:42:16+00:00", "2019-12-10T17:47:15+00:00", "2019-12-10T17:52:03+00:00", "2019-12-10T17:57:15+00:00", "2019-12-10T18:01:50+00:00", "2019-12-10T18:07:15+00:00", "2019-12-10T18:11:36+00:00", "2019-12-10T18:17:15+00:00", "2019-12-10T18:21:23+00:00", "2019-12-10T18:27:15+00:00", "2019-12-10T18:31:10+00:00", "2019-12-10T18:37:15+00:00", "2019-12-10T18:40:57+00:00", "2019-12-10T18:47:15+00:00", "2019-12-10T18:50:44+00:00", "2019-12-10T18:57:15+00:00", "2019-12-10T19:00:31+00:00", "2019-12-10T19:07:15+00:00", "2019-12-10T19:10:18+00:00", "2019-12-10T19:17:15+00:00", "2019-12-10T19:20:04+00:00", "2019-12-10T19:27:15+00:00", "2019-12-10T19:29:51+00:00", "2019-12-10T19:37:15+00:00", "2019-12-10T19:39:39+00:00", "2019-12-10T19:47:15+00:00", "2019-12-10T19:49:26+00:00", "2019-12-10T19:57:15+00:00", "2019-12-10T20:17:15+00:00", "2019-12-11T05:38:11+00:00", "2019-12-11T16:17:30+00:00", "2019-12-12T01:58:00+00:00", "2019-12-12T01:58:22+00:00", "2019-12-12T02:08:00+00:00", "2019-12-12T02:17:57+00:00", "2019-12-12T02:27:44+00:00", "2019-12-12T02:28:00+00:00", "2019-12-12T02:37:31+00:00", "2019-12-12T02:38:00+00:00", "2019-12-12T02:47:18+00:00", "2019-12-12T02:48:00+00:00", "2019-12-12T02:57:05+00:00", "2019-12-12T02:58:00+00:00", "2019-12-12T03:06:52+00:00", "2019-12-12T03:08:00+00:00", "2019-12-12T03:16:40+00:00", "2019-12-12T03:18:00+00:00", "2019-12-12T03:26:27+00:00", "2019-12-12T03:28:00+00:00", "2019-12-12T03:36:14+00:00", "2019-12-12T03:38:00+00:00", "2019-12-12T03:46:01+00:00", "2019-12-12T03:48:00+00:00", "2019-12-12T03:55:48+00:00", "2019-12-12T18:20:15+00:00", "2019-12-12T18:30:15+00:00", "2019-12-12T18:34:02+00:00", "2019-12-12T18:40:15+00:00", "2019-12-12T18:43:50+00:00", "2019-12-12T18:50:15+00:00", "2019-12-12T19:00:15+00:00", "2019-12-12T19:30:45+00:00", "2019-12-12T19:40:45+00:00", "2019-12-12T19:50:45+00:00", "2019-12-12T20:00:45+00:00", "2019-12-12T20:02:05+00:00", "2019-12-12T20:10:45+00:00", "2019-12-12T20:11:52+00:00", "2019-12-12T20:20:45+00:00", "2019-12-12T20:21:39+00:00", "2019-12-12T20:30:45+00:00", "2019-12-12T20:40:45+00:00", "2019-12-13T02:50:55+00:00", "2019-12-13T11:00:55+00:00", "2019-12-13T18:12:30+00:00", "2019-12-13T18:22:45+00:00", "2019-12-13T18:32:45+00:00", "2019-12-13T18:41:58+00:00", "2019-12-13T18:42:45+00:00", "2019-12-13T18:51:45+00:00", "2019-12-13T18:52:45+00:00", "2019-12-13T19:01:32+00:00", "2019-12-13T19:02:45+00:00", "2019-12-13T19:11:19+00:00", "2019-12-13T19:12:45+00:00", "2019-12-13T19:21:06+00:00", "2019-12-13T19:22:45+00:00", "2019-12-13T19:30:52+00:00", "2019-12-13T19:32:45+00:00", "2019-12-13T19:40:40+00:00", "2019-12-13T19:42:45+00:00", "2019-12-13T19:50:27+00:00", "2019-12-13T19:52:45+00:00", "2019-12-13T20:00:14+00:00", "2019-12-13T20:10:00+00:00", "2019-12-13T20:12:45+00:00", "2019-12-13T20:19:47+00:00", "2019-12-13T20:22:45+00:00", "2019-12-13T20:29:35+00:00", "2019-12-13T20:32:45+00:00", "2019-12-13T23:11:27+00:00", "2019-12-14T11:21:59+00:00", "2019-12-27T21:06:15+00:00", "2019-12-27T21:09:02+00:00", "2019-12-27T21:16:15+00:00", "2019-12-27T21:18:50+00:00", "2019-12-27T21:26:15+00:00", "2019-12-27T21:28:37+00:00", "2019-12-27T21:36:15+00:00", "2019-12-27T21:38:25+00:00", "2019-12-27T21:46:15+00:00", "2019-12-27T21:48:12+00:00", "2019-12-27T21:56:15+00:00", "2019-12-27T21:57:59+00:00", "2019-12-27T22:06:15+00:00", "2019-12-27T22:07:46+00:00", "2019-12-27T22:16:15+00:00", "2019-12-27T22:17:33+00:00", "2019-12-27T22:26:15+00:00", "2019-12-27T22:27:20+00:00", "2019-12-27T22:36:15+00:00", "2019-12-27T22:37:07+00:00", "2019-12-27T22:46:30+00:00", "2019-12-27T22:56:30+00:00", "2019-12-28T18:16:45+00:00", "2019-12-28T18:26:45+00:00", "2019-12-28T18:28:42+00:00", "2019-12-28T18:37:00+00:00", "2019-12-28T18:47:00+00:00", "2019-12-28T21:18:05+00:00", "2019-12-28T21:27:52+00:00", "2019-12-28T21:37:40+00:00", "2019-12-28T21:48:15+00:00", "2019-12-28T21:57:14+00:00", "2019-12-28T22:07:01+00:00", "2019-12-28T22:08:15+00:00", "2019-12-28T22:16:48+00:00", "2019-12-28T22:18:15+00:00", "2019-12-28T22:26:35+00:00", "2019-12-28T22:28:15+00:00", "2019-12-28T22:36:22+00:00", "2019-12-28T22:38:15+00:00", "2019-12-28T22:46:09+00:00", "2019-12-28T22:48:15+00:00", "2019-12-28T22:55:57+00:00", "2019-12-28T22:58:15+00:00", "2019-12-28T23:05:43+00:00", "2019-12-28T23:08:30+00:00", "2019-12-28T23:15:30+00:00", "2019-12-28T23:18:30+00:00", "2019-12-28T23:25:17+00:00", "2019-12-28T23:35:04+00:00", "2019-12-28T23:44:51+00:00", "2019-12-28T23:54:38+00:00", "2019-12-28T23:58:30+00:00", "2019-12-29T00:04:24+00:00", "2019-12-29T00:08:30+00:00", "2019-12-29T00:14:11+00:00", "2019-12-29T00:18:30+00:00", "2019-12-29T00:23:59+00:00", "2019-12-29T00:28:30+00:00", "2019-12-29T00:33:46+00:00", "2019-12-29T00:38:30+00:00", "2019-12-29T08:39:08+00:00"], "elevations": [-2.1, -3.0, -3.7, -1.0, -1.7, -1.0, -1.7, -1.0, 0.3, 0.0, 0.3, -0.8, 0.0, -1.7, -1.0, -1.7, 0.0, -1.7, -1.0, -0.3, -1.7, -1.0, -1.7, 0.0, 0.3, 0.0, -1.7, 0.0, -1.7, 0.0, -1.7, -1.0, -1.7, -1.0, -1.7, 0.0, -1.7, 0.0, 0.3, 0.0, 0.3, 0.0, 0.3, 0.0, 0.3, 1.0, -1.7, -1.0, 0.3, 0.0, -1.7, 1.0, 0.3, 1.0, 0.3, 1.0, 2.3, 2.0, 2.3, 2.0, 2.3, 3.0, 2.3, 3.0, 0.3, -3.1, 0.7, 4.4, -1.7, -1.0, -3.7, -4.0, -8.0, -7.8, -5.0, -5.8, -4.0, -5.8, -5.0, -5.8, -6.0, -7.8, -3.0, -3.7, 1.0, 0.3, 0.0, 0.3, -2.0, -1.7, 0.0, 4.4, 2.3, 3.0, 4.4, 0.0, -1.7, 0.2, -1.9, -7.8, -6.4, -3.9, -5.0, -5.8, -6.0, -5.8, -6.0, -5.8, -4.9, 10.4, -2.7, 0.3, 2.0, -0.5, 2.0, 2.3, 1.0, 0.3, 0.0, -1.7, -1.0, -1.7, 0.0, -1.7, -2.0, -1.7, -3.0, -1.7, 1.0, 0.3, 0.0, -0.8, -5.8, -4.0, -3.7, -3.0, -3.7, -2.5, 3.4, 0.3, 0.0, 0.3, 0.0, -1.7, -1.0, -3.7, -6.0, -1.7, 0.0, -3.7, -3.0, -5.8, -3.0, -5.8, -5.0, -7.8, -7.0, -5.8, -4.0, -3.7, -3.6, -1.7, -7.8, -6.0, -6.0, -5.4, -1.9, -2.0, -4.9, -4.9, -6.0, -5.4, -3.7, -3.0, -3.7, -1.0, -3.7, -3.0, -3.7, -2.0, -3.7, -1.0, -1.7, -1.0, -3.7, -3.0, -3.7, -3.0, -3.4, -4.4, -4.9, -5.8, -3.0, -3.7, 0.0, 0.3, -5.0, -3.7, -4.0, -3.7, -1.7]}