{"type": "Feature", "properties": {"leg_id": 31, "name": "20220403 - La Ventana to La Paz", "stated_nm": 40.8, "computed_nm": 40.8}, "geometry": {"type": "LineString", "coordinates": [[-110.326328, 24.15821], [-110.322542, 24.162577], [-110.319132, 24.166332], [-110.31769, 24.167617], [-110.312487, 24.176213], [-110.311172, 24.177781], [-110.30797, 24.181072], [-110.306232, 24.183894], [-110.305813, 24.184942], [-110.303777, 24.19329], [-110.303402, 24.196743], [-110.3029, 24.199942], [-110.302867, 24.208475], [-110.303628, 24.212355], [-110.304798, 24.214964], [-110.307634, 24.216153], [-110.311943, 24.217404], [-110.313883, 24.218594], [-110.315582, 24.222258], [-110.317953, 24.225705], [-110.320185, 24.228591], [-110.322655, 24.232845], [-110.325823, 24.23643], [-110.332538, 24.244885], [-110.334996, 24.247761], [-110.337852, 24.251448], [-110.34094, 24.25683], [-110.341808, 24.258636], [-110.343167, 24.263397], [-110.3436, 24.270277], [-110.343768, 24.273027], [-110.344104, 24.279604], [-110.344479, 24.28624], [-110.344644, 24.2902], [-110.343883, 24.296277], [-110.343175, 24.301996], [-110.343103, 24.305071], [-110.343205, 24.311148], [-110.343137, 24.313279], [-110.342619, 24.31589], [-110.341292, 24.318282], [-110.338842, 24.322002], [-110.337092, 24.323702], [-110.332485, 24.32546], [-110.332766, 24.32567], [-110.336048, 24.327089], [-110.335987, 24.329126], [-110.335048, 24.331162], [-110.333729, 24.33309], [-110.332371, 24.334577], [-110.330694, 24.336659], [-110.327168, 24.338726], [-110.325587, 24.340647], [-110.322871, 24.342793], [-110.318213, 24.346202], [-110.316577, 24.347419], [-110.312257, 24.350785], [-110.307523, 24.354515], [-110.305898, 24.355716], [-110.302005, 24.356613], [-110.297468, 24.357489], [-110.293491, 24.358411], [-110.290276, 24.359181], [-110.285035, 24.360467], [-110.28063, 24.361654], [-110.276628, 24.36207], [-110.270509, 24.36271], [-110.266915, 24.363103], [-110.262981, 24.362944], [-110.260277, 24.362891], [-110.256656, 24.361314], [-110.254253, 24.360329], [-110.249934, 24.358853], [-110.24644, 24.357664], [-110.242201, 24.356293], [-110.238452, 24.354815], [-110.236382, 24.354082], [-110.233648, 24.353194], [-110.230503, 24.35215], [-110.227712, 24.351355], [-110.225058, 24.350246], [-110.221734, 24.348378], [-110.219465, 24.34727], [-110.216823, 24.34638], [-110.213875, 24.345063], [-110.210226, 24.343776], [-110.207735, 24.342869], [-110.202233, 24.340577], [-110.199762, 24.339441], [-110.196853, 24.337793], [-110.194479, 24.336532], [-110.191479, 24.335473], [-110.187307, 24.334201], [-110.184838, 24.332872], [-110.18169, 24.331693], [-110.17928, 24.330568], [-110.17613, 24.329513], [-110.172937, 24.328293], [-110.170416, 24.327121], [-110.167888, 24.326206], [-110.164916, 24.325193], [-110.162819, 24.324186], [-110.15752, 24.321315], [-110.152351, 24.318482], [-110.149354, 24.316834], [-110.144466, 24.314163], [-110.141155, 24.312359], [-110.138212, 24.310879], [-110.136735, 24.310377], [-110.13159, 24.307983], [-110.129801, 24.307034], [-110.128633, 24.30652], [-110.127332, 24.30491], [-110.126774, 24.303759], [-110.123871, 24.301325], [-110.119905, 24.298553], [-110.11771, 24.297113], [-110.111813, 24.293447], [-110.108087, 24.291085], [-110.105651, 24.289765], [-110.102652, 24.288277], [-110.097352, 24.285822], [-110.094623, 24.284606], [-110.090334, 24.282753], [-110.08424, 24.27971], [-110.082207, 24.278092], [-110.078849, 24.275263], [-110.075729, 24.272388], [-110.073161, 24.270137], [-110.071037, 24.267811], [-110.068792, 24.264883], [-110.066361, 24.261577], [-110.064296, 24.258685], [-110.062619, 24.256349], [-110.060039, 24.252112], [-110.058787, 24.25021], [-110.056127, 24.246408], [-110.05475, 24.244231], [-110.051852, 24.239429], [-110.049911, 24.236292], [-110.047937, 24.233257], [-110.045758, 24.229416], [-110.044215, 24.226751], [-110.042086, 24.22309], [-110.04074, 24.220923], [-110.038323, 24.21809], [-110.036341, 24.215709], [-110.033141, 24.211777], [-110.029674, 24.207555], [-110.024178, 24.201365], [-110.020409, 24.1973], [-110.01794, 24.194583], [-110.01652, 24.192995], [-110.013854, 24.189563], [-110.011326, 24.186726], [-110.009194, 24.184347], [-110.006139, 24.180875], [-110.004301, 24.178899], [-110.001696, 24.17613], [-109.999812, 24.173948], [-109.998109, 24.171484], [-109.996433, 24.16887], [-109.995321, 24.165972], [-109.99358, 24.162368], [-109.99178, 24.158919], [-109.988114, 24.150742], [-109.986971, 24.148138], [-109.985589, 24.145373], [-109.982925, 24.139998], [-109.981194, 24.136336], [-109.980749, 24.134097], [-109.98, 24.128486], [-109.979431, 24.122585], [-109.979573, 24.119287], [-109.979709, 24.113733], [-109.979861, 24.108936], [-109.980358, 24.10737], [-109.981533, 24.104811], [-109.9832, 24.102458], [-109.985558, 24.099255], [-109.987984, 24.095778], [-109.988455, 24.09537], [-109.99111, 24.094813], [-109.991081, 24.094673]]}, "times": ["2022-04-03T12:43:27+00:00", "2022-04-03T21:34:53+00:00", "2022-04-03T21:37:32+00:00", "2022-04-03T21:38:30+00:00", "2022-04-03T21:43:30+00:00", "2022-04-03T21:45:02+00:00", "2022-04-03T21:46:50+00:00", "2022-04-03T21:48:14+00:00", "2022-04-03T21:49:03+00:00", "2022-04-03T21:53:30+00:00", "2022-04-03T21:54:53+00:00", "2022-04-03T21:57:23+00:00", "2022-04-03T22:01:33+00:00", "2022-04-03T22:03:47+00:00", "2022-04-03T22:05:35+00:00", "2022-04-03T22:06:17+00:00", "2022-04-03T22:10:27+00:00", "2022-04-03T22:10:52+00:00", "2022-04-03T22:13:13+00:00", "2022-04-03T22:15:01+00:00", "2022-04-03T22:18:13+00:00", "2022-04-03T22:20:35+00:00", "2022-04-03T22:23:21+00:00", "2022-04-03T22:29:45+00:00", "2022-04-03T22:32:15+00:00", "2022-04-03T22:35:51+00:00", "2022-04-03T22:38:38+00:00", "2022-04-03T22:40:26+00:00", "2022-04-03T22:43:55+00:00", "2022-04-03T22:47:15+00:00", "2022-04-03T22:49:45+00:00", "2022-04-03T22:53:59+00:00", "2022-04-03T22:57:59+00:00", "2022-04-03T22:59:04+00:00", "2022-04-03T23:03:59+00:00", "2022-04-03T23:06:58+00:00", "2022-04-03T23:07:59+00:00", "2022-04-03T23:11:58+00:00", "2022-04-03T23:13:30+00:00", "2022-04-03T23:14:28+00:00", "2022-04-03T23:16:04+00:00", "2022-04-03T23:19:37+00:00", "2022-04-03T23:21:08+00:00", "2022-04-03T23:25:02+00:00", "2022-04-04T00:25:01+00:00", "2022-04-04T00:28:46+00:00", "2022-04-04T00:30:43+00:00", "2022-04-04T00:32:15+00:00", "2022-04-04T00:33:21+00:00", "2022-04-04T00:35:02+00:00", "2022-04-04T00:36:27+00:00", "2022-04-04T00:39:28+00:00", "2022-04-04T00:40:27+00:00", "2022-04-04T00:42:27+00:00", "2022-04-04T00:47:00+00:00", "2022-04-04T00:47:49+00:00", "2022-04-04T00:52:27+00:00", "2022-04-04T00:56:17+00:00", "2022-04-04T00:56:59+00:00", "2022-04-04T01:00:27+00:00", "2022-04-04T01:02:41+00:00", "2022-04-04T01:06:27+00:00", "2022-04-04T01:08:27+00:00", "2022-04-04T01:12:27+00:00", "2022-04-04T01:14:37+00:00", "2022-04-04T01:17:00+00:00", "2022-04-04T01:22:27+00:00", "2022-04-04T01:23:39+00:00", "2022-04-04T01:27:00+00:00", "2022-04-04T01:28:47+00:00", "2022-04-04T01:32:08+00:00", "2022-04-04T01:34:27+00:00", "2022-04-04T01:37:00+00:00", "2022-04-04T01:40:27+00:00", "2022-04-04T01:42:41+00:00", "2022-04-04T01:46:10+00:00", "2022-04-04T01:47:00+00:00", "2022-04-04T01:48:27+00:00", "2022-04-04T01:50:36+00:00", "2022-04-04T01:52:58+00:00", "2022-04-04T01:54:29+00:00", "2022-04-04T01:57:50+00:00", "2022-04-04T01:59:30+00:00", "2022-04-04T02:01:18+00:00", "2022-04-04T02:03:15+00:00", "2022-04-04T02:06:18+00:00", "2022-04-04T02:07:00+00:00", "2022-04-04T02:11:27+00:00", "2022-04-04T02:12:27+00:00", "2022-04-04T02:14:27+00:00", "2022-04-04T02:16:10+00:00", "2022-04-04T02:18:38+00:00", "2022-04-04T02:20:28+00:00", "2022-04-04T02:22:00+00:00", "2022-04-04T02:24:05+00:00", "2022-04-04T02:25:28+00:00", "2022-04-04T02:28:23+00:00", "2022-04-04T02:30:38+00:00", "2022-04-04T02:32:17+00:00", "2022-04-04T02:34:05+00:00", "2022-04-04T02:36:35+00:00", "2022-04-04T02:37:00+00:00", "2022-04-04T02:42:38+00:00", "2022-04-04T02:46:38+00:00", "2022-04-04T02:48:38+00:00", "2022-04-04T02:52:38+00:00", "2022-04-04T02:53:57+00:00", "2022-04-04T02:56:35+00:00", "2022-04-04T02:57:17+00:00", "2022-04-04T03:04:06+00:00", "2022-04-04T03:06:38+00:00", "2022-04-04T03:08:38+00:00", "2022-04-04T03:16:38+00:00", "2022-04-04T03:20:29+00:00", "2022-04-04T03:22:50+00:00", "2022-04-04T03:27:00+00:00", "2022-04-04T03:28:38+00:00", "2022-04-04T03:34:38+00:00", "2022-04-04T03:36:49+00:00", "2022-04-04T03:38:38+00:00", "2022-04-04T03:40:38+00:00", "2022-04-04T03:46:38+00:00", "2022-04-04T03:48:38+00:00", "2022-04-04T03:52:21+00:00", "2022-04-04T03:56:47+00:00", "2022-04-04T03:58:38+00:00", "2022-04-04T04:02:04+00:00", "2022-04-04T04:06:38+00:00", "2022-04-04T04:08:38+00:00", "2022-04-04T04:10:38+00:00", "2022-04-04T04:13:10+00:00", "2022-04-04T04:17:00+00:00", "2022-04-04T04:20:38+00:00", "2022-04-04T04:21:22+00:00", "2022-04-04T04:26:22+00:00", "2022-04-04T04:27:00+00:00", "2022-04-04T04:30:48+00:00", "2022-04-04T04:32:38+00:00", "2022-04-04T04:37:00+00:00", "2022-04-04T04:40:38+00:00", "2022-04-04T04:42:12+00:00", "2022-04-04T04:46:38+00:00", "2022-04-04T04:48:38+00:00", "2022-04-04T04:51:13+00:00", "2022-04-04T04:53:01+00:00", "2022-04-04T04:56:38+00:00", "2022-04-04T04:58:38+00:00", "2022-04-04T05:02:38+00:00", "2022-04-04T05:06:38+00:00", "2022-04-04T05:12:38+00:00", "2022-04-04T05:16:38+00:00", "2022-04-04T05:18:38+00:00", "2022-04-04T05:20:38+00:00", "2022-04-04T05:23:01+00:00", "2022-04-04T05:26:38+00:00", "2022-04-04T05:28:38+00:00", "2022-04-04T05:31:38+00:00", "2022-04-04T05:32:38+00:00", "2022-04-04T05:35:06+00:00", "2022-04-04T05:37:44+00:00", "2022-04-04T05:40:40+00:00", "2022-04-04T05:41:30+00:00", "2022-04-04T05:43:51+00:00", "2022-04-04T05:47:00+00:00", "2022-04-04T05:50:31+00:00", "2022-04-04T05:56:40+00:00", "2022-04-04T05:57:44+00:00", "2022-04-04T06:00:40+00:00", "2022-04-04T06:04:40+00:00", "2022-04-04T06:06:13+00:00", "2022-04-04T06:07:53+00:00", "2022-04-04T06:12:44+00:00", "2022-04-04T06:15:14+00:00", "2022-04-04T06:18:44+00:00", "2022-04-04T06:22:44+00:00", "2022-04-04T06:25:06+00:00", "2022-04-04T06:26:04+00:00", "2022-04-04T06:28:18+00:00", "2022-04-04T06:30:44+00:00", "2022-04-04T06:32:03+00:00", "2022-04-04T06:36:44+00:00", "2022-04-04T10:56:43+00:00", "2022-04-04T16:42:13+00:00", "2022-04-05T15:45:06+00:00"], "elevations": [null, null, null, null, null, null, null, null, null, null, null, null, null, null, null, null, null, null, null, null, null, null, null, 38.9, 1.0, 2.0, null, 2.3, 0.0, null, -1.9, -2.0, -3.5, -3.7, -3.0, -3.0, -3.4, null, -3.0, null, -3.0, null, -2.9, -2.0, 2.0, null, 4.0, null, 3.0, null, 2.7, 2.0, 1.0, 1.0, 0.7, 1.0, 2.0, 1.0, 0.7, 1.0, 1.0, 1.0, 0.7, 1.0, 2.0, 1.8, -1.5, -2.0, -2.9, -3.0, -3.0, -3.0, -3.4, -4.0, -8.0, -6.0, -6.4, -6.0, -9.0, -8.0, -6.0, -7.8, -6.0, -7.0, -6.0, -6.0, -6.3, -5.0, -5.0, -5.0, -3.0, -3.4, -3.0, -2.0, -2.0, -2.0, -3.7, -3.0, null, -4.0, -5.0, -5.3, -2.5, -4.0, -4.9, -3.5, -4.0, -4.0, -4.6, -4.0, -4.9, -5.0, -5.0, -5.0, -5.0, -5.9, -4.5, -2.5, -3.0, -3.4, -4.0, -3.0, -3.4, -3.0, -3.0, -3.9, -3.0, -3.0, -3.4, -3.5, -3.0, -3.4, -3.0, -3.0, -3.0, -3.2, -3.0, -3.0, -3.4, -3.0, 0.0, 0.0, 0.7, 1.0, 1.0, 0.0, 0.2, 0.0, 0.0, 0.0, 0.0, 0.2, -1.0, -1.0, -1.0, -1.4, -1.0, 0.0, 0.0, -1.7, 0.0, -3.0, -2.0, -1.4, 0.0, -1.0, -1.7, -0.5, 0.0, 0.0, 0.2, 0.0, 0.0, 0.2, 0.0, 0.0, 0.0, 0.3, 1.0, 1.0, 0.5, -0.2, 3.0, -1.2]}