{"type": "Feature", "properties": {"leg_id": 32, "name": "20220406 - La Ventana to Los Cabos", "stated_nm": 89.4, "computed_nm": 89.4}, "geometry": {"type": "LineString", "coordinates": [[-109.986619, 24.093715], [-109.980689, 24.092852], [-109.97702, 24.092323], [-109.973187, 24.091909], [-109.969743, 24.091503], [-109.966084, 24.091113], [-109.960807, 24.090404], [-109.956485, 24.089892], [-109.950837, 24.089096], [-109.945612, 24.08833], [-109.942876, 24.088035], [-109.938656, 24.087601], [-109.934563, 24.08729], [-109.928128, 24.08679], [-109.923851, 24.08641], [-109.918559, 24.085994], [-109.909113, 24.085518], [-109.906177, 24.085398], [-109.899398, 24.085273], [-109.893974, 24.085137], [-109.89024, 24.085124], [-109.881576, 24.084742], [-109.879185, 24.084526], [-109.875154, 24.084086], [-109.871235, 24.083831], [-109.868219, 24.083572], [-109.864853, 24.082979], [-109.861866, 24.082405], [-109.857797, 24.081739], [-109.852311, 24.080827], [-109.848682, 24.080248], [-109.844609, 24.079602], [-109.841183, 24.07925], [-109.837503, 24.078926], [-109.834387, 24.07877], [-109.832649, 24.078988], [-109.830183, 24.079834], [-109.827227, 24.080707], [-109.824941, 24.080741], [-109.822053, 24.079576], [-109.820679, 24.078422], [-109.817657, 24.075568], [-109.816181, 24.074139], [-109.813396, 24.071268], [-109.81146, 24.069268], [-109.80976, 24.067298], [-109.806793, 24.062744], [-109.804119, 24.058519], [-109.802532, 24.05595], [-109.800811, 24.053446], [-109.797668, 24.049003], [-109.795558, 24.046016], [-109.792931, 24.042132], [-109.789723, 24.037495], [-109.788134, 24.035211], [-109.786206, 24.032832], [-109.782627, 24.028515], [-109.779415, 24.024534], [-109.777359, 24.021959], [-109.773777, 24.017561], [-109.770337, 24.01343], [-109.768275, 24.010846], [-109.764798, 24.006476], [-109.762038, 24.003023], [-109.760123, 24.00086], [-109.756299, 23.996575], [-109.75469, 23.994888], [-109.751757, 23.991836], [-109.749029, 23.988989], [-109.747419, 23.987259], [-109.743642, 23.983151], [-109.742168, 23.981517], [-109.737808, 23.977089], [-109.734258, 23.973458], [-109.732533, 23.971653], [-109.728982, 23.967632], [-109.727232, 23.96578], [-109.724044, 23.962483], [-109.720814, 23.959183], [-109.717309, 23.955526], [-109.715797, 23.953933], [-109.713096, 23.951051], [-109.710978, 23.948722], [-109.707512, 23.944631], [-109.705044, 23.941822], [-109.703151, 23.939529], [-109.700009, 23.936039], [-109.696514, 23.932102], [-109.694234, 23.929602], [-109.690262, 23.925278], [-109.68737, 23.922093], [-109.686473, 23.921117], [-109.683764, 23.9182], [-109.67997, 23.914496], [-109.676372, 23.910939], [-109.67532, 23.90984], [-109.671512, 23.90584], [-109.667352, 23.901333], [-109.6645, 23.898291], [-109.660919, 23.894462], [-109.657266, 23.890689], [-109.655375, 23.888636], [-109.652153, 23.885086], [-109.648056, 23.880472], [-109.644615, 23.876627], [-109.643528, 23.875484], [-109.639557, 23.871379], [-109.638424, 23.869721], [-109.639509, 23.868619], [-109.638066, 23.866785], [-109.636878, 23.865435], [-109.632583, 23.860297], [-109.630074, 23.857323], [-109.627243, 23.854025], [-109.625704, 23.852117], [-109.62346, 23.849301], [-109.620944, 23.846367], [-109.619035, 23.84447], [-109.617331, 23.842679], [-109.613735, 23.838693], [-109.611244, 23.835996], [-109.609738, 23.83417], [-109.606983, 23.830329], [-109.602929, 23.825232], [-109.601571, 23.82345], [-109.599455, 23.820969], [-109.596547, 23.817753], [-109.595114, 23.815977], [-109.592542, 23.812635], [-109.590883, 23.810733], [-109.588812, 23.80817], [-109.585811, 23.80478], [-109.583142, 23.801922], [-109.580715, 23.798941], [-109.577321, 23.794853], [-109.575874, 23.793037], [-109.57161, 23.787489], [-109.569305, 23.78454], [-109.567009, 23.782097], [-109.564452, 23.779511], [-109.561603, 23.776118], [-109.557162, 23.77046], [-109.554271, 23.766281], [-109.551384, 23.762258], [-109.549952, 23.760507], [-109.548377, 23.758507], [-109.545121, 23.753969], [-109.542854, 23.750802], [-109.540185, 23.746614], [-109.53835, 23.743545], [-109.536338, 23.74028], [-109.533191, 23.735737], [-109.530838, 23.732186], [-109.527897, 23.727977], [-109.522979, 23.720571], [-109.521114, 23.717616], [-109.516055, 23.709975], [-109.514332, 23.707508], [-109.512657, 23.704904], [-109.509463, 23.700099], [-109.505566, 23.693877], [-109.504174, 23.69166], [-109.502328, 23.688866], [-109.499745, 23.685293], [-109.498261, 23.683422], [-109.495636, 23.680259], [-109.491864, 23.675798], [-109.487658, 23.670375], [-109.484725, 23.666664], [-109.481645, 23.662837], [-109.480196, 23.660934], [-109.477729, 23.657578], [-109.475987, 23.655214], [-109.472489, 23.650771], [-109.47004, 23.647627], [-109.468398, 23.64546], [-109.465443, 23.641506], [-109.462184, 23.637121], [-109.460256, 23.634435], [-109.458072, 23.631408], [-109.454986, 23.627465], [-109.452523, 23.624462], [-109.449711, 23.620825], [-109.446604, 23.616869], [-109.445167, 23.614955], [-109.442792, 23.611647], [-109.439478, 23.607355], [-109.438252, 23.605193], [-109.436372, 23.600938], [-109.435573, 23.599099], [-109.43354, 23.594762], [-109.431569, 23.590288], [-109.430325, 23.58763], [-109.428919, 23.584703], [-109.427027, 23.581196], [-109.425544, 23.57798], [-109.423447, 23.573431], [-109.421337, 23.568606], [-109.420361, 23.566365], [-109.419044, 23.563841], [-109.417732, 23.561324], [-109.415592, 23.556889], [-109.414091, 23.553693], [-109.412315, 23.549889], [-109.410575, 23.54637], [-109.409232, 23.543239], [-109.408147, 23.540672], [-109.406315, 23.536169], [-109.404536, 23.532019], [-109.403651, 23.529869], [-109.401439, 23.525227], [-109.40005, 23.522489], [-109.399095, 23.5192], [-109.398099, 23.516061], [-109.396726, 23.511917], [-109.395731, 23.508961], [-109.394417, 23.505351], [-109.39286, 23.500849], [-109.392059, 23.498517], [-109.390223, 23.493889], [-109.389005, 23.49066], [-109.388085, 23.487823], [-109.386842, 23.484726], [-109.385239, 23.480802], [-109.383682, 23.476651], [-109.382799, 23.474289], [-109.382041, 23.471828], [-109.380801, 23.467451], [-109.380071, 23.466274], [-109.379552, 23.464155], [-109.379555, 23.461818], [-109.37946, 23.458477], [-109.379334, 23.453518], [-109.379226, 23.450086], [-109.379229, 23.446767], [-109.379119, 23.444357], [-109.378272, 23.440895], [-109.377446, 23.437469], [-109.376499, 23.433319], [-109.375283, 23.428241], [-109.374543, 23.425005], [-109.373698, 23.421953], [-109.371998, 23.41564], [-109.371057, 23.412135], [-109.370219, 23.409117], [-109.369281, 23.40527], [-109.36852, 23.401654], [-109.369135, 23.397958], [-109.370043, 23.392773], [-109.370352, 23.390242], [-109.370939, 23.385578], [-109.371448, 23.383235], [-109.372316, 23.380564], [-109.374185, 23.376029], [-109.375163, 23.373621], [-109.376217, 23.370856], [-109.378144, 23.365702], [-109.379369, 23.362449], [-109.380115, 23.359544], [-109.381104, 23.355275], [-109.382468, 23.350036], [-109.383386, 23.346432], [-109.383947, 23.344029], [-109.385158, 23.339517], [-109.386246, 23.335699], [-109.38691, 23.332164], [-109.38802, 23.326103], [-109.388895, 23.321078], [-109.389368, 23.318332], [-109.389946, 23.315365], [-109.391022, 23.310043], [-109.391797, 23.306375], [-109.392207, 23.304454], [-109.393384, 23.299332], [-109.394414, 23.294933], [-109.394874, 23.292646], [-109.396244, 23.28606], [-109.397312, 23.280996], [-109.397912, 23.277935], [-109.399012, 23.27246], [-109.400087, 23.267282], [-109.400704, 23.264159], [-109.401794, 23.258586], [-109.402463, 23.255051], [-109.403142, 23.251901], [-109.404074, 23.247539], [-109.405974, 23.240016], [-109.406324, 23.238493], [-109.407451, 23.233388], [-109.408767, 23.227832], [-109.409571, 23.223982], [-109.410526, 23.219494], [-109.411748, 23.213964], [-109.412583, 23.210144], [-109.413396, 23.206393], [-109.414871, 23.202987], [-109.416029, 23.20016], [-109.417194, 23.197125], [-109.418702, 23.193172], [-109.4201, 23.189389], [-109.421376, 23.186228], [-109.422574, 23.183208], [-109.423762, 23.180447], [-109.425227, 23.177374], [-109.426892, 23.174104], [-109.427891, 23.171966], [-109.429988, 23.167421], [-109.432027, 23.163228], [-109.432828, 23.161501], [-109.435041, 23.156438], [-109.435825, 23.154456], [-109.437176, 23.150588], [-109.438622, 23.14675], [-109.440032, 23.142828], [-109.441932, 23.139551], [-109.444294, 23.135243], [-109.446823, 23.130665], [-109.448699, 23.127457], [-109.450661, 23.124135], [-109.451856, 23.12201], [-109.454689, 23.11681], [-109.456127, 23.114205], [-109.45874, 23.109484], [-109.460785, 23.105703], [-109.462406, 23.102903], [-109.465424, 23.097682], [-109.467959, 23.093324], [-109.469433, 23.090716], [-109.471165, 23.087995], [-109.473726, 23.086969], [-109.478557, 23.085643], [-109.480148, 23.085263], [-109.485068, 23.084297], [-109.487545, 23.083695], [-109.491185, 23.082786], [-109.493754, 23.082258], [-109.498921, 23.08121], [-109.503844, 23.080123], [-109.506744, 23.079554], [-109.512062, 23.078432], [-109.517158, 23.077274], [-109.520735, 23.076509], [-109.524258, 23.075803], [-109.530241, 23.074573], [-109.533066, 23.07398], [-109.538228, 23.072918], [-109.541223, 23.072365], [-109.545271, 23.071419], [-109.550976, 23.070128], [-109.555929, 23.069057], [-109.558168, 23.068562], [-109.564114, 23.067082], [-109.569251, 23.065867], [-109.572159, 23.065208], [-109.577484, 23.063971], [-109.583407, 23.06242], [-109.587146, 23.061442], [-109.591918, 23.0602], [-109.594481, 23.059524], [-109.599956, 23.058215], [-109.605255, 23.056928], [-109.609019, 23.055937], [-109.612789, 23.054954], [-109.61608, 23.054221], [-109.621482, 23.05294], [-109.624603, 23.052174], [-109.630428, 23.050798], [-109.636065, 23.049377], [-109.63874, 23.048676], [-109.641818, 23.047949], [-109.645286, 23.048341], [-109.651141, 23.049399], [-109.65474, 23.050022], [-109.657505, 23.05066], [-109.663467, 23.052177], [-109.666885, 23.053009], [-109.669192, 23.054144], [-109.670512, 23.055335], [-109.670894, 23.057685], [-109.672602, 23.059727], [-109.673518, 23.061395], [-109.67372, 23.061876], [-109.674641, 23.062806], [-109.675466, 23.062767]]}, "times": ["2022-04-06T17:15:19+00:00", "2022-04-06T17:19:19+00:00", "2022-04-06T17:20:09+00:00", "2022-04-06T17:23:19+00:00", "2022-04-06T17:25:19+00:00", "2022-04-06T17:27:05+00:00", "2022-04-06T17:31:19+00:00", "2022-04-06T17:33:19+00:00", "2022-04-06T17:37:19+00:00", "2022-04-06T17:39:35+00:00", "2022-04-06T17:41:19+00:00", "2022-04-06T17:44:02+00:00", "2022-04-06T17:47:19+00:00", "2022-04-06T17:51:19+00:00", "2022-04-06T17:53:19+00:00", "2022-04-06T17:56:56+00:00", "2022-04-06T18:02:30+00:00", "2022-04-06T18:03:20+00:00", "2022-04-06T18:09:19+00:00", "2022-04-06T18:12:30+00:00", "2022-04-06T18:15:19+00:00", "2022-04-06T18:20:24+00:00", "2022-04-06T18:21:19+00:00", "2022-04-06T18:24:26+00:00", "2022-04-06T18:27:19+00:00", "2022-04-06T18:29:19+00:00", "2022-04-06T18:31:19+00:00", "2022-04-06T18:33:19+00:00", "2022-04-06T18:37:19+00:00", "2022-04-06T18:41:19+00:00", "2022-04-06T18:43:19+00:00", "2022-04-06T18:46:06+00:00", "2022-04-06T18:49:19+00:00", "2022-04-06T18:50:46+00:00", "2022-04-06T18:53:19+00:00", "2022-04-06T18:54:22+00:00", "2022-04-06T18:56:23+00:00", "2022-04-06T18:58:55+00:00", "2022-04-06T18:59:51+00:00", "2022-04-06T19:02:30+00:00", "2022-04-06T19:05:19+00:00", "2022-04-06T19:11:19+00:00", "2022-04-06T19:12:30+00:00", "2022-04-06T19:19:19+00:00", "2022-04-06T19:22:24+00:00", "2022-04-06T19:24:16+00:00", "2022-04-06T19:29:19+00:00", "2022-04-06T19:32:30+00:00", "2022-04-06T19:34:33+00:00", "2022-04-06T19:37:19+00:00", "2022-04-06T19:41:19+00:00", "2022-04-06T19:43:19+00:00", "2022-04-06T19:47:19+00:00", "2022-04-06T19:51:19+00:00", "2022-04-06T19:52:03+00:00", "2022-04-06T19:55:19+00:00", "2022-04-06T19:59:19+00:00", "2022-04-06T20:02:30+00:00", "2022-04-06T20:05:19+00:00", "2022-04-06T20:09:19+00:00", "2022-04-06T20:12:30+00:00", "2022-04-06T20:15:19+00:00", "2022-04-06T20:19:19+00:00", "2022-04-06T20:21:41+00:00", "2022-04-06T20:23:19+00:00", "2022-04-06T20:28:53+00:00", "2022-04-06T20:29:19+00:00", "2022-04-06T20:33:19+00:00", "2022-04-06T20:36:38+00:00", "2022-04-06T20:37:19+00:00", "2022-04-06T20:42:30+00:00", "2022-04-06T20:43:21+00:00", "2022-04-06T20:49:21+00:00", "2022-04-06T20:52:30+00:00", "2022-04-06T20:53:21+00:00", "2022-04-06T20:57:59+00:00", "2022-04-06T20:59:21+00:00", "2022-04-06T21:03:21+00:00", "2022-04-06T21:07:21+00:00", "2022-04-06T21:10:35+00:00", "2022-04-06T21:11:21+00:00", "2022-04-06T21:15:21+00:00", "2022-04-06T21:16:11+00:00", "2022-04-06T21:21:21+00:00", "2022-04-06T21:23:21+00:00", "2022-04-06T21:25:00+00:00", "2022-04-06T21:29:21+00:00", "2022-04-06T21:32:30+00:00", "2022-04-06T21:35:21+00:00", "2022-04-06T21:39:21+00:00", "2022-04-06T21:41:15+00:00", "2022-04-06T21:42:30+00:00", "2022-04-06T21:44:35+00:00", "2022-04-06T21:49:21+00:00", "2022-04-06T21:51:56+00:00", "2022-04-06T21:52:30+00:00", "2022-04-06T21:57:21+00:00", "2022-04-06T22:01:21+00:00", "2022-04-06T22:03:21+00:00", "2022-04-06T22:07:21+00:00", "2022-04-06T22:09:57+00:00", "2022-04-06T22:11:21+00:00", "2022-04-06T22:15:21+00:00", "2022-04-06T22:19:21+00:00", "2022-04-06T22:21:58+00:00", "2022-04-06T22:22:30+00:00", "2022-04-06T22:27:21+00:00", "2022-04-06T22:29:21+00:00", "2022-04-06T22:38:18+00:00", "2022-04-06T22:43:26+00:00", "2022-04-06T22:45:41+00:00", "2022-04-06T22:51:26+00:00", "2022-04-06T22:53:26+00:00", "2022-04-06T22:56:58+00:00", "2022-04-06T22:57:26+00:00", "2022-04-06T22:59:55+00:00", "2022-04-06T23:03:09+00:00", "2022-04-06T23:05:26+00:00", "2022-04-06T23:07:26+00:00", "2022-04-06T23:11:26+00:00", "2022-04-06T23:13:16+00:00", "2022-04-06T23:15:17+00:00", "2022-04-06T23:19:26+00:00", "2022-04-06T23:23:26+00:00", "2022-04-06T23:25:26+00:00", "2022-04-06T23:27:26+00:00", "2022-04-06T23:30:48+00:00", "2022-04-06T23:32:45+00:00", "2022-04-06T23:35:48+00:00", "2022-04-06T23:37:26+00:00", "2022-04-06T23:39:26+00:00", "2022-04-06T23:43:26+00:00", "2022-04-06T23:45:55+00:00", "2022-04-06T23:49:26+00:00", "2022-04-06T23:52:45+00:00", "2022-04-06T23:53:26+00:00", "2022-04-06T23:59:26+00:00", "2022-04-07T00:00:38+00:00", "2022-04-07T00:03:26+00:00", "2022-04-07T00:05:30+00:00", "2022-04-07T00:09:26+00:00", "2022-04-07T00:13:26+00:00", "2022-04-07T00:17:26+00:00", "2022-04-07T00:19:48+00:00", "2022-04-07T00:21:26+00:00", "2022-04-07T00:22:45+00:00", "2022-04-07T00:27:26+00:00", "2022-04-07T00:28:41+00:00", "2022-04-07T00:32:45+00:00", "2022-04-07T00:35:26+00:00", "2022-04-07T00:36:37+00:00", "2022-04-07T00:41:26+00:00", "2022-04-07T00:43:26+00:00", "2022-04-07T00:47:26+00:00", "2022-04-07T00:52:45+00:00", "2022-04-07T00:55:26+00:00", "2022-04-07T01:01:26+00:00", "2022-04-07T01:02:08+00:00", "2022-04-07T01:05:26+00:00", "2022-04-07T01:09:05+00:00", "2022-04-07T01:13:26+00:00", "2022-04-07T01:15:26+00:00", "2022-04-07T01:17:26+00:00", "2022-04-07T01:20:37+00:00", "2022-04-07T01:21:26+00:00", "2022-04-07T01:25:26+00:00", "2022-04-07T01:29:22+00:00", "2022-04-07T01:33:26+00:00", "2022-04-07T01:37:26+00:00", "2022-04-07T01:40:15+00:00", "2022-04-07T01:41:28+00:00", "2022-04-07T01:45:28+00:00", "2022-04-07T01:46:03+00:00", "2022-04-07T01:51:28+00:00", "2022-04-07T01:53:28+00:00", "2022-04-07T01:54:50+00:00", "2022-04-07T01:59:28+00:00", "2022-04-07T02:02:45+00:00", "2022-04-07T02:05:28+00:00", "2022-04-07T02:06:45+00:00", "2022-04-07T02:11:28+00:00", "2022-04-07T02:13:28+00:00", "2022-04-07T02:17:28+00:00", "2022-04-07T02:20:29+00:00", "2022-04-07T02:21:28+00:00", "2022-04-07T02:25:28+00:00", "2022-04-07T02:28:57+00:00", "2022-04-07T02:29:28+00:00", "2022-04-07T02:33:28+00:00", "2022-04-07T02:34:25+00:00", "2022-04-07T02:39:28+00:00", "2022-04-07T02:43:00+00:00", "2022-04-07T02:45:28+00:00", "2022-04-07T02:46:37+00:00", "2022-04-07T02:50:11+00:00", "2022-04-07T02:53:00+00:00", "2022-04-07T02:57:29+00:00", "2022-04-07T03:01:33+00:00", "2022-04-07T03:02:01+00:00", "2022-04-07T03:05:33+00:00", "2022-04-07T03:06:18+00:00", "2022-04-07T03:11:33+00:00", "2022-04-07T03:13:33+00:00", "2022-04-07T03:17:33+00:00", "2022-04-07T03:19:37+00:00", "2022-04-07T03:23:00+00:00", "2022-04-07T03:25:33+00:00", "2022-04-07T03:29:33+00:00", "2022-04-07T03:33:00+00:00", "2022-04-07T03:33:51+00:00", "2022-04-07T03:39:38+00:00", "2022-04-07T03:41:00+00:00", "2022-04-07T03:43:38+00:00", "2022-04-07T03:46:29+00:00", "2022-04-07T03:51:39+00:00", "2022-04-07T03:53:39+00:00", "2022-04-07T03:57:39+00:00", "2022-04-07T04:01:39+00:00", "2022-04-07T04:03:00+00:00", "2022-04-07T04:07:39+00:00", "2022-04-07T04:09:10+00:00", "2022-04-07T04:11:34+00:00", "2022-04-07T04:13:39+00:00", "2022-04-07T04:17:05+00:00", "2022-04-07T04:21:39+00:00", "2022-04-07T04:22:20+00:00", "2022-04-07T04:25:39+00:00", "2022-04-07T04:29:09+00:00", "2022-04-07T04:29:39+00:00", "2022-04-07T04:32:17+00:00", "2022-04-07T04:34:26+00:00", "2022-04-07T04:37:39+00:00", "2022-04-07T04:41:40+00:00", "2022-04-07T04:43:40+00:00", "2022-04-07T04:46:08+00:00", "2022-04-07T04:48:00+00:00", "2022-04-07T04:51:40+00:00", "2022-04-07T04:53:40+00:00", "2022-04-07T04:57:40+00:00", "2022-04-07T05:01:40+00:00", "2022-04-07T05:03:16+00:00", "2022-04-07T05:05:40+00:00", "2022-04-07T05:11:40+00:00", "2022-04-07T05:13:40+00:00", "2022-04-07T05:15:44+00:00", "2022-04-07T05:19:40+00:00", "2022-04-07T05:21:14+00:00", "2022-04-07T05:23:40+00:00", "2022-04-07T05:28:20+00:00", "2022-04-07T05:29:40+00:00", "2022-04-07T05:33:40+00:00", "2022-04-07T05:35:40+00:00", "2022-04-07T05:37:40+00:00", "2022-04-07T05:41:40+00:00", "2022-04-07T05:42:11+00:00", "2022-04-07T05:45:40+00:00", "2022-04-07T05:49:40+00:00", "2022-04-07T05:50:55+00:00", "2022-04-07T05:53:40+00:00", "2022-04-07T05:57:40+00:00", "2022-04-07T06:01:40+00:00", "2022-04-07T06:03:40+00:00", "2022-04-07T06:05:01+00:00", "2022-04-07T06:09:40+00:00", "2022-04-07T06:11:27+00:00", "2022-04-07T06:13:40+00:00", "2022-04-07T06:19:40+00:00", "2022-04-07T06:23:00+00:00", "2022-04-07T06:24:49+00:00", "2022-04-07T06:27:40+00:00", "2022-04-07T06:31:40+00:00", "2022-04-07T06:33:40+00:00", "2022-04-07T06:34:24+00:00", "2022-04-07T06:39:40+00:00", "2022-04-07T06:42:16+00:00", "2022-04-07T06:43:40+00:00", "2022-04-07T06:49:40+00:00", "2022-04-07T06:53:00+00:00", "2022-04-07T06:55:40+00:00", "2022-04-07T06:59:40+00:00", "2022-04-07T07:03:00+00:00", "2022-04-07T07:05:40+00:00", "2022-04-07T07:09:40+00:00", "2022-04-07T07:10:55+00:00", "2022-04-07T07:13:40+00:00", "2022-04-07T07:17:22+00:00", "2022-04-07T07:22:09+00:00", "2022-04-07T07:23:00+00:00", "2022-04-07T07:27:40+00:00", "2022-04-07T07:31:40+00:00", "2022-04-07T07:33:43+00:00", "2022-04-07T07:37:43+00:00", "2022-04-07T07:41:43+00:00", "2022-04-07T07:43:43+00:00", "2022-04-07T07:46:15+00:00", "2022-04-07T07:49:43+00:00", "2022-04-07T07:50:37+00:00", "2022-04-07T07:53:43+00:00", "2022-04-07T07:57:43+00:00", "2022-04-07T07:59:52+00:00", "2022-04-07T08:03:00+00:00", "2022-04-07T08:05:34+00:00", "2022-04-07T08:07:43+00:00", "2022-04-07T08:09:43+00:00", "2022-04-07T08:12:37+00:00", "2022-04-07T08:15:43+00:00", "2022-04-07T08:19:43+00:00", "2022-04-07T08:23:06+00:00", "2022-04-07T08:23:43+00:00", "2022-04-07T08:29:13+00:00", "2022-04-07T08:29:43+00:00", "2022-04-07T08:33:43+00:00", "2022-04-07T08:37:43+00:00", "2022-04-07T08:40:05+00:00", "2022-04-07T08:43:15+00:00", "2022-04-07T08:47:43+00:00", "2022-04-07T08:51:43+00:00", "2022-04-07T08:53:43+00:00", "2022-04-07T08:56:59+00:00", "2022-04-07T08:57:43+00:00", "2022-04-07T09:03:15+00:00", "2022-04-07T09:05:43+00:00", "2022-04-07T09:09:43+00:00", "2022-04-07T09:11:55+00:00", "2022-04-07T09:13:43+00:00", "2022-04-07T09:19:43+00:00", "2022-04-07T09:23:15+00:00", "2022-04-07T09:25:43+00:00", "2022-04-07T09:26:49+00:00", "2022-04-07T09:29:43+00:00", "2022-04-07T09:33:00+00:00", "2022-04-07T09:33:43+00:00", "2022-04-07T09:38:14+00:00", "2022-04-07T09:39:43+00:00", "2022-04-07T09:42:24+00:00", "2022-04-07T09:45:43+00:00", "2022-04-07T09:49:43+00:00", "2022-04-07T09:53:15+00:00", "2022-04-07T09:55:43+00:00", "2022-04-07T09:59:43+00:00", "2022-04-07T10:03:15+00:00", "2022-04-07T10:05:43+00:00", "2022-04-07T10:07:43+00:00", "2022-04-07T10:13:15+00:00", "2022-04-07T10:15:44+00:00", "2022-04-07T10:19:44+00:00", "2022-04-07T10:20:42+00:00", "2022-04-07T10:23:44+00:00", "2022-04-07T10:29:44+00:00", "2022-04-07T10:33:15+00:00", "2022-04-07T10:33:46+00:00", "2022-04-07T10:39:44+00:00", "2022-04-07T10:43:15+00:00", "2022-04-07T10:45:44+00:00", "2022-04-07T10:49:42+00:00", "2022-04-07T10:53:44+00:00", "2022-04-07T10:57:44+00:00", "2022-04-07T11:01:37+00:00", "2022-04-07T11:03:15+00:00", "2022-04-07T11:07:44+00:00", "2022-04-07T11:11:44+00:00", "2022-04-07T11:13:44+00:00", "2022-04-07T11:16:38+00:00", "2022-04-07T11:19:44+00:00", "2022-04-07T11:23:15+00:00", "2022-04-07T11:25:44+00:00", "2022-04-07T11:29:44+00:00", "2022-04-07T11:33:15+00:00", "2022-04-07T11:34:43+00:00", "2022-04-07T11:36:45+00:00", "2022-04-07T11:39:44+00:00", "2022-04-07T11:43:15+00:00", "2022-04-07T11:45:27+00:00", "2022-04-07T11:47:44+00:00", "2022-04-07T11:51:44+00:00", "2022-04-07T11:52:49+00:00", "2022-04-07T11:54:51+00:00", "2022-04-07T11:56:22+00:00", "2022-04-07T11:57:43+00:00", "2022-04-07T11:59:38+00:00", "2022-04-07T12:01:41+00:00", "2022-04-07T12:26:30+00:00", "2022-04-07T12:29:37+00:00", "2022-04-07T15:51:53+00:00"], "elevations": [-3.0, -3.0, -3.0, -3.4, -3.4, -3.0, -3.0, -3.4, -3.0, -3.0, -3.4, -3.0, -2.5, -2.0, -1.4, -1.0, 2.2, 1.0, 0.5, -0.8, 0.0, 1.0, 0.7, 1.0, 1.5, 2.0, 2.2, 2.0, 1.0, 0.0, -1.4, -1.0, 0.0, 0.0, -0.8, 0.0, null, 0.0, 0.0, 0.3, 0.3, 0.5, -0.2, -1.0, -1.4, -0.5, -0.5, -1.4, -1.0, -1.0, -1.0, -1.4, -0.5, 8.0, 8.4, 8.0, 8.0, 6.7, 5.5, 5.0, 4.2, 4.0, -0.5, -1.0, -1.9, -1.0, -0.5, -0.8, 0.0, 0.0, 0.2, 0.5, 1.0, 0.7, 1.5, 2.0, 2.0, 0.7, 0.0, -1.0, -1.4, 0.0, 0.0, 0.0, 0.2, 0.0, 0.0, 0.2, 0.0, 1.0, null, 0.8, 1.0, 1.0, 2.0, 2.2, 2.5, 2.0, 2.2, 2.0, 2.0, 2.2, 2.0, 2.5, 3.0, 2.2, 2.0, 1.0, 0.0, -0.2, 1.0, 0.0, 0.7, 1.0, 1.0, -2.0, -1.7, -1.0, -1.0, -1.5, -1.7, -1.0, -1.0, 0.2, 0.0, 0.0, null, -0.6, 0.0, 0.0, 0.0, -0.8, 0.0, 0.0, 0.2, 0.0, 0.0, 0.0, 8.2, 10.0, 8.5, 8.2, 3.5, 3.0, 4.0, 4.2, 4.0, 3.0, 2.7, 3.0, 3.0, 2.5, 2.2, 2.5, 1.2, 1.0, 1.0, 0.3, -1.5, -2.0, -2.9, -2.0, -2.0, -3.0, -3.4, -3.0, -3.0, -3.9, -3.0, -3.0, -3.4, -3.0, -3.0, -2.5, -2.9, -2.0, -2.5, -3.4, -3.0, -3.0, -3.0, 0.2, 0.0, 0.0, 0.2, 0.0, 0.0, 0.0, 0.2, 0.0, 0.0, 0.2, 0.0, 0.0, 0.0, -1.6, -2.0, -2.0, -3.7, -3.0, -4.0, -4.0, -5.4, -5.0, 0.0, 0.2, 0.0, -1.0, -1.4, -1.0, 0.0, 0.0, 0.1, 0.0, 0.0, -0.8, 0.0, 0.0, -0.8, 0.5, 0.0, 0.0, -0.2, 0.0, 0.0, 0.3, 0.0, 0.0, 0.0, -1.0, -0.8, 0.0, 0.0, -0.8, -1.0, 0.0, 0.0, -1.4, 0.0, 0.0, -1.7, 0.0, 0.0, -0.8, 0.0, 0.0, 0.0, 0.4, 1.0, 1.0, 0.7, 2.0, 2.0, 2.0, 2.3, 3.5, 6.0, 7.0, 6.2, 5.0, 1.5, 5.2, 3.0, 8.5, 4.0, 2.4, 3.5, 4.2, 4.0, 4.0, 4.0, 4.2, 4.0, 4.0, 4.0, 4.1, 4.0, 4.2, 4.5, 5.0, 4.7, 5.0, 2.0, 1.0, 2.2, 2.0, 2.0, 2.2, 3.0, 4.0, 4.2, 4.0, 5.0, 2.7, 1.0, 0.0, 0.0, 0.2, 1.0, 1.0, 0.7, 1.0, 1.5, 0.0, 0.3, 0.5, 2.5, 3.0, 3.0, 2.0, 2.5, 2.7, 3.0, 3.0, 2.8, 2.0, 3.0, 2.7, 3.0, 3.0, 2.7, 3.0, 3.5, 4.0, 4.8, 5.0, 5.7, 5.0, 5.0, 5.0, null, 4.8, 2.0, 3.5, 4.4, 4.0, 4.0, 4.7, 7.0, 8.0, 7.2, 5.5, 4.5, 5.7, 5.0, 5.0, 5.0, 4.8, 4.5, 4.2, 4.0, 5.0, 6.2, 6.0, 6.0, 6.2, 6.0, 6.0, 6.1, -1.0, -2.0, -2.9, -1.0, -0.5, -1.4, -0.5, 0.0, -1.4, -1.0, 0.0, -0.5, -0.8, 0.0, 0.0, 0.0, -1.7, 0.0, 0.0, 0.0, 1.0, 2.0, 2.2, 1.0, 0.1]}