{"type": "Feature", "properties": {"leg_id": 54, "name": "20230607 - Port Clinton to Middle Percy Island", "stated_nm": 70.4, "computed_nm": 70.4}, "geometry": {"type": "LineString", "coordinates": [[150.758428, -22.546149], [150.75501, -22.540297], [150.753584, -22.538149], [150.751679, -22.535598], [150.750026, -22.533314], [150.749457, -22.530165], [150.749515, -22.52619], [150.750468, -22.522991], [150.752045, -22.520258], [150.754207, -22.517849], [150.757162, -22.51541], [150.759364, -22.51434], [150.761755, -22.51355], [150.764333, -22.512503], [150.766564, -22.51094], [150.768777, -22.508778], [150.77095, -22.506488], [150.773321, -22.504056], [150.775431, -22.50186], [150.777542, -22.49893], [150.779201, -22.496636], [150.780645, -22.494767], [150.781437, -22.49274], [150.782318, -22.487828], [150.782794, -22.48476], [150.782983, -22.481583], [150.783048, -22.478925], [150.783116, -22.476234], [150.783186, -22.473625], [150.783278, -22.47109], [150.783353, -22.468421], [150.783065, -22.465104], [150.782578, -22.461872], [150.782074, -22.458612], [150.781385, -22.454948], [150.780997, -22.452286], [150.780278, -22.449697], [150.779336, -22.44625], [150.778434, -22.443233], [150.777778, -22.440756], [150.777159, -22.438186], [150.776319, -22.434448], [150.776068, -22.432046], [150.775965, -22.429431], [150.77587, -22.425893], [150.775782, -22.423376], [150.775776, -22.420804], [150.775695, -22.417494], [150.775572, -22.41417], [150.775543, -22.410577], [150.775543, -22.407311], [150.775548, -22.403954], [150.775552, -22.401584], [150.775593, -22.399028], [150.775434, -22.396921], [150.775095, -22.394999], [150.774759, -22.393094], [150.774402, -22.390964], [150.773936, -22.38854], [150.773604, -22.386323], [150.773122, -22.383768], [150.77267, -22.381449], [150.772148, -22.379137], [150.771631, -22.37665], [150.770729, -22.37285], [150.770277, -22.370627], [150.769689, -22.368082], [150.768833, -22.364309], [150.768048, -22.361347], [150.767475, -22.358978], [150.76679, -22.355988], [150.766111, -22.352889], [150.76545, -22.349254], [150.764722, -22.34592], [150.763969, -22.342727], [150.76322, -22.339917], [150.762373, -22.33689], [150.761644, -22.334514], [150.760632, -22.330838], [150.759946, -22.328353], [150.758957, -22.324671], [150.758464, -22.322783], [150.757984, -22.321097], [150.757293, -22.318486], [150.756651, -22.316087], [150.756129, -22.314365], [150.755595, -22.312433], [150.754685, -22.309093], [150.753501, -22.304947], [150.752796, -22.302293], [150.751389, -22.297515], [150.7507, -22.295436], [150.749876, -22.292471], [150.749375, -22.290568], [150.748512, -22.286985], [150.747497, -22.283586], [150.746404, -22.279953], [150.7457, -22.277317], [150.744787, -22.274161], [150.744138, -22.271734], [150.743473, -22.269197], [150.742441, -22.265494], [150.741675, -22.262707], [150.740447, -22.258738], [150.739551, -22.255738], [150.738635, -22.252942], [150.737498, -22.249196], [150.736642, -22.246647], [150.735812, -22.243865], [150.734716, -22.24042], [150.73401, -22.237967], [150.733276, -22.235621], [150.732404, -22.232816], [150.731295, -22.22912], [150.730522, -22.226639], [150.730088, -22.224508], [150.729559, -22.220541], [150.729135, -22.21677], [150.728906, -22.214728], [150.728648, -22.211775], [150.72832, -22.209237], [150.727984, -22.206097], [150.727446, -22.202221], [150.727193, -22.198984], [150.726902, -22.196218], [150.726615, -22.193638], [150.726474, -22.19088], [150.726128, -22.188149], [150.725844, -22.185209], [150.725439, -22.181984], [150.725074, -22.179189], [150.724463, -22.175334], [150.723991, -22.171378], [150.72358, -22.168616], [150.723022, -22.165237], [150.722801, -22.162699], [150.72269, -22.16061], [150.722313, -22.157527], [150.721809, -22.153858], [150.721409, -22.150992], [150.721025, -22.147832], [150.720596, -22.145122], [150.720307, -22.142849], [150.719927, -22.140434], [150.719198, -22.136335], [150.718792, -22.13375], [150.718117, -22.130567], [150.717474, -22.127744], [150.716762, -22.124218], [150.716106, -22.12101], [150.715593, -22.118533], [150.714902, -22.115591], [150.714188, -22.11249], [150.713523, -22.10955], [150.713204, -22.107469], [150.712696, -22.104469], [150.711989, -22.100844], [150.711304, -22.096686], [150.710971, -22.094123], [150.710578, -22.091554], [150.710214, -22.088845], [150.709713, -22.085782], [150.708973, -22.082467], [150.708567, -22.08035], [150.708176, -22.077844], [150.707519, -22.074334], [150.707021, -22.071998], [150.70626, -22.069039], [150.705113, -22.065581], [150.70308, -22.061515], [150.701544, -22.058655], [150.700305, -22.056212], [150.698775, -22.053044], [150.697152, -22.049654], [150.694816, -22.045234], [150.694067, -22.043646], [150.6931, -22.041286], [150.692815, -22.037805], [150.692715, -22.035443], [150.69263, -22.033527], [150.691968, -22.03032], [150.690979, -22.026774], [150.69001, -22.023377], [150.689158, -22.02013], [150.688064, -22.01613], [150.68726, -22.013332], [150.686398, -22.010427], [150.685771, -22.008013], [150.685017, -22.005121], [150.683914, -22.001662], [150.68326, -21.999452], [150.682125, -21.99557], [150.681432, -21.993125], [150.680509, -21.989856], [150.679812, -21.987379], [150.679007, -21.985282], [150.677564, -21.982585], [150.676118, -21.979707], [150.674366, -21.976286], [150.673478, -21.973768], [150.673173, -21.971379], [150.673041, -21.968334], [150.672938, -21.965202], [150.673385, -21.961744], [150.674865, -21.960353], [150.677537, -21.959804], [150.679381, -21.959355], [150.680082, -21.960404], [150.679701, -21.960723], [150.675182, -21.961405], [150.673067, -21.960478], [150.669404, -21.957987], [150.667716, -21.956765], [150.665146, -21.954877], [150.66217, -21.952686], [150.659311, -21.950592], [150.656287, -21.948336], [150.653367, -21.946806], [150.650269, -21.94528], [150.646805, -21.943545], [150.643177, -21.941682], [150.6402, -21.940125], [150.638472, -21.939888], [150.639159, -21.942308], [150.637476, -21.942247], [150.63385, -21.940984], [150.630097, -21.93945], [150.627083, -21.93822], [150.624016, -21.936961], [150.620782, -21.935624], [150.616509, -21.933712], [150.61381, -21.932443], [150.611178, -21.931113], [150.608351, -21.929762], [150.604851, -21.927975], [150.602375, -21.926708], [150.599194, -21.925054], [150.595482, -21.923257], [150.591919, -21.921517], [150.589142, -21.920187], [150.585716, -21.918563], [150.583059, -21.917334], [150.579994, -21.915968], [150.577261, -21.914732], [150.573577, -21.913131], [150.570068, -21.911665], [150.567783, -21.910712], [150.564301, -21.909306], [150.560614, -21.907819], [150.556995, -21.90635], [150.554417, -21.905201], [150.551103, -21.903802], [150.547946, -21.902437], [150.544758, -21.900845], [150.541061, -21.898764], [150.538564, -21.897409], [150.535733, -21.895909], [150.53304, -21.894814], [150.529541, -21.893585], [150.525628, -21.89228], [150.523354, -21.891522], [150.519696, -21.890157], [150.516551, -21.889063], [150.513704, -21.888182], [150.511323, -21.887365], [150.508551, -21.886381], [150.505952, -21.885407], [150.503542, -21.884529], [150.500463, -21.883444], [150.498133, -21.882545], [150.494573, -21.881216], [150.491999, -21.880288], [150.48932, -21.879381], [150.486836, -21.878482], [150.483703, -21.877356], [150.480308, -21.876113], [150.477354, -21.875068], [150.474284, -21.873924], [150.470876, -21.872724], [150.467639, -21.871609], [150.464958, -21.870588], [150.462053, -21.869577], [150.459132, -21.868558], [150.455681, -21.86726], [150.452483, -21.866042], [150.449484, -21.864842], [150.44692, -21.863502], [150.444581, -21.862138], [150.44211, -21.860718], [150.439016, -21.858893], [150.436147, -21.85719], [150.432963, -21.855355], [150.42978, -21.853495], [150.427589, -21.852247], [150.424754, -21.850691], [150.421896, -21.849101], [150.41929, -21.847635], [150.416779, -21.846208], [150.413457, -21.844322], [150.410097, -21.842395], [150.407588, -21.840957], [150.405449, -21.8397], [150.402578, -21.838093], [150.399366, -21.83632], [150.396311, -21.83461], [150.392624, -21.832522], [150.389766, -21.830936], [150.387435, -21.829642], [150.385333, -21.828517], [150.382482, -21.827023], [150.379425, -21.825434], [150.377594, -21.824447], [150.375448, -21.823357], [150.372541, -21.82192], [150.370524, -21.820874], [150.368376, -21.819693], [150.365849, -21.818359], [150.362904, -21.816746], [150.360458, -21.815311], [150.35836, -21.814121], [150.356212, -21.812857], [150.353457, -21.811303], [150.351189, -21.809957], [150.348568, -21.808469], [150.344911, -21.806494], [150.3426, -21.805344], [150.339841, -21.804021], [150.336701, -21.8026], [150.334351, -21.801498], [150.331629, -21.80018], [150.327792, -21.798558], [150.325495, -21.797472], [150.323565, -21.796627], [150.320968, -21.79554], [150.318512, -21.794485], [150.315861, -21.793225], [150.313624, -21.791698], [150.310582, -21.789495], [150.308798, -21.788129], [150.306168, -21.785941], [150.304271, -21.784424], [150.302477, -21.782871], [150.29935, -21.779716], [150.297956, -21.778001], [150.294556, -21.772358], [150.293248, -21.770027], [150.291493, -21.766778], [150.289921, -21.763732], [150.287682, -21.759881], [150.285782, -21.756604], [150.284105, -21.753795], [150.281876, -21.75026], [150.279869, -21.747115], [150.277885, -21.74395], [150.275872, -21.740734], [150.274146, -21.738446], [150.270157, -21.733483], [150.268078, -21.73091], [150.265647, -21.727799], [150.263513, -21.72505], [150.261122, -21.722115], [150.258813, -21.719279], [150.256469, -21.716423], [150.2539, -21.713294], [150.251735, -21.71054], [150.249389, -21.707524], [150.247675, -21.704787], [150.245945, -21.701475], [150.244927, -21.699473], [150.24366, -21.696945], [150.241996, -21.69359], [150.24057, -21.690516], [150.239128, -21.687237], [150.237887, -21.684268], [150.237119, -21.681064], [150.236231, -21.676941], [150.235698, -21.674213], [150.235217, -21.670808], [150.235076, -21.667372], [150.235443, -21.663504], [150.23586, -21.660616], [150.237009, -21.657149], [150.238518, -21.654572], [150.240173, -21.653308], [150.242289, -21.652958], [150.244473, -21.652589]]}, "times": ["2023-06-07T10:01:47+00:00", "2023-06-07T21:38:32+00:00", "2023-06-07T21:39:56+00:00", "2023-06-07T21:42:33+00:00", "2023-06-07T21:43:34+00:00", "2023-06-07T21:44:41+00:00", "2023-06-07T21:47:55+00:00", "2023-06-07T21:49:56+00:00", "2023-06-07T21:51:56+00:00", "2023-06-07T21:53:56+00:00", "2023-06-07T21:56:40+00:00", "2023-06-07T21:57:56+00:00", "2023-06-07T21:59:57+00:00", "2023-06-07T22:01:57+00:00", "2023-06-07T22:03:57+00:00", "2023-06-07T22:05:42+00:00", "2023-06-07T22:07:57+00:00", "2023-06-07T22:09:31+00:00", "2023-06-07T22:10:57+00:00", "2023-06-07T22:13:57+00:00", "2023-06-07T22:14:57+00:00", "2023-06-07T22:16:57+00:00", "2023-06-07T22:17:58+00:00", "2023-06-07T22:21:57+00:00", "2023-06-07T22:23:23+00:00", "2023-06-07T22:25:57+00:00", "2023-06-07T22:26:58+00:00", "2023-06-07T22:29:08+00:00", "2023-06-07T22:30:57+00:00", "2023-06-07T22:32:41+00:00", "2023-06-07T22:34:05+00:00", "2023-06-07T22:36:34+00:00", "2023-06-07T22:38:02+00:00", "2023-06-07T22:40:05+00:00", "2023-06-07T22:42:57+00:00", "2023-06-07T22:43:59+00:00", "2023-06-07T22:46:05+00:00", "2023-06-07T22:47:58+00:00", "2023-06-07T22:50:53+00:00", "2023-06-07T22:51:45+00:00", "2023-06-07T22:53:05+00:00", "2023-06-07T22:55:46+00:00", "2023-06-07T22:57:05+00:00", "2023-06-07T22:57:58+00:00", "2023-06-07T23:00:15+00:00", "2023-06-07T23:01:59+00:00", "2023-06-07T23:03:06+00:00", "2023-06-07T23:05:00+00:00", "2023-06-07T23:07:00+00:00", "2023-06-07T23:10:01+00:00", "2023-06-07T23:12:01+00:00", "2023-06-07T23:13:42+00:00", "2023-06-07T23:15:00+00:00", "2023-06-07T23:16:34+00:00", "2023-06-07T23:18:15+00:00", "2023-06-07T23:19:11+00:00", "2023-06-07T23:21:02+00:00", "2023-06-07T23:22:03+00:00", "2023-06-07T23:24:03+00:00", "2023-06-07T23:25:49+00:00", "2023-06-07T23:27:21+00:00", "2023-06-07T23:29:18+00:00", "2023-06-07T23:31:02+00:00", "2023-06-07T23:33:00+00:00", "2023-06-07T23:36:01+00:00", "2023-06-07T23:37:02+00:00", "2023-06-07T23:39:03+00:00", "2023-06-07T23:42:04+00:00", "2023-06-07T23:44:04+00:00", "2023-06-07T23:46:04+00:00", "2023-06-07T23:48:06+00:00", "2023-06-07T23:50:06+00:00", "2023-06-07T23:53:06+00:00", "2023-06-07T23:55:00+00:00", "2023-06-07T23:57:07+00:00", "2023-06-07T23:59:07+00:00", "2023-06-08T00:01:07+00:00", "2023-06-08T00:02:07+00:00", "2023-06-08T00:04:43+00:00", "2023-06-08T00:06:07+00:00", "2023-06-08T00:08:16+00:00", "2023-06-08T00:09:36+00:00", "2023-06-08T00:10:37+00:00", "2023-06-08T00:12:04+00:00", "2023-06-08T00:13:38+00:00", "2023-06-08T00:15:00+00:00", "2023-06-08T00:16:06+00:00", "2023-06-08T00:18:04+00:00", "2023-06-08T00:21:03+00:00", "2023-06-08T00:22:04+00:00", "2023-06-08T00:25:29+00:00", "2023-06-08T00:26:25+00:00", "2023-06-08T00:28:06+00:00", "2023-06-08T00:29:06+00:00", "2023-06-08T00:31:50+00:00", "2023-06-08T00:34:12+00:00", "2023-06-08T00:36:02+00:00", "2023-06-08T00:37:16+00:00", "2023-06-08T00:39:06+00:00", "2023-06-08T00:41:05+00:00", "2023-06-08T00:42:06+00:00", "2023-06-08T00:45:00+00:00", "2023-06-08T00:46:06+00:00", "2023-06-08T00:49:07+00:00", "2023-06-08T00:50:07+00:00", "2023-06-08T00:52:07+00:00", "2023-06-08T00:54:56+00:00", "2023-06-08T00:56:07+00:00", "2023-06-08T00:58:07+00:00", "2023-06-08T01:00:07+00:00", "2023-06-08T01:01:10+00:00", "2023-06-08T01:03:06+00:00", "2023-06-08T01:05:00+00:00", "2023-06-08T01:07:09+00:00", "2023-06-08T01:08:12+00:00", "2023-06-08T01:09:11+00:00", "2023-06-08T01:12:04+00:00", "2023-06-08T01:14:05+00:00", "2023-06-08T01:15:00+00:00", "2023-06-08T01:16:18+00:00", "2023-06-08T01:18:11+00:00", "2023-06-08T01:19:31+00:00", "2023-06-08T01:22:07+00:00", "2023-06-08T01:23:20+00:00", "2023-06-08T01:25:00+00:00", "2023-06-08T01:26:12+00:00", "2023-06-08T01:28:12+00:00", "2023-06-08T01:29:17+00:00", "2023-06-08T01:31:12+00:00", "2023-06-08T01:33:10+00:00", "2023-06-08T01:34:55+00:00", "2023-06-08T01:36:27+00:00", "2023-06-08T01:39:12+00:00", "2023-06-08T01:40:12+00:00", "2023-06-08T01:42:12+00:00", "2023-06-08T01:43:49+00:00", "2023-06-08T01:45:00+00:00", "2023-06-08T01:47:05+00:00", "2023-06-08T01:49:07+00:00", "2023-06-08T01:50:15+00:00", "2023-06-08T01:52:08+00:00", "2023-06-08T01:53:28+00:00", "2023-06-08T01:55:00+00:00", "2023-06-08T01:56:11+00:00", "2023-06-08T01:58:37+00:00", "2023-06-08T02:00:11+00:00", "2023-06-08T02:02:17+00:00", "2023-06-08T02:04:09+00:00", "2023-06-08T02:05:59+00:00", "2023-06-08T02:07:09+00:00", "2023-06-08T02:08:10+00:00", "2023-06-08T02:09:52+00:00", "2023-06-08T02:12:09+00:00", "2023-06-08T02:13:37+00:00", "2023-06-08T02:14:42+00:00", "2023-06-08T02:16:17+00:00", "2023-06-08T02:18:09+00:00", "2023-06-08T02:21:17+00:00", "2023-06-08T02:22:04+00:00", "2023-06-08T02:23:44+00:00", "2023-06-08T02:25:15+00:00", "2023-06-08T02:27:09+00:00", "2023-06-08T02:28:17+00:00", "2023-06-08T02:29:53+00:00", "2023-06-08T02:31:14+00:00", "2023-06-08T02:33:23+00:00", "2023-06-08T02:34:14+00:00", "2023-06-08T02:35:30+00:00", "2023-06-08T02:37:17+00:00", "2023-06-08T02:40:28+00:00", "2023-06-08T02:41:40+00:00", "2023-06-08T02:43:17+00:00", "2023-06-08T02:45:15+00:00", "2023-06-08T02:47:24+00:00", "2023-06-08T02:50:22+00:00", "2023-06-08T02:51:17+00:00", "2023-06-08T02:53:07+00:00", "2023-06-08T02:55:15+00:00", "2023-06-08T02:56:17+00:00", "2023-06-08T02:57:24+00:00", "2023-06-08T02:59:19+00:00", "2023-06-08T03:01:19+00:00", "2023-06-08T03:03:19+00:00", "2023-06-08T03:05:15+00:00", "2023-06-08T03:08:18+00:00", "2023-06-08T03:09:19+00:00", "2023-06-08T03:11:19+00:00", "2023-06-08T03:13:04+00:00", "2023-06-08T03:14:25+00:00", "2023-06-08T03:17:05+00:00", "2023-06-08T03:18:20+00:00", "2023-06-08T03:20:34+00:00", "2023-06-08T03:22:20+00:00", "2023-06-08T03:24:21+00:00", "2023-06-08T03:25:47+00:00", "2023-06-08T03:27:21+00:00", "2023-06-08T03:29:12+00:00", "2023-06-08T03:31:21+00:00", "2023-06-08T03:33:21+00:00", "2023-06-08T03:34:30+00:00", "2023-06-08T03:36:10+00:00", "2023-06-08T03:37:21+00:00", "2023-06-08T03:39:21+00:00", "2023-06-08T03:41:22+00:00", "2023-06-08T03:43:12+00:00", "2023-06-08T03:45:41+00:00", "2023-06-08T03:48:13+00:00", "2023-06-08T03:49:58+00:00", "2023-06-08T08:08:02+00:00", "2023-06-08T21:39:42+00:00", "2023-06-08T21:41:25+00:00", "2023-06-08T21:45:03+00:00", "2023-06-08T21:46:03+00:00", "2023-06-08T21:48:03+00:00", "2023-06-08T21:51:25+00:00", "2023-06-08T21:53:25+00:00", "2023-06-08T21:56:25+00:00", "2023-06-08T21:58:25+00:00", "2023-06-08T22:01:25+00:00", "2023-06-08T22:03:42+00:00", "2023-06-08T22:06:47+00:00", "2023-06-08T22:09:24+00:00", "2023-06-08T22:10:54+00:00", "2023-06-08T22:12:38+00:00", "2023-06-08T22:13:38+00:00", "2023-06-08T22:16:27+00:00", "2023-06-08T22:19:29+00:00", "2023-06-08T22:21:31+00:00", "2023-06-08T22:23:31+00:00", "2023-06-08T22:25:01+00:00", "2023-06-08T22:28:33+00:00", "2023-06-08T22:29:35+00:00", "2023-06-08T22:31:33+00:00", "2023-06-08T22:33:33+00:00", "2023-06-08T22:36:45+00:00", "2023-06-08T22:37:45+00:00", "2023-06-08T22:40:10+00:00", "2023-06-08T22:43:28+00:00", "2023-06-08T22:46:00+00:00", "2023-06-08T22:47:30+00:00", "2023-06-08T22:50:29+00:00", "2023-06-08T22:51:33+00:00", "2023-06-08T22:54:30+00:00", "2023-06-08T22:55:58+00:00", "2023-06-08T22:59:38+00:00", "2023-06-08T23:01:38+00:00", "2023-06-08T23:02:38+00:00", "2023-06-08T23:05:38+00:00", "2023-06-08T23:07:30+00:00", "2023-06-08T23:10:08+00:00", "2023-06-08T23:11:38+00:00", "2023-06-08T23:14:38+00:00", "2023-06-08T23:16:50+00:00", "2023-06-08T23:18:06+00:00", "2023-06-08T23:21:38+00:00", "2023-06-08T23:22:59+00:00", "2023-06-08T23:24:43+00:00", "2023-06-08T23:26:36+00:00", "2023-06-08T23:29:41+00:00", "2023-06-08T23:33:50+00:00", "2023-06-08T23:35:50+00:00", "2023-06-08T23:39:20+00:00", "2023-06-08T23:41:42+00:00", "2023-06-08T23:44:42+00:00", "2023-06-08T23:46:42+00:00", "2023-06-08T23:49:30+00:00", "2023-06-08T23:51:48+00:00", "2023-06-08T23:54:02+00:00", "2023-06-08T23:57:03+00:00", "2023-06-08T23:59:06+00:00", "2023-06-09T00:02:46+00:00", "2023-06-09T00:04:46+00:00", "2023-06-09T00:06:59+00:00", "2023-06-09T00:09:45+00:00", "2023-06-09T00:12:53+00:00", "2023-06-09T00:15:45+00:00", "2023-06-09T00:17:45+00:00", "2023-06-09T00:20:05+00:00", "2023-06-09T00:22:49+00:00", "2023-06-09T00:25:37+00:00", "2023-06-09T00:27:45+00:00", "2023-06-09T00:29:51+00:00", "2023-06-09T00:31:51+00:00", "2023-06-09T00:34:51+00:00", "2023-06-09T00:36:51+00:00", "2023-06-09T00:39:35+00:00", "2023-06-09T00:41:51+00:00", "2023-06-09T00:43:56+00:00", "2023-06-09T00:46:51+00:00", "2023-06-09T00:49:51+00:00", "2023-06-09T00:52:51+00:00", "2023-06-09T00:55:51+00:00", "2023-06-09T00:58:51+00:00", "2023-06-09T01:00:51+00:00", "2023-06-09T01:03:51+00:00", "2023-06-09T01:06:51+00:00", "2023-06-09T01:09:24+00:00", "2023-06-09T01:11:51+00:00", "2023-06-09T01:14:51+00:00", "2023-06-09T01:17:45+00:00", "2023-06-09T01:19:51+00:00", "2023-06-09T01:21:51+00:00", "2023-06-09T01:24:51+00:00", "2023-06-09T01:27:45+00:00", "2023-06-09T01:30:55+00:00", "2023-06-09T01:34:35+00:00", "2023-06-09T01:36:41+00:00", "2023-06-09T01:39:03+00:00", "2023-06-09T01:40:50+00:00", "2023-06-09T01:43:50+00:00", "2023-06-09T01:47:06+00:00", "2023-06-09T01:48:53+00:00", "2023-06-09T01:50:37+00:00", "2023-06-09T01:53:55+00:00", "2023-06-09T01:55:55+00:00", "2023-06-09T01:57:45+00:00", "2023-06-09T02:00:44+00:00", "2023-06-09T02:03:46+00:00", "2023-06-09T02:05:46+00:00", "2023-06-09T02:08:02+00:00", "2023-06-09T02:09:50+00:00", "2023-06-09T02:12:47+00:00", "2023-06-09T02:14:47+00:00", "2023-06-09T02:17:41+00:00", "2023-06-09T02:20:46+00:00", "2023-06-09T02:22:46+00:00", "2023-06-09T02:24:46+00:00", "2023-06-09T02:27:45+00:00", "2023-06-09T02:29:52+00:00", "2023-06-09T02:31:52+00:00", "2023-06-09T02:35:52+00:00", "2023-06-09T02:37:45+00:00", "2023-06-09T02:39:58+00:00", "2023-06-09T02:41:39+00:00", "2023-06-09T02:43:58+00:00", "2023-06-09T02:45:56+00:00", "2023-06-09T02:47:45+00:00", "2023-06-09T02:50:45+00:00", "2023-06-09T02:52:10+00:00", "2023-06-09T02:55:10+00:00", "2023-06-09T02:57:10+00:00", "2023-06-09T02:59:03+00:00", "2023-06-09T03:01:44+00:00", "2023-06-09T03:02:12+00:00", "2023-06-09T03:06:21+00:00", "2023-06-09T03:07:29+00:00", "2023-06-09T03:09:22+00:00", "2023-06-09T03:10:54+00:00", "2023-06-09T03:13:54+00:00", "2023-06-09T03:15:54+00:00", "2023-06-09T03:16:54+00:00", "2023-06-09T03:19:55+00:00", "2023-06-09T03:21:55+00:00", "2023-06-09T03:23:55+00:00", "2023-06-09T03:25:55+00:00", "2023-06-09T03:26:55+00:00", "2023-06-09T03:30:55+00:00", "2023-06-09T03:31:56+00:00", "2023-06-09T03:34:56+00:00", "2023-06-09T03:36:13+00:00", "2023-06-09T03:38:57+00:00", "2023-06-09T03:40:57+00:00", "2023-06-09T03:42:57+00:00", "2023-06-09T03:44:44+00:00", "2023-06-09T03:46:32+00:00", "2023-06-09T03:48:32+00:00", "2023-06-09T03:50:45+00:00", "2023-06-09T03:52:50+00:00", "2023-06-09T03:53:52+00:00", "2023-06-09T03:55:54+00:00", "2023-06-09T03:57:35+00:00", "2023-06-09T03:59:56+00:00", "2023-06-09T04:01:56+00:00", "2023-06-09T04:02:56+00:00", "2023-06-09T04:04:57+00:00", "2023-06-09T04:08:00+00:00", "2023-06-09T04:10:01+00:00", "2023-06-09T04:11:02+00:00", "2023-06-09T04:13:02+00:00", "2023-06-09T04:16:02+00:00", "2023-06-09T04:17:02+00:00", "2023-06-09T04:19:16+00:00", "2023-06-09T04:21:08+00:00", "2023-06-09T04:22:33+00:00", "2023-06-09T04:24:08+00:00", "2023-06-09T04:26:34+00:00"], "elevations": [2.3, -2.0, -2.5, -1.5, 0.0, 0.0, 0.0, 0.0, 0.7, 4.7, 2.0, 3.0, 3.0, 3.0, -0.5, 2.7, 1.5, 1.0, 0.5, 0.0, 0.0, 0.0, 0.0, 0.0, 0.0, 0.0, 0.0, 0.0, 0.0, 0.0, null, 0.0, 0.0, 0.7, 5.0, 4.0, 4.0, 4.0, 4.0, 3.5, 4.0, 3.0, 3.0, 3.0, 3.0, 3.0, 3.0, 1.4, 7.0, 1.0, 0.0, 0.0, 3.6, 6.0, 5.0, 4.5, 4.0, -1.0, 1.0, -0.3, -1.0, -2.0, -1.0, -1.0, -1.4, 0.0, 0.0, 0.5, 3.5, 3.0, -2.7, 1.0, 1.0, 0.8, 0.0, 1.0, 2.0, 2.0, 1.0, 1.8, -2.0, 2.0, 4.0, 0.0, 0.0, 0.3, 0.0, 0.0, 20.0, 3.0, 4.4, 4.5, 4.0, 4.0, 3.0, 3.0, 2.2, 2.5, 2.5, 2.0, -1.0, -1.9, 0.0, 0.0, 0.0, 0.0, 0.0, -0.9, 2.0, 1.0, 1.0, 1.0, 0.2, -0.5, 2.0, 0.5, 0.0, -1.0, 4.4, 2.5, 0.0, 0.5, -0.5, -0.5, 0.3, 0.5, 1.0, 0.5, 1.0, 1.0, 1.0, 0.5, 1.0, 1.0, 1.0, 1.0, 0.7, -1.5, 0.0, 2.0, 1.0, 1.0, 2.3, 1.0, 1.0, 1.0, 9.5, 2.0, null, 2.0, -1.0, 0.0, 0.0, 5.0, 0.7, 1.0, 2.0, 1.5, null, -4.0, -6.9, -3.0, 3.0, 6.5, -5.0, 0.5, 1.0, 2.3, 3.0, 3.0, 15.5, 1.0, 2.8, 3.0, 3.0, 3.0, 6.5, 9.2, 2.0, null, 1.0, 0.3, 0.0, 0.8, 2.0, 2.0, 1.0, -2.5, 4.2, 2.5, 1.5, 1.0, 2.0, 2.1, 3.0, 1.0, 2.5, 3.0, 2.0, 3.0, 0.7, 3.0, 3.0, 5.0, 8.0, 0.8, 7.0, 3.5, 1.0, 1.0, -0.3, -2.0, -2.0, -2.6, -2.0, -1.3, 2.0, 1.8, 0.0, 3.0, 2.8, 3.0, 16.5, 7.0, 5.0, 3.7, 2.5, 2.5, 1.0, 0.5, 1.0, 1.0, 1.0, 1.0, 0.5, 0.1, 0.5, 0.5, 0.0, -0.6, 0.0, 0.0, 0.0, 0.0, 4.7, 7.5, 4.5, 4.0, 5.8, 6.0, 13.0, 7.5, 7.0, 9.2, 10.0, 10.0, 10.0, 10.2, 8.0, 6.0, 4.3, 3.2, 4.7, 0.0, 3.5, 0.0, 0.0, 0.0, 0.1, 0.0, 1.0, 3.5, -1.3, 0.0, 7.0, 25.0, 3.8, -2.5, 1.3, 1.5, 2.2, 2.0, 2.7, 3.0, 3.8, 4.0, 5.3, 5.5, 6.1, 4.3, 4.7, 8.0, 5.5, 6.0, 5.7, 4.8, 5.0, 3.7, 2.0, 2.4, 3.0, 1.0, 1.0, -0.6, 0.3, 0.5, -0.6, 0.0, 0.0, 1.0, 0.0, 0.6, 1.0, 1.0, 2.0, 2.2, 2.0, 2.0, 2.0, 2.4, 3.0, 3.0, 3.0, 0.4, -0.5, -0.7, -3.5, -1.4, -0.3, 0.0, 0.0, -0.8, 0.0, 0.0, 0.0, 1.0, 2.2, 2.0, 3.5, 4.0, 3.5, 2.8, 3.0, 2.5, 1.0, -0.2, 5.5, 2.0, 2.0, 2.0, 2.7, 3.0, 1.5, 2.5, 3.0, 2.7, 2.0, 2.5, 3.5, 4.0, 4.7, 5.0, 3.0, 7.0, 3.7, 4.2, 3.5, 3.0, 3.0, 3.5, 4.2, 4.0, 7.0, 3.5, 3.0, 2.7, 3.0, 1.5, -0.5, 0.5, 2.2, 0.0, 4.0, 5.5, 0.0, 3.5]}