{"type": "Feature", "properties": {"leg_id": 36, "name": "20220711 - Cruising Tahiti / Moorea", "stated_nm": 74.0, "computed_nm": 74.0}, "geometry": {"type": "LineString", "coordinates": [[-149.569212, -17.539405], [-149.572695, -17.539525], [-149.575603, -17.540067], [-149.577459, -17.540295], [-149.580109, -17.538863], [-149.582802, -17.537066], [-149.586385, -17.534148], [-149.588584, -17.532998], [-149.591431, -17.531728], [-149.596679, -17.529496], [-149.600738, -17.527808], [-149.606879, -17.525288], [-149.616196, -17.521105], [-149.619284, -17.519692], [-149.621241, -17.519025], [-149.625633, -17.517336], [-149.629383, -17.515738], [-149.634002, -17.513948], [-149.639618, -17.511729], [-149.645233, -17.509459], [-149.650879, -17.507262], [-149.656501, -17.505138], [-149.661962, -17.503017], [-149.668347, -17.500363], [-149.672745, -17.498784], [-149.677897, -17.496988], [-149.685654, -17.494468], [-149.689362, -17.493303], [-149.693328, -17.492352], [-149.698626, -17.490691], [-149.701075, -17.489627], [-149.704728, -17.487569], [-149.707017, -17.486384], [-149.713211, -17.483632], [-149.718183, -17.481264], [-149.720727, -17.480134], [-149.727182, -17.477297], [-149.732857, -17.474903], [-149.737699, -17.472812], [-149.740377, -17.471685], [-149.746725, -17.469278], [-149.748712, -17.468488], [-149.751553, -17.466761], [-149.753408, -17.466025], [-149.757286, -17.466013], [-149.761196, -17.465811], [-149.764106, -17.465425], [-149.766621, -17.465357], [-149.772891, -17.465815], [-149.778085, -17.466141], [-149.781261, -17.466387], [-149.787991, -17.466963], [-149.791146, -17.467096], [-149.794203, -17.467181], [-149.798924, -17.467735], [-149.802015, -17.468164], [-149.808196, -17.468745], [-149.811557, -17.468932], [-149.816703, -17.469532], [-149.823263, -17.470382], [-149.829903, -17.471179], [-149.836525, -17.471874], [-149.842502, -17.472607], [-149.845468, -17.472909], [-149.851338, -17.473747], [-149.853442, -17.474184], [-149.856425, -17.475301], [-149.858354, -17.476873], [-149.860584, -17.479292], [-149.861393, -17.481665], [-149.862285, -17.484646], [-149.862333, -17.487258], [-149.86197, -17.491435], [-149.860825, -17.493495], [-149.85897, -17.496627], [-149.856898, -17.499153], [-149.855035, -17.502116], [-149.85424, -17.504335], [-149.852036, -17.513326], [-149.852089, -17.513087], [-149.853442, -17.508215], [-149.854624, -17.504136], [-149.855035, -17.501911], [-149.855065, -17.499934], [-149.854411, -17.497313], [-149.853695, -17.495417], [-149.85191, -17.491363], [-149.852099, -17.490899], [-149.853694, -17.493036], [-149.856546, -17.492947], [-149.861065, -17.492018], [-149.863657, -17.491322], [-149.869703, -17.489375], [-149.871804, -17.488259], [-149.8739, -17.486841], [-149.876878, -17.486403], [-149.878189, -17.486958], [-149.8782, -17.487424], [-149.875467, -17.486513], [-149.872774, -17.487639], [-149.870048, -17.489313], [-149.867343, -17.490311], [-149.865333, -17.491254], [-149.863144, -17.491278], [-149.862045, -17.490415], [-149.860848, -17.486464], [-149.855178, -17.479195], [-149.854264, -17.479586], [-149.849282, -17.47731], [-149.847793, -17.476576], [-149.84207, -17.473872], [-149.833598, -17.47227], [-149.830675, -17.471667], [-149.825312, -17.470468], [-149.823446, -17.470259], [-149.820312, -17.469633], [-149.817828, -17.469392], [-149.814819, -17.469148], [-149.808403, -17.467925], [-149.805738, -17.467584], [-149.807351, -17.46855], [-149.813444, -17.469943], [-149.815096, -17.470384], [-149.817925, -17.471021], [-149.821212, -17.472343], [-149.823914, -17.473971], [-149.82485, -17.475311], [-149.824847, -17.477414], [-149.823195, -17.479461], [-149.821575, -17.480625], [-149.81938, -17.482064], [-149.817321, -17.48243], [-149.815314, -17.481709], [-149.814191, -17.481351], [-149.813333, -17.481206], [-149.813557, -17.481316], [-149.815369, -17.482228], [-149.818809, -17.482021], [-149.821218, -17.481162], [-149.822995, -17.479983], [-149.825382, -17.476982], [-149.826335, -17.475116], [-149.824982, -17.47336], [-149.82322, -17.471812], [-149.816524, -17.468668], [-149.811287, -17.46631], [-149.802824, -17.464734], [-149.7997, -17.46437], [-149.794106, -17.464514], [-149.788293, -17.464635], [-149.783461, -17.464818], [-149.780984, -17.46524], [-149.777691, -17.466017], [-149.772011, -17.467699], [-149.767639, -17.46897], [-149.766758, -17.470103], [-149.764604, -17.471801], [-149.761489, -17.472825], [-149.754854, -17.475756], [-149.752053, -17.476611], [-149.748238, -17.477509], [-149.74598, -17.47833], [-149.740723, -17.48056], [-149.737909, -17.48183], [-149.731129, -17.484006], [-149.722552, -17.48711], [-149.715121, -17.489495], [-149.712287, -17.490462], [-149.704995, -17.492893], [-149.699203, -17.494912], [-149.6933, -17.496925], [-149.684402, -17.499992], [-149.678281, -17.502119], [-149.672158, -17.504269], [-149.665894, -17.506448], [-149.659728, -17.508631], [-149.652162, -17.511251], [-149.648812, -17.51244], [-149.644791, -17.513774], [-149.638726, -17.515698], [-149.632637, -17.517626], [-149.626404, -17.519534], [-149.619164, -17.52177], [-149.615707, -17.522787], [-149.608551, -17.524883], [-149.599472, -17.527452], [-149.591686, -17.530536], [-149.589462, -17.531871], [-149.58698, -17.533689], [-149.585488, -17.535567], [-149.583542, -17.537867], [-149.581616, -17.53901], [-149.579398, -17.540074], [-149.577608, -17.540839], [-149.575131, -17.540406], [-149.570859, -17.539644], [-149.57062, -17.539837], [-149.570215, -17.53938], [-149.569604, -17.539431], [-149.571127, -17.540113], [-149.570486, -17.540481], [-149.570727, -17.540226], [-149.573685, -17.5408], [-149.576208, -17.541644], [-149.579641, -17.542357], [-149.584877, -17.542959], [-149.588847, -17.543383], [-149.593286, -17.54312], [-149.595495, -17.543317], [-149.598989, -17.544705], [-149.603223, -17.546591], [-149.605889, -17.547427], [-149.612737, -17.549515], [-149.616147, -17.550519], [-149.618223, -17.552059], [-149.620331, -17.552363], [-149.621273, -17.552228], [-149.617657, -17.551274], [-149.614806, -17.549625], [-149.613051, -17.548869], [-149.60841, -17.54826], [-149.606318, -17.547721], [-149.600567, -17.545568], [-149.597108, -17.544335], [-149.594633, -17.54322], [-149.592633, -17.542912], [-149.590129, -17.543182], [-149.587653, -17.543372], [-149.585742, -17.542963], [-149.584749, -17.541426], [-149.584992, -17.5392], [-149.585001, -17.536878], [-149.58568, -17.534905], [-149.585243, -17.532977], [-149.582825, -17.530785], [-149.580616, -17.528864], [-149.582375, -17.527178], [-149.585802, -17.524414], [-149.587905, -17.52324], [-149.590462, -17.521928], [-149.593614, -17.520311], [-149.596377, -17.519224], [-149.600166, -17.518332], [-149.604363, -17.517509], [-149.607307, -17.516742], [-149.609553, -17.515929], [-149.614449, -17.514124], [-149.618609, -17.51272], [-149.621723, -17.511802], [-149.625979, -17.510453], [-149.628043, -17.509902], [-149.632587, -17.508724], [-149.634574, -17.507995], [-149.639741, -17.505899], [-149.642224, -17.504869], [-149.645638, -17.503661], [-149.649604, -17.50222], [-149.653207, -17.500958], [-149.656471, -17.499814], [-149.65842, -17.499129], [-149.661484, -17.497945], [-149.66523, -17.496554], [-149.668738, -17.495293], [-149.670633, -17.494615], [-149.675377, -17.49307], [-149.679043, -17.49185], [-149.682494, -17.490723], [-149.686, -17.489684], [-149.688576, -17.488871], [-149.693206, -17.487664], [-149.696572, -17.486716], [-149.699921, -17.485927], [-149.703314, -17.485068], [-149.707169, -17.484037], [-149.710099, -17.483231], [-149.713052, -17.482091], [-149.716995, -17.480718], [-149.720879, -17.479239], [-149.723322, -17.478356], [-149.726092, -17.477162], [-149.728909, -17.476454], [-149.732067, -17.475392], [-149.734933, -17.474533], [-149.739968, -17.473087], [-149.746444, -17.471277], [-149.750701, -17.470208], [-149.757048, -17.468352], [-149.759389, -17.467612], [-149.763642, -17.466509], [-149.767806, -17.465516], [-149.773384, -17.464048], [-149.777477, -17.462956], [-149.782535, -17.46254], [-149.787338, -17.462137], [-149.792303, -17.461605], [-149.795521, -17.461729], [-149.798256, -17.461754], [-149.803079, -17.461669], [-149.80459, -17.461686], [-149.811882, -17.461867], [-149.814705, -17.461843], [-149.820998, -17.461767], [-149.824166, -17.461876], [-149.828261, -17.461892], [-149.834708, -17.461912], [-149.837546, -17.462165], [-149.841525, -17.462946], [-149.845008, -17.463891], [-149.84818, -17.464944], [-149.850498, -17.467059], [-149.854658, -17.471697], [-149.856606, -17.473703], [-149.861435, -17.478791], [-149.862875, -17.4806], [-149.862697, -17.483415], [-149.86232, -17.486459], [-149.86022, -17.491889], [-149.858207, -17.49697], [-149.856193, -17.502367], [-149.854203, -17.507699], [-149.85244, -17.512191], [-149.852577, -17.513255], [-149.852643, -17.513196], [-149.853548, -17.508848], [-149.854233, -17.505513], [-149.85506, -17.50178], [-149.854535, -17.499334], [-149.853385, -17.495035], [-149.852503, -17.492745], [-149.851529, -17.490748], [-149.851187, -17.489355]]}, "times": ["2022-07-11T05:01:38+00:00", "2022-07-11T23:33:08+00:00", "2022-07-11T23:35:01+00:00", "2022-07-11T23:36:21+00:00", "2022-07-11T23:39:05+00:00", "2022-07-11T23:41:00+00:00", "2022-07-11T23:44:23+00:00", "2022-07-11T23:46:24+00:00", "2022-07-11T23:48:59+00:00", "2022-07-11T23:52:59+00:00", "2022-07-11T23:55:05+00:00", "2022-07-12T00:00:35+00:00", "2022-07-12T00:06:58+00:00", "2022-07-12T00:09:33+00:00", "2022-07-12T00:10:58+00:00", "2022-07-12T00:15:00+00:00", "2022-07-12T00:16:31+00:00", "2022-07-12T00:21:00+00:00", "2022-07-12T00:25:01+00:00", "2022-07-12T00:29:01+00:00", "2022-07-12T00:33:01+00:00", "2022-07-12T00:37:01+00:00", "2022-07-12T00:40:53+00:00", "2022-07-12T00:44:31+00:00", "2022-07-12T00:49:02+00:00", "2022-07-12T00:53:02+00:00", "2022-07-12T00:59:03+00:00", "2022-07-12T01:00:52+00:00", "2022-07-12T01:05:03+00:00", "2022-07-12T01:08:16+00:00", "2022-07-12T01:10:26+00:00", "2022-07-12T01:14:19+00:00", "2022-07-12T01:15:03+00:00", "2022-07-12T01:21:00+00:00", "2022-07-12T01:24:22+00:00", "2022-07-12T01:25:04+00:00", "2022-07-12T01:31:00+00:00", "2022-07-12T01:35:05+00:00", "2022-07-12T01:37:49+00:00", "2022-07-12T01:39:05+00:00", "2022-07-12T01:44:23+00:00", "2022-07-12T01:45:28+00:00", "2022-07-12T01:47:04+00:00", "2022-07-12T01:48:41+00:00", "2022-07-12T01:50:18+00:00", "2022-07-12T01:52:42+00:00", "2022-07-12T01:54:19+00:00", "2022-07-12T01:57:04+00:00", "2022-07-12T02:01:00+00:00", "2022-07-12T02:03:18+00:00", "2022-07-12T02:05:05+00:00", "2022-07-12T02:09:12+00:00", "2022-07-12T02:11:00+00:00", "2022-07-12T02:13:07+00:00", "2022-07-12T02:16:34+00:00", "2022-07-12T02:17:08+00:00", "2022-07-12T02:21:00+00:00", "2022-07-12T02:23:03+00:00", "2022-07-12T02:27:10+00:00", "2022-07-12T02:31:00+00:00", "2022-07-12T02:35:10+00:00", "2022-07-12T02:39:11+00:00", "2022-07-12T02:42:04+00:00", "2022-07-12T02:43:11+00:00", "2022-07-12T02:47:03+00:00", "2022-07-12T02:48:31+00:00", "2022-07-12T02:49:52+00:00", "2022-07-12T02:51:14+00:00", "2022-07-12T02:53:41+00:00", "2022-07-12T02:55:14+00:00", "2022-07-12T02:57:26+00:00", "2022-07-12T02:59:14+00:00", "2022-07-12T03:02:32+00:00", "2022-07-12T03:05:14+00:00", "2022-07-12T03:06:33+00:00", "2022-07-12T03:09:06+00:00", "2022-07-12T03:11:47+00:00", "2022-07-12T03:13:16+00:00", "2022-07-12T03:21:12+00:00", "2022-07-12T14:42:47+00:00", "2022-07-13T00:06:25+00:00", "2022-07-13T00:10:01+00:00", "2022-07-13T00:10:52+00:00", "2022-07-13T00:12:26+00:00", "2022-07-13T00:14:02+00:00", "2022-07-13T00:15:57+00:00", "2022-07-13T00:18:44+00:00", "2022-07-13T06:06:57+00:00", "2022-07-13T22:22:58+00:00", "2022-07-13T22:24:35+00:00", "2022-07-13T22:28:28+00:00", "2022-07-13T22:28:58+00:00", "2022-07-13T22:34:07+00:00", "2022-07-13T22:34:58+00:00", "2022-07-13T22:36:58+00:00", "2022-07-13T22:38:58+00:00", "2022-07-13T22:40:22+00:00", "2022-07-14T12:53:18+00:00", "2022-07-14T18:32:29+00:00", "2022-07-14T18:34:22+00:00", "2022-07-14T18:36:14+00:00", "2022-07-14T18:38:59+00:00", "2022-07-14T18:41:04+00:00", "2022-07-14T18:42:49+00:00", "2022-07-14T18:43:13+00:00", "2022-07-14T18:47:29+00:00", "2022-07-14T18:52:45+00:00", "2022-07-14T18:53:50+00:00", "2022-07-14T18:58:56+00:00", "2022-07-14T19:01:00+00:00", "2022-07-14T19:04:42+00:00", "2022-07-14T19:09:16+00:00", "2022-07-14T19:11:00+00:00", "2022-07-14T19:14:46+00:00", "2022-07-14T19:15:50+00:00", "2022-07-14T19:17:36+00:00", "2022-07-14T19:19:04+00:00", "2022-07-14T19:21:00+00:00", "2022-07-14T19:27:03+00:00", "2022-07-14T19:28:28+00:00", "2022-07-14T19:29:40+00:00", "2022-07-14T19:33:49+00:00", "2022-07-14T19:34:37+00:00", "2022-07-14T19:36:22+00:00", "2022-07-14T19:38:22+00:00", "2022-07-14T19:40:07+00:00", "2022-07-14T19:41:51+00:00", "2022-07-14T19:43:35+00:00", "2022-07-14T19:45:52+00:00", "2022-07-14T19:47:28+00:00", "2022-07-14T19:51:00+00:00", "2022-07-14T19:51:54+00:00", "2022-07-14T19:54:34+00:00", "2022-07-14T19:57:56+00:00", "2022-07-14T20:12:48+00:00", "2022-07-15T06:33:22+00:00", "2022-07-15T17:58:00+00:00", "2022-07-15T18:00:17+00:00", "2022-07-15T18:01:30+00:00", "2022-07-15T18:03:55+00:00", "2022-07-15T18:07:15+00:00", "2022-07-15T18:07:48+00:00", "2022-07-15T18:10:13+00:00", "2022-07-15T18:11:09+00:00", "2022-07-15T18:17:15+00:00", "2022-07-15T18:21:16+00:00", "2022-07-15T18:27:17+00:00", "2022-07-15T18:28:04+00:00", "2022-07-15T18:33:18+00:00", "2022-07-15T18:37:21+00:00", "2022-07-15T18:40:27+00:00", "2022-07-15T18:41:21+00:00", "2022-07-15T18:43:32+00:00", "2022-07-15T18:49:21+00:00", "2022-07-15T18:51:43+00:00", "2022-07-15T18:52:39+00:00", "2022-07-15T18:54:48+00:00", "2022-07-15T18:57:23+00:00", "2022-07-15T19:00:42+00:00", "2022-07-15T19:02:43+00:00", "2022-07-15T19:06:44+00:00", "2022-07-15T19:07:24+00:00", "2022-07-15T19:13:29+00:00", "2022-07-15T19:14:40+00:00", "2022-07-15T19:21:22+00:00", "2022-07-15T19:27:09+00:00", "2022-07-15T19:31:35+00:00", "2022-07-15T19:33:25+00:00", "2022-07-15T19:39:28+00:00", "2022-07-15T19:43:28+00:00", "2022-07-15T19:47:28+00:00", "2022-07-15T19:53:28+00:00", "2022-07-15T19:57:28+00:00", "2022-07-15T20:01:28+00:00", "2022-07-15T20:05:30+00:00", "2022-07-15T20:09:34+00:00", "2022-07-15T20:13:35+00:00", "2022-07-15T20:15:55+00:00", "2022-07-15T20:19:27+00:00", "2022-07-15T20:23:28+00:00", "2022-07-15T20:27:28+00:00", "2022-07-15T20:31:35+00:00", "2022-07-15T20:35:30+00:00", "2022-07-15T20:37:35+00:00", "2022-07-15T20:43:26+00:00", "2022-07-15T20:49:30+00:00", "2022-07-15T20:54:10+00:00", "2022-07-15T20:55:30+00:00", "2022-07-15T20:57:30+00:00", "2022-07-15T21:00:05+00:00", "2022-07-15T21:01:44+00:00", "2022-07-15T21:03:30+00:00", "2022-07-15T21:04:53+00:00", "2022-07-15T21:05:51+00:00", "2022-07-15T21:06:57+00:00", "2022-07-15T21:09:50+00:00", "2022-07-15T21:15:46+00:00", "2022-07-15T21:21:30+00:00", "2022-07-15T21:32:55+00:00", "2022-07-15T22:13:36+00:00", "2022-07-16T02:25:52+00:00", "2022-07-18T23:01:43+00:00", "2022-07-19T02:13:48+00:00", "2022-07-19T02:17:16+00:00", "2022-07-19T02:18:05+00:00", "2022-07-19T02:23:15+00:00", "2022-07-19T02:24:54+00:00", "2022-07-19T02:28:55+00:00", "2022-07-19T02:30:15+00:00", "2022-07-19T02:33:15+00:00", "2022-07-19T02:35:45+00:00", "2022-07-19T02:37:17+00:00", "2022-07-19T02:43:15+00:00", "2022-07-19T02:44:26+00:00", "2022-07-19T02:47:18+00:00", "2022-07-19T02:49:23+00:00", "2022-07-19T02:54:04+00:00", "2022-07-23T00:07:07+00:00", "2022-07-23T00:10:20+00:00", "2022-07-23T00:11:32+00:00", "2022-07-23T00:15:49+00:00", "2022-07-23T00:18:26+00:00", "2022-07-23T00:24:15+00:00", "2022-07-23T00:26:16+00:00", "2022-07-23T00:28:40+00:00", "2022-07-23T00:30:26+00:00", "2022-07-23T00:32:26+00:00", "2022-07-23T00:34:26+00:00", "2022-07-23T00:35:22+00:00", "2022-07-23T00:37:47+00:00", "2022-07-23T00:39:23+00:00", "2022-07-23T00:41:07+00:00", "2022-07-23T00:42:29+00:00", "2022-07-23T00:44:20+00:00", "2022-07-23T00:48:29+00:00", "2022-07-23T00:50:22+00:00", "2022-07-23T00:51:58+00:00", "2022-07-23T00:55:43+00:00", "2022-07-23T00:56:29+00:00", "2022-07-23T00:58:29+00:00", "2022-07-23T01:01:21+00:00", "2022-07-23T01:03:45+00:00", "2022-07-23T01:08:33+00:00", "2022-07-23T01:11:15+00:00", "2022-07-23T01:14:04+00:00", "2022-07-23T01:16:33+00:00", "2022-07-23T01:20:33+00:00", "2022-07-23T01:23:02+00:00", "2022-07-23T01:26:33+00:00", "2022-07-23T01:29:59+00:00", "2022-07-23T01:30:33+00:00", "2022-07-23T01:35:36+00:00", "2022-07-23T01:36:33+00:00", "2022-07-23T01:42:35+00:00", "2022-07-23T01:43:45+00:00", "2022-07-23T01:48:35+00:00", "2022-07-23T01:52:35+00:00", "2022-07-23T01:56:36+00:00", "2022-07-23T02:00:43+00:00", "2022-07-23T02:01:23+00:00", "2022-07-23T02:05:51+00:00", "2022-07-23T02:10:34+00:00", "2022-07-23T02:14:30+00:00", "2022-07-23T02:15:17+00:00", "2022-07-23T02:22:33+00:00", "2022-07-23T02:26:36+00:00", "2022-07-23T02:30:37+00:00", "2022-07-23T02:34:30+00:00", "2022-07-23T02:36:39+00:00", "2022-07-23T02:42:39+00:00", "2022-07-23T02:46:39+00:00", "2022-07-23T02:50:39+00:00", "2022-07-23T02:54:30+00:00", "2022-07-23T02:58:39+00:00", "2022-07-23T03:00:52+00:00", "2022-07-23T03:04:30+00:00", "2022-07-23T03:08:41+00:00", "2022-07-23T03:12:41+00:00", "2022-07-23T03:13:50+00:00", "2022-07-23T03:16:39+00:00", "2022-07-23T03:19:43+00:00", "2022-07-23T03:22:41+00:00", "2022-07-23T03:24:30+00:00", "2022-07-23T03:30:42+00:00", "2022-07-23T03:36:42+00:00", "2022-07-23T03:40:42+00:00", "2022-07-23T03:46:42+00:00", "2022-07-23T03:47:17+00:00", "2022-07-23T03:52:47+00:00", "2022-07-23T03:56:38+00:00", "2022-07-23T04:00:39+00:00", "2022-07-23T04:02:18+00:00", "2022-07-23T04:06:40+00:00", "2022-07-23T04:08:47+00:00", "2022-07-23T04:12:04+00:00", "2022-07-23T04:14:30+00:00", "2022-07-23T04:16:40+00:00", "2022-07-23T04:19:27+00:00", "2022-07-23T04:20:47+00:00", "2022-07-23T04:25:14+00:00", "2022-07-23T04:26:39+00:00", "2022-07-23T04:30:59+00:00", "2022-07-23T04:33:56+00:00", "2022-07-23T04:36:40+00:00", "2022-07-23T04:41:10+00:00", "2022-07-23T04:42:47+00:00", "2022-07-23T04:44:55+00:00", "2022-07-23T04:48:40+00:00", "2022-07-23T04:49:29+00:00", "2022-07-23T04:50:58+00:00", "2022-07-23T04:56:43+00:00", "2022-07-23T05:00:40+00:00", "2022-07-23T05:04:45+00:00", "2022-07-23T05:05:42+00:00", "2022-07-23T05:07:51+00:00", "2022-07-23T05:10:42+00:00", "2022-07-23T05:13:28+00:00", "2022-07-23T05:18:47+00:00", "2022-07-23T05:22:47+00:00", "2022-07-23T05:26:47+00:00", "2022-07-23T05:29:40+00:00", "2022-07-23T05:32:47+00:00", "2022-07-23T15:12:21+00:00", "2022-07-24T00:24:25+00:00", "2022-07-24T00:28:41+00:00", "2022-07-24T00:30:18+00:00", "2022-07-24T00:32:42+00:00", "2022-07-24T00:36:12+00:00", "2022-07-24T00:38:43+00:00", "2022-07-24T00:40:05+00:00", "2022-07-24T00:42:37+00:00"], "elevations": [24.0, null, 12.0, 8.0, 9.0, 8.2, null, 8.0, 8.0, 7.5, 7.0, 8.0, 4.0, 11.0, 1.0, -4.0, 10.0, 4.2, 8.0, 8.5, 10.2, 9.5, 10.0, 11.0, 11.0, 12.2, 13.0, 12.5, 14.0, 13.0, 12.5, 13.0, 22.5, 12.7, 26.0, 12.5, 11.2, 11.0, 11.0, 10.7, 11.0, 11.0, 11.0, null, 22.6, 14.0, null, 35.0, 12.2, 12.0, 51.0, 27.0, 6.4, 10.0, 38.0, 14.0, -3.7, 42.0, 23.5, 30.5, 41.5, 24.5, null, 44.0, null, 35.0, null, 16.5, null, 66.5, null, null, null, null, null, null, null, null, null, null, null, null, null, null, null, null, null, null, null, null, null, null, null, null, null, null, null, 18.2, null, 12.0, 18.0, 3.0, 18.6, null, 14.0, 13.0, null, 11.0, null, 14.8, 15.0, 9.0, 10.7, null, 5.5, 8.0, null, 8.7, 6.0, null, 6.7, 4.0, 9.0, 5.0, 3.0, 2.3, null, 10.0, 10.0, 9.5, 10.5, null, 9.0, 9.3, 12.7, 6.4, 9.0, 8.0, null, 9.0, 8.2, null, 8.0, 9.0, 7.2, 10.5, 11.2, 13.0, 12.5, 11.7, 11.0, 11.0, 10.5, 10.0, 9.0, 8.0, null, 6.7, 6.0, 5.0, 4.4, 4.5, 8.0, 8.4, 8.0, 6.4, 9.0, 8.7, 9.0, 9.0, 9.7, 9.5, 9.7, 8.5, 9.0, 10.0, 10.0, 10.5, 10.5, 10.0, 3.0, 8.5, 6.2, 5.0, 12.5, 6.0, 10.0, -3.7, -2.0, 14.0, 14.0, 14.0, null, 8.4, 8.0, null, 11.8, 6.1, 12.2, 17.0, 17.5, 30.2, null, 27.0, 8.0, 17.9, 27.0, -5.0, -3.0, 8.3, -1.0, 16.0, 18.9, 3.0, 3.0, 9.0, 13.4, 4.0, -2.0, 25.0, 32.8, 17.7, 19.3, 8.0, 23.0, 17.0, 18.0, null, 21.0, null, 21.0, 21.0, 22.0, 21.0, 20.0, 19.0, 19.0, 15.0, 4.0, 35.5, 15.0, 30.8, 31.0, 34.0, 12.0, 12.2, 20.0, 22.0, 22.3, 19.0, 19.0, 16.5, 15.0, 0.5, 10.5, 12.0, 12.5, 8.7, 10.0, 10.0, 10.2, 11.0, 11.2, 10.0, 11.0, 10.2, 10.0, 10.2, 10.0, 9.0, 9.2, 10.0, 7.7, 10.5, 11.0, 10.7, 12.0, 12.0, 12.5, 13.0, 12.0, 14.0, 14.3, 13.5, 12.2, 12.0, 11.7, 11.0, 11.0, 10.7, 11.0, 10.0, 10.2, 10.0, null, 9.2, 9.0, 9.0, 9.0, 8.4, 9.0, 9.0, null, 8.7, 8.0, 8.0, 8.4, 7.5, 7.0, 6.4, null, 6.0, 5.0, null, null, 0.5, 7.0, 33.5, 6.5, -10.5, -4.0, 1.0, 10.7, null, 12.0, 12.0, 13.0, null, 12.5, 12.0, 12.0]}