{"type": "Feature", "properties": {"leg_id": 4, "name": "20191109 - San Carlos to Mulege", "stated_nm": 94.2, "computed_nm": 94.2}, "geometry": {"type": "LineString", "coordinates": [[-111.056239, 27.929865], [-111.071656, 27.920578], [-111.072743, 27.919971], [-111.086563, 27.910928], [-111.105343, 27.895178], [-111.115271, 27.887195], [-111.11887, 27.884322], [-111.132669, 27.876793], [-111.145787, 27.877108], [-111.156835, 27.868613], [-111.159717, 27.866336], [-111.169431, 27.85915], [-111.174797, 27.855063], [-111.188884, 27.843317], [-111.201338, 27.832843], [-111.20316, 27.831234], [-111.214865, 27.819928], [-111.225146, 27.808957], [-111.235091, 27.797931], [-111.235741, 27.79715], [-111.245775, 27.785179], [-111.255251, 27.773487], [-111.26494, 27.762321], [-111.276734, 27.751156], [-111.289426, 27.739337], [-111.302531, 27.727467], [-111.303435, 27.726595], [-111.314993, 27.715624], [-111.326585, 27.704086], [-111.337442, 27.692952], [-111.339053, 27.691308], [-111.349285, 27.681455], [-111.360938, 27.669825], [-111.372345, 27.658255], [-111.374523, 27.655956], [-111.383117, 27.647239], [-111.394573, 27.635847], [-111.405937, 27.623427], [-111.408835, 27.620015], [-111.41679, 27.611145], [-111.428489, 27.598768], [-111.439778, 27.586365], [-111.443403, 27.582196], [-111.451097, 27.574139], [-111.464092, 27.561878], [-111.476887, 27.54999], [-111.481983, 27.544988], [-111.489472, 27.537611], [-111.502578, 27.525097], [-111.515288, 27.512538], [-111.521701, 27.506428], [-111.528673, 27.499771], [-111.54155, 27.487021], [-111.553431, 27.474522], [-111.559831, 27.46803], [-111.565005, 27.462731], [-111.575354, 27.450347], [-111.585619, 27.437333], [-111.591797, 27.428909], [-111.595359, 27.423502], [-111.604399, 27.408962], [-111.614559, 27.393858], [-111.623411, 27.384753], [-111.628376, 27.380988], [-111.641999, 27.36786], [-111.657176, 27.355172], [-111.66933, 27.346355], [-111.673486, 27.343413], [-111.690067, 27.331757], [-111.706836, 27.320713], [-111.720465, 27.311583], [-111.723841, 27.309778], [-111.739336, 27.297676], [-111.754843, 27.285947], [-111.76853, 27.275898], [-111.770293, 27.274545], [-111.785959, 27.263784], [-111.799557, 27.252439], [-111.814341, 27.242403], [-111.815169, 27.24183], [-111.827297, 27.228501], [-111.836762, 27.21427], [-111.847425, 27.199949], [-111.847558, 27.199756], [-111.856145, 27.186266], [-111.864402, 27.173473], [-111.872856, 27.160553], [-111.873478, 27.159545], [-111.882634, 27.147629], [-111.894052, 27.135108], [-111.905905, 27.122478], [-111.90779, 27.120663], [-111.917392, 27.110082], [-111.925069, 27.098077], [-111.931644, 27.085711], [-111.93296, 27.083058], [-111.937399, 27.073885], [-111.946053, 27.064884], [-111.956766, 27.061303], [-111.961234, 27.062869], [-111.962385, 27.06309], [-111.959944, 27.056792], [-111.956594, 27.049516], [-111.953411, 27.042441], [-111.952808, 27.04084], [-111.94977, 27.032498], [-111.945736, 27.021258], [-111.94225, 27.010941], [-111.94165, 27.00903], [-111.939428, 27.001642], [-111.934418, 26.988705], [-111.927309, 26.974802], [-111.924976, 26.970588], [-111.920023, 26.96125], [-111.912286, 26.947184], [-111.905801, 26.933376], [-111.905365, 26.928326], [-111.901455, 26.918225], [-111.894517, 26.90269], [-111.889696, 26.886667], [-111.886611, 26.879896], [-111.882939, 26.87096], [-111.876995, 26.855843], [-111.871257, 26.842344], [-111.868823, 26.835371], [-111.866424, 26.828989], [-111.861341, 26.815387], [-111.854594, 26.801025], [-111.851013, 26.792725], [-111.8488, 26.786271], [-111.849093, 26.774697], [-111.85488, 26.76965], [-111.860058, 26.765403], [-111.860661, 26.758438], [-111.874819, 26.75378], [-111.884165, 26.753983], [-111.891402, 26.753905], [-111.893639, 26.754814], [-111.893292, 26.754817], [-111.885979, 26.764163]]}, "times": ["2019-11-09T13:34:41+00:00", "2019-11-09T13:44:28+00:00", "2019-11-09T13:45:00+00:00", "2019-11-09T13:54:15+00:00", "2019-11-09T14:07:57+00:00", "2019-11-09T14:15:00+00:00", "2019-11-09T14:17:44+00:00", "2019-11-09T14:27:31+00:00", "2019-11-09T14:37:18+00:00", "2019-11-09T14:45:00+00:00", "2019-11-09T14:47:05+00:00", "2019-11-09T14:53:00+00:00", "2019-11-09T14:56:53+00:00", "2019-11-09T15:06:39+00:00", "2019-11-09T15:15:00+00:00", "2019-11-09T15:16:27+00:00", "2019-11-09T15:26:13+00:00", "2019-11-09T15:36:00+00:00", "2019-11-09T15:45:00+00:00", "2019-11-09T15:45:48+00:00", "2019-11-09T15:55:34+00:00", "2019-11-09T16:05:22+00:00", "2019-11-09T16:15:00+00:00", "2019-11-09T16:24:56+00:00", "2019-11-09T16:34:42+00:00", "2019-11-09T16:44:30+00:00", "2019-11-09T16:45:00+00:00", "2019-11-09T16:54:16+00:00", "2019-11-09T17:04:03+00:00", "2019-11-09T17:13:50+00:00", "2019-11-09T17:15:00+00:00", "2019-11-09T17:23:37+00:00", "2019-11-09T17:33:24+00:00", "2019-11-09T17:43:11+00:00", "2019-11-09T17:45:00+00:00", "2019-11-09T17:52:58+00:00", "2019-11-09T18:02:44+00:00", "2019-11-09T18:12:32+00:00", "2019-11-09T18:15:00+00:00", "2019-11-09T18:22:19+00:00", "2019-11-09T18:32:05+00:00", "2019-11-09T18:41:52+00:00", "2019-11-09T18:45:00+00:00", "2019-11-09T18:51:39+00:00", "2019-11-09T19:01:27+00:00", "2019-11-09T19:11:13+00:00", "2019-11-09T19:15:00+00:00", "2019-11-09T19:21:00+00:00", "2019-11-09T19:30:47+00:00", "2019-11-09T19:40:34+00:00", "2019-11-09T19:45:00+00:00", "2019-11-09T19:50:21+00:00", "2019-11-09T20:00:08+00:00", "2019-11-09T20:09:55+00:00", "2019-11-09T20:15:00+00:00", "2019-11-09T20:19:42+00:00", "2019-11-09T20:29:29+00:00", "2019-11-09T20:39:15+00:00", "2019-11-09T20:45:15+00:00", "2019-11-09T20:49:03+00:00", "2019-11-09T20:58:50+00:00", "2019-11-09T21:08:37+00:00", "2019-11-09T21:15:15+00:00", "2019-11-09T21:18:24+00:00", "2019-11-09T21:28:11+00:00", "2019-11-09T21:37:58+00:00", "2019-11-09T21:45:15+00:00", "2019-11-09T21:47:45+00:00", "2019-11-09T21:57:32+00:00", "2019-11-09T22:07:19+00:00", "2019-11-09T22:15:15+00:00", "2019-11-09T22:17:05+00:00", "2019-11-09T22:26:52+00:00", "2019-11-09T22:36:39+00:00", "2019-11-09T22:45:15+00:00", "2019-11-09T22:46:26+00:00", "2019-11-09T22:56:13+00:00", "2019-11-09T23:06:01+00:00", "2019-11-09T23:15:15+00:00", "2019-11-09T23:15:48+00:00", "2019-11-09T23:25:35+00:00", "2019-11-09T23:35:22+00:00", "2019-11-09T23:45:10+00:00", "2019-11-09T23:45:15+00:00", "2019-11-09T23:54:57+00:00", "2019-11-10T00:04:44+00:00", "2019-11-10T00:14:31+00:00", "2019-11-10T00:15:15+00:00", "2019-11-10T00:24:18+00:00", "2019-11-10T00:34:04+00:00", "2019-11-10T00:43:51+00:00", "2019-11-10T00:45:15+00:00", "2019-11-10T00:53:38+00:00", "2019-11-10T01:03:25+00:00", "2019-11-10T01:13:11+00:00", "2019-11-10T01:15:15+00:00", "2019-11-10T01:22:58+00:00", "2019-11-10T01:32:45+00:00", "2019-11-10T01:42:33+00:00", "2019-11-10T01:52:19+00:00", "2019-11-10T22:06:29+00:00", "2019-11-11T18:05:09+00:00", "2019-11-11T18:14:56+00:00", "2019-11-11T18:24:43+00:00", "2019-11-11T18:26:15+00:00", "2019-11-11T18:34:30+00:00", "2019-11-11T18:44:17+00:00", "2019-11-11T18:54:04+00:00", "2019-11-11T18:56:15+00:00", "2019-11-11T19:03:52+00:00", "2019-11-11T19:13:39+00:00", "2019-11-11T19:23:26+00:00", "2019-11-11T19:26:15+00:00", "2019-11-11T19:33:13+00:00", "2019-11-11T19:42:59+00:00", "2019-11-11T19:52:46+00:00", "2019-11-11T19:56:15+00:00", "2019-11-11T20:02:33+00:00", "2019-11-11T20:12:21+00:00", "2019-11-11T20:22:08+00:00", "2019-11-11T20:26:15+00:00", "2019-11-11T20:31:55+00:00", "2019-11-11T20:41:42+00:00", "2019-11-11T20:51:29+00:00", "2019-11-11T20:56:15+00:00", "2019-11-11T21:01:16+00:00", "2019-11-11T21:11:03+00:00", "2019-11-11T21:20:50+00:00", "2019-11-11T21:26:15+00:00", "2019-11-11T21:30:36+00:00", "2019-11-11T21:40:23+00:00", "2019-11-11T21:50:10+00:00", "2019-11-11T21:59:57+00:00", "2019-11-11T22:09:44+00:00", "2019-11-11T22:19:31+00:00", "2019-11-11T22:26:15+00:00", "2019-11-11T22:39:04+00:00", "2019-11-12T01:38:38+00:00", "2019-11-12T18:20:40+00:00", "2019-11-12T18:40:15+00:00"], "elevations": [-6.0, -5.0, -5.8, -1.0, -1.0, -1.7, -1.0, -2.0, -2.0, -1.7, 0.0, 0.0, 0.0, -2.0, -3.7, -3.0, -4.0, -5.0, -5.8, -5.0, -5.0, -5.0, -5.8, -6.0, -2.0, 1.0, 0.3, 3.0, 0.0, 0.0, -1.7, 0.0, 0.0, -1.0, -1.7, 0.0, 0.0, 0.0, -1.7, -2.0, -6.0, -7.0, -7.8, -6.0, -5.0, -4.0, -3.7, -3.0, -2.0, -2.0, -1.7, -1.0, -6.0, -6.0, -5.8, -6.0, -5.0, -6.0, -6.0, -5.0, -4.0, -3.0, -3.7, -2.0, -2.0, -2.0, -3.7, -2.0, -1.0, 0.0, -1.7, -1.0, -3.0, -5.0, -9.8, -9.0, -8.0, -8.0, -7.8, -7.0, -7.0, -5.0, -6.0, -7.8, -7.0, -8.0, -8.0, -9.8, -8.0, -3.0, -4.0, -5.8, -5.0, -5.0, -4.0, -3.7, -2.0, -4.0, -3.0, -2.4, 6.7, 4.0, -2.0, -1.0, -1.7, -1.0, -1.0, -1.0, -1.7, -1.0, 1.0, 2.0, 2.3, 3.0, 0.0, 0.0, -1.7, -2.0, -1.0, -1.0, -1.7, -3.0, -2.0, -1.0, -1.7, -1.0, -4.0, -2.0, -3.7, -2.0, -2.0, -2.0, -1.4, 0.0, -1.0, -3.7, -3.5, -1.2, 0.1, -2.0]}