{"type": "Feature", "properties": {"leg_id": 21, "name": "20210401 - Pender Island to Vancouver", "stated_nm": 77.7, "computed_nm": 77.7}, "geometry": {"type": "LineString", "coordinates": [[-123.267787, 48.774385], [-123.265214, 48.773258], [-123.261679, 48.771531], [-123.256393, 48.769843], [-123.252625, 48.76903], [-123.245047, 48.768146], [-123.23923, 48.767768], [-123.234367, 48.769128], [-123.232927, 48.771798], [-123.234344, 48.776775], [-123.235685, 48.781032], [-123.238416, 48.788972], [-123.239462, 48.792103], [-123.243082, 48.796887], [-123.244838, 48.800058], [-123.250268, 48.80565], [-123.258189, 48.81129], [-123.265787, 48.815748], [-123.270923, 48.818622], [-123.276739, 48.819963], [-123.286596, 48.820382], [-123.2896, 48.820838], [-123.30128, 48.822297], [-123.306152, 48.823415], [-123.311592, 48.824781], [-123.315299, 48.825816], [-123.320404, 48.826824], [-123.327068, 48.828918], [-123.330536, 48.830837], [-123.332863, 48.832112], [-123.33963, 48.835701], [-123.346162, 48.838802], [-123.354004, 48.841297], [-123.359568, 48.842436], [-123.364151, 48.843554], [-123.372064, 48.846825], [-123.38292, 48.852303], [-123.386542, 48.854139], [-123.395854, 48.858074], [-123.399866, 48.859825], [-123.402835, 48.861624], [-123.408487, 48.864863], [-123.412854, 48.867345], [-123.416083, 48.869194], [-123.420047, 48.871467], [-123.424908, 48.874406], [-123.427795, 48.876145], [-123.431928, 48.878621], [-123.434817, 48.880359], [-123.442516, 48.884747], [-123.446867, 48.887087], [-123.451228, 48.889522], [-123.455518, 48.891994], [-123.459171, 48.894084], [-123.465975, 48.89799], [-123.469237, 48.899836], [-123.474227, 48.902596], [-123.476963, 48.905237], [-123.482181, 48.908963], [-123.485533, 48.912103], [-123.491273, 48.91725], [-123.496338, 48.920475], [-123.5085, 48.92875], [-123.511892, 48.930861], [-123.517405, 48.934297], [-123.51993, 48.935838], [-123.533117, 48.94442], [-123.538627, 48.948138], [-123.543852, 48.951362], [-123.552773, 48.957088], [-123.560977, 48.962002], [-123.568722, 48.968108], [-123.569963, 48.969298], [-123.580203, 48.977842], [-123.582868, 48.980691], [-123.585376, 48.983724], [-123.589754, 48.99128], [-123.591543, 48.99435], [-123.594133, 48.999069], [-123.595272, 49.001677], [-123.595284, 49.006049], [-123.593692, 49.008243], [-123.588431, 49.013135], [-123.584848, 49.016058], [-123.582818, 49.01783], [-123.580542, 49.020218], [-123.577289, 49.022498], [-123.574691, 49.025574], [-123.569757, 49.034905], [-123.561668, 49.045335], [-123.557122, 49.050863], [-123.552883, 49.056042], [-123.550488, 49.059237], [-123.548443, 49.06141], [-123.53546, 49.069943], [-123.53505, 49.070107], [-123.522857, 49.077957], [-123.51348, 49.084123], [-123.507997, 49.087877], [-123.496877, 49.097302], [-123.494784, 49.097665], [-123.488338, 49.100737], [-123.48012, 49.107028], [-123.477622, 49.108835], [-123.470868, 49.114405], [-123.468417, 49.116682], [-123.459017, 49.124657], [-123.452634, 49.129778], [-123.448926, 49.13294], [-123.446077, 49.135575], [-123.436582, 49.145035], [-123.431475, 49.150372], [-123.42361, 49.158087], [-123.414673, 49.16751], [-123.409084, 49.172922], [-123.402007, 49.179897], [-123.397954, 49.184663], [-123.390498, 49.196792], [-123.385382, 49.206677], [-123.381767, 49.213875], [-123.379396, 49.219187], [-123.377453, 49.223381], [-123.375381, 49.227456], [-123.371995, 49.234415], [-123.369504, 49.239292], [-123.367418, 49.243586], [-123.363886, 49.249822], [-123.359918, 49.252508], [-123.354573, 49.255553], [-123.345482, 49.259848], [-123.340276, 49.262235], [-123.334195, 49.265028], [-123.327372, 49.267917], [-123.318463, 49.271842], [-123.313987, 49.273712], [-123.29332, 49.281738], [-123.286162, 49.284657], [-123.27357, 49.289557], [-123.269224, 49.290454], [-123.26062, 49.290995], [-123.254823, 49.291245], [-123.244095, 49.291549], [-123.240878, 49.2914], [-123.231335, 49.290862], [-123.216875, 49.289758], [-123.191213, 49.287548], [-123.178398, 49.286372], [-123.169952, 49.285076], [-123.157475, 49.282962], [-123.148435, 49.28202], [-123.144129, 49.280589], [-123.140362, 49.278202], [-123.13732, 49.275814], [-123.136437, 49.274085], [-123.138608, 49.271486], [-123.133949, 49.272892], [-123.129696, 49.270463], [-123.124674, 49.269742], [-123.120664, 49.270169], [-123.113029, 49.272304], [-123.108287, 49.272838], [-123.105901, 49.272896], [-123.113114, 49.272381], [-123.116882, 49.271544], [-123.121981, 49.270209], [-123.127597, 49.269861], [-123.132439, 49.272312], [-123.134808, 49.274056], [-123.13713, 49.276003], [-123.141892, 49.279584], [-123.144202, 49.280848], [-123.149262, 49.280944], [-123.15519, 49.280446], [-123.161487, 49.279814], [-123.164734, 49.279483], [-123.168697, 49.279111], [-123.172644, 49.278686], [-123.177846, 49.278166], [-123.184454, 49.277677], [-123.188589, 49.276792], [-123.189403, 49.275264], [-123.115642, 49.271285], [-123.124544, 49.270023], [-123.127924, 49.269998], [-123.131104, 49.271449], [-123.134797, 49.274163], [-123.142572, 49.280144], [-123.146352, 49.281754], [-123.151402, 49.282411], [-123.155188, 49.280542], [-123.15722, 49.280555], [-123.154768, 49.280384], [-123.148745, 49.280564], [-123.145294, 49.280337], [-123.141871, 49.278948], [-123.136389, 49.274834], [-123.134023, 49.272968], [-123.13538, 49.274088], [-123.137489, 49.276259], [-123.141743, 49.279495], [-123.145646, 49.281167], [-123.149919, 49.280862], [-123.154067, 49.280683], [-123.15806, 49.280455], [-123.157371, 49.280837], [-123.149961, 49.28183], [-123.146559, 49.280859], [-123.138929, 49.276853], [-123.136797, 49.275229], [-123.133943, 49.273112], [-123.133337, 49.272455], [-123.128736, 49.270014], [-123.123745, 49.269932], [-123.119315, 49.270389], [-123.128341, 49.270312], [-123.13252, 49.27232], [-123.135623, 49.27474], [-123.140157, 49.278374], [-123.144624, 49.280508], [-123.149852, 49.280956], [-123.154406, 49.280857], [-123.158014, 49.280481], [-123.158203, 49.280579], [-123.153409, 49.282403], [-123.15062, 49.282221], [-123.145442, 49.280531], [-123.144261, 49.280014], [-123.141716, 49.278665], [-123.138758, 49.276859], [-123.135935, 49.274545], [-123.133821, 49.272813], [-123.132249, 49.271927], [-123.129505, 49.270294], [-123.125277, 49.2696], [-123.122282, 49.26931], [-123.127993, 49.270206], [-123.130415, 49.271108], [-123.135868, 49.274692], [-123.138409, 49.277072], [-123.141618, 49.279189], [-123.146805, 49.280896], [-123.150895, 49.281093], [-123.156902, 49.281005], [-123.167622, 49.280677], [-123.177901, 49.27907], [-123.186259, 49.277536], [-123.190277, 49.276067], [-123.189617, 49.275397], [-123.179512, 49.277935], [-123.173219, 49.27922], [-123.163202, 49.280767], [-123.1531, 49.2818], [-123.148198, 49.281623], [-123.143361, 49.279899], [-123.140434, 49.277963], [-123.138036, 49.276324], [-123.135998, 49.274631], [-123.134259, 49.272975], [-123.134995, 49.273811], [-123.140856, 49.27856], [-123.145927, 49.28169], [-123.147797, 49.28206], [-123.152021, 49.281521], [-123.153774, 49.28048], [-123.157904, 49.277408], [-123.16051, 49.275714], [-123.160385, 49.277235], [-123.159605, 49.281278], [-123.157953, 49.283083], [-123.157943, 49.282597], [-123.162525, 49.280062], [-123.164869, 49.277463], [-123.164752, 49.277865], [-123.161655, 49.278613], [-123.161287, 49.278504], [-123.155197, 49.28033], [-123.151604, 49.282366], [-123.146606, 49.281684], [-123.142772, 49.280277], [-123.138787, 49.277254], [-123.136988, 49.275441], [-123.133748, 49.272897], [-123.132964, 49.27216], [-123.128093, 49.269936], [-123.123683, 49.270035], [-123.118907, 49.270861], [-123.118688, 49.270492]]}, "times": ["2021-04-01T17:42:39+00:00", "2021-04-01T17:44:15+00:00", "2021-04-01T17:46:03+00:00", "2021-04-01T17:48:31+00:00", "2021-04-01T17:50:07+00:00", "2021-04-01T17:53:27+00:00", "2021-04-01T17:54:56+00:00", "2021-04-01T17:57:32+00:00", "2021-04-01T17:59:28+00:00", "2021-04-01T18:02:36+00:00", "2021-04-01T18:04:49+00:00", "2021-04-01T18:09:57+00:00", "2021-04-01T18:11:37+00:00", "2021-04-01T18:14:50+00:00", "2021-04-01T18:16:30+00:00", "2021-04-01T18:19:54+00:00", "2021-04-01T18:24:43+00:00", "2021-04-01T18:28:15+00:00", "2021-04-01T18:31:44+00:00", "2021-04-01T18:34:20+00:00", "2021-04-01T18:37:16+00:00", "2021-04-01T18:37:52+00:00", "2021-04-01T18:41:37+00:00", "2021-04-01T18:43:37+00:00", "2021-04-01T18:45:33+00:00", "2021-04-01T18:47:21+00:00", "2021-04-01T18:50:21+00:00", "2021-04-01T18:52:34+00:00", "2021-04-01T18:53:46+00:00", "2021-04-01T18:55:38+00:00", "2021-04-01T19:01:56+00:00", "2021-04-01T19:04:05+00:00", "2021-04-01T19:10:54+00:00", "2021-04-01T19:12:39+00:00", "2021-04-01T19:14:36+00:00", "2021-04-01T19:21:13+00:00", "2021-04-01T19:27:03+00:00", "2021-04-01T19:30:19+00:00", "2021-04-01T19:35:59+00:00", "2021-04-01T19:38:19+00:00", "2021-04-01T19:40:08+00:00", "2021-04-01T19:45:00+00:00", "2021-04-01T19:47:09+00:00", "2021-04-01T19:49:18+00:00", "2021-04-01T19:51:59+00:00", "2021-04-01T19:56:12+00:00", "2021-04-01T19:57:52+00:00", "2021-04-01T20:02:06+00:00", "2021-04-01T20:03:22+00:00", "2021-04-01T20:10:22+00:00", "2021-04-01T20:11:46+00:00", "2021-04-01T20:15:06+00:00", "2021-04-01T20:18:07+00:00", "2021-04-01T20:21:27+00:00", "2021-04-01T20:26:15+00:00", "2021-04-01T20:27:35+00:00", "2021-04-01T20:31:56+00:00", "2021-04-01T20:34:12+00:00", "2021-04-01T20:38:16+00:00", "2021-04-01T20:42:01+00:00", "2021-04-01T20:46:18+00:00", "2021-04-01T20:48:54+00:00", "2021-04-01T20:57:30+00:00", "2021-04-01T21:00:11+00:00", "2021-04-01T21:04:19+00:00", "2021-04-01T21:05:43+00:00", "2021-04-01T21:14:44+00:00", "2021-04-01T21:20:13+00:00", "2021-04-01T21:21:29+00:00", "2021-04-01T21:27:14+00:00", "2021-04-01T21:33:27+00:00", "2021-04-01T21:37:43+00:00", "2021-04-01T21:38:43+00:00", "2021-04-01T21:45:56+00:00", "2021-04-01T21:48:24+00:00", "2021-04-01T21:50:32+00:00", "2021-04-01T21:55:57+00:00", "2021-04-01T21:58:05+00:00", "2021-04-01T22:01:14+00:00", "2021-04-01T22:02:34+00:00", "2021-04-01T22:05:43+00:00", "2021-04-01T22:07:15+00:00", "2021-04-01T22:09:59+00:00", "2021-04-01T22:11:03+00:00", "2021-04-01T22:11:51+00:00", "2021-04-01T22:13:15+00:00", "2021-04-01T22:14:55+00:00", "2021-04-01T22:16:36+00:00", "2021-04-01T22:22:21+00:00", "2021-04-01T22:29:22+00:00", "2021-04-01T22:34:10+00:00", "2021-04-01T22:36:38+00:00", "2021-04-01T22:38:51+00:00", "2021-04-01T22:42:11+00:00", "2021-04-01T22:48:19+00:00", "2021-04-01T22:48:31+00:00", "2021-04-01T22:55:32+00:00", "2021-04-01T23:00:52+00:00", "2021-04-01T23:05:01+00:00", "2021-04-01T23:11:30+00:00", "2021-04-01T23:12:30+00:00", "2021-04-01T23:20:18+00:00", "2021-04-01T23:23:44+00:00", "2021-04-01T23:25:28+00:00", "2021-04-01T23:31:17+00:00", "2021-04-01T23:33:13+00:00", "2021-04-01T23:39:33+00:00", "2021-04-01T23:44:18+00:00", "2021-04-01T23:46:38+00:00", "2021-04-01T23:47:46+00:00", "2021-04-01T23:54:23+00:00", "2021-04-01T23:58:00+00:00", "2021-04-02T00:03:24+00:00", "2021-04-02T00:10:21+00:00", "2021-04-02T00:15:09+00:00", "2021-04-02T00:19:26+00:00", "2021-04-02T00:25:16+00:00", "2021-04-02T00:31:51+00:00", "2021-04-02T00:39:17+00:00", "2021-04-02T00:45:08+00:00", "2021-04-02T00:50:46+00:00", "2021-04-02T00:52:26+00:00", "2021-04-02T00:55:19+00:00", "2021-04-02T00:58:37+00:00", "2021-04-02T01:01:38+00:00", "2021-04-02T01:04:18+00:00", "2021-04-02T01:07:59+00:00", "2021-04-02T01:10:19+00:00", "2021-04-02T01:12:03+00:00", "2021-04-02T01:16:28+00:00", "2021-04-02T01:18:53+00:00", "2021-04-02T01:22:34+00:00", "2021-04-02T01:25:47+00:00", "2021-04-02T01:28:24+00:00", "2021-04-02T01:30:25+00:00", "2021-04-02T01:39:04+00:00", "2021-04-02T01:42:09+00:00", "2021-04-02T01:47:35+00:00", "2021-04-02T01:49:07+00:00", "2021-04-02T01:52:36+00:00", "2021-04-02T01:54:49+00:00", "2021-04-02T01:59:11+00:00", "2021-04-02T02:00:01+00:00", "2021-04-02T02:03:33+00:00", "2021-04-02T02:08:59+00:00", "2021-04-02T02:18:57+00:00", "2021-04-02T02:23:59+00:00", "2021-04-02T02:28:52+00:00", "2021-04-02T02:32:45+00:00", "2021-04-02T02:37:09+00:00", "2021-04-02T02:38:17+00:00", "2021-04-02T02:41:06+00:00", "2021-04-02T02:42:18+00:00", "2021-04-02T02:43:14+00:00", "2021-04-02T02:46:26+00:00", "2021-05-29T22:07:40+00:00", "2021-05-29T22:10:16+00:00", "2021-05-29T22:12:56+00:00", "2021-05-29T22:14:49+00:00", "2021-05-29T22:20:21+00:00", "2021-05-29T22:21:33+00:00", "2021-05-29T22:24:13+00:00", "2021-06-07T14:46:10+00:00", "2021-06-07T14:47:50+00:00", "2021-06-07T14:50:30+00:00", "2021-06-07T14:53:34+00:00", "2021-06-07T14:57:15+00:00", "2021-06-07T14:57:59+00:00", "2021-06-07T15:00:24+00:00", "2021-06-07T15:03:56+00:00", "2021-06-07T15:04:52+00:00", "2021-06-07T15:07:41+00:00", "2021-06-07T15:11:45+00:00", "2021-06-07T15:14:05+00:00", "2021-06-07T15:15:38+00:00", "2021-06-07T15:17:38+00:00", "2021-06-07T15:20:06+00:00", "2021-06-07T15:21:26+00:00", "2021-06-07T15:26:35+00:00", "2021-06-07T15:28:07+00:00", "2021-06-07T15:40:58+00:00", "2021-06-22T02:47:02+00:00", "2021-06-22T22:28:41+00:00", "2021-06-22T22:30:46+00:00", "2021-06-22T22:32:54+00:00", "2021-06-22T22:35:18+00:00", "2021-06-22T22:45:07+00:00", "2021-06-22T22:47:03+00:00", "2021-06-22T22:50:16+00:00", "2021-06-22T22:52:56+00:00", "2021-06-22T22:59:01+00:00", "2021-06-22T23:11:38+00:00", "2021-06-22T23:15:38+00:00", "2021-06-22T23:16:43+00:00", "2021-06-22T23:19:03+00:00", "2021-06-22T23:23:04+00:00", "2021-06-22T23:24:20+00:00", "2021-06-23T01:38:23+00:00", "2021-06-23T01:40:11+00:00", "2021-06-23T01:45:52+00:00", "2021-06-23T01:47:20+00:00", "2021-06-23T01:50:04+00:00", "2021-06-23T01:52:41+00:00", "2021-06-23T01:58:09+00:00", "2021-06-23T05:20:56+00:00", "2021-06-23T05:26:56+00:00", "2021-06-23T05:29:00+00:00", "2021-06-23T05:35:20+00:00", "2021-06-23T05:36:12+00:00", "2021-06-23T05:39:01+00:00", "2021-06-23T06:03:42+00:00", "2021-06-23T06:08:35+00:00", "2021-06-23T06:12:07+00:00", "2021-06-23T06:15:40+00:00", "2021-06-30T20:46:17+00:00", "2021-06-30T20:48:25+00:00", "2021-06-30T20:50:25+00:00", "2021-06-30T20:54:06+00:00", "2021-06-30T20:55:18+00:00", "2021-06-30T20:57:58+00:00", "2021-06-30T20:59:54+00:00", "2021-06-30T21:05:35+00:00", "2021-07-01T07:01:35+00:00", "2021-07-01T21:54:23+00:00", "2021-07-01T21:55:23+00:00", "2021-07-01T21:59:00+00:00", "2021-07-01T22:00:02+00:00", "2021-07-01T22:01:43+00:00", "2021-07-01T22:05:24+00:00", "2021-07-01T22:06:48+00:00", "2021-07-01T22:08:50+00:00", "2021-07-01T22:09:47+00:00", "2021-07-01T22:12:00+00:00", "2021-07-01T22:14:18+00:00", "2021-07-01T22:16:19+00:00", "2021-07-07T14:09:16+00:00", "2021-07-07T14:10:16+00:00", "2021-07-07T14:14:40+00:00", "2021-07-07T14:16:08+00:00", "2021-07-07T14:18:12+00:00", "2021-07-07T14:20:29+00:00", "2021-07-07T14:23:05+00:00", "2021-07-07T14:24:45+00:00", "2021-07-07T14:30:06+00:00", "2021-07-07T14:35:02+00:00", "2021-07-07T14:40:43+00:00", "2021-07-07T14:41:35+00:00", "2021-07-07T20:59:09+00:00", "2021-07-08T00:29:51+00:00", "2021-07-08T00:34:57+00:00", "2021-07-08T00:40:50+00:00", "2021-07-08T00:45:15+00:00", "2021-07-08T00:47:43+00:00", "2021-07-08T00:50:28+00:00", "2021-07-08T00:53:00+00:00", "2021-07-08T00:55:05+00:00", "2021-07-08T00:57:45+00:00", "2021-07-08T01:00:42+00:00", "2021-07-08T01:07:10+00:00", "2021-07-08T01:49:30+00:00", "2021-07-08T01:52:55+00:00", "2021-07-08T01:55:23+00:00", "2021-07-08T02:00:00+00:00", "2021-07-08T02:01:32+00:00", "2021-07-08T02:06:17+00:00", "2021-07-08T02:07:17+00:00", "2021-07-08T02:09:09+00:00", "2021-07-08T02:12:45+00:00", "2021-07-08T02:14:54+00:00", "2021-07-08T02:17:11+00:00", "2021-07-08T02:20:09+00:00", "2021-07-08T02:22:46+00:00", "2021-07-08T02:26:04+00:00", "2021-07-08T02:31:03+00:00", "2021-07-08T04:07:15+00:00", "2021-07-08T04:16:13+00:00", "2021-07-08T04:18:18+00:00", "2021-07-08T04:21:51+00:00", "2021-07-08T04:24:16+00:00", "2021-07-08T04:28:01+00:00", "2021-07-08T04:28:49+00:00", "2021-07-08T04:31:59+00:00", "2021-07-08T04:50:33+00:00", "2021-07-08T04:54:06+00:00", "2021-07-08T04:55:54+00:00", "2021-07-08T04:58:34+00:00", "2021-07-08T10:09:48+00:00"], "elevations": [null, null, null, null, null, null, null, null, null, null, null, null, null, null, null, null, null, null, null, null, null, null, null, null, null, null, null, null, null, null, null, null, null, null, null, null, null, null, null, null, null, null, null, null, null, null, null, null, null, null, null, null, null, null, null, null, null, null, null, null, null, null, null, null, null, null, null, null, null, null, null, null, null, null, null, null, null, null, null, null, null, null, null, null, null, null, null, null, null, null, null, null, null, null, null, null, null, null, null, null, null, null, null, null, null, null, null, null, null, null, null, null, null, null, null, null, null, null, null, null, null, null, null, null, null, null, null, null, null, null, null, null, null, null, null, null, null, null, null, null, null, null, null, null, null, null, null, null, null, null, null, null, null, null, null, null, null, null, null, null, null, null, null, null, null, null, null, null, null, null, null, null, null, null, null, null, null, null, null, null, null, null, null, null, null, null, null, null, null, null, null, null, null, null, null, null, null, null, null, null, null, null, null, null, null, null, null, null, null, null, null, null, null, null, null, null, null, null, null, null, null, null, null, null, null, null, null, null, null, null, null, null, null, null, null, null, null, null, null, null, null, null, null, null, null, null, null, null, null, null, null, null, null, null, null, null, null, null, null, null, null, null, null, null, null, null, null, null, null, null, null, null, null, null, null, null, null, null, null, null, null, null, null, null, null, null, null]}