{"type": "Feature", "properties": {"leg_id": 17, "name": "20201214 - Sydney to Vancouver", "stated_nm": 54.2, "computed_nm": 54.2}, "geometry": {"type": "LineString", "coordinates": [[-123.393574, 48.653785], [-123.391126, 48.652811], [-123.389688, 48.658677], [-123.387713, 48.660904], [-123.384778, 48.663374], [-123.382021, 48.668198], [-123.380505, 48.671858], [-123.378042, 48.6737], [-123.375867, 48.674749], [-123.371468, 48.676552], [-123.367153, 48.678519], [-123.361942, 48.680898], [-123.359087, 48.683302], [-123.354767, 48.686543], [-123.350549, 48.690166], [-123.348095, 48.693158], [-123.346918, 48.69639], [-123.345913, 48.702815], [-123.345085, 48.710185], [-123.344131, 48.715623], [-123.343063, 48.720652], [-123.342719, 48.724019], [-123.34246, 48.727186], [-123.342091, 48.731195], [-123.34282, 48.73723], [-123.343693, 48.745805], [-123.344778, 48.749137], [-123.34576, 48.759733], [-123.345996, 48.761611], [-123.347123, 48.763552], [-123.35411, 48.774852], [-123.356629, 48.779485], [-123.358619, 48.782445], [-123.364171, 48.787863], [-123.369747, 48.792163], [-123.376303, 48.794697], [-123.386543, 48.798027], [-123.389372, 48.800373], [-123.39257, 48.803363], [-123.395412, 48.806611], [-123.398025, 48.809602], [-123.400551, 48.812287], [-123.405795, 48.81727], [-123.409703, 48.822804], [-123.410833, 48.825636], [-123.411766, 48.828282], [-123.412348, 48.830721], [-123.413049, 48.833804], [-123.413728, 48.837527], [-123.414782, 48.841314], [-123.415906, 48.844683], [-123.41742, 48.849603], [-123.418264, 48.852378], [-123.421134, 48.85832], [-123.425663, 48.864294], [-123.428031, 48.866959], [-123.43165, 48.871081], [-123.433386, 48.872833], [-123.436193, 48.875513], [-123.439014, 48.878195], [-123.44189, 48.880883], [-123.445773, 48.884556], [-123.450893, 48.889362], [-123.456782, 48.893528], [-123.458337, 48.894623], [-123.47638, 48.906558], [-123.487917, 48.914563], [-123.493528, 48.91825], [-123.503753, 48.9246], [-123.524972, 48.938233], [-123.534627, 48.944602], [-123.536553, 48.94595], [-123.545675, 48.952037], [-123.549806, 48.954741], [-123.552842, 48.956803], [-123.556391, 48.959154], [-123.561324, 48.962477], [-123.564771, 48.964702], [-123.568621, 48.967688], [-123.570967, 48.969914], [-123.573895, 48.972495], [-123.576446, 48.974941], [-123.579546, 48.977936], [-123.581601, 48.979958], [-123.584178, 48.982469], [-123.586611, 48.984971], [-123.589234, 48.987657], [-123.591612, 48.990451], [-123.594403, 48.993546], [-123.595573, 48.996269], [-123.596247, 49.001819], [-123.596007, 49.003728], [-123.590088, 49.01158], [-123.588448, 49.013511], [-123.585753, 49.017847], [-123.584647, 49.019603], [-123.582168, 49.022867], [-123.579113, 49.026568], [-123.57598, 49.031183], [-123.570493, 49.038813], [-123.562828, 49.048835], [-123.55873, 49.053875], [-123.550643, 49.063088], [-123.545739, 49.069257], [-123.543141, 49.072752], [-123.537965, 49.079332], [-123.532821, 49.085788], [-123.530327, 49.089655], [-123.523678, 49.096513], [-123.520882, 49.099618], [-123.515605, 49.104953], [-123.510912, 49.110007], [-123.500458, 49.119967], [-123.49209, 49.127695], [-123.484062, 49.135287], [-123.479648, 49.139095], [-123.47352, 49.144785], [-123.462605, 49.153745], [-123.450045, 49.163205], [-123.440815, 49.169497], [-123.436845, 49.171998], [-123.427243, 49.180387], [-123.423133, 49.184482], [-123.41898, 49.189961], [-123.41391, 49.19732], [-123.409562, 49.203235], [-123.402803, 49.208995], [-123.392678, 49.218445], [-123.38704, 49.223281], [-123.381542, 49.227948], [-123.371932, 49.234875], [-123.36632, 49.238719], [-123.360788, 49.241798], [-123.35421, 49.243784], [-123.345194, 49.24567], [-123.336888, 49.249437], [-123.326053, 49.254965], [-123.326551, 49.256574], [-123.32524, 49.258973], [-123.316682, 49.266327], [-123.310897, 49.270048], [-123.30207, 49.275992], [-123.289863, 49.284493], [-123.279047, 49.29011], [-123.275552, 49.291461], [-123.26644, 49.293435], [-123.253085, 49.29404], [-123.25232, 49.294122], [-123.237025, 49.294227], [-123.232162, 49.293843], [-123.22448, 49.292685], [-123.213597, 49.291592], [-123.20597, 49.291593], [-123.198662, 49.290777], [-123.190985, 49.288927], [-123.17769, 49.285472], [-123.168426, 49.284143], [-123.161486, 49.283135], [-123.155582, 49.282802], [-123.149372, 49.282328], [-123.145054, 49.281157], [-123.140479, 49.278238], [-123.135353, 49.274277], [-123.130296, 49.270525], [-123.125941, 49.269704], [-123.120065, 49.270273], [-123.115755, 49.271488], [-123.111887, 49.272533], [-123.106716, 49.273756]]}, "times": ["2020-12-14T17:09:25+00:00", "2020-12-14T17:12:45+00:00", "2020-12-14T17:17:38+00:00", "2020-12-14T17:19:18+00:00", "2020-12-14T17:22:34+00:00", "2020-12-14T17:25:34+00:00", "2020-12-14T17:27:58+00:00", "2020-12-14T17:29:47+00:00", "2020-12-14T17:30:47+00:00", "2020-12-14T17:33:51+00:00", "2020-12-14T17:36:04+00:00", "2020-12-14T17:39:17+00:00", "2020-12-14T17:42:01+00:00", "2020-12-14T17:45:53+00:00", "2020-12-14T17:49:05+00:00", "2020-12-14T17:50:21+00:00", "2020-12-14T17:52:42+00:00", "2020-12-14T17:57:02+00:00", "2020-12-14T18:02:39+00:00", "2020-12-14T18:07:31+00:00", "2020-12-14T18:09:44+00:00", "2020-12-14T18:12:00+00:00", "2020-12-14T18:13:16+00:00", "2020-12-14T18:17:12+00:00", "2020-12-14T18:20:20+00:00", "2020-12-14T18:26:49+00:00", "2020-12-14T18:30:49+00:00", "2020-12-14T18:37:26+00:00", "2020-12-14T18:39:06+00:00", "2020-12-14T18:40:38+00:00", "2020-12-14T18:49:19+00:00", "2020-12-14T18:52:51+00:00", "2020-12-14T18:55:07+00:00", "2020-12-14T19:00:24+00:00", "2020-12-14T19:03:20+00:00", "2020-12-14T19:07:49+00:00", "2020-12-14T19:11:57+00:00", "2020-12-14T19:13:49+00:00", "2020-12-14T19:16:21+00:00", "2020-12-14T19:18:01+00:00", "2020-12-14T19:20:57+00:00", "2020-12-14T19:22:41+00:00", "2020-12-14T19:26:42+00:00", "2020-12-14T19:31:22+00:00", "2020-12-14T19:33:14+00:00", "2020-12-14T19:35:10+00:00", "2020-12-14T19:36:47+00:00", "2020-12-14T19:38:51+00:00", "2020-12-14T19:41:11+00:00", "2020-12-14T19:44:36+00:00", "2020-12-14T19:46:20+00:00", "2020-12-14T19:50:00+00:00", "2020-12-14T19:52:28+00:00", "2020-12-14T19:57:24+00:00", "2020-12-14T20:00:28+00:00", "2020-12-14T20:02:28+00:00", "2020-12-14T20:05:45+00:00", "2020-12-14T20:06:29+00:00", "2020-12-14T20:09:34+00:00", "2020-12-14T20:10:50+00:00", "2020-12-14T20:14:02+00:00", "2020-12-14T20:17:34+00:00", "2020-12-14T20:20:34+00:00", "2020-12-14T20:23:55+00:00", "2020-12-14T20:24:43+00:00", "2020-12-14T20:35:24+00:00", "2020-12-14T20:42:16+00:00", "2020-12-14T20:45:33+00:00", "2020-12-14T20:51:33+00:00", "2020-12-14T21:04:26+00:00", "2020-12-14T21:10:11+00:00", "2020-12-14T21:11:35+00:00", "2020-12-14T21:16:48+00:00", "2020-12-14T21:19:28+00:00", "2020-12-14T21:21:52+00:00", "2020-12-14T21:23:04+00:00", "2020-12-14T21:26:25+00:00", "2020-12-14T21:27:49+00:00", "2020-12-14T21:30:37+00:00", "2020-12-14T21:32:37+00:00", "2020-12-14T21:34:42+00:00", "2020-12-14T21:36:46+00:00", "2020-12-14T21:39:18+00:00", "2020-12-14T21:40:34+00:00", "2020-12-14T21:42:30+00:00", "2020-12-14T21:44:26+00:00", "2020-12-14T21:46:31+00:00", "2020-12-14T21:48:27+00:00", "2020-12-14T21:51:23+00:00", "2020-12-14T21:51:59+00:00", "2020-12-14T21:57:07+00:00", "2020-12-14T21:57:35+00:00", "2020-12-14T22:02:28+00:00", "2020-12-14T22:04:04+00:00", "2020-12-14T22:05:56+00:00", "2020-12-14T22:06:52+00:00", "2020-12-14T22:09:04+00:00", "2020-12-14T22:11:28+00:00", "2020-12-14T22:14:33+00:00", "2020-12-14T22:19:34+00:00", "2020-12-14T22:26:14+00:00", "2020-12-14T22:29:35+00:00", "2020-12-14T22:36:07+00:00", "2020-12-14T22:40:48+00:00", "2020-12-14T22:43:00+00:00", "2020-12-14T22:48:09+00:00", "2020-12-14T22:52:57+00:00", "2020-12-14T22:54:49+00:00", "2020-12-14T22:59:54+00:00", "2020-12-14T23:02:10+00:00", "2020-12-14T23:06:15+00:00", "2020-12-14T23:09:59+00:00", "2020-12-14T23:17:35+00:00", "2020-12-14T23:23:28+00:00", "2020-12-14T23:29:21+00:00", "2020-12-14T23:32:21+00:00", "2020-12-14T23:36:41+00:00", "2020-12-14T23:43:50+00:00", "2020-12-14T23:51:47+00:00", "2020-12-14T23:57:25+00:00", "2020-12-14T23:59:46+00:00", "2020-12-15T00:06:29+00:00", "2020-12-15T00:10:26+00:00", "2020-12-15T00:15:19+00:00", "2020-12-15T00:19:08+00:00", "2020-12-15T00:24:42+00:00", "2020-12-15T00:29:00+00:00", "2020-12-15T00:37:07+00:00", "2020-12-15T00:42:25+00:00", "2020-12-15T00:47:15+00:00", "2020-12-15T00:53:09+00:00", "2020-12-15T00:57:59+00:00", "2020-12-15T01:01:52+00:00", "2020-12-15T01:05:42+00:00", "2020-12-15T01:09:56+00:00", "2020-12-15T01:13:50+00:00", "2020-12-15T01:20:33+00:00", "2020-12-15T01:22:10+00:00", "2020-12-15T01:23:58+00:00", "2020-12-15T01:30:25+00:00", "2020-12-15T01:34:03+00:00", "2020-12-15T01:39:29+00:00", "2020-12-15T01:46:56+00:00", "2020-12-15T01:52:45+00:00", "2020-12-15T01:55:02+00:00", "2020-12-15T02:00:23+00:00", "2020-12-15T02:04:45+00:00", "2020-12-15T02:05:05+00:00", "2020-12-15T02:11:43+00:00", "2020-12-15T02:14:40+00:00", "2020-12-15T02:17:17+00:00", "2020-12-15T02:22:55+00:00", "2020-12-15T02:25:32+00:00", "2020-12-15T02:28:49+00:00", "2020-12-15T02:32:26+00:00", "2020-12-15T02:38:35+00:00", "2020-12-15T02:43:53+00:00", "2020-12-15T02:46:53+00:00", "2020-12-15T02:49:05+00:00", "2020-12-15T02:51:38+00:00", "2020-12-15T02:53:14+00:00", "2020-12-15T02:57:02+00:00", "2020-12-15T03:02:01+00:00", "2020-12-15T03:03:53+00:00", "2020-12-15T03:05:10+00:00", "2020-12-15T03:08:38+00:00", "2020-12-15T03:10:10+00:00", "2020-12-15T03:11:38+00:00", "2020-12-15T03:14:43+00:00"], "elevations": [null, null, null, null, null, null, null, null, null, null, null, null, null, null, null, null, null, null, null, null, null, null, null, null, null, null, null, null, null, null, null, null, null, null, null, null, null, null, null, null, null, null, null, null, null, null, null, null, null, null, null, null, null, null, null, null, null, null, null, null, null, null, null, null, null, null, null, null, null, null, null, null, null, null, null, null, null, null, null, null, null, null, null, null, null, null, null, null, null, null, null, null, null, null, null, null, null, null, null, null, null, null, null, null, null, null, null, null, null, null, null, null, null, null, null, null, null, null, null, null, null, null, null, null, null, null, null, null, null, null, null, null, null, null, null, null, null, null, null, null, null, null, null, null, null, null, null, null, null, null, null, null, null, null, null, null, null, null, null, null, null, null, null, null, null, null, null, null, null]}