{"type": "Feature", "properties": {"leg_id": 47, "name": "20230426 - Coffs Harbour to Gold Coast", "stated_nm": 185.0, "computed_nm": 185.0}, "geometry": {"type": "LineString", "coordinates": [[153.146678, -30.30407], [153.145047, -30.30497], [153.146579, -30.306338], [153.148779, -30.306919], [153.151601, -30.307245], [153.154152, -30.307552], [153.15643, -30.307975], [153.159873, -30.308619], [153.161184, -30.309606], [153.163043, -30.311153], [153.164808, -30.31211], [153.167077, -30.313323], [153.168984, -30.314644], [153.170837, -30.313908], [153.172429, -30.311826], [153.174117, -30.310954], [153.176422, -30.309544], [153.179443, -30.307625], [153.181979, -30.306008], [153.183842, -30.304595], [153.18748, -30.30346], [153.189808, -30.302724], [153.192204, -30.301251], [153.194475, -30.299696], [153.195556, -30.298034], [153.196701, -30.296018], [153.198349, -30.293684], [153.199868, -30.291759], [153.202245, -30.290339], [153.204855, -30.288617], [153.207459, -30.286839], [153.209063, -30.285525], [153.211219, -30.283768], [153.214208, -30.282254], [153.216829, -30.280894], [153.220002, -30.279336], [153.222863, -30.277548], [153.225747, -30.275696], [153.227563, -30.273782], [153.230075, -30.271812], [153.232329, -30.270441], [153.233787, -30.26901], [153.235212, -30.267412], [153.23706, -30.265868], [153.239322, -30.264764], [153.242121, -30.262862], [153.243791, -30.26157], [153.245756, -30.260029], [153.247835, -30.258178], [153.25, -30.256719], [153.25295, -30.254858], [153.254829, -30.252899], [153.2567, -30.251225], [153.259166, -30.249786], [153.261338, -30.248277], [153.26357, -30.246878], [153.265826, -30.245174], [153.267703, -30.243822], [153.270102, -30.242691], [153.273293, -30.241097], [153.275526, -30.239238], [153.277912, -30.237653], [153.279781, -30.236497], [153.28213, -30.23513], [153.285007, -30.233387], [153.287521, -30.232025], [153.289473, -30.230929], [153.292079, -30.229275], [153.294732, -30.227964], [153.297605, -30.226573], [153.300719, -30.225301], [153.303336, -30.224166], [153.305426, -30.223163], [153.308321, -30.221898], [153.310909, -30.220837], [153.313003, -30.219448], [153.316686, -30.21773], [153.319631, -30.215789], [153.321538, -30.213776], [153.323292, -30.212086], [153.325455, -30.209987], [153.327597, -30.208126], [153.329118, -30.20648], [153.330099, -30.2046], [153.331813, -30.202691], [153.333358, -30.200772], [153.33464, -30.198444], [153.335582, -30.196762], [153.336411, -30.1948], [153.337769, -30.192617], [153.339152, -30.190464], [153.340429, -30.188619], [153.34219, -30.186912], [153.343998, -30.184743], [153.345047, -30.183069], [153.345542, -30.18116], [153.345799, -30.179714], [153.346056, -30.177939], [153.34636, -30.176034], [153.346863, -30.174111], [153.347316, -30.172508], [153.347873, -30.170022], [153.348207, -30.168048], [153.348531, -30.166227], [153.348908, -30.164715], [153.348998, -30.162351], [153.349111, -30.160436], [153.349293, -30.158443], [153.349536, -30.156587], [153.350221, -30.154625], [153.350596, -30.15278], [153.35065, -30.149738], [153.350686, -30.147345], [153.350529, -30.1453], [153.350751, -30.142561], [153.350627, -30.141062], [153.350617, -30.139642], [153.351146, -30.138032], [153.351982, -30.136031], [153.352192, -30.13417], [153.352727, -30.132233], [153.353122, -30.130654], [153.353113, -30.128767], [153.353011, -30.127075], [153.352767, -30.125363], [153.352577, -30.123121], [153.353059, -30.121445], [153.354164, -30.119167], [153.354932, -30.117082], [153.355956, -30.114942], [153.357403, -30.11311], [153.359269, -30.111245], [153.360202, -30.109516], [153.361493, -30.107854], [153.362922, -30.106032], [153.364491, -30.104103], [153.365517, -30.102342], [153.366686, -30.100234], [153.36793, -30.097629], [153.369356, -30.095258], [153.370002, -30.093585], [153.370364, -30.090997], [153.371012, -30.088634], [153.371885, -30.086742], [153.372528, -30.08488], [153.373854, -30.082535], [153.374687, -30.080285], [153.37586, -30.077738], [153.376893, -30.075726], [153.378159, -30.073558], [153.379505, -30.071367], [153.380629, -30.068628], [153.381606, -30.06676], [153.382672, -30.064863], [153.383525, -30.063389], [153.384828, -30.061016], [153.386106, -30.058975], [153.387654, -30.056596], [153.389221, -30.054165], [153.390691, -30.052229], [153.392032, -30.050178], [153.39337, -30.048264], [153.394619, -30.04631], [153.395509, -30.043862], [153.396571, -30.042111], [153.397991, -30.040522], [153.399664, -30.038725], [153.400933, -30.036769], [153.402417, -30.034884], [153.404251, -30.032667], [153.405169, -30.031003], [153.406589, -30.028894], [153.407822, -30.027153], [153.409538, -30.025477], [153.411316, -30.023445], [153.412869, -30.021599], [153.414232, -30.019577], [153.415211, -30.017687], [153.416637, -30.015546], [153.417884, -30.013899], [153.418877, -30.01182], [153.420152, -30.009825], [153.421726, -30.008146], [153.422519, -30.006932], [153.423425, -30.005221], [153.424033, -30.003152], [153.424941, -30.000705], [153.425586, -29.998789], [153.426176, -29.996795], [153.426837, -29.994833], [153.427475, -29.992295], [153.428174, -29.990795], [153.428928, -29.98898], [153.429685, -29.98683], [153.430416, -29.984807], [153.43088, -29.982781], [153.431348, -29.980912], [153.431711, -29.978783], [153.431926, -29.977171], [153.432006, -29.975628], [153.432361, -29.973705], [153.433082, -29.972273], [153.433966, -29.970842], [153.434824, -29.969196], [153.435955, -29.967285], [153.437128, -29.96576], [153.438544, -29.964106], [153.439078, -29.962543], [153.439413, -29.96057], [153.440225, -29.95802], [153.440895, -29.955821], [153.441491, -29.953185], [153.442204, -29.950456], [153.442887, -29.947793], [153.443589, -29.944629], [153.443326, -29.942622], [153.442749, -29.940759], [153.44152, -29.940091], [153.439441, -29.940942], [153.438824, -29.941023], [153.438723, -29.939672], [153.438567, -29.937434], [153.438351, -29.93536], [153.437044, -29.93311], [153.435824, -29.931399], [153.434633, -29.929461], [153.434231, -29.927473], [153.433676, -29.925601], [153.4329, -29.923861], [153.431644, -29.921913], [153.430456, -29.920288], [153.428664, -29.918224], [153.427421, -29.916082], [153.426873, -29.91402], [153.426471, -29.912075], [153.425879, -29.910175], [153.424872, -29.90782], [153.423692, -29.905588], [153.423084, -29.903227], [153.422265, -29.900155], [153.421723, -29.897518], [153.42073, -29.894502], [153.419819, -29.892008], [153.419019, -29.889456], [153.418386, -29.887287], [153.417671, -29.884556], [153.417271, -29.88264], [153.417086, -29.880421], [153.417084, -29.877916], [153.416632, -29.875547], [153.416341, -29.872768], [153.415678, -29.869626], [153.415352, -29.86808], [153.414556, -29.86541], [153.413774, -29.863655], [153.413333, -29.861703], [153.412787, -29.859237], [153.412152, -29.857011], [153.411489, -29.854506], [153.410929, -29.851745], [153.411137, -29.849528], [153.411503, -29.847158], [153.412244, -29.845451], [153.413286, -29.843552], [153.414371, -29.840937], [153.415571, -29.838981], [153.416662, -29.836408], [153.417167, -29.83373], [153.417889, -29.831211], [153.418933, -29.829083], [153.420023, -29.826846], [153.421127, -29.824995], [153.42211, -29.82298], [153.423175, -29.820641], [153.424712, -29.818157], [153.425576, -29.815944], [153.426634, -29.813559], [153.427703, -29.810961], [153.428236, -29.809053], [153.429589, -29.806638], [153.430426, -29.80423], [153.431776, -29.801199], [153.432472, -29.799314], [153.43346, -29.796669], [153.434141, -29.79443], [153.43495, -29.791927], [153.435319, -29.790096], [153.436032, -29.788167], [153.437058, -29.784916], [153.437796, -29.782949], [153.438764, -29.780569], [153.439084, -29.77829], [153.439629, -29.775617], [153.440002, -29.773785], [153.440938, -29.771861], [153.442412, -29.769591], [153.443471, -29.767469], [153.44474, -29.765386], [153.445964, -29.763716], [153.446536, -29.761952], [153.447377, -29.759745], [153.448209, -29.757846], [153.449049, -29.755978], [153.450204, -29.753498], [153.451857, -29.751529], [153.453637, -29.749759], [153.45549, -29.748017], [153.457142, -29.746119], [153.458649, -29.744046], [153.4598, -29.741969], [153.460923, -29.740027], [153.46253, -29.737951], [153.463999, -29.73658], [153.465603, -29.735125], [153.466969, -29.733432], [153.468288, -29.731308], [153.469153, -29.729328], [153.469091, -29.727263], [153.468437, -29.725391], [153.467297, -29.723794], [153.466738, -29.722731], [153.468627, -29.720862], [153.470518, -29.719196], [153.472157, -29.71788], [153.474323, -29.716275], [153.476486, -29.714579], [153.478373, -29.712829], [153.480252, -29.710889], [153.481738, -29.709437], [153.483448, -29.707705], [153.485292, -29.705954], [153.487077, -29.703746], [153.488812, -29.701848], [153.490841, -29.699462], [153.492754, -29.697493], [153.494482, -29.695879], [153.49607, -29.694305], [153.497641, -29.692215], [153.499251, -29.689916], [153.500472, -29.688015], [153.502185, -29.68595], [153.504685, -29.683618], [153.506813, -29.682155], [153.508621, -29.680478], [153.51045, -29.678682], [153.512367, -29.677178], [153.514318, -29.675778], [153.516187, -29.674519], [153.5184, -29.673185], [153.520967, -29.671304], [153.522883, -29.669636], [153.524526, -29.667435], [153.525903, -29.665591], [153.527185, -29.66347], [153.528469, -29.66185], [153.528736, -29.660236], [153.527504, -29.659514], [153.526371, -29.658507], [153.526655, -29.656048], [153.526494, -29.653755], [153.525814, -29.651179], [153.525352, -29.649231], [153.525361, -29.646977], [153.525954, -29.644988], [153.526971, -29.643518], [153.527203, -29.642102], [153.526501, -29.639831], [153.525436, -29.637994], [153.524379, -29.636022], [153.523874, -29.634324], [153.523989, -29.632182], [153.525084, -29.629886], [153.526553, -29.627382], [153.528253, -29.624826], [153.52978, -29.622832], [153.531286, -29.620914], [153.532433, -29.619602], [153.534477, -29.617633], [153.53525, -29.615944], [153.53551, -29.614071], [153.535594, -29.612211], [153.535692, -29.610233], [153.536099, -29.608067], [153.536883, -29.605834], [153.537232, -29.603685], [153.537199, -29.601289], [153.537106, -29.599251], [153.536777, -29.597018], [153.536003, -29.594791], [153.535117, -29.593005], [153.534283, -29.591268], [153.533788, -29.589305], [153.533929, -29.587075], [153.53423, -29.585148], [153.534569, -29.582778], [153.535127, -29.580789], [153.535895, -29.578311], [153.53625, -29.576478], [153.536665, -29.574132], [153.537096, -29.571782], [153.537284, -29.569688], [153.537803, -29.567149], [153.538638, -29.565359], [153.538782, -29.563619], [153.538655, -29.561238], [153.538658, -29.558864], [153.53923, -29.556763], [153.539771, -29.554837], [153.540307, -29.552708], [153.541068, -29.550248], [153.541874, -29.548202], [153.542525, -29.546253], [153.542752, -29.544136], [153.543009, -29.54161], [153.543509, -29.539193], [153.54416, -29.53741], [153.544673, -29.53576], [153.545162, -29.533611], [153.545163, -29.532042], [153.545287, -29.529477], [153.545721, -29.527369], [153.54595, -29.525445], [153.546387, -29.523665], [153.54694, -29.521858], [153.547644, -29.51959], [153.548219, -29.517489], [153.548797, -29.515637], [153.549451, -29.513831], [153.550195, -29.512034], [153.550638, -29.510178], [153.550766, -29.508332], [153.55131, -29.50584], [153.551766, -29.504372], [153.552796, -29.502112], [153.553359, -29.500183], [153.55411, -29.498359], [153.555177, -29.496539], [153.556216, -29.495162], [153.557548, -29.493428], [153.558682, -29.491806], [153.559778, -29.490074], [153.560435, -29.488211], [153.560998, -29.486196], [153.561889, -29.484308], [153.562538, -29.48266], [153.563584, -29.480213], [153.564414, -29.47845], [153.565459, -29.476537], [153.566101, -29.474562], [153.566875, -29.472811], [153.567943, -29.470526], [153.568764, -29.468913], [153.571186, -29.465932], [153.57254, -29.464229], [153.574039, -29.462519], [153.575903, -29.460498], [153.576948, -29.459117], [153.578109, -29.457311], [153.579086, -29.455323], [153.580368, -29.453082], [153.581701, -29.451778], [153.583567, -29.449916], [153.584581, -29.448259], [153.586065, -29.44608], [153.587756, -29.444051], [153.588812, -29.441776], [153.590106, -29.440004], [153.591083, -29.438775], [153.592934, -29.435991], [153.594367, -29.434428], [153.596348, -29.432585], [153.597912, -29.430215], [153.599282, -29.427257], [153.600614, -29.425222], [153.602352, -29.422983], [153.604072, -29.421179], [153.60605, -29.419378], [153.607607, -29.417977], [153.60915, -29.416473], [153.610202, -29.414799], [153.611653, -29.412641], [153.612833, -29.41068], [153.613731, -29.408976], [153.615712, -29.40652], [153.616671, -29.404039], [153.617873, -29.402322], [153.619104, -29.400113], [153.619466, -29.397943], [153.620027, -29.395635], [153.620639, -29.393237], [153.62124, -29.391242], [153.621982, -29.388458], [153.622508, -29.385973], [153.623391, -29.383601], [153.624042, -29.38128], [153.624651, -29.378955], [153.625192, -29.377191], [153.625538, -29.374268], [153.625589, -29.37217], [153.626259, -29.368992], [153.626627, -29.366653], [153.627014, -29.364561], [153.627302, -29.362725], [153.627566, -29.360461], [153.627768, -29.358058], [153.627935, -29.355384], [153.627988, -29.353098], [153.627936, -29.350328], [153.628246, -29.347836], [153.629102, -29.34533], [153.629572, -29.343386], [153.630239, -29.341227], [153.630602, -29.33897], [153.631115, -29.337016], [153.631519, -29.335203], [153.632152, -29.332532], [153.632783, -29.330634], [153.633369, -29.328824], [153.633614, -29.326853], [153.63392, -29.324436], [153.633912, -29.322678], [153.633983, -29.320423], [153.633504, -29.318496], [153.633236, -29.3163], [153.633144, -29.314379], [153.633084, -29.312495], [153.633174, -29.310811], [153.633052, -29.308805], [153.633051, -29.307013], [153.633438, -29.305062], [153.633732, -29.303296], [153.634197, -29.30148], [153.634425, -29.299565], [153.634464, -29.297649], [153.634765, -29.295684], [153.635291, -29.293883], [153.636364, -29.291522], [153.637247, -29.289367], [153.637964, -29.287587], [153.638834, -29.285059], [153.63992, -29.283028], [153.640898, -29.280962], [153.641845, -29.279183], [153.642865, -29.277463], [153.644036, -29.276057], [153.645099, -29.274411], [153.645909, -29.273113], [153.646818, -29.271708], [153.647024, -29.270041], [153.647141, -29.268467], [153.647253, -29.266881], [153.647449, -29.265265], [153.648522, -29.26386], [153.649695, -29.262391], [153.650843, -29.261147], [153.652252, -29.259144], [153.653036, -29.257707], [153.653991, -29.255973], [153.655148, -29.254307], [153.656265, -29.252914], [153.65686, -29.251257], [153.658253, -29.249069], [153.65897, -29.247385], [153.659468, -29.245621], [153.660925, -29.243501], [153.661749, -29.241818], [153.662692, -29.239998], [153.663629, -29.238461], [153.664769, -29.236903], [153.665915, -29.235186], [153.667139, -29.233321], [153.667863, -29.231687], [153.668656, -29.229803], [153.669305, -29.227679], [153.670063, -29.226006], [153.671041, -29.224119], [153.67226, -29.222431], [153.673822, -29.220318], [153.674935, -29.218805], [153.675863, -29.216875], [153.676812, -29.214946], [153.677473, -29.213176], [153.678341, -29.210733], [153.678951, -29.208982], [153.67971, -29.206994], [153.680636, -29.205123], [153.681158, -29.203836], [153.681642, -29.202223], [153.682324, -29.200247], [153.683506, -29.198296], [153.684438, -29.196024], [153.685613, -29.194518], [153.68723, -29.192936], [153.688777, -29.19149], [153.690089, -29.190002], [153.690499, -29.188197], [153.690911, -29.186319], [153.691185, -29.184704], [153.692421, -29.183015], [153.693474, -29.181489], [153.694347, -29.17994], [153.694996, -29.178396], [153.695434, -29.176639], [153.696326, -29.17491], [153.697243, -29.172912], [153.698176, -29.171473], [153.698764, -29.169884], [153.698817, -29.167701], [153.699493, -29.165929], [153.700281, -29.164237], [153.700706, -29.162683], [153.700517, -29.161085], [153.700664, -29.159742], [153.701366, -29.158238], [153.702342, -29.156748], [153.703372, -29.155715], [153.704343, -29.154224], [153.705705, -29.153185], [153.706819, -29.152021], [153.707802, -29.150909], [153.708956, -29.149804], [153.710127, -29.148308], [153.710804, -29.147008], [153.711563, -29.145546], [153.71194, -29.143631], [153.712502, -29.142142], [153.712858, -29.140589], [153.713104, -29.139337], [153.714317, -29.138193], [153.716111, -29.137304], [153.71805, -29.136449], [153.718872, -29.134996], [153.719238, -29.133516], [153.720042, -29.132128], [153.72095, -29.130827], [153.722236, -29.129234], [153.723328, -29.127548], [153.724697, -29.126456], [153.725781, -29.125182], [153.726565, -29.124108], [153.726804, -29.122785], [153.727526, -29.121355], [153.728457, -29.119813], [153.730777, -29.118693], [153.7323, -29.117546], [153.733055, -29.115978], [153.734282, -29.114656], [153.736068, -29.113264], [153.737598, -29.111863], [153.73896, -29.110466], [153.740213, -29.109181], [153.741791, -29.107724], [153.743246, -29.106363], [153.744236, -29.104845], [153.745512, -29.103374], [153.746714, -29.101852], [153.747942, -29.099914], [153.748986, -29.098188], [153.750965, -29.096888], [153.752328, -29.095419], [153.753968, -29.093473], [153.755714, -29.091881], [153.756665, -29.090269], [153.759179, -29.088449], [153.760533, -29.087398], [153.762705, -29.085821], [153.764429, -29.084814], [153.766196, -29.083643], [153.767992, -29.082743], [153.769478, -29.081208], [153.770781, -29.079638], [153.772117, -29.07811], [153.773519, -29.076168], [153.774731, -29.074561], [153.776104, -29.073028], [153.7774, -29.071738], [153.778692, -29.070203], [153.779395, -29.068234], [153.780598, -29.066368], [153.781909, -29.065008], [153.783618, -29.063364], [153.785363, -29.062045], [153.787106, -29.06066], [153.788997, -29.059525], [153.79029, -29.058158], [153.792157, -29.056412], [153.793326, -29.054728], [153.794149, -29.05244], [153.794763, -29.051058], [153.79616, -29.049784], [153.797989, -29.04841], [153.799268, -29.046811], [153.801236, -29.045748], [153.802871, -29.044471], [153.803875, -29.042724], [153.805326, -29.041063], [153.806431, -29.039339], [153.807249, -29.037464], [153.807984, -29.035962], [153.809254, -29.034275], [153.810245, -29.032529], [153.811678, -29.031002], [153.81313, -29.029569], [153.814207, -29.027524], [153.815126, -29.02618], [153.816911, -29.024835], [153.817966, -29.023231], [153.819324, -29.021231], [153.820771, -29.019858], [153.822121, -29.017746], [153.823216, -29.016531], [153.82402, -29.014852], [153.825166, -29.012629], [153.826478, -29.011071], [153.827646, -29.009037], [153.829122, -29.007622], [153.831182, -29.006147], [153.833051, -29.004808], [153.834109, -29.003254], [153.835834, -29.002162], [153.838002, -29.000477], [153.840259, -28.999246], [153.842323, -28.9984], [153.844119, -28.997451], [153.84619, -28.996313], [153.848093, -28.994781], [153.850184, -28.993187], [153.85248, -28.991486], [153.853897, -28.990148], [153.855743, -28.988934], [153.857562, -28.987394], [153.858804, -28.985923], [153.860602, -28.984727], [153.862248, -28.983388], [153.86415, -28.982048], [153.866029, -28.980968], [153.867945, -28.979869], [153.869814, -28.978355], [153.871386, -28.977218], [153.873055, -28.975979], [153.874906, -28.974118], [153.876703, -28.972092], [153.878561, -28.969947], [153.879914, -28.968153], [153.88151, -28.966188], [153.882806, -28.964218], [153.884285, -28.962487], [153.885571, -28.96095], [153.886826, -28.958996], [153.887931, -28.957116], [153.888385, -28.954793], [153.888803, -28.952649], [153.889861, -28.950363], [153.890604, -28.948575], [153.891695, -28.946617], [153.89292, -28.944669], [153.893561, -28.942587], [153.894735, -28.940597], [153.895807, -28.938759], [153.896813, -28.936534], [153.896533, -28.934499], [153.895841, -28.932056], [153.895256, -28.92964], [153.89524, -28.927155], [153.895317, -28.925146], [153.895396, -28.922575], [153.89589, -28.920381], [153.896184, -28.918195], [153.89643, -28.915558], [153.897063, -28.913663], [153.898134, -28.910906], [153.898526, -28.908881], [153.898463, -28.906189], [153.898382, -28.90424], [153.898421, -28.902262], [153.898629, -28.900487], [153.899427, -28.898789], [153.899933, -28.896366], [153.900317, -28.894112], [153.901328, -28.892075], [153.902163, -28.889876], [153.9029, -28.887401], [153.903807, -28.885608], [153.904342, -28.883645], [153.904383, -28.881434], [153.905088, -28.879345], [153.904802, -28.877182], [153.904885, -28.875361], [153.906039, -28.873361], [153.907206, -28.87131], [153.90744, -28.869662], [153.908823, -28.867901], [153.909492, -28.865903], [153.910427, -28.864245], [153.910928, -28.86238], [153.912307, -28.86041], [153.914064, -28.858555], [153.915448, -28.856619], [153.916656, -28.854567], [153.918545, -28.852386], [153.91957, -28.851248], [153.921481, -28.849522], [153.923045, -28.847654], [153.924356, -28.845493], [153.925082, -28.843238], [153.925838, -28.841029], [153.92647, -28.839278], [153.926511, -28.837112], [153.926795, -28.835359], [153.927176, -28.832742], [153.927699, -28.830515], [153.928602, -28.828712], [153.929155, -28.826265], [153.929331, -28.824074], [153.929965, -28.822128], [153.930636, -28.819834], [153.931797, -28.81712], [153.932922, -28.814902], [153.933732, -28.812751], [153.93527, -28.81056], [153.936224, -28.808265], [153.937363, -28.80567], [153.938565, -28.803391], [153.939383, -28.800866], [153.940764, -28.798774], [153.941769, -28.796743], [153.94262, -28.794935], [153.94341, -28.793166], [153.944022, -28.790379], [153.944488, -28.788138], [153.944439, -28.785141], [153.94385, -28.782463], [153.943697, -28.780514], [153.944459, -28.77843], [153.945594, -28.775775], [153.946612, -28.773494], [153.947538, -28.771502], [153.947857, -28.769232], [153.948393, -28.766766], [153.948622, -28.764697], [153.949029, -28.762207], [153.949396, -28.760405], [153.95009, -28.757788], [153.950367, -28.755542], [153.950305, -28.753077], [153.9496, -28.750821], [153.948805, -28.748381], [153.949103, -28.745955], [153.949517, -28.743697], [153.949971, -28.740928], [153.950802, -28.737048], [153.95115, -28.73535], [153.951619, -28.732762], [153.952369, -28.730032], [153.95249, -28.727621], [153.953189, -28.725357], [153.954255, -28.723147], [153.955089, -28.721216], [153.956048, -28.718836], [153.956324, -28.716763], [153.956529, -28.714261], [153.956851, -28.712038], [153.95745, -28.709611], [153.957742, -28.707016], [153.95852, -28.704594], [153.958531, -28.702148], [153.959019, -28.699971], [153.958988, -28.697979], [153.959558, -28.695415], [153.959887, -28.692079], [153.960249, -28.690278], [153.960697, -28.687067], [153.9608, -28.684805], [153.961068, -28.682518], [153.96173, -28.680438], [153.961983, -28.678228], [153.962849, -28.675636], [153.963511, -28.673078], [153.963448, -28.670956], [153.9638, -28.668144], [153.964086, -28.665485], [153.964156, -28.663493], [153.964181, -28.660749], [153.965269, -28.658194], [153.967131, -28.656029], [153.967467, -28.653696], [153.967731, -28.651141], [153.968409, -28.648676], [153.968286, -28.645954], [153.968566, -28.64352], [153.969257, -28.641006], [153.96984, -28.638895], [153.970615, -28.635881], [153.971428, -28.633179], [153.972266, -28.630105], [153.97342, -28.627558], [153.974148, -28.624897], [153.974822, -28.622704], [153.975264, -28.62013], [153.975682, -28.617666], [153.975941, -28.615222], [153.977009, -28.611913], [153.97771, -28.609795], [153.97855, -28.607052], [153.978972, -28.604605], [153.980205, -28.602052], [153.980588, -28.599591], [153.981094, -28.597111], [153.981411, -28.594498], [153.981558, -28.592764], [153.98223, -28.590381], [153.982318, -28.588254], [153.982733, -28.58575], [153.982493, -28.582972], [153.982176, -28.580813], [153.98238, -28.578371], [153.983009, -28.575894], [153.983307, -28.574135], [153.983855, -28.572142], [153.984929, -28.570074], [153.985564, -28.567775], [153.98632, -28.565718], [153.986941, -28.563564], [153.988043, -28.561282], [153.989248, -28.559494], [153.990858, -28.557851], [153.991837, -28.555896], [153.992994, -28.553708], [153.994326, -28.551734], [153.995324, -28.549203], [153.997038, -28.54621], [153.998388, -28.543364], [153.999688, -28.541078], [154.000582, -28.538667], [154.00168, -28.536605], [154.00286, -28.534253], [154.003414, -28.531839], [154.004791, -28.529597], [154.006051, -28.527765], [154.006866, -28.525553], [154.007264, -28.523258], [154.007176, -28.520625], [154.007306, -28.518004], [154.007129, -28.516017], [154.006942, -28.513997], [154.007325, -28.51149], [154.00775, -28.509061], [154.008078, -28.506521], [154.008138, -28.504077], [154.008091, -28.50179], [154.007815, -28.499193], [154.007454, -28.496828], [154.006685, -28.494488], [154.006529, -28.491833], [154.006201, -28.489988], [154.005968, -28.487715], [154.006215, -28.485488], [154.005849, -28.483417], [154.005733, -28.481576], [154.005516, -28.47954], [154.004305, -28.47619], [154.003266, -28.473937], [154.002564, -28.471369], [154.002315, -28.468761], [154.002305, -28.466335], [154.00228, -28.464116], [154.001948, -28.461779], [154.001176, -28.459311], [154.001378, -28.457615], [154.001781, -28.455038], [154.002106, -28.452697], [154.002654, -28.450276], [154.003363, -28.447954], [154.00377, -28.44552], [154.004483, -28.44336], [154.005719, -28.44181], [154.007187, -28.439495], [154.009348, -28.437518], [154.010914, -28.435877], [154.01275, -28.434152], [154.014374, -28.432596], [154.015879, -28.431104], [154.017406, -28.429232], [154.019177, -28.426969], [154.021035, -28.424856], [154.02234, -28.423508], [154.024234, -28.421599], [154.026119, -28.419613], [154.027661, -28.417881], [154.02948, -28.415822], [154.031228, -28.413903], [154.033048, -28.411917], [154.035638, -28.409126], [154.037261, -28.407148], [154.039521, -28.404829], [154.041129, -28.402988], [154.043124, -28.400826], [154.045136, -28.398811], [154.046578, -28.396447], [154.047769, -28.394566], [154.049188, -28.392452], [154.050837, -28.390555], [154.052475, -28.388781], [154.054092, -28.386759], [154.055487, -28.385036], [154.057323, -28.382965], [154.059223, -28.380902], [154.060796, -28.37878], [154.062617, -28.37671], [154.064195, -28.374917], [154.066112, -28.372963], [154.068016, -28.370987], [154.069633, -28.369207], [154.071282, -28.367232], [154.072825, -28.365259], [154.074159, -28.363144], [154.075738, -28.360602], [154.077513, -28.358469], [154.079073, -28.356602], [154.080444, -28.354486], [154.082441, -28.352385], [154.084274, -28.350026], [154.085208, -28.348355], [154.086758, -28.345821], [154.087717, -28.34392], [154.088627, -28.341509], [154.089823, -28.339518], [154.091488, -28.337423], [154.092941, -28.335095], [154.094232, -28.332984], [154.095533, -28.330825], [154.096714, -28.328667], [154.098215, -28.326349], [154.099553, -28.324292], [154.099941, -28.322097], [154.100224, -28.320028], [154.100356, -28.31735], [154.100265, -28.315603], [154.099488, -28.313151], [154.099044, -28.3111], [154.098747, -28.308477], [154.097979, -28.305436], [154.097596, -28.302298], [154.097565, -28.299412], [154.096749, -28.297282], [154.095357, -28.295116], [154.094203, -28.294102], [154.092383, -28.292467], [154.090725, -28.290793], [154.08947, -28.289842], [154.087527, -28.288732], [154.086303, -28.287724], [154.084713, -28.286425], [154.082622, -28.284882], [154.081148, -28.283735], [154.079871, -28.28254], [154.07795, -28.281073], [154.07642, -28.279865], [154.07506, -28.278631], [154.072955, -28.27709], [154.071041, -28.275424], [154.06914, -28.273588], [154.067736, -28.272197], [154.065839, -28.270237], [154.064458, -28.268745], [154.063066, -28.267274], [154.061588, -28.264973], [154.059658, -28.262809], [154.058507, -28.261282], [154.056535, -28.259352], [154.054091, -28.257564], [154.052739, -28.256096], [154.051481, -28.254997], [154.049584, -28.253451], [154.047542, -28.251835], [154.045878, -28.250735], [154.044102, -28.249443], [154.042664, -28.24869], [154.040285, -28.24764], [154.038159, -28.246574], [154.036466, -28.245666], [154.034619, -28.244249], [154.033246, -28.242725], [154.031545, -28.241384], [154.030314, -28.240304], [154.028957, -28.239328], [154.02716, -28.238135], [154.025875, -28.237147], [154.023613, -28.235685], [154.021747, -28.234571], [154.019878, -28.233862], [154.018007, -28.232974], [154.016184, -28.232239], [154.014178, -28.230505], [154.012562, -28.229227], [154.010913, -28.228496], [154.009078, -28.22795], [154.007011, -28.227728], [154.004995, -28.226952], [154.002363, -28.225863], [154.000318, -28.225397], [153.998147, -28.225], [153.995453, -28.224698], [153.993194, -28.224507], [153.991284, -28.223829], [153.989298, -28.223247], [153.986798, -28.222463], [153.984491, -28.221685], [153.982736, -28.220887], [153.980536, -28.219454], [153.978596, -28.218164], [153.977245, -28.21678], [153.975553, -28.215125], [153.974142, -28.213723], [153.972451, -28.212368], [153.97096, -28.211169], [153.968686, -28.209337], [153.966834, -28.208098], [153.965108, -28.207168], [153.963172, -28.206127], [153.960959, -28.2047], [153.959382, -28.203518], [153.957731, -28.201861], [153.955289, -28.201241], [153.953178, -28.200642], [153.950867, -28.199301], [153.948771, -28.198106], [153.947208, -28.197257], [153.945499, -28.196245], [153.943683, -28.194831], [153.941802, -28.193335], [153.940022, -28.191883], [153.938343, -28.190637], [153.936391, -28.18951], [153.933858, -28.188203], [153.9319, -28.186921], [153.92993, -28.185316], [153.928034, -28.183951], [153.925927, -28.183185], [153.924076, -28.182679], [153.922204, -28.181481], [153.919864, -28.180149], [153.918044, -28.179317], [153.915672, -28.178446], [153.913733, -28.177806], [153.911285, -28.177029], [153.908965, -28.176256], [153.906407, -28.175326], [153.903209, -28.17401], [153.900991, -28.173139], [153.898724, -28.171732], [153.896177, -28.1704], [153.894065, -28.169533], [153.891907, -28.168616], [153.889814, -28.167927], [153.887197, -28.16698], [153.885354, -28.165787], [153.883802, -28.164682], [153.881731, -28.162986], [153.879773, -28.161701], [153.87785, -28.160265], [153.876085, -28.159246], [153.874266, -28.158146], [153.872134, -28.156726], [153.870163, -28.155769], [153.868466, -28.154977], [153.86647, -28.154036], [153.864973, -28.153173], [153.862823, -28.152039], [153.861094, -28.150902], [153.859438, -28.149865], [153.857092, -28.148393], [153.855425, -28.147479], [153.853417, -28.146585], [153.851449, -28.145557], [153.849877, -28.144345], [153.848048, -28.143315], [153.84661, -28.142458], [153.844976, -28.141113], [153.843907, -28.140001], [153.84214, -28.138572], [153.840264, -28.137502], [153.838128, -28.136356], [153.836328, -28.135012], [153.834738, -28.134116], [153.833896, -28.132781], [153.832861, -28.131745], [153.83148, -28.130619], [153.830123, -28.129388], [153.828399, -28.128135], [153.826638, -28.12714], [153.82496, -28.126675], [153.823058, -28.126157], [153.821503, -28.125614], [153.819656, -28.125321], [153.817727, -28.124757], [153.815643, -28.124082], [153.81404, -28.12289], [153.811918, -28.122327], [153.8102, -28.121634], [153.807176, -28.120586], [153.805767, -28.119914], [153.803381, -28.118517], [153.801882, -28.117696], [153.800349, -28.116665], [153.798808, -28.115601], [153.797278, -28.114422], [153.795675, -28.113294], [153.793716, -28.112445], [153.792033, -28.111778], [153.789963, -28.110716], [153.787974, -28.109879], [153.785568, -28.109064], [153.784093, -28.108631], [153.781168, -28.107868], [153.779135, -28.107507], [153.776986, -28.106728], [153.774584, -28.106042], [153.771941, -28.104865], [153.770446, -28.10375], [153.768473, -28.102186], [153.766587, -28.100972], [153.764348, -28.099542], [153.76287, -28.09841], [153.76138, -28.097341], [153.759391, -28.096336], [153.757288, -28.096225], [153.75519, -28.095954], [153.753418, -28.095757], [153.751654, -28.094697], [153.749976, -28.0936], [153.7484, -28.092554], [153.746266, -28.0915], [153.74471, -28.090521], [153.742266, -28.089235], [153.740549, -28.087983], [153.738603, -28.087305], [153.737164, -28.086775], [153.735308, -28.085799], [153.733662, -28.084993], [153.731726, -28.084256], [153.729572, -28.083743], [153.727538, -28.083302], [153.725786, -28.082643], [153.724194, -28.081665], [153.722301, -28.080874], [153.719624, -28.080069], [153.717952, -28.079373], [153.715949, -28.078434], [153.71405, -28.077658], [153.712407, -28.076959], [153.710375, -28.075949], [153.708363, -28.075014], [153.70684, -28.074153], [153.705377, -28.073458], [153.70318, -28.072765], [153.701127, -28.072504], [153.699388, -28.072389], [153.696615, -28.072115], [153.694681, -28.07173], [153.692927, -28.071343], [153.69101, -28.070591], [153.689056, -28.069762], [153.686965, -28.069071], [153.685149, -28.068219], [153.683098, -28.067273], [153.680875, -28.066349], [153.678905, -28.06558], [153.677263, -28.065064], [153.675234, -28.064857], [153.673711, -28.064182], [153.672338, -28.063383], [153.67102, -28.062161], [153.669946, -28.060884], [153.668395, -28.060077], [153.666481, -28.059034], [153.664693, -28.058337], [153.66273, -28.057432], [153.661429, -28.056479], [153.660504, -28.054686], [153.65989, -28.052891], [153.659093, -28.050921], [153.658214, -28.049477], [153.656756, -28.047572], [153.655754, -28.046322], [153.654803, -28.044562], [153.654207, -28.042593], [153.654238, -28.040631], [153.654382, -28.038903], [153.654609, -28.037039], [153.654813, -28.034955], [153.654939, -28.033195], [153.655337, -28.031455], [153.656018, -28.029539], [153.656843, -28.027082], [153.65693, -28.025653], [153.657045, -28.023789], [153.657284, -28.022015], [153.657192, -28.02004], [153.657028, -28.01819], [153.657702, -28.016279], [153.657167, -28.015005], [153.654738, -28.014776], [153.65221, -28.01478], [153.649576, -28.014794], [153.6471, -28.014998], [153.643311, -28.015346], [153.640918, -28.015535], [153.638489, -28.015714], [153.635552, -28.015623], [153.632501, -28.015623], [153.630463, -28.015422], [153.627855, -28.014847], [153.625436, -28.013813], [153.623564, -28.012922], [153.621492, -28.012192], [153.618733, -28.011195], [153.616662, -28.010672], [153.614535, -28.009977], [153.611441, -28.008851], [153.609651, -28.008278], [153.607, -28.007219], [153.604561, -28.006623], [153.601579, -28.0057], [153.59956, -28.004871], [153.597114, -28.004244], [153.594703, -28.003688], [153.59214, -28.002949], [153.589223, -28.002049], [153.586483, -28.00105], [153.584553, -28.000397], [153.582881, -27.999822], [153.580311, -27.998953], [153.578365, -27.998422], [153.576067, -27.997794], [153.574154, -27.997121], [153.571975, -27.996622], [153.569882, -27.996189], [153.566967, -27.995508], [153.564532, -27.994919], [153.562532, -27.9946], [153.560587, -27.994411], [153.558045, -27.993925], [153.556298, -27.993566], [153.554184, -27.993082], [153.552259, -27.992822], [153.549674, -27.992848], [153.54765, -27.992517], [153.544706, -27.992423], [153.541929, -27.992493], [153.539379, -27.992042], [153.537485, -27.991644], [153.534607, -27.990497], [153.532363, -27.989497], [153.529725, -27.988381], [153.526648, -27.98691], [153.524227, -27.985791], [153.521115, -27.984456], [153.518616, -27.983313], [153.514752, -27.981524], [153.512277, -27.98022], [153.509425, -27.978706], [153.506058, -27.976941], [153.503199, -27.975439], [153.501022, -27.974106], [153.498816, -27.973061], [153.496099, -27.972018], [153.49393, -27.970695], [153.491664, -27.969327], [153.489661, -27.968118], [153.487539, -27.966874], [153.484224, -27.964979], [153.481757, -27.963619], [153.478597, -27.961769], [153.475231, -27.95982], [153.473116, -27.958634], [153.470841, -27.957568], [153.467752, -27.95584], [153.465574, -27.954535], [153.462921, -27.953059], [153.460898, -27.951891], [153.458376, -27.95044], [153.455898, -27.949045], [153.453961, -27.947938], [153.450834, -27.946144], [153.448588, -27.944839], [153.446142, -27.942943], [153.443918, -27.941147], [153.442157, -27.939468], [153.440333, -27.937461], [153.438725, -27.935609], [153.438382, -27.935432], [153.435223, -27.933754], [153.432793, -27.934052], [153.4291, -27.934908], [153.426234, -27.935667], [153.423769, -27.936566], [153.421603, -27.938092], [153.420416, -27.94006], [153.41983, -27.942542], [153.419642, -27.944875], [153.420168, -27.948552], [153.421232, -27.950069], [153.422807, -27.949783], [153.423727, -27.947783]]}, "times": ["2023-04-26T05:39:15+00:00", "2023-04-26T05:47:49+00:00", "2023-04-26T05:50:00+00:00", "2023-04-26T05:52:08+00:00", "2023-04-26T05:55:03+00:00", "2023-04-26T05:57:03+00:00", "2023-04-26T05:58:59+00:00", "2023-04-26T06:01:19+00:00", "2023-04-26T06:03:24+00:00", "2023-04-26T06:05:33+00:00", "2023-04-26T06:07:05+00:00", "2023-04-26T06:09:54+00:00", "2023-04-26T06:12:01+00:00", "2023-04-26T06:13:01+00:00", "2023-04-26T06:15:51+00:00", "2023-04-26T06:16:52+00:00", "2023-04-26T06:19:00+00:00", "2023-04-26T06:21:01+00:00", "2023-04-26T06:22:50+00:00", "2023-04-26T06:24:06+00:00", "2023-04-26T06:27:02+00:00", "2023-04-26T06:29:02+00:00", "2023-04-26T06:31:02+00:00", "2023-04-26T06:33:00+00:00", "2023-04-26T06:34:02+00:00", "2023-04-26T06:35:25+00:00", "2023-04-26T06:36:54+00:00", "2023-04-26T06:39:01+00:00", "2023-04-26T06:40:14+00:00", "2023-04-26T06:42:03+00:00", "2023-04-26T06:44:03+00:00", "2023-04-26T06:45:04+00:00", "2023-04-26T06:47:03+00:00", "2023-04-26T06:49:06+00:00", "2023-04-26T06:51:06+00:00", "2023-04-26T06:53:59+00:00", "2023-04-26T06:56:00+00:00", "2023-04-26T06:58:04+00:00", "2023-04-26T07:00:03+00:00", "2023-04-26T07:02:03+00:00", "2023-04-26T07:03:49+00:00", "2023-04-26T07:04:34+00:00", "2023-04-26T07:06:06+00:00", "2023-04-26T07:08:03+00:00", "2023-04-26T07:09:04+00:00", "2023-04-26T07:11:04+00:00", "2023-04-26T07:12:28+00:00", "2023-04-26T07:14:05+00:00", "2023-04-26T07:15:49+00:00", "2023-04-26T07:17:10+00:00", "2023-04-26T07:19:35+00:00", "2023-04-26T07:21:15+00:00", "2023-04-26T07:23:00+00:00", "2023-04-26T07:24:36+00:00", "2023-04-26T07:26:00+00:00", "2023-04-26T07:27:45+00:00", "2023-04-26T07:29:25+00:00", "2023-04-26T07:31:06+00:00", "2023-04-26T07:32:06+00:00", "2023-04-26T07:34:06+00:00", "2023-04-26T07:36:15+00:00", "2023-04-26T07:38:06+00:00", "2023-04-26T07:39:52+00:00", "2023-04-26T07:41:13+00:00", "2023-04-26T07:43:06+00:00", "2023-04-26T07:45:06+00:00", "2023-04-26T07:46:30+00:00", "2023-04-26T07:48:06+00:00", "2023-04-26T07:50:06+00:00", "2023-04-26T07:51:56+00:00", "2023-04-26T07:54:04+00:00", "2023-04-26T07:56:00+00:00", "2023-04-26T07:57:17+00:00", "2023-04-26T07:59:07+00:00", "2023-04-26T08:01:02+00:00", "2023-04-26T08:02:10+00:00", "2023-04-26T08:04:47+00:00", "2023-04-26T08:06:47+00:00", "2023-04-26T08:08:48+00:00", "2023-04-26T08:10:07+00:00", "2023-04-26T08:12:07+00:00", "2023-04-26T08:14:07+00:00", "2023-04-26T08:15:11+00:00", "2023-04-26T08:16:15+00:00", "2023-04-26T08:18:12+00:00", "2023-04-26T08:19:44+00:00", "2023-04-26T08:21:24+00:00", "2023-04-26T08:22:41+00:00", "2023-04-26T08:24:07+00:00", "2023-04-26T08:25:18+00:00", "2023-04-26T08:27:06+00:00", "2023-04-26T08:28:18+00:00", "2023-04-26T08:29:51+00:00", "2023-04-26T08:31:35+00:00", "2023-04-26T08:32:40+00:00", "2023-04-26T08:34:04+00:00", "2023-04-26T08:34:56+00:00", "2023-04-26T08:36:00+00:00", "2023-04-26T08:37:25+00:00", "2023-04-26T08:38:58+00:00", "2023-04-26T08:39:50+00:00", "2023-04-26T08:41:39+00:00", "2023-04-26T08:43:03+00:00", "2023-04-26T08:44:09+00:00", "2023-04-26T08:45:08+00:00", "2023-04-26T08:47:09+00:00", "2023-04-26T08:48:09+00:00", "2023-04-26T08:49:21+00:00", "2023-04-26T08:50:45+00:00", "2023-04-26T08:52:09+00:00", "2023-04-26T08:53:09+00:00", "2023-04-26T08:55:19+00:00", "2023-04-26T08:57:09+00:00", "2023-04-26T08:58:20+00:00", "2023-04-26T09:00:40+00:00", "2023-04-26T09:01:45+00:00", "2023-04-26T09:02:37+00:00", "2023-04-26T09:04:05+00:00", "2023-04-26T09:05:38+00:00", "2023-04-26T09:06:46+00:00", "2023-04-26T09:08:11+00:00", "2023-04-26T09:09:11+00:00", "2023-04-26T09:10:23+00:00", "2023-04-26T09:11:48+00:00", "2023-04-26T09:13:04+00:00", "2023-04-26T09:14:40+00:00", "2023-04-26T09:15:53+00:00", "2023-04-26T09:18:11+00:00", "2023-04-26T09:19:14+00:00", "2023-04-26T09:21:07+00:00", "2023-04-26T09:22:15+00:00", "2023-04-26T09:24:10+00:00", "2023-04-26T09:25:20+00:00", "2023-04-26T09:27:08+00:00", "2023-04-26T09:28:17+00:00", "2023-04-26T09:29:53+00:00", "2023-04-26T09:31:49+00:00", "2023-04-26T09:33:54+00:00", "2023-04-26T09:35:11+00:00", "2023-04-26T09:37:11+00:00", "2023-04-26T09:38:44+00:00", "2023-04-26T09:40:40+00:00", "2023-04-26T09:42:12+00:00", "2023-04-26T09:44:09+00:00", "2023-04-26T09:45:12+00:00", "2023-04-26T09:47:17+00:00", "2023-04-26T09:49:11+00:00", "2023-04-26T09:51:12+00:00", "2023-04-26T09:53:12+00:00", "2023-04-26T09:54:48+00:00", "2023-04-26T09:57:14+00:00", "2023-04-26T09:59:01+00:00", "2023-04-26T10:00:22+00:00", "2023-04-26T10:02:14+00:00", "2023-04-26T10:03:19+00:00", "2023-04-26T10:05:28+00:00", "2023-04-26T10:07:14+00:00", "2023-04-26T10:09:14+00:00", "2023-04-26T10:11:21+00:00", "2023-04-26T10:13:14+00:00", "2023-04-26T10:15:14+00:00", "2023-04-26T10:17:14+00:00", "2023-04-26T10:18:19+00:00", "2023-04-26T10:20:44+00:00", "2023-04-26T10:22:37+00:00", "2023-04-26T10:24:14+00:00", "2023-04-26T10:26:15+00:00", "2023-04-26T10:28:15+00:00", "2023-04-26T10:30:16+00:00", "2023-04-26T10:32:31+00:00", "2023-04-26T10:34:00+00:00", "2023-04-26T10:36:15+00:00", "2023-04-26T10:38:14+00:00", "2023-04-26T10:40:15+00:00", "2023-04-26T10:42:15+00:00", "2023-04-26T10:44:15+00:00", "2023-04-26T10:46:26+00:00", "2023-04-26T10:48:15+00:00", "2023-04-26T10:50:15+00:00", "2023-04-26T10:51:44+00:00", "2023-04-26T10:54:15+00:00", "2023-04-26T10:56:15+00:00", "2023-04-26T10:57:49+00:00", "2023-04-26T10:59:14+00:00", "2023-04-26T11:00:46+00:00", "2023-04-26T11:02:16+00:00", "2023-04-26T11:04:16+00:00", "2023-04-26T11:06:27+00:00", "2023-04-26T11:08:32+00:00", "2023-04-26T11:10:20+00:00", "2023-04-26T11:12:41+00:00", "2023-04-26T11:14:16+00:00", "2023-04-26T11:16:50+00:00", "2023-04-26T11:18:42+00:00", "2023-04-26T11:21:17+00:00", "2023-04-26T11:23:17+00:00", "2023-04-26T11:25:17+00:00", "2023-04-26T11:27:32+00:00", "2023-04-26T11:30:01+00:00", "2023-04-26T11:32:21+00:00", "2023-04-26T11:34:31+00:00", "2023-04-26T11:36:51+00:00", "2023-04-26T11:39:16+00:00", "2023-04-26T11:41:22+00:00", "2023-04-26T11:43:36+00:00", "2023-04-26T11:45:29+00:00", "2023-04-26T11:48:22+00:00", "2023-04-26T11:50:10+00:00", "2023-04-26T11:51:23+00:00", "2023-04-26T11:53:23+00:00", "2023-04-26T11:55:23+00:00", "2023-04-26T11:57:23+00:00", "2023-04-26T11:58:32+00:00", "2023-04-26T12:00:49+00:00", "2023-04-26T12:03:21+00:00", "2023-04-26T12:05:02+00:00", "2023-04-26T12:06:51+00:00", "2023-04-26T12:09:25+00:00", "2023-04-26T12:14:21+00:00", "2023-04-26T12:27:51+00:00", "2023-04-26T12:38:29+00:00", "2023-04-26T12:41:29+00:00", "2023-04-26T12:43:03+00:00", "2023-04-26T12:46:00+00:00", "2023-04-26T12:48:01+00:00", "2023-04-26T12:49:37+00:00", "2023-04-26T12:52:10+00:00", "2023-04-26T12:54:29+00:00", "2023-04-26T12:55:59+00:00", "2023-04-26T12:58:29+00:00", "2023-04-26T12:59:36+00:00", "2023-04-26T13:01:33+00:00", "2023-04-26T13:04:29+00:00", "2023-04-26T13:06:21+00:00", "2023-04-26T13:07:54+00:00", "2023-04-26T13:09:29+00:00", "2023-04-26T13:11:29+00:00", "2023-04-26T13:13:29+00:00", "2023-04-26T13:15:28+00:00", "2023-04-26T13:17:29+00:00", "2023-04-26T13:19:29+00:00", "2023-04-26T13:22:26+00:00", "2023-04-26T13:23:30+00:00", "2023-04-26T13:25:47+00:00", "2023-04-26T13:27:29+00:00", "2023-04-26T13:29:29+00:00", "2023-04-26T13:31:29+00:00", "2023-04-26T13:33:30+00:00", "2023-04-26T13:34:33+00:00", "2023-04-26T13:36:30+00:00", "2023-04-26T13:38:32+00:00", "2023-04-26T13:41:07+00:00", "2023-04-26T13:42:15+00:00", "2023-04-26T13:44:33+00:00", "2023-04-26T13:46:04+00:00", "2023-04-26T13:47:34+00:00", "2023-04-26T13:49:05+00:00", "2023-04-26T13:51:05+00:00", "2023-04-26T13:52:33+00:00", "2023-04-26T13:54:34+00:00", "2023-04-26T13:57:11+00:00", "2023-04-26T13:59:28+00:00", "2023-04-26T14:01:00+00:00", "2023-04-26T14:03:21+00:00", "2023-04-26T14:05:33+00:00", "2023-04-26T14:07:34+00:00", "2023-04-26T14:09:34+00:00", "2023-04-26T14:12:03+00:00", "2023-04-26T14:14:27+00:00", "2023-04-26T14:16:40+00:00", "2023-04-26T14:19:01+00:00", "2023-04-26T14:21:26+00:00", "2023-04-26T14:23:37+00:00", "2023-04-26T14:25:37+00:00", "2023-04-26T14:28:39+00:00", "2023-04-26T14:31:39+00:00", "2023-04-26T14:33:47+00:00", "2023-04-26T14:36:25+00:00", "2023-04-26T14:38:22+00:00", "2023-04-26T14:41:23+00:00", "2023-04-26T14:42:43+00:00", "2023-04-26T14:46:04+00:00", "2023-04-26T14:48:47+00:00", "2023-04-26T14:50:39+00:00", "2023-04-26T14:52:47+00:00", "2023-04-26T14:55:11+00:00", "2023-04-26T14:57:15+00:00", "2023-04-26T14:58:40+00:00", "2023-04-26T15:01:41+00:00", "2023-04-26T15:03:57+00:00", "2023-04-26T15:06:13+00:00", "2023-04-26T15:07:42+00:00", "2023-04-26T15:09:42+00:00", "2023-04-26T15:11:38+00:00", "2023-04-26T15:13:44+00:00", "2023-04-26T15:15:44+00:00", "2023-04-26T15:17:44+00:00", "2023-04-26T15:20:25+00:00", "2023-04-26T15:21:53+00:00", "2023-04-26T15:23:58+00:00", "2023-04-26T15:26:31+00:00", "2023-04-26T15:28:07+00:00", "2023-04-26T15:30:40+00:00", "2023-04-26T15:33:00+00:00", "2023-04-26T15:35:44+00:00", "2023-04-26T15:37:45+00:00", "2023-04-26T15:39:58+00:00", "2023-04-26T15:42:46+00:00", "2023-04-26T15:44:47+00:00", "2023-04-26T15:46:45+00:00", "2023-04-26T15:49:09+00:00", "2023-04-26T15:51:41+00:00", "2023-04-26T15:53:22+00:00", "2023-04-26T15:57:07+00:00", "2023-04-26T15:59:47+00:00", "2023-04-26T16:01:47+00:00", "2023-04-26T16:03:47+00:00", "2023-04-26T16:05:41+00:00", "2023-04-26T16:07:37+00:00", "2023-04-26T16:09:45+00:00", "2023-04-26T16:12:47+00:00", "2023-04-26T16:16:45+00:00", "2023-04-26T16:18:47+00:00", "2023-04-26T16:20:25+00:00", "2023-04-26T16:23:48+00:00", "2023-04-26T16:26:45+00:00", "2023-04-26T16:28:49+00:00", "2023-04-26T16:31:49+00:00", "2023-04-26T16:33:49+00:00", "2023-04-26T16:35:49+00:00", "2023-04-26T16:37:55+00:00", "2023-04-26T16:39:46+00:00", "2023-04-26T16:41:54+00:00", "2023-04-26T16:43:53+00:00", "2023-04-26T16:46:15+00:00", "2023-04-26T16:48:08+00:00", "2023-04-26T16:49:51+00:00", "2023-04-26T16:51:51+00:00", "2023-04-26T16:53:53+00:00", "2023-04-26T16:56:00+00:00", "2023-04-26T16:58:18+00:00", "2023-04-26T17:00:31+00:00", "2023-04-26T17:02:34+00:00", "2023-04-26T17:04:32+00:00", "2023-04-26T17:06:08+00:00", "2023-04-26T17:07:52+00:00", "2023-04-26T17:09:53+00:00", "2023-04-26T17:11:26+00:00", "2023-04-26T17:12:58+00:00", "2023-04-26T17:15:27+00:00", "2023-04-26T17:17:47+00:00", "2023-04-26T17:19:52+00:00", "2023-04-26T17:21:32+00:00", "2023-04-26T17:23:53+00:00", "2023-04-26T17:26:10+00:00", "2023-04-26T17:28:02+00:00", "2023-04-26T17:29:54+00:00", "2023-04-26T17:32:55+00:00", "2023-04-26T17:34:55+00:00", "2023-04-26T17:37:17+00:00", "2023-04-26T17:39:55+00:00", "2023-04-26T17:41:55+00:00", "2023-04-26T17:44:30+00:00", "2023-04-26T17:45:55+00:00", "2023-04-26T17:48:56+00:00", "2023-04-26T17:50:57+00:00", "2023-04-26T17:52:57+00:00", "2023-04-26T17:54:56+00:00", "2023-04-26T17:56:45+00:00", "2023-04-26T17:57:58+00:00", "2023-04-26T17:59:56+00:00", "2023-04-26T18:01:56+00:00", "2023-04-26T18:03:59+00:00", "2023-04-26T18:06:45+00:00", "2023-04-26T18:08:55+00:00", "2023-04-26T18:11:27+00:00", "2023-04-26T18:12:56+00:00", "2023-04-26T18:15:56+00:00", "2023-04-26T18:17:57+00:00", "2023-04-26T18:19:57+00:00", "2023-04-26T18:21:57+00:00", "2023-04-26T18:23:46+00:00", "2023-04-26T18:25:57+00:00", "2023-04-26T18:27:58+00:00", "2023-04-26T18:29:40+00:00", "2023-04-26T18:31:48+00:00", "2023-04-26T18:33:25+00:00", "2023-04-26T18:34:59+00:00", "2023-04-26T18:37:22+00:00", "2023-04-26T18:38:55+00:00", "2023-04-26T18:40:43+00:00", "2023-04-26T18:42:00+00:00", "2023-04-26T18:44:00+00:00", "2023-04-26T18:46:00+00:00", "2023-04-26T18:48:00+00:00", "2023-04-26T18:50:14+00:00", "2023-04-26T18:53:00+00:00", "2023-04-26T18:55:00+00:00", "2023-04-26T18:57:00+00:00", "2023-04-26T19:00:00+00:00", "2023-04-26T19:01:57+00:00", "2023-04-26T19:04:06+00:00", "2023-04-26T19:05:58+00:00", "2023-04-26T19:07:59+00:00", "2023-04-26T19:10:44+00:00", "2023-04-26T19:13:02+00:00", "2023-04-26T19:15:02+00:00", "2023-04-26T19:16:58+00:00", "2023-04-26T19:18:42+00:00", "2023-04-26T19:21:02+00:00", "2023-04-26T19:23:02+00:00", "2023-04-26T19:25:02+00:00", "2023-04-26T19:27:00+00:00", "2023-04-26T19:30:02+00:00", "2023-04-26T19:32:27+00:00", "2023-04-26T19:34:15+00:00", "2023-04-26T19:36:02+00:00", "2023-04-26T19:38:02+00:00", "2023-04-26T19:39:40+00:00", "2023-04-26T19:43:02+00:00", "2023-04-26T19:45:02+00:00", "2023-04-26T19:47:00+00:00", "2023-04-26T19:48:55+00:00", "2023-04-26T19:51:12+00:00", "2023-04-26T19:54:01+00:00", "2023-04-26T19:56:33+00:00", "2023-04-26T19:59:02+00:00", "2023-04-26T20:00:37+00:00", "2023-04-26T20:03:02+00:00", "2023-04-26T20:04:54+00:00", "2023-04-26T20:07:02+00:00", "2023-04-26T20:10:07+00:00", "2023-04-26T20:12:32+00:00", "2023-04-26T20:16:01+00:00", "2023-04-26T20:18:00+00:00", "2023-04-26T20:20:01+00:00", "2023-04-26T20:23:02+00:00", "2023-04-26T20:25:02+00:00", "2023-04-26T20:28:00+00:00", "2023-04-26T20:30:03+00:00", "2023-04-26T20:33:02+00:00", "2023-04-26T20:35:03+00:00", "2023-04-26T20:37:03+00:00", "2023-04-26T20:39:48+00:00", "2023-04-26T20:41:05+00:00", "2023-04-26T20:44:13+00:00", "2023-04-26T20:46:05+00:00", "2023-04-26T20:48:14+00:00", "2023-04-26T20:50:05+00:00", "2023-04-26T20:51:23+00:00", "2023-04-26T20:54:05+00:00", "2023-04-26T20:55:52+00:00", "2023-04-26T21:00:10+00:00", "2023-04-26T21:02:01+00:00", "2023-04-26T21:04:17+00:00", "2023-04-26T21:06:54+00:00", "2023-04-26T21:08:06+00:00", "2023-04-26T21:10:39+00:00", "2023-04-26T21:13:08+00:00", "2023-04-26T21:15:09+00:00", "2023-04-26T21:16:53+00:00", "2023-04-26T21:19:46+00:00", "2023-04-26T21:21:18+00:00", "2023-04-26T21:23:47+00:00", "2023-04-26T21:26:15+00:00", "2023-04-26T21:28:48+00:00", "2023-04-26T21:31:01+00:00", "2023-04-26T21:34:02+00:00", "2023-04-26T21:37:15+00:00", "2023-04-26T21:38:43+00:00", "2023-04-26T21:41:23+00:00", "2023-04-26T21:43:35+00:00", "2023-04-26T21:46:15+00:00", "2023-04-26T21:48:15+00:00", "2023-04-26T21:50:46+00:00", "2023-04-26T21:53:11+00:00", "2023-04-26T21:55:23+00:00", "2023-04-26T21:57:23+00:00", "2023-04-26T21:59:33+00:00", "2023-04-26T22:02:23+00:00", "2023-04-26T22:05:18+00:00", "2023-04-26T22:07:03+00:00", "2023-04-26T22:08:15+00:00", "2023-04-26T22:11:29+00:00", "2023-04-26T22:13:21+00:00", "2023-04-26T22:15:21+00:00", "2023-04-26T22:17:25+00:00", "2023-04-26T22:19:10+00:00", "2023-04-26T22:21:19+00:00", "2023-04-26T22:23:22+00:00", "2023-04-26T22:24:32+00:00", "2023-04-26T22:27:00+00:00", "2023-04-26T22:29:21+00:00", "2023-04-26T22:31:21+00:00", "2023-04-26T22:33:23+00:00", "2023-04-26T22:35:27+00:00", "2023-04-26T22:36:55+00:00", "2023-04-26T22:39:21+00:00", "2023-04-26T22:41:29+00:00", "2023-04-26T22:44:21+00:00", "2023-04-26T22:46:58+00:00", "2023-04-26T22:48:42+00:00", "2023-04-26T22:50:22+00:00", "2023-04-26T22:52:35+00:00", "2023-04-26T22:54:22+00:00", "2023-04-26T22:56:22+00:00", "2023-04-26T22:59:01+00:00", "2023-04-26T23:01:01+00:00", "2023-04-26T23:03:24+00:00", "2023-04-26T23:05:50+00:00", "2023-04-26T23:07:24+00:00", "2023-04-26T23:10:07+00:00", "2023-04-26T23:12:25+00:00", "2023-04-26T23:14:25+00:00", "2023-04-26T23:16:25+00:00", "2023-04-26T23:18:41+00:00", "2023-04-26T23:20:42+00:00", "2023-04-26T23:23:25+00:00", "2023-04-26T23:25:25+00:00", "2023-04-26T23:27:35+00:00", "2023-04-26T23:29:16+00:00", "2023-04-26T23:31:26+00:00", "2023-04-26T23:33:09+00:00", "2023-04-26T23:35:26+00:00", "2023-04-26T23:37:06+00:00", "2023-04-26T23:38:26+00:00", "2023-04-26T23:40:15+00:00", "2023-04-26T23:42:15+00:00", "2023-04-26T23:44:26+00:00", "2023-04-26T23:46:04+00:00", "2023-04-26T23:47:28+00:00", "2023-04-26T23:49:26+00:00", "2023-04-26T23:51:26+00:00", "2023-04-26T23:53:26+00:00", "2023-04-26T23:55:26+00:00", "2023-04-26T23:57:26+00:00", "2023-04-27T00:00:26+00:00", "2023-04-27T00:02:52+00:00", "2023-04-27T00:04:33+00:00", "2023-04-27T00:07:26+00:00", "2023-04-27T00:09:27+00:00", "2023-04-27T00:11:38+00:00", "2023-04-27T00:14:29+00:00", "2023-04-27T00:16:32+00:00", "2023-04-27T00:18:40+00:00", "2023-04-27T00:21:31+00:00", "2023-04-27T00:23:31+00:00", "2023-04-27T00:25:31+00:00", "2023-04-27T00:28:30+00:00", "2023-04-27T00:30:51+00:00", "2023-04-27T00:33:31+00:00", "2023-04-27T00:35:48+00:00", "2023-04-27T00:38:09+00:00", "2023-04-27T00:40:28+00:00", "2023-04-27T00:42:29+00:00", "2023-04-27T00:45:39+00:00", "2023-04-27T00:48:24+00:00", "2023-04-27T00:51:29+00:00", "2023-04-27T00:53:29+00:00", "2023-04-27T00:55:29+00:00", "2023-04-27T00:57:31+00:00", "2023-04-27T01:00:29+00:00", "2023-04-27T01:02:30+00:00", "2023-04-27T01:05:30+00:00", "2023-04-27T01:07:57+00:00", "2023-04-27T01:10:31+00:00", "2023-04-27T01:12:26+00:00", "2023-04-27T01:13:42+00:00", "2023-04-27T01:16:31+00:00", "2023-04-27T01:18:00+00:00", "2023-04-27T01:20:34+00:00", "2023-04-27T01:22:30+00:00", "2023-04-27T01:24:42+00:00", "2023-04-27T01:27:23+00:00", "2023-04-27T01:29:38+00:00", "2023-04-27T01:31:28+00:00", "2023-04-27T01:33:04+00:00", "2023-04-27T01:36:38+00:00", "2023-04-27T01:38:22+00:00", "2023-04-27T01:40:54+00:00", "2023-04-27T01:43:33+00:00", "2023-04-27T01:45:20+00:00", "2023-04-27T01:48:30+00:00", "2023-04-27T01:50:33+00:00", "2023-04-27T01:53:14+00:00", "2023-04-27T01:56:15+00:00", "2023-04-27T01:58:23+00:00", "2023-04-27T02:00:00+00:00", "2023-04-27T02:02:37+00:00", "2023-04-27T02:05:38+00:00", "2023-04-27T02:08:30+00:00", "2023-04-27T02:10:23+00:00", "2023-04-27T02:13:36+00:00", "2023-04-27T02:16:29+00:00", "2023-04-27T02:18:30+00:00", "2023-04-27T02:21:37+00:00", "2023-04-27T02:24:37+00:00", "2023-04-27T02:27:37+00:00", "2023-04-27T02:29:37+00:00", "2023-04-27T02:31:37+00:00", "2023-04-27T02:33:37+00:00", "2023-04-27T02:35:14+00:00", "2023-04-27T02:37:19+00:00", "2023-04-27T02:39:06+00:00", "2023-04-27T02:41:39+00:00", "2023-04-27T02:43:00+00:00", "2023-04-27T02:44:44+00:00", "2023-04-27T02:47:54+00:00", "2023-04-27T02:49:36+00:00", "2023-04-27T02:51:37+00:00", "2023-04-27T02:53:59+00:00", "2023-04-27T02:56:39+00:00", "2023-04-27T02:59:25+00:00", "2023-04-27T03:01:50+00:00", "2023-04-27T03:04:26+00:00", "2023-04-27T03:06:40+00:00", "2023-04-27T03:08:47+00:00", "2023-04-27T03:11:04+00:00", "2023-04-27T03:13:28+00:00", "2023-04-27T03:15:09+00:00", "2023-04-27T03:17:22+00:00", "2023-04-27T03:19:40+00:00", "2023-04-27T03:21:40+00:00", "2023-04-27T03:23:40+00:00", "2023-04-27T03:26:28+00:00", "2023-04-27T03:28:32+00:00", "2023-04-27T03:31:17+00:00", "2023-04-27T03:32:45+00:00", "2023-04-27T03:34:57+00:00", "2023-04-27T03:36:42+00:00", "2023-04-27T03:39:30+00:00", "2023-04-27T03:40:59+00:00", "2023-04-27T03:43:11+00:00", "2023-04-27T03:45:39+00:00", "2023-04-27T03:47:40+00:00", "2023-04-27T03:50:37+00:00", "2023-04-27T03:52:34+00:00", "2023-04-27T03:54:45+00:00", "2023-04-27T03:56:45+00:00", "2023-04-27T03:58:45+00:00", "2023-04-27T04:01:44+00:00", "2023-04-27T04:04:01+00:00", "2023-04-27T04:06:45+00:00", "2023-04-27T04:09:45+00:00", "2023-04-27T04:11:34+00:00", "2023-04-27T04:13:27+00:00", "2023-04-27T04:15:45+00:00", "2023-04-27T04:18:45+00:00", "2023-04-27T04:20:44+00:00", "2023-04-27T04:22:45+00:00", "2023-04-27T04:24:45+00:00", "2023-04-27T04:26:46+00:00", "2023-04-27T04:28:45+00:00", "2023-04-27T04:30:48+00:00", "2023-04-27T04:32:57+00:00", "2023-04-27T04:34:49+00:00", "2023-04-27T04:37:46+00:00", "2023-04-27T04:39:47+00:00", "2023-04-27T04:42:31+00:00", "2023-04-27T04:44:31+00:00", "2023-04-27T04:46:45+00:00", "2023-04-27T04:49:45+00:00", "2023-04-27T04:51:05+00:00", "2023-04-27T04:54:18+00:00", "2023-04-27T04:56:14+00:00", "2023-04-27T04:58:45+00:00", "2023-04-27T05:00:50+00:00", "2023-04-27T05:02:50+00:00", "2023-04-27T05:04:50+00:00", "2023-04-27T05:06:52+00:00", "2023-04-27T05:08:49+00:00", "2023-04-27T05:10:50+00:00", "2023-04-27T05:13:38+00:00", "2023-04-27T05:15:35+00:00", "2023-04-27T05:17:48+00:00", "2023-04-27T05:19:04+00:00", "2023-04-27T05:21:13+00:00", "2023-04-27T05:23:25+00:00", "2023-04-27T05:25:50+00:00", "2023-04-27T05:27:50+00:00", "2023-04-27T05:29:51+00:00", "2023-04-27T05:31:51+00:00", "2023-04-27T05:33:13+00:00", "2023-04-27T05:35:51+00:00", "2023-04-27T05:37:30+00:00", "2023-04-27T05:39:51+00:00", "2023-04-27T05:41:52+00:00", "2023-04-27T05:44:28+00:00", "2023-04-27T05:45:53+00:00", "2023-04-27T05:47:53+00:00", "2023-04-27T05:49:53+00:00", "2023-04-27T05:51:42+00:00", "2023-04-27T05:53:53+00:00", "2023-04-27T05:55:51+00:00", "2023-04-27T05:57:53+00:00", "2023-04-27T05:59:53+00:00", "2023-04-27T06:01:53+00:00", "2023-04-27T06:03:53+00:00", "2023-04-27T06:05:26+00:00", "2023-04-27T06:07:43+00:00", "2023-04-27T06:09:27+00:00", "2023-04-27T06:11:36+00:00", "2023-04-27T06:13:44+00:00", "2023-04-27T06:16:09+00:00", "2023-04-27T06:17:17+00:00", "2023-04-27T06:19:53+00:00", "2023-04-27T06:21:53+00:00", "2023-04-27T06:24:23+00:00", "2023-04-27T06:25:53+00:00", "2023-04-27T06:28:37+00:00", "2023-04-27T06:29:51+00:00", "2023-04-27T06:31:50+00:00", "2023-04-27T06:34:47+00:00", "2023-04-27T06:36:03+00:00", "2023-04-27T06:38:45+00:00", "2023-04-27T06:40:54+00:00", "2023-04-27T06:43:54+00:00", "2023-04-27T06:45:54+00:00", "2023-04-27T06:47:23+00:00", "2023-04-27T06:49:11+00:00", "2023-04-27T06:51:54+00:00", "2023-04-27T06:54:54+00:00", "2023-04-27T06:56:54+00:00", "2023-04-27T06:58:45+00:00", "2023-04-27T07:00:54+00:00", "2023-04-27T07:03:39+00:00", "2023-04-27T07:05:54+00:00", "2023-04-27T07:08:45+00:00", "2023-04-27T07:10:29+00:00", "2023-04-27T07:12:55+00:00", "2023-04-27T07:14:55+00:00", "2023-04-27T07:16:55+00:00", "2023-04-27T07:18:45+00:00", "2023-04-27T07:20:55+00:00", "2023-04-27T07:22:55+00:00", "2023-04-27T07:24:55+00:00", "2023-04-27T07:26:58+00:00", "2023-04-27T07:29:51+00:00", "2023-04-27T07:31:03+00:00", "2023-04-27T07:32:55+00:00", "2023-04-27T07:35:55+00:00", "2023-04-27T07:38:21+00:00", "2023-04-27T07:40:46+00:00", "2023-04-27T07:42:27+00:00", "2023-04-27T07:44:39+00:00", "2023-04-27T07:46:44+00:00", "2023-04-27T07:48:12+00:00", "2023-04-27T07:49:56+00:00", "2023-04-27T07:51:56+00:00", "2023-04-27T07:53:56+00:00", "2023-04-27T07:55:31+00:00", "2023-04-27T07:57:56+00:00", "2023-04-27T07:59:56+00:00", "2023-04-27T08:01:12+00:00", "2023-04-27T08:03:01+00:00", "2023-04-27T08:05:00+00:00", "2023-04-27T08:07:00+00:00", "2023-04-27T08:08:51+00:00", "2023-04-27T08:11:00+00:00", "2023-04-27T08:12:36+00:00", "2023-04-27T08:14:57+00:00", "2023-04-27T08:17:00+00:00", "2023-04-27T08:19:00+00:00", "2023-04-27T08:21:26+00:00", "2023-04-27T08:23:00+00:00", "2023-04-27T08:25:11+00:00", "2023-04-27T08:26:56+00:00", "2023-04-27T08:28:57+00:00", "2023-04-27T08:30:53+00:00", "2023-04-27T08:32:57+00:00", "2023-04-27T08:34:42+00:00", "2023-04-27T08:35:57+00:00", "2023-04-27T08:38:05+00:00", "2023-04-27T08:40:52+00:00", "2023-04-27T08:42:04+00:00", "2023-04-27T08:43:52+00:00", "2023-04-27T08:45:53+00:00", "2023-04-27T08:47:58+00:00", "2023-04-27T08:50:02+00:00", "2023-04-27T08:52:00+00:00", "2023-04-27T08:54:00+00:00", "2023-04-27T08:56:36+00:00", "2023-04-27T08:58:16+00:00", "2023-04-27T09:00:09+00:00", "2023-04-27T09:02:09+00:00", "2023-04-27T09:04:02+00:00", "2023-04-27T09:06:10+00:00", "2023-04-27T09:08:01+00:00", "2023-04-27T09:10:19+00:00", "2023-04-27T09:12:24+00:00", "2023-04-27T09:14:08+00:00", "2023-04-27T09:16:21+00:00", "2023-04-27T09:18:38+00:00", "2023-04-27T09:20:06+00:00", "2023-04-27T09:22:31+00:00", "2023-04-27T09:24:59+00:00", "2023-04-27T09:27:00+00:00", "2023-04-27T09:28:59+00:00", "2023-04-27T09:30:59+00:00", "2023-04-27T09:33:10+00:00", "2023-04-27T09:34:38+00:00", "2023-04-27T09:36:39+00:00", "2023-04-27T09:39:00+00:00", "2023-04-27T09:41:05+00:00", "2023-04-27T09:43:05+00:00", "2023-04-27T09:45:05+00:00", "2023-04-27T09:46:59+00:00", "2023-04-27T09:49:03+00:00", "2023-04-27T09:50:47+00:00", "2023-04-27T09:53:04+00:00", "2023-04-27T09:54:56+00:00", "2023-04-27T09:56:04+00:00", "2023-04-27T09:58:29+00:00", "2023-04-27T10:00:10+00:00", "2023-04-27T10:02:06+00:00", "2023-04-27T10:04:11+00:00", "2023-04-27T10:06:03+00:00", "2023-04-27T10:08:07+00:00", "2023-04-27T10:10:06+00:00", "2023-04-27T10:12:08+00:00", "2023-04-27T10:14:21+00:00", "2023-04-27T10:16:45+00:00", "2023-04-27T10:19:00+00:00", "2023-04-27T10:21:05+00:00", "2023-04-27T10:22:31+00:00", "2023-04-27T10:25:08+00:00", "2023-04-27T10:26:19+00:00", "2023-04-27T10:28:08+00:00", "2023-04-27T10:30:08+00:00", "2023-04-27T10:32:08+00:00", "2023-04-27T10:34:08+00:00", "2023-04-27T10:36:09+00:00", "2023-04-27T10:38:03+00:00", "2023-04-27T10:39:35+00:00", "2023-04-27T10:41:40+00:00", "2023-04-27T10:44:09+00:00", "2023-04-27T10:45:41+00:00", "2023-04-27T10:47:22+00:00", "2023-04-27T10:49:00+00:00", "2023-04-27T10:50:59+00:00", "2023-04-27T10:52:10+00:00", "2023-04-27T10:53:43+00:00", "2023-04-27T10:55:11+00:00", "2023-04-27T10:57:11+00:00", "2023-04-27T10:58:41+00:00", "2023-04-27T11:00:20+00:00", "2023-04-27T11:03:06+00:00", "2023-04-27T11:05:06+00:00", "2023-04-27T11:06:18+00:00", "2023-04-27T11:08:11+00:00", "2023-04-27T11:11:04+00:00", "2023-04-27T11:12:09+00:00", "2023-04-27T11:14:11+00:00", "2023-04-27T11:15:33+00:00", "2023-04-27T11:17:25+00:00", "2023-04-27T11:19:00+00:00", "2023-04-27T11:20:54+00:00", "2023-04-27T11:22:11+00:00", "2023-04-27T11:24:11+00:00", "2023-04-27T11:25:23+00:00", "2023-04-27T11:27:36+00:00", "2023-04-27T11:29:08+00:00", "2023-04-27T11:31:11+00:00", "2023-04-27T11:32:46+00:00", "2023-04-27T11:34:17+00:00", "2023-04-27T11:36:43+00:00", "2023-04-27T11:38:15+00:00", "2023-04-27T11:40:10+00:00", "2023-04-27T11:42:08+00:00", "2023-04-27T11:44:17+00:00", "2023-04-27T11:46:17+00:00", "2023-04-27T11:48:10+00:00", "2023-04-27T11:50:10+00:00", "2023-04-27T11:52:12+00:00", "2023-04-27T11:54:07+00:00", "2023-04-27T11:55:23+00:00", "2023-04-27T11:57:21+00:00", "2023-04-27T11:59:44+00:00", "2023-04-27T12:01:17+00:00", "2023-04-27T12:03:11+00:00", "2023-04-27T12:06:06+00:00", "2023-04-27T12:07:22+00:00", "2023-04-27T12:09:47+00:00", "2023-04-27T12:11:17+00:00", "2023-04-27T12:13:16+00:00", "2023-04-27T12:14:20+00:00", "2023-04-27T12:16:49+00:00", "2023-04-27T12:19:10+00:00", "2023-04-27T12:21:17+00:00", "2023-04-27T12:23:18+00:00", "2023-04-27T12:25:17+00:00", "2023-04-27T12:27:17+00:00", "2023-04-27T12:29:08+00:00", "2023-04-27T12:30:44+00:00", "2023-04-27T12:33:13+00:00", "2023-04-27T12:34:33+00:00", "2023-04-27T12:36:37+00:00", "2023-04-27T12:38:17+00:00", "2023-04-27T12:40:17+00:00", "2023-04-27T12:41:58+00:00", "2023-04-27T12:43:19+00:00", "2023-04-27T12:45:23+00:00", "2023-04-27T12:47:17+00:00", "2023-04-27T12:49:15+00:00", "2023-04-27T12:51:17+00:00", "2023-04-27T12:52:53+00:00", "2023-04-27T12:54:53+00:00", "2023-04-27T12:56:26+00:00", "2023-04-27T12:58:11+00:00", "2023-04-27T13:00:02+00:00", "2023-04-27T13:01:19+00:00", "2023-04-27T13:03:17+00:00", "2023-04-27T13:05:17+00:00", "2023-04-27T13:07:17+00:00", "2023-04-27T13:09:09+00:00", "2023-04-27T13:10:29+00:00", "2023-04-27T13:12:37+00:00", "2023-04-27T13:13:58+00:00", "2023-04-27T13:15:22+00:00", "2023-04-27T13:17:18+00:00", "2023-04-27T13:18:19+00:00", "2023-04-27T13:20:19+00:00", "2023-04-27T13:21:31+00:00", "2023-04-27T13:23:19+00:00", "2023-04-27T13:25:19+00:00", "2023-04-27T13:26:19+00:00", "2023-04-27T13:27:41+00:00", "2023-04-27T13:29:15+00:00", "2023-04-27T13:30:50+00:00", "2023-04-27T13:32:55+00:00", "2023-04-27T13:34:35+00:00", "2023-04-27T13:37:18+00:00", "2023-04-27T13:39:15+00:00", "2023-04-27T13:40:49+00:00", "2023-04-27T13:42:13+00:00", "2023-04-27T13:44:02+00:00", "2023-04-27T13:45:46+00:00", "2023-04-27T13:47:26+00:00", "2023-04-27T13:49:15+00:00", "2023-04-27T13:50:50+00:00", "2023-04-27T13:52:08+00:00", "2023-04-27T13:54:18+00:00", "2023-04-27T13:55:36+00:00", "2023-04-27T13:57:25+00:00", "2023-04-27T13:58:57+00:00", "2023-04-27T14:00:54+00:00", "2023-04-27T14:03:19+00:00", "2023-04-27T14:05:19+00:00", "2023-04-27T14:06:23+00:00", "2023-04-27T14:08:28+00:00", "2023-04-27T14:10:52+00:00", "2023-04-27T14:13:19+00:00", "2023-04-27T14:15:19+00:00", "2023-04-27T14:17:19+00:00", "2023-04-27T14:18:50+00:00", "2023-04-27T14:21:03+00:00", "2023-04-27T14:22:47+00:00", "2023-04-27T14:24:56+00:00", "2023-04-27T14:26:20+00:00", "2023-04-27T14:28:20+00:00", "2023-04-27T14:31:22+00:00", "2023-04-27T14:34:22+00:00", "2023-04-27T14:36:22+00:00", "2023-04-27T14:39:03+00:00", "2023-04-27T14:40:21+00:00", "2023-04-27T14:42:48+00:00", "2023-04-27T14:44:44+00:00", "2023-04-27T14:47:22+00:00", "2023-04-27T14:48:45+00:00", "2023-04-27T14:51:23+00:00", "2023-04-27T14:53:23+00:00", "2023-04-27T14:55:23+00:00", "2023-04-27T14:57:15+00:00", "2023-04-27T14:59:15+00:00", "2023-04-27T15:01:20+00:00", "2023-04-27T15:02:25+00:00", "2023-04-27T15:04:25+00:00", "2023-04-27T15:06:01+00:00", "2023-04-27T15:07:25+00:00", "2023-04-27T15:09:30+00:00", "2023-04-27T15:11:50+00:00", "2023-04-27T15:14:25+00:00", "2023-04-27T15:16:25+00:00", "2023-04-27T15:18:25+00:00", "2023-04-27T15:20:41+00:00", "2023-04-27T15:22:25+00:00", "2023-04-27T15:24:25+00:00", "2023-04-27T15:26:26+00:00", "2023-04-27T15:28:26+00:00", "2023-04-27T15:30:26+00:00", "2023-04-27T15:32:26+00:00", "2023-04-27T15:34:26+00:00", "2023-04-27T15:37:27+00:00", "2023-04-27T15:39:15+00:00", "2023-04-27T15:41:24+00:00", "2023-04-27T15:43:38+00:00", "2023-04-27T15:45:26+00:00", "2023-04-27T15:47:31+00:00", "2023-04-27T15:49:52+00:00", "2023-04-27T15:52:00+00:00", "2023-04-27T15:53:26+00:00", "2023-04-27T15:56:18+00:00", "2023-04-27T15:57:26+00:00", "2023-04-27T15:59:15+00:00", "2023-04-27T16:01:26+00:00", "2023-04-27T16:03:32+00:00", "2023-04-27T16:06:12+00:00", "2023-04-27T16:08:26+00:00", "2023-04-27T16:10:21+00:00", "2023-04-27T16:11:58+00:00", "2023-04-27T16:14:22+00:00", "2023-04-27T16:15:26+00:00", "2023-04-27T16:17:26+00:00", "2023-04-27T16:19:15+00:00", "2023-04-27T16:21:00+00:00", "2023-04-27T16:22:45+00:00", "2023-04-27T16:24:29+00:00", "2023-04-27T16:26:34+00:00", "2023-04-27T16:28:29+00:00", "2023-04-27T16:30:19+00:00", "2023-04-27T16:32:15+00:00", "2023-04-27T16:33:51+00:00", "2023-04-27T16:35:32+00:00", "2023-04-27T16:37:26+00:00", "2023-04-27T16:39:15+00:00", "2023-04-27T16:40:53+00:00", "2023-04-27T16:43:18+00:00", "2023-04-27T16:45:02+00:00", "2023-04-27T16:46:27+00:00", "2023-04-27T16:48:23+00:00", "2023-04-27T16:50:16+00:00", "2023-04-27T16:51:28+00:00", "2023-04-27T16:53:04+00:00", "2023-04-27T16:55:27+00:00", "2023-04-27T16:56:27+00:00", "2023-04-27T16:58:06+00:00", "2023-04-27T16:59:50+00:00", "2023-04-27T17:01:35+00:00", "2023-04-27T17:03:28+00:00", "2023-04-27T17:04:48+00:00", "2023-04-27T17:06:32+00:00", "2023-04-27T17:09:30+00:00", "2023-04-27T17:11:33+00:00", "2023-04-27T17:13:50+00:00", "2023-04-27T17:16:27+00:00", "2023-04-27T17:18:07+00:00", "2023-04-27T17:19:30+00:00", "2023-04-27T17:21:32+00:00", "2023-04-27T17:23:17+00:00", "2023-04-27T17:24:33+00:00", "2023-04-27T17:26:34+00:00", "2023-04-27T17:27:42+00:00", "2023-04-27T17:29:02+00:00", "2023-04-27T17:31:38+00:00", "2023-04-27T17:33:32+00:00", "2023-04-27T17:35:00+00:00", "2023-04-27T17:37:40+00:00", "2023-04-27T17:38:40+00:00", "2023-04-27T17:40:22+00:00", "2023-04-27T17:42:41+00:00", "2023-04-27T17:44:55+00:00", "2023-04-27T17:47:42+00:00", "2023-04-27T17:48:47+00:00", "2023-04-27T17:51:45+00:00", "2023-04-27T17:53:39+00:00", "2023-04-27T17:55:17+00:00", "2023-04-27T17:57:47+00:00", "2023-04-27T18:00:40+00:00", "2023-04-27T18:01:51+00:00", "2023-04-27T18:05:40+00:00", "2023-04-27T18:07:40+00:00", "2023-04-27T18:09:30+00:00", "2023-04-27T18:10:53+00:00", "2023-04-27T18:13:42+00:00", "2023-04-27T18:15:42+00:00", "2023-04-27T18:17:27+00:00", "2023-04-27T18:19:40+00:00", "2023-04-27T18:20:43+00:00", "2023-04-27T18:23:44+00:00", "2023-04-27T18:25:46+00:00", "2023-04-27T18:27:46+00:00", "2023-04-27T18:29:45+00:00", "2023-04-27T18:31:46+00:00", "2023-04-27T18:33:48+00:00", "2023-04-27T18:35:40+00:00", "2023-04-27T18:37:17+00:00", "2023-04-27T18:39:45+00:00", "2023-04-27T18:41:06+00:00", "2023-04-27T18:43:47+00:00", "2023-04-27T18:45:57+00:00", "2023-04-27T18:47:23+00:00", "2023-04-27T18:49:45+00:00", "2023-04-27T18:50:46+00:00", "2023-04-27T18:53:32+00:00", "2023-04-27T18:54:47+00:00", "2023-04-27T18:56:17+00:00", "2023-04-27T18:57:47+00:00", "2023-04-27T18:59:09+00:00", "2023-04-27T19:00:47+00:00", "2023-04-27T19:03:06+00:00", "2023-04-27T19:04:47+00:00", "2023-04-27T19:06:07+00:00", "2023-04-27T19:08:40+00:00", "2023-04-27T19:09:45+00:00", "2023-04-27T19:11:47+00:00", "2023-04-27T19:13:47+00:00", "2023-04-27T19:15:47+00:00", "2023-04-27T19:17:17+00:00", "2023-04-27T19:18:53+00:00", "2023-04-27T19:21:47+00:00", "2023-04-27T19:23:28+00:00", "2023-04-27T19:25:08+00:00", "2023-04-27T19:26:56+00:00", "2023-04-27T19:28:48+00:00", "2023-04-27T19:30:48+00:00", "2023-04-27T19:32:10+00:00", "2023-04-27T19:34:48+00:00", "2023-04-27T19:36:10+00:00", "2023-04-27T19:37:48+00:00", "2023-04-27T19:39:51+00:00", "2023-04-27T19:41:56+00:00", "2023-04-27T19:43:49+00:00", "2023-04-27T19:45:49+00:00", "2023-04-27T19:48:02+00:00", "2023-04-27T19:49:31+00:00", "2023-04-27T19:51:49+00:00", "2023-04-27T19:54:00+00:00", "2023-04-27T19:55:36+00:00", "2023-04-27T19:57:25+00:00", "2023-04-27T19:59:45+00:00", "2023-04-27T20:01:49+00:00", "2023-04-27T20:03:50+00:00", "2023-04-27T20:05:10+00:00", "2023-04-27T20:06:51+00:00", "2023-04-27T20:09:45+00:00", "2023-04-27T20:11:51+00:00", "2023-04-27T20:13:52+00:00", "2023-04-27T20:15:52+00:00", "2023-04-27T20:17:22+00:00", "2023-04-27T20:18:52+00:00", "2023-04-27T20:20:52+00:00", "2023-04-27T20:23:27+00:00", "2023-04-27T20:24:52+00:00", "2023-04-27T20:26:40+00:00", "2023-04-27T20:27:52+00:00", "2023-04-27T20:29:45+00:00", "2023-04-27T20:31:52+00:00", "2023-04-27T20:33:06+00:00", "2023-04-27T20:35:51+00:00", "2023-04-27T20:37:31+00:00", "2023-04-27T20:39:44+00:00", "2023-04-27T20:41:51+00:00", "2023-04-27T20:43:25+00:00", "2023-04-27T20:45:13+00:00", "2023-04-27T20:46:50+00:00", "2023-04-27T20:48:51+00:00", "2023-04-27T20:50:14+00:00", "2023-04-27T20:51:51+00:00", "2023-04-27T20:53:51+00:00", "2023-04-27T20:55:52+00:00", "2023-04-27T20:57:25+00:00", "2023-04-27T20:58:53+00:00", "2023-04-27T20:59:53+00:00", "2023-04-27T21:02:38+00:00", "2023-04-27T21:04:31+00:00", "2023-04-27T21:05:59+00:00", "2023-04-27T21:07:51+00:00", "2023-04-27T21:09:12+00:00", "2023-04-27T21:11:49+00:00", "2023-04-27T21:13:21+00:00", "2023-04-27T21:14:37+00:00", "2023-04-27T21:17:47+00:00", "2023-04-27T21:19:03+00:00", "2023-04-27T21:21:36+00:00", "2023-04-27T21:23:33+00:00", "2023-04-27T21:25:21+00:00", "2023-04-27T21:27:10+00:00", "2023-04-27T21:28:46+00:00", "2023-04-27T21:31:03+00:00", "2023-04-27T21:32:56+00:00", "2023-04-27T21:35:55+00:00", "2023-04-27T21:37:55+00:00", "2023-04-27T21:40:55+00:00", "2023-04-27T21:42:58+00:00", "2023-04-27T21:44:56+00:00", "2023-04-27T21:46:56+00:00", "2023-04-27T21:48:56+00:00", "2023-04-27T21:50:40+00:00", "2023-04-27T21:52:45+00:00", "2023-04-27T21:55:33+00:00", "2023-04-27T21:58:22+00:00", "2023-04-27T22:00:56+00:00", "2023-04-27T22:03:04+00:00", "2023-04-27T22:05:32+00:00", "2023-04-27T22:07:59+00:00", "2023-04-27T22:09:49+00:00", "2023-04-27T22:12:18+00:00", "2023-04-27T22:14:15+00:00", "2023-04-27T22:16:23+00:00", "2023-04-27T22:17:57+00:00", "2023-04-27T22:20:36+00:00", "2023-04-27T22:21:48+00:00", "2023-04-27T22:23:57+00:00", "2023-04-27T22:25:25+00:00", "2023-04-27T22:27:26+00:00", "2023-04-27T22:29:03+00:00", "2023-04-27T22:31:58+00:00", "2023-04-27T22:33:05+00:00", "2023-04-27T22:34:56+00:00", "2023-04-27T22:36:21+00:00", "2023-04-27T22:38:38+00:00", "2023-04-27T22:39:58+00:00", "2023-04-27T22:42:19+00:00", "2023-04-27T22:43:35+00:00", "2023-04-27T22:45:56+00:00", "2023-04-27T22:47:57+00:00", "2023-04-27T22:49:49+00:00", "2023-04-27T22:52:18+00:00", "2023-04-27T22:55:03+00:00", "2023-04-27T22:56:47+00:00", "2023-04-27T23:00:00+00:00", "2023-04-27T23:01:32+00:00", "2023-04-27T23:04:08+00:00", "2023-04-27T23:05:57+00:00", "2023-04-27T23:07:42+00:00", "2023-04-27T23:10:00+00:00", "2023-04-27T23:11:31+00:00", "2023-04-27T23:13:39+00:00", "2023-04-27T23:15:05+00:00", "2023-04-27T23:17:46+00:00", "2023-04-27T23:19:07+00:00", "2023-04-27T23:21:04+00:00", "2023-04-27T23:23:12+00:00", "2023-04-27T23:25:11+00:00", "2023-04-27T23:28:02+00:00", "2023-04-27T23:29:42+00:00", "2023-04-27T23:31:14+00:00", "2023-04-27T23:32:23+00:00", "2023-04-27T23:34:04+00:00", "2023-04-27T23:35:52+00:00", "2023-04-27T23:37:36+00:00", "2023-04-27T23:39:13+00:00", "2023-04-27T23:41:08+00:00", "2023-04-27T23:42:30+00:00", "2023-04-27T23:44:08+00:00", "2023-04-27T23:45:43+00:00", "2023-04-27T23:49:00+00:00", "2023-04-27T23:50:00+00:00", "2023-04-27T23:52:05+00:00", "2023-04-27T23:53:33+00:00", "2023-04-27T23:55:10+00:00", "2023-04-27T23:57:02+00:00", "2023-04-27T23:58:55+00:00", "2023-04-28T00:00:28+00:00", "2023-04-28T00:02:00+00:00", "2023-04-28T00:03:48+00:00", "2023-04-28T00:05:17+00:00", "2023-04-28T00:06:33+00:00", "2023-04-28T00:09:09+00:00", "2023-04-28T00:10:46+00:00", "2023-04-28T00:12:31+00:00", "2023-04-28T00:14:11+00:00", "2023-04-28T00:16:05+00:00", "2023-04-28T00:17:53+00:00", "2023-04-28T00:19:33+00:00", "2023-04-28T00:21:33+00:00", "2023-04-28T00:23:46+00:00", "2023-04-28T00:25:10+00:00", "2023-04-28T00:26:51+00:00", "2023-04-28T00:28:36+00:00", "2023-04-28T00:30:48+00:00", "2023-04-28T00:32:10+00:00", "2023-04-28T00:33:57+00:00", "2023-04-28T00:36:11+00:00", "2023-04-28T00:38:12+00:00", "2023-04-28T00:40:15+00:00", "2023-04-28T00:42:12+00:00", "2023-04-28T00:44:09+00:00", "2023-04-28T00:46:10+00:00", "2023-04-28T00:48:05+00:00", "2023-04-28T00:49:59+00:00", "2023-04-28T00:52:52+00:00", "2023-04-28T00:54:06+00:00", "2023-04-28T00:57:01+00:00", "2023-04-28T00:58:25+00:00", "2023-04-28T01:00:54+00:00", "2023-04-28T01:02:30+00:00", "2023-04-28T01:04:10+00:00", "2023-04-28T01:05:51+00:00", "2023-04-28T01:07:40+00:00", "2023-04-28T01:09:12+00:00", "2023-04-28T01:10:33+00:00", "2023-04-28T01:12:11+00:00", "2023-04-28T01:13:49+00:00", "2023-04-28T01:16:11+00:00", "2023-04-28T01:17:14+00:00", "2023-04-28T01:19:11+00:00", "2023-04-28T01:21:11+00:00", "2023-04-28T01:23:00+00:00", "2023-04-28T01:25:11+00:00", "2023-04-28T01:27:11+00:00", "2023-04-28T01:28:17+00:00", "2023-04-28T01:30:09+00:00", "2023-04-28T01:31:54+00:00", "2023-04-28T01:33:34+00:00", "2023-04-28T01:34:36+00:00", "2023-04-28T01:37:03+00:00", "2023-04-28T01:38:40+00:00", "2023-04-28T01:40:15+00:00", "2023-04-28T01:42:37+00:00", "2023-04-28T01:44:21+00:00", "2023-04-28T01:46:16+00:00", "2023-04-28T01:48:16+00:00", "2023-04-28T01:50:07+00:00", "2023-04-28T01:51:16+00:00", "2023-04-28T01:52:39+00:00", "2023-04-28T01:55:04+00:00", "2023-04-28T01:56:16+00:00", "2023-04-28T01:58:00+00:00", "2023-04-28T02:00:15+00:00", "2023-04-28T02:01:33+00:00", "2023-04-28T02:03:16+00:00", "2023-04-28T02:05:18+00:00", "2023-04-28T02:07:47+00:00", "2023-04-28T02:08:55+00:00", "2023-04-28T02:10:48+00:00", "2023-04-28T02:12:21+00:00", "2023-04-28T02:14:09+00:00", "2023-04-28T02:16:18+00:00", "2023-04-28T02:18:55+00:00", "2023-04-28T02:19:57+00:00", "2023-04-28T02:20:59+00:00", "2023-04-28T02:23:22+00:00", "2023-04-28T02:25:16+00:00", "2023-04-28T02:26:29+00:00", "2023-04-28T02:28:09+00:00", "2023-04-28T02:29:57+00:00", "2023-04-28T02:31:07+00:00", "2023-04-28T02:33:23+00:00", "2023-04-28T02:35:32+00:00", "2023-04-28T02:36:40+00:00", "2023-04-28T02:38:24+00:00", "2023-04-28T02:40:21+00:00", "2023-04-28T02:41:24+00:00", "2023-04-28T02:43:14+00:00", "2023-04-28T02:44:18+00:00", "2023-04-28T02:46:33+00:00", "2023-04-28T02:47:59+00:00", "2023-04-28T02:50:30+00:00", "2023-04-28T02:52:16+00:00", "2023-04-28T02:54:33+00:00", "2023-04-28T02:55:35+00:00", "2023-04-28T02:58:35+00:00", "2023-04-28T03:00:30+00:00", "2023-04-28T03:03:35+00:00", "2023-04-28T03:06:35+00:00", "2023-04-28T03:08:35+00:00", "2023-04-28T03:11:36+00:00", "2023-04-28T03:13:41+00:00", "2023-04-28T03:17:34+00:00", "2023-04-28T03:19:41+00:00", "2023-04-28T03:22:34+00:00", "2023-04-28T03:26:35+00:00", "2023-04-28T03:28:35+00:00", "2023-04-28T03:30:57+00:00", "2023-04-28T03:32:39+00:00", "2023-04-28T03:34:47+00:00", "2023-04-28T03:37:23+00:00", "2023-04-28T03:39:41+00:00", "2023-04-28T03:41:42+00:00", "2023-04-28T03:43:42+00:00", "2023-04-28T03:47:39+00:00", "2023-04-28T03:49:40+00:00", "2023-04-28T03:52:40+00:00", "2023-04-28T03:56:21+00:00", "2023-04-28T03:58:41+00:00", "2023-04-28T04:00:30+00:00", "2023-04-28T04:03:42+00:00", "2023-04-28T04:05:42+00:00", "2023-04-28T04:08:42+00:00", "2023-04-28T04:10:41+00:00", "2023-04-28T04:13:41+00:00", "2023-04-28T04:15:41+00:00", "2023-04-28T04:17:43+00:00", "2023-04-28T04:20:30+00:00", "2023-04-28T04:23:05+00:00", "2023-04-28T04:25:43+00:00", "2023-04-28T04:28:35+00:00", "2023-04-28T04:30:30+00:00", "2023-04-28T04:32:43+00:00", "2023-04-28T04:35:05+00:00", "2023-04-28T04:37:29+00:00", "2023-04-28T04:40:06+00:00", "2023-04-28T04:41:18+00:00", "2023-04-28T04:43:43+00:00", "2023-04-28T04:44:43+00:00", "2023-04-28T04:45:43+00:00", "2023-04-28T04:47:32+00:00", "2023-04-28T04:48:47+00:00", "2023-04-28T04:49:47+00:00", "2023-04-28T04:51:25+00:00", "2023-04-28T04:53:42+00:00", "2023-04-28T04:54:47+00:00", "2023-04-28T05:01:44+00:00", "2023-04-28T05:04:29+00:00"], "elevations": [-19.8, 0.0, -10.0, -3.0, -0.5, -0.8, 1.0, 1.0, 1.0, 3.0, 5.5, 2.0, 4.0, 3.0, 3.0, 2.7, 3.0, 6.0, 6.0, 5.0, 7.2, 5.7, 6.0, 6.0, 6.0, 7.2, 8.0, 7.5, 7.5, 4.5, 4.0, 5.0, 3.7, 7.3, 7.0, 8.5, 7.2, 8.5, 5.5, 4.0, 5.0, 6.0, 6.4, 6.0, 5.0, 10.0, 7.5, 7.0, -0.3, 8.0, 6.0, 5.0, 6.0, 5.0, 4.4, 5.0, 5.0, -4.5, -4.0, 8.5, 2.2, 2.0, 6.0, 2.0, -7.0, -4.0, -0.9, 2.0, -5.0, -12.0, -11.0, -10.4, -10.5, -2.5, 2.0, 0.0, -4.0, -3.9, -24.0, -18.0, -15.5, -6.0, -5.0, -4.0, -5.0, -2.0, -5.0, -7.0, -6.5, -5.9, -5.0, -5.0, 4.0, null, 4.0, 4.0, 4.0, 4.2, 4.0, null, 3.5, 3.5, 5.0, 5.0, 6.0, 4.2, 6.0, 5.0, 9.0, 2.0, 9.5, 6.2, 5.0, 6.5, 7.0, 7.0, 6.0, 5.0, 6.0, 8.7, 8.0, 9.0, 9.0, 8.0, 4.0, 13.0, -1.3, -9.5, -4.0, -4.0, -1.0, -2.0, 0.0, 7.2, 13.0, 4.0, 3.0, 13.5, 17.3, 4.0, 4.1, 3.0, 3.0, 3.0, 3.0, -2.0, 0.0, 2.5, 1.0, -1.0, -0.8, 0.0, 0.0, 0.0, -1.0, 4.0, 4.0, -1.0, 0.0, 0.7, 9.0, 0.5, 0.5, 1.0, 1.0, 1.0, 1.0, 1.0, 2.0, 5.0, 1.5, 0.7, 1.0, 1.0, 2.0, 1.5, 1.7, 1.5, 2.0, 1.5, 2.0, 0.7, 1.0, 1.0, 1.5, 2.0, 1.0, 0.7, 0.5, 0.5, 1.0, 1.0, 0.7, 1.0, 6.0, 1.5, 2.1, 1.0, 2.0, 2.0, 2.5, 2.7, 2.5, 3.0, 7.5, 7.7, 9.0, -2.0, 3.0, -1.0, -1.5, 1.7, -4.0, -1.0, 0.0, 2.0, -4.3, 4.0, 5.3, 1.4, 1.3, 1.0, 2.0, 2.5, 4.0, 4.0, 5.0, 5.0, 11.0, 14.5, 6.5, 7.0, 7.0, 6.7, 40.0, 26.0, 26.5, 27.0, 27.0, 3.0, 5.3, 6.0, 6.5, 7.0, 7.0, 7.0, 7.0, 8.0, 8.0, 8.2, 8.0, 7.0, 7.0, 6.5, 6.0, 6.2, 6.0, 6.5, 7.0, 7.0, 8.2, 8.0, 8.0, 8.0, 8.0, 8.1, 8.0, 8.0, 8.5, 8.7, 9.0, 9.0, 9.0, 8.8, 9.0, 9.0, 9.5, 10.2, 10.0, 10.0, 10.5, 10.2, 10.0, 10.5, 11.0, 11.0, 10.7, 11.0, 11.0, 5.7, 6.7, 6.5, 6.0, 5.0, 8.5, 8.0, 3.7, 7.3, 6.0, 6.0, 5.5, 5.0, 6.0, 6.5, 7.0, 7.0, 5.7, 6.0, 5.5, 5.8, 16.5, 10.5, 2.0, 15.2, 20.0, 11.0, 21.0, 21.0, 6.1, 3.3, 3.8, 3.7, 4.0, 4.5, 5.7, 6.8, 7.0, 7.0, 7.0, 6.7, 6.0, 6.0, 6.0, 4.0, 4.7, null, 5.0, 5.3, 5.0, 5.0, 22.8, 9.0, 13.0, 19.0, 10.0, 10.2, 10.0, 11.0, 14.0, 17.0, 22.2, 21.0, 6.5, 6.7, 5.2, 6.0, 7.5, 9.3, 9.5, 10.2, 10.0, 11.3, 13.0, 14.3, 10.0, 3.5, 4.5, 3.0, 1.2, -1.0, 7.5, 5.5, 6.5, 5.2, -2.3, 5.0, 3.3, 1.0, 12.0, 18.5, 13.5, 39.0, 4.5, 7.2, 13.5, 10.5, 12.5, 12.0, 12.2, 10.5, 11.0, 5.0, 2.0, 0.7, 2.0, 0.5, 2.5, 1.0, 1.4, 0.0, 1.0, 2.0, 0.0, 0.0, 1.0, 2.0, 2.0, 2.2, 3.5, 3.0, 3.0, 3.5, 4.5, 4.0, 1.0, 1.0, 1.0, 0.2, 0.5, 1.0, 2.0, 2.2, 0.5, 1.0, 1.0, 0.7, -1.0, 4.5, 3.0, 2.7, 2.2, 0.0, 0.7, 2.5, 1.2, 0.3, 1.0, 2.0, 2.2, 2.0, 2.5, 2.5, 2.0, 0.8, 2.0, 2.5, 3.0, 2.2, 1.0, 2.7, 3.0, 3.0, 1.7, 10.0, 7.0, 7.0, 5.7, 5.5, 9.5, 7.0, 7.0, 6.2, 6.5, 7.5, 8.0, 10.2, 14.5, 12.2, 15.5, 11.2, 11.0, 11.5, 6.0, 9.3, 8.5, 3.5, 7.5, 4.8, -2.0, 5.3, 6.0, 6.0, 9.2, 6.0, 10.0, 6.0, 6.5, 9.2, 9.5, 8.0, 8.0, 8.0, 8.2, 7.0, 7.0, 7.0, 7.0, 6.8, 7.0, 7.0, 7.0, 14.5, 9.0, 8.0, 9.0, 9.0, 8.7, 10.0, 10.0, 10.0, 10.2, 10.0, 10.0, 16.0, 6.7, 8.2, 8.0, 7.7, 7.5, 8.0, 8.7, 9.0, 10.0, 11.0, 13.0, 12.5, 12.5, 12.0, 13.5, 4.5, 5.7, 7.0, 8.0, 7.0, 15.3, 13.2, 5.5, 8.7, 5.5, 6.5, 0.1, 3.0, 3.0, 6.7, 2.3, 3.0, 2.3, 3.5, 2.8, 3.3, 4.0, 4.0, 4.7, 5.0, 4.7, 5.0, 4.7, 4.0, 4.5, 5.0, 6.0, 6.5, 15.0, 24.0, 19.9, 0.0, 12.0, -1.0, 2.3, 3.7, 1.5, 2.5, 5.0, 4.0, 4.2, 5.0, 4.3, 4.0, 2.8, 1.0, 2.5, 2.5, 3.7, 4.7, 0.5, 0.0, 6.5, 5.3, 5.0, 5.3, 6.2, 6.5, 7.0, 5.7, -1.9, 4.7, 4.0, 3.8, 5.0, 6.0, 7.0, 8.0, 7.5, 8.2, 32.0, 20.0, 25.5, 28.7, 14.0, 14.0, 13.5, 12.3, 9.5, 13.0, 8.0, 13.5, 11.1, 10.0, 3.5, 12.0, 10.8, 12.0, 11.5, 10.7, 11.0, 10.7, 10.0, 10.0, 12.0, 12.0, 12.2, 12.0, 12.0, 3.0, 10.0, 10.2, 10.0, 10.0, 10.0, 8.8, 12.5, 9.0, 8.0, 8.2, 8.0, 8.0, 8.0, 8.2, 9.0, 18.7, 11.5, 12.0, 7.2, 6.5, 7.0, 7.0, 10.5, 23.5, 19.0, 7.5, 6.0, 6.2, 6.5, 8.0, 8.0, 8.2, 5.0, 9.0, 9.5, 9.5, 10.2, 16.0, 12.0, 12.0, 12.5, 12.2, 22.5, 34.0, 14.5, 11.0, 9.7, 3.0, 3.5, 4.5, 8.0, 6.8, 5.5, 9.5, 11.0, 9.0, 8.2, 8.0, 7.0, 4.5, 7.5, 8.7, 5.7, 7.0, 7.0, 7.0, 6.2, 7.0, 6.0, 6.0, 6.1, 5.0, 5.0, 5.3, 8.0, 6.7, 7.0, 8.0, 0.0, 9.0, 8.4, 9.5, 9.3, 8.5, 8.0, 8.7, 6.7, 7.0, 6.0, 4.2, 5.0, 4.0, 3.5, 8.7, 7.5, 7.0, 4.5, 7.0, 3.2, 7.0, 9.3, 10.0, 10.0, 8.7, 9.0, 9.0, 9.0, 7.8, 7.0, 7.0, 7.0, 6.5, 6.7, 7.0, 7.0, 7.0, 7.0, 6.5, 11.3, 7.5, 7.0, 7.0, 7.7, 8.4, 7.5, 7.0, 7.0, 7.0, 7.7, 8.0, 8.0, 8.0, 9.0, 9.0, 9.0, 8.0, 9.0, 9.5, 8.7, 9.5, 10.0, 15.0, 13.5, 7.0, 34.0, 27.0, 13.0, 19.0, 20.3, 17.0, 15.0, 15.5, 17.0, 44.8, 24.5, 26.5, 17.5, 17.0, -1.0, 4.0, 4.0, 4.0, 4.0, 4.0, 4.0, 4.0, 4.0, 4.0, 28.6, 16.5, 17.0, -1.0, -0.5, 0.2, 0.0, 0.0, 5.0, 6.0, -1.4, 10.0, 5.5, 0.5, 2.5, 4.2, 4.0, 4.0, 4.0, 3.0, 2.7, 3.0, 2.0, -6.0, 2.0, 8.1, 5.0, 8.0, -1.5, -2.0, -0.5, -0.8, 0.0, 17.5, 4.0, 4.3, 4.4, -4.0, -2.0, 5.5, 0.0, 1.0, -0.8, 4.0, 8.0, 8.0, 8.0, 4.0, null, 5.0, 3.0, 4.0, 4.0, 2.3, 3.5, 3.0, 3.0, 3.0, 4.0, 2.3, 1.5, 1.0, 1.0, 0.5, 0.7, 1.0, 2.0, 2.0, 2.0, -6.0, -5.4, -6.0, -6.0, -5.5, -6.0, -5.9, -6.0, -5.0, -5.0, -5.0, -5.0, -5.0, -4.0, -4.0, null, 2.2, -3.0, -2.0, -3.0, -2.0, -3.4, -2.5, -2.0, 8.5, 3.5, 7.0, 6.7, 19.5, 23.5, 15.0, 6.0, 14.8, 15.5, 16.0, 16.5, 16.0, 16.0, 60.5, 74.0, null, null, null, null, null, null, null, null, null, null, null, null, null, null, null, null, null, null, null, null, null, null, null, null, null, null, null, null, null, null, null, null, null, null, null, null, null, null, null, null, null, null, null, null, null, null, null, null, null, null, null, null, null, null, null, null, null, null, null, null, null, null, null, null, null, null, null, null, null, null, null, null, null, null, null, null, null, null, null, null, null, null, null, null, null, null, null, null, null, null, null, null, null, null, null, null, null, null, null, null, null, null, null, null, null, null, null, null, null, null, null, null, null, null, null, null, null, null, null, null, null, null, 31.0, 23.0, -5.0, 3.0, 10.0, 7.0, 9.0, 6.5, 4.7, 16.5, 5.5, 5.0, 18.0, 8.8, 7.0, 4.0, 3.0, 4.0, 5.0, 8.7, 4.0, 8.0, 6.5, 5.5, 7.7, 7.0, 9.0, 10.7, 9.0, 9.0, 5.5, 6.0, 5.5, 6.0, 4.7, 5.0, 5.0, 6.0, 5.2, 9.0, 16.0, 18.7, 10.0, 12.5, 11.0, 9.7, 4.5, 3.5, 3.2, 3.3, 1.0, 5.0, 6.0, 8.7, 6.5, 5.5, -6.0, 7.0, 4.2, 3.5, 3.0, 3.0, 7.0, 5.0, 2.2, 3.0, 5.0, 3.0, 2.0, 3.5, 2.7, 3.0, 2.0, 3.0, 2.5, 3.0, 3.7, 17.0, 17.5, 12.0, 21.5, 12.8, 0.5, 0.0, 0.0, 0.0, -0.8, -1.0, 0.0, 0.0, 2.0, 2.0, -2.5, 1.5, 3.0, 3.0, 3.7, 9.5, 5.0, 4.0, -1.5, 4.2, 4.0, 4.0, 10.5, 6.5, 9.2, 7.0, 11.0, 8.0, 12.0, 3.0, 4.7, 6.5, 11.0, 4.5, 9.5, 10.0, 9.0, 9.5, 8.0, 8.0, 8.0, 12.5, 9.5, 10.0, 9.5, 9.0, 9.0, 8.7, 9.5, 10.0, 9.5, 10.0, 10.2, 9.5, 3.0, 1.5, 4.5, 6.7, 5.5, 6.5, 7.0, 6.0, 15.5, 1.0, 1.0, 0.0, 6.7, 1.2, 13.5, 12.0, 4.0, 11.5, 3.7, 4.0, 5.7, 5.5, 5.1, 6.0, 6.0, 7.0, 6.8, 8.0, 8.0, 8.0, 8.3, 8.7, 9.0, 9.0, 9.0, 9.0, 17.5, 10.0, 9.0, 8.0, 9.0, 9.0, 9.0, 7.0, 6.0, 5.0, 5.3, 10.5, 8.5, 13.5, 1.0, 2.5, 16.0, 20.0, 25.0, 19.0, 16.4, 9.5, 7.0, 7.0, 7.0, 6.7, 8.0, -14.0, 3.5, 3.5, 3.2, 4.0, 3.0, 3.7, 3.0, 4.0, 5.0, 4.2, -13.5, 4.0, 7.0, 13.5, 12.5, 12.5, 10.0, 7.0, 14.0, 3.0, 2.3, 3.0, 3.0, 4.0, 3.5, 3.1, 3.0, 4.0, 48.0, 49.0, 49.0, 49.0, 59.5, 70.0, 70.0, 70.5, null, 102.7, null, null, null, null, null, null, null, null, null, null, null, null, null, null, null, null, null, null, null, null, null, null, null, null, null, null, null, null, null, null, null, null, null, null, null, null, null, null, null, null, null, null, null, null, null, null, null, null, null, null, null, null, null, null, null, null, null, null, null, null, null, null, null, null, null, null, null, null, null, null, null, null, null, null, null, null, null, null, null, null, null, null, null, null, null, null, null, null, null, null, null, null, null, null, null, null, null, null, null, null, null, null, null, null, null, null, null, null, null, null, null, null, null, null, null, null, null, null, null, null, null, null, null, null, null, null, null, null, null, null, null, null, null, null]}