{"type": "Feature", "properties": {"leg_id": 3, "name": "20180313 - Mulege to San Carlos", "stated_nm": 129.4, "computed_nm": 129.4}, "geometry": {"type": "LineString", "coordinates": [[-111.843373, 26.64485], [-111.843021, 26.646203], [-111.84187, 26.650185], [-111.844341, 26.662957], [-111.847242, 26.673623], [-111.849896, 26.682743], [-111.850114, 26.683563], [-111.854006, 26.694195], [-111.858845, 26.70652], [-111.863141, 26.711875], [-111.869061, 26.712897], [-111.883358, 26.715519], [-111.89646, 26.72027], [-111.904379, 26.72386], [-111.903692, 26.724681], [-111.888639, 26.737357], [-111.883566, 26.743738], [-111.880459, 26.747639], [-111.872365, 26.758008], [-111.863415, 26.768837], [-111.857433, 26.775762], [-111.854532, 26.779892], [-111.851751, 26.79322], [-111.849092, 26.806015], [-111.849964, 26.814046], [-111.851251, 26.818739], [-111.854654, 26.831472], [-111.8601, 26.843414], [-111.86372, 26.851425], [-111.864447, 26.855653], [-111.853405, 26.863768], [-111.847468, 26.865817], [-111.847525, 26.865893], [-111.854515, 26.864331], [-111.868919, 26.859936], [-111.882255, 26.860758], [-111.892911, 26.870749], [-111.893097, 26.870896], [-111.9052, 26.880475], [-111.917255, 26.889906], [-111.929629, 26.897877], [-111.929656, 26.8979], [-111.944465, 26.90316], [-111.953391, 26.906075], [-111.953229, 26.906059], [-111.953228, 26.932328], [-111.954084, 26.946065], [-111.954356, 26.949767], [-111.954892, 26.959693], [-111.955848, 26.97396], [-111.95684, 26.988712], [-111.957103, 26.992811], [-111.957825, 27.003726], [-111.958716, 27.019034], [-111.959684, 27.034211], [-111.959957, 27.038363], [-111.96064, 27.049034], [-111.961668, 27.06388], [-111.961382, 27.064963], [-111.961343, 27.06465], [-111.949988, 27.0607], [-111.934061, 27.063483], [-111.922031, 27.072764], [-111.917687, 27.07697], [-111.911312, 27.083731], [-111.901226, 27.095331], [-111.887203, 27.11154], [-111.887124, 27.111639], [-111.877196, 27.123704], [-111.867888, 27.136691], [-111.859842, 27.147825], [-111.859791, 27.147962], [-111.85175, 27.159101], [-111.842213, 27.172892], [-111.833601, 27.185065], [-111.833535, 27.185198], [-111.824439, 27.196506], [-111.822925, 27.200847], [-111.835005, 27.186055], [-111.83498, 27.186102], [-111.847356, 27.171298], [-111.859799, 27.156086], [-111.872813, 27.140468], [-111.872833, 27.140478], [-111.88545, 27.125299], [-111.897982, 27.109954], [-111.910308, 27.095058], [-111.910563, 27.094871], [-111.922026, 27.080978], [-111.937654, 27.065492], [-111.948688, 27.059368], [-111.95183, 27.060725], [-111.960879, 27.065168], [-111.961115, 27.065034], [-111.955176, 27.061685], [-111.93964, 27.066108], [-111.939483, 27.066155], [-111.92873, 27.077137], [-111.918691, 27.089557], [-111.909013, 27.101575], [-111.908761, 27.101879], [-111.899431, 27.113501], [-111.889739, 27.125503], [-111.880179, 27.137321], [-111.879299, 27.138402], [-111.870571, 27.14928], [-111.860938, 27.161197], [-111.851313, 27.173106], [-111.849773, 27.174998], [-111.84165, 27.185082], [-111.831975, 27.19703], [-111.8223, 27.209054], [-111.820096, 27.211764], [-111.812332, 27.221373], [-111.80202, 27.234154], [-111.791556, 27.24711], [-111.788465, 27.250937], [-111.780963, 27.260195], [-111.77042, 27.273286], [-111.759973, 27.286154], [-111.759073, 27.287231], [-111.756242, 27.290772], [-111.749719, 27.298831], [-111.7394, 27.311588], [-111.72925, 27.324078], [-111.724892, 27.32945], [-111.719048, 27.336702], [-111.708551, 27.349594], [-111.697746, 27.362897], [-111.692294, 27.369618], [-111.686783, 27.376422], [-111.676424, 27.389202], [-111.666029, 27.402021], [-111.660178, 27.409227], [-111.655689, 27.414788], [-111.645594, 27.4273], [-111.635375, 27.43987], [-111.62899, 27.4477], [-111.627169, 27.449937], [-111.615198, 27.46468], [-111.605022, 27.477175], [-111.597941, 27.485883], [-111.596432, 27.487749], [-111.584921, 27.501909], [-111.575036, 27.514052], [-111.567535, 27.523273], [-111.566477, 27.524608], [-111.55505, 27.536617], [-111.543784, 27.545356], [-111.534361, 27.552626], [-111.533448, 27.553355], [-111.525412, 27.562383], [-111.519995, 27.568835], [-111.514306, 27.573628], [-111.513768, 27.574322], [-111.507032, 27.580764], [-111.499625, 27.587933], [-111.490201, 27.595338], [-111.490079, 27.595455], [-111.479924, 27.603082], [-111.470671, 27.610163], [-111.461783, 27.617081], [-111.461408, 27.617344], [-111.452194, 27.62449], [-111.444769, 27.632603], [-111.437314, 27.640708], [-111.436493, 27.641496], [-111.42953, 27.648383], [-111.420884, 27.655428], [-111.413408, 27.664127], [-111.411718, 27.665377], [-111.404074, 27.670903], [-111.395684, 27.677175], [-111.386631, 27.684887], [-111.384141, 27.686675], [-111.375673, 27.690535], [-111.364262, 27.693751], [-111.353598, 27.697959], [-111.350448, 27.699188], [-111.344653, 27.704014], [-111.335891, 27.707686], [-111.329687, 27.710853], [-111.325389, 27.714755], [-111.318808, 27.721565], [-111.309269, 27.731347], [-111.301382, 27.74117], [-111.2961, 27.744539], [-111.289506, 27.748728], [-111.277409, 27.756305], [-111.265583, 27.763555], [-111.259863, 27.767187], [-111.254495, 27.770713], [-111.241095, 27.780193], [-111.230677, 27.788178], [-111.227439, 27.790788], [-111.220506, 27.796295], [-111.210678, 27.804501], [-111.201635, 27.812622], [-111.198065, 27.815796], [-111.192115, 27.820933], [-111.182387, 27.829409], [-111.172099, 27.838292], [-111.167702, 27.842321], [-111.161924, 27.847364], [-111.15129, 27.856364], [-111.135512, 27.869779], [-111.135121, 27.870083], [-111.12428, 27.879401], [-111.113389, 27.889155], [-111.102887, 27.898627], [-111.102536, 27.898893], [-111.091884, 27.907302], [-111.079939, 27.915329], [-111.067701, 27.920726], [-111.067344, 27.920789], [-111.057334, 27.928153], [-111.059721, 27.939338], [-111.062279, 27.945366], [-111.062269, 27.947098], [-111.061556, 27.946857]]}, "times": ["2018-03-13T21:51:15+00:00", "2018-03-13T22:05:15+00:00", "2018-03-13T22:21:29+00:00", "2018-03-13T22:33:26+00:00", "2018-03-13T22:43:14+00:00", "2018-03-13T22:51:30+00:00", "2018-03-13T22:53:01+00:00", "2018-03-13T23:02:52+00:00", "2018-03-13T23:15:17+00:00", "2018-03-13T23:21:30+00:00", "2018-03-13T23:25:17+00:00", "2018-03-13T23:35:22+00:00", "2018-03-13T23:45:17+00:00", "2018-03-13T23:51:30+00:00", "2018-03-14T00:21:30+00:00", "2018-03-14T00:45:23+00:00", "2018-03-14T00:51:31+00:00", "2018-03-14T00:55:17+00:00", "2018-03-14T01:05:17+00:00", "2018-03-14T01:15:15+00:00", "2018-03-14T01:21:32+00:00", "2018-03-14T01:25:14+00:00", "2018-03-14T01:35:15+00:00", "2018-03-14T01:45:18+00:00", "2018-03-14T01:51:32+00:00", "2018-03-14T01:55:16+00:00", "2018-03-14T02:05:16+00:00", "2018-03-14T02:15:16+00:00", "2018-03-14T02:21:45+00:00", "2018-03-14T02:25:16+00:00", "2018-03-14T02:35:15+00:00", "2018-03-14T02:51:45+00:00", "2018-03-14T09:51:50+00:00", "2018-03-14T16:35:16+00:00", "2018-03-14T16:45:16+00:00", "2018-03-14T16:55:18+00:00", "2018-03-14T17:05:10+00:00", "2018-03-14T17:05:16+00:00", "2018-03-14T17:15:17+00:00", "2018-03-14T17:25:17+00:00", "2018-03-14T17:35:13+00:00", "2018-03-14T17:35:17+00:00", "2018-03-14T17:45:17+00:00", "2018-03-14T18:04:55+00:00", "2018-03-14T21:25:16+00:00", "2018-03-14T23:25:17+00:00", "2018-03-14T23:35:23+00:00", "2018-03-14T23:38:04+00:00", "2018-03-14T23:45:14+00:00", "2018-03-14T23:55:17+00:00", "2018-03-15T00:05:15+00:00", "2018-03-15T00:08:04+00:00", "2018-03-15T00:15:15+00:00", "2018-03-15T00:25:15+00:00", "2018-03-15T00:35:17+00:00", "2018-03-15T00:38:05+00:00", "2018-03-15T00:45:17+00:00", "2018-03-15T00:55:17+00:00", "2018-03-15T01:38:00+00:00", "2018-03-15T08:45:16+00:00", "2018-03-15T12:31:55+00:00", "2018-03-15T12:41:42+00:00", "2018-03-15T12:51:29+00:00", "2018-03-15T12:55:19+00:00", "2018-03-15T13:01:16+00:00", "2018-03-15T13:11:03+00:00", "2018-03-15T13:25:14+00:00", "2018-03-15T13:25:19+00:00", "2018-03-15T13:35:14+00:00", "2018-03-15T13:45:14+00:00", "2018-03-15T13:55:13+00:00", "2018-03-15T13:55:20+00:00", "2018-03-15T14:05:17+00:00", "2018-03-15T14:15:13+00:00", "2018-03-15T14:25:14+00:00", "2018-03-15T14:25:21+00:00", "2018-03-15T14:35:15+00:00", "2018-03-15T14:45:16+00:00", "2018-03-15T14:55:15+00:00", "2018-03-15T14:55:22+00:00", "2018-03-15T15:05:18+00:00", "2018-03-15T15:15:17+00:00", "2018-03-15T15:25:15+00:00", "2018-03-15T15:25:23+00:00", "2018-03-15T15:35:17+00:00", "2018-03-15T15:45:24+00:00", "2018-03-15T15:55:21+00:00", "2018-03-15T15:55:37+00:00", "2018-03-15T16:05:20+00:00", "2018-03-15T16:17:14+00:00", "2018-03-15T16:25:30+00:00", "2018-03-15T16:35:18+00:00", "2018-03-15T16:45:15+00:00", "2018-03-15T20:11:05+00:00", "2018-03-16T00:35:13+00:00", "2018-03-16T00:45:14+00:00", "2018-03-16T00:45:19+00:00", "2018-03-16T00:55:14+00:00", "2018-03-16T01:05:17+00:00", "2018-03-16T01:15:04+00:00", "2018-03-16T01:15:19+00:00", "2018-03-16T01:24:51+00:00", "2018-03-16T01:34:38+00:00", "2018-03-16T01:44:25+00:00", "2018-03-16T01:45:19+00:00", "2018-03-16T01:54:13+00:00", "2018-03-16T02:04:00+00:00", "2018-03-16T02:13:47+00:00", "2018-03-16T02:15:20+00:00", "2018-03-16T02:23:34+00:00", "2018-03-16T02:33:22+00:00", "2018-03-16T02:43:09+00:00", "2018-03-16T02:45:21+00:00", "2018-03-16T02:52:55+00:00", "2018-03-16T03:02:43+00:00", "2018-03-16T03:12:29+00:00", "2018-03-16T03:15:22+00:00", "2018-03-16T03:22:16+00:00", "2018-03-16T03:32:03+00:00", "2018-03-16T03:41:50+00:00", "2018-03-16T03:42:45+00:00", "2018-03-16T03:45:22+00:00", "2018-03-16T03:51:37+00:00", "2018-03-16T04:01:24+00:00", "2018-03-16T04:11:11+00:00", "2018-03-16T04:15:23+00:00", "2018-03-16T04:20:57+00:00", "2018-03-16T04:30:44+00:00", "2018-03-16T04:40:31+00:00", "2018-03-16T04:45:23+00:00", "2018-03-16T04:50:18+00:00", "2018-03-16T05:00:04+00:00", "2018-03-16T05:09:51+00:00", "2018-03-16T05:15:24+00:00", "2018-03-16T05:19:38+00:00", "2018-03-16T05:29:24+00:00", "2018-03-16T05:39:11+00:00", "2018-03-16T05:45:15+00:00", "2018-03-16T05:48:58+00:00", "2018-03-16T05:58:45+00:00", "2018-03-16T06:08:32+00:00", "2018-03-16T06:15:15+00:00", "2018-03-16T06:18:19+00:00", "2018-03-16T06:28:06+00:00", "2018-03-16T06:37:53+00:00", "2018-03-16T06:45:15+00:00", "2018-03-16T06:47:40+00:00", "2018-03-16T06:57:27+00:00", "2018-03-16T07:07:14+00:00", "2018-03-16T07:15:15+00:00", "2018-03-16T07:17:01+00:00", "2018-03-16T07:26:48+00:00", "2018-03-16T07:36:35+00:00", "2018-03-16T07:45:27+00:00", "2018-03-16T07:46:22+00:00", "2018-03-16T07:56:09+00:00", "2018-03-16T08:05:55+00:00", "2018-03-16T08:15:15+00:00", "2018-03-16T08:15:42+00:00", "2018-03-16T08:25:29+00:00", "2018-03-16T08:35:16+00:00", "2018-03-16T08:45:04+00:00", "2018-03-16T08:45:27+00:00", "2018-03-16T08:54:50+00:00", "2018-03-16T09:04:38+00:00", "2018-03-16T09:14:24+00:00", "2018-03-16T09:15:28+00:00", "2018-03-16T09:24:11+00:00", "2018-03-16T09:33:58+00:00", "2018-03-16T09:43:45+00:00", "2018-03-16T09:45:28+00:00", "2018-03-16T09:53:32+00:00", "2018-03-16T10:03:20+00:00", "2018-03-16T10:13:07+00:00", "2018-03-16T10:15:28+00:00", "2018-03-16T10:22:53+00:00", "2018-03-16T10:32:40+00:00", "2018-03-16T10:42:27+00:00", "2018-03-16T10:45:29+00:00", "2018-03-16T10:52:14+00:00", "2018-03-16T11:02:00+00:00", "2018-03-16T11:11:47+00:00", "2018-03-16T11:15:29+00:00", "2018-03-16T11:21:34+00:00", "2018-03-16T11:31:21+00:00", "2018-03-16T11:41:08+00:00", "2018-03-16T11:45:29+00:00", "2018-03-16T11:50:55+00:00", "2018-03-16T12:00:42+00:00", "2018-03-16T12:10:29+00:00", "2018-03-16T12:15:30+00:00", "2018-03-16T12:20:16+00:00", "2018-03-16T12:32:31+00:00", "2018-03-16T12:42:21+00:00", "2018-03-16T12:45:30+00:00", "2018-03-16T12:52:11+00:00", "2018-03-16T13:01:59+00:00", "2018-03-16T13:11:46+00:00", "2018-03-16T13:15:30+00:00", "2018-03-16T13:21:35+00:00", "2018-03-16T13:31:22+00:00", "2018-03-16T13:41:09+00:00", "2018-03-16T13:45:31+00:00", "2018-03-16T13:50:58+00:00", "2018-03-16T14:00:45+00:00", "2018-03-16T14:15:12+00:00", "2018-03-16T14:15:31+00:00", "2018-03-16T14:25:14+00:00", "2018-03-16T14:35:16+00:00", "2018-03-16T14:45:13+00:00", "2018-03-16T14:45:32+00:00", "2018-03-16T14:55:17+00:00", "2018-03-16T15:05:18+00:00", "2018-03-16T15:15:17+00:00", "2018-03-16T15:15:33+00:00", "2018-03-16T15:25:18+00:00", "2018-03-16T15:35:14+00:00", "2018-03-16T15:45:30+00:00", "2018-03-16T16:04:35+00:00", "2018-03-16T16:35:39+00:00"], "elevations": [-7.8, -4.9, -3.0, 24.0, 5.0, 6.4, 5.0, 4.0, 0.0, 0.2, 22.0, 22.0, 9.0, 8.7, -10.0, -1.0, -7.9, -9.0, -37.0, null, 0.7, 0.0, -3.0, -1.0, null, -7.0, -6.0, 27.0, 6.2, 1.0, 2.0, -2.9, 1.0, -5.0, -5.0, 5.0, 12.0, 6.2, 4.0, 3.0, 3.0, 2.7, 1.0, 7.0, -3.3, 17.0, 1.0, -1.4, -1.0, -1.0, 0.0, -0.8, -1.0, -9.0, -9.0, -1.9, -4.0, -20.0, -8.3, 3.5, -19.0, -20.0, -20.0, -15.4, 0.0, -3.0, -3.0, -3.0, -3.0, 7.0, -2.0, -3.9, -5.0, 4.0, -1.0, -3.0, -4.0, -5.0, 16.5, 16.0, -1.0, -4.0, -5.8, -6.0, -7.0, -7.0, -5.0, -5.4, 39.0, 38.0, null, null, 0.0, 14.1, -6.0, -7.0, -7.0, -19.0, -16.0, 0.0, 0.2, -5.0, -16.0, -12.0, -11.9, -10.0, -8.0, -8.0, -8.9, -1.0, 0.0, -2.0, -2.9, -3.0, -11.0, -2.0, -5.9, -4.0, -3.0, -4.0, -6.6, -4.9, -6.0, -8.0, -8.0, -7.4, -4.0, -6.0, -7.0, -7.4, -8.0, -6.0, -4.0, -3.9, -4.0, -4.0, -2.0, -3.7, -3.0, -3.0, -3.0, -3.7, -3.5, -5.0, -4.0, -7.8, -6.0, -1.0, -5.0, -5.8, -5.0, -18.0, -7.0, -8.9, -8.0, -7.0, -6.0, -9.8, -8.5, -9.0, -15.0, -11.0, -7.4, -10.0, -10.0, -9.0, -9.4, -9.0, -9.0, -11.0, -9.4, -8.0, -7.0, -7.0, -6.9, -5.0, -7.0, -7.0, -6.9, -6.0, -4.0, -5.0, -5.4, -5.0, -6.0, -6.0, -5.9, -6.0, -6.0, -7.0, -7.4, -6.0, -6.0, -7.0, -7.4, -7.0, -7.0, -8.0, -8.9, -9.0, -12.0, -8.0, 8.2, 6.0, -7.0, -4.0, -5.4, -5.0, 19.0, 0.0, -3.9, -5.0, -7.0, -6.0, -4.9, -4.0, -24.0, -6.4, -6.0, -0.8]}