{"type": "Feature", "properties": {"leg_id": 57, "name": "20230702 - Cruising Whitsundays", "stated_nm": 77.5, "computed_nm": 77.5}, "geometry": {"type": "LineString", "coordinates": [[148.721978, -20.263297], [148.722617, -20.26334], [148.724492, -20.260205], [148.725642, -20.257706], [148.726639, -20.255601], [148.727702, -20.252963], [148.728613, -20.250212], [148.729475, -20.248004], [148.730753, -20.245935], [148.731734, -20.244225], [148.733109, -20.242673], [148.733764, -20.241371], [148.736751, -20.238149], [148.738091, -20.237222], [148.74108, -20.234765], [148.743198, -20.233196], [148.744905, -20.231201], [148.746314, -20.229282], [148.747939, -20.227297], [148.749625, -20.225163], [148.750982, -20.222875], [148.751479, -20.221183], [148.752501, -20.218894], [148.753105, -20.217885], [148.753863, -20.216579], [148.755314, -20.214548], [148.756532, -20.212757], [148.757949, -20.211064], [148.759863, -20.209211], [148.761467, -20.207698], [148.763326, -20.2067], [148.765121, -20.205239], [148.767096, -20.203383], [148.768983, -20.201547], [148.770687, -20.199804], [148.772593, -20.19795], [148.774504, -20.196113], [148.776097, -20.194442], [148.777991, -20.192438], [148.779738, -20.190698], [148.781831, -20.188501], [148.783848, -20.186329], [148.785168, -20.184629], [148.786732, -20.182873], [148.788249, -20.181146], [148.789474, -20.179771], [148.790878, -20.17817], [148.793492, -20.176344], [148.795853, -20.174846], [148.797711, -20.173565], [148.799306, -20.17231], [148.801143, -20.17088], [148.803512, -20.169102], [148.805436, -20.167669], [148.808386, -20.165647], [148.81063, -20.164079], [148.813116, -20.162528], [148.815503, -20.160982], [148.817816, -20.159421], [148.820514, -20.1576], [148.82255, -20.156292], [148.824851, -20.154838], [148.827998, -20.153014], [148.831456, -20.150966], [148.834263, -20.14929], [148.837305, -20.14711], [148.83927, -20.145313], [148.841091, -20.1425], [148.84346, -20.139964], [148.84597, -20.13746], [148.847856, -20.13564], [148.850744, -20.133065], [148.853439, -20.130676], [148.855782, -20.128722], [148.85801, -20.127313], [148.861497, -20.125854], [148.864145, -20.124569], [148.866211, -20.123013], [148.868423, -20.120454], [148.870971, -20.117819], [148.873398, -20.11545], [148.8758, -20.11323], [148.878211, -20.111396], [148.881203, -20.109487], [148.884125, -20.107679], [148.886533, -20.106524], [148.88888, -20.105989], [148.892278, -20.105448], [148.895833, -20.104268], [148.898474, -20.103463], [148.901076, -20.103044], [148.903131, -20.102998], [148.904297, -20.103056], [148.904222, -20.103157], [148.901708, -20.099818], [148.89996, -20.098346], [148.89782, -20.096375], [148.895867, -20.094365], [148.894007, -20.092551], [148.892446, -20.090482], [148.890428, -20.087438], [148.889327, -20.085372], [148.889811, -20.083227], [148.889945, -20.083518], [148.890565, -20.087128], [148.892395, -20.088292], [148.894624, -20.089142], [148.897125, -20.089527], [148.899417, -20.089797], [148.901712, -20.089192], [148.902573, -20.090448], [148.901972, -20.092116], [148.901393, -20.094229], [148.899553, -20.096654], [148.897408, -20.099671], [148.89577, -20.101569], [148.893691, -20.102779], [148.891714, -20.104223], [148.889989, -20.106099], [148.888672, -20.10855], [148.887198, -20.111632], [148.885786, -20.114486], [148.883961, -20.118261], [148.882925, -20.12048], [148.881657, -20.122864], [148.880698, -20.125722], [148.87976, -20.129094], [148.878944, -20.132392], [148.878204, -20.135472], [148.877113, -20.139883], [148.876545, -20.142221], [148.87563, -20.146238], [148.875121, -20.149198], [148.8751, -20.151806], [148.875811, -20.155377], [148.876419, -20.158127], [148.877437, -20.162248], [148.878132, -20.16429], [148.880005, -20.167666], [148.881777, -20.17046], [148.883601, -20.172411], [148.885323, -20.173318], [148.888043, -20.173472], [148.890468, -20.17328], [148.893267, -20.17303], [148.895254, -20.171241], [148.897737, -20.168692], [148.898974, -20.16661], [148.901041, -20.163944], [148.902135, -20.16092], [148.903261, -20.157327], [148.903976, -20.154872], [148.904772, -20.152729], [148.906319, -20.149968], [148.908168, -20.14683], [148.909461, -20.144641], [148.91034, -20.142362], [148.911154, -20.139508], [148.91225, -20.136128], [148.913479, -20.132859], [148.914339, -20.131252], [148.914312, -20.131301], [148.91229, -20.13636], [148.911361, -20.138253], [148.910196, -20.140528], [148.908921, -20.143276], [148.907787, -20.145845], [148.906594, -20.149181], [148.905526, -20.152791], [148.904495, -20.155885], [148.903628, -20.158796], [148.902563, -20.161763], [148.901063, -20.164904], [148.900399, -20.167087], [148.901093, -20.169085], [148.903104, -20.171695], [148.904926, -20.17354], [148.906801, -20.175082], [148.909703, -20.176365], [148.91301, -20.177798], [148.916103, -20.179189], [148.919619, -20.180968], [148.922646, -20.181632], [148.926246, -20.182109], [148.930928, -20.182863], [148.932869, -20.182623], [148.93513, -20.181721], [148.936964, -20.180546], [148.939484, -20.177714], [148.942092, -20.17479], [148.944729, -20.172294], [148.947571, -20.169681], [148.94986, -20.16757], [148.952175, -20.166006], [148.954353, -20.165948], [148.955931, -20.164916], [148.956018, -20.164257], [148.955469, -20.1618], [148.956149, -20.161324], [148.956042, -20.161198], [148.956093, -20.155515], [148.958732, -20.152859], [148.962197, -20.152128], [148.966064, -20.152692], [148.969396, -20.1539], [148.973403, -20.155636], [148.976494, -20.157334], [148.979363, -20.159498], [148.982125, -20.162188], [148.984452, -20.164911], [148.986855, -20.167865], [148.989158, -20.170879], [148.991365, -20.173895], [148.993486, -20.177165], [148.995422, -20.18017], [148.997437, -20.183341], [148.999488, -20.186419], [149.001457, -20.189502], [149.00353, -20.192865], [149.005379, -20.195932], [149.007477, -20.199104], [149.009644, -20.20223], [149.011787, -20.205224], [149.014017, -20.208366], [149.015961, -20.21117], [149.017952, -20.214129], [149.019897, -20.217106], [149.021828, -20.220053], [149.023894, -20.22306], [149.025863, -20.225752], [149.02742, -20.228823], [149.028763, -20.232032], [149.030135, -20.235177], [149.031392, -20.238576], [149.032341, -20.241549], [149.033348, -20.244745], [149.034355, -20.247879], [149.035362, -20.251013], [149.036413, -20.254257], [149.037587, -20.25781], [149.038765, -20.261522], [149.039368, -20.264547], [149.040042, -20.268257], [149.041148, -20.271188], [149.042771, -20.274534], [149.044393, -20.277828], [149.04628, -20.28098], [149.047685, -20.28305], [149.048349, -20.286277], [149.049794, -20.28981], [149.050477, -20.290523], [149.053611, -20.288554], [149.05579, -20.287316], [149.057702, -20.286363], [149.060237, -20.284316], [149.061874, -20.282818], [149.062993, -20.281241], [149.064524, -20.279228], [149.066825, -20.277618], [149.069395, -20.276929], [149.072062, -20.276395], [149.07366, -20.275804], [149.073667, -20.275541], [149.069928, -20.278695], [149.068234, -20.280344], [149.066039, -20.283227], [149.064196, -20.285366], [149.062215, -20.287388], [149.060144, -20.288799], [149.05693, -20.289428], [149.054794, -20.290314], [149.053844, -20.291928], [149.053532, -20.292534], [149.05514, -20.287896], [149.056061, -20.286015], [149.057606, -20.283659], [149.059229, -20.281742], [149.060321, -20.279327], [149.061023, -20.277162], [149.061597, -20.274795], [149.06284, -20.272277], [149.064203, -20.270394], [149.066811, -20.267643], [149.069265, -20.265003], [149.07057, -20.262816], [149.071874, -20.260165], [149.073499, -20.257975], [149.075245, -20.256515], [149.077437, -20.255645], [149.081146, -20.255223], [149.083686, -20.255959], [149.086783, -20.258616], [149.088817, -20.260221], [149.091388, -20.262508], [149.093273, -20.264157], [149.093384, -20.263951], [149.089838, -20.260885], [149.087747, -20.25971], [149.085667, -20.258479], [149.083473, -20.257718], [149.081209, -20.257947], [149.079351, -20.258968], [149.076863, -20.260665], [149.07467, -20.262404], [149.072866, -20.263868], [149.071272, -20.265648], [149.070045, -20.267798], [149.069209, -20.269675], [149.068209, -20.272559], [149.067414, -20.274591], [149.066794, -20.277279], [149.066331, -20.279781], [149.066211, -20.282068], [149.065903, -20.285143], [149.065633, -20.288027], [149.065252, -20.291112], [149.065349, -20.294447], [149.065369, -20.296896], [149.064295, -20.299529], [149.063459, -20.301499], [149.062742, -20.303271], [149.06203, -20.30572], [149.061591, -20.308191], [149.061441, -20.310542], [149.060833, -20.312288], [149.06032, -20.313685], [149.058093, -20.316258], [149.055691, -20.31807], [149.052384, -20.319898], [149.049879, -20.321199], [149.047573, -20.322486], [149.044387, -20.323725], [149.041323, -20.324581], [149.039337, -20.325249], [149.035736, -20.32636], [149.033, -20.326961], [149.030631, -20.32778], [149.027485, -20.329061], [149.024732, -20.329638], [149.022385, -20.330132], [149.019729, -20.330673], [149.018043, -20.331327], [149.015562, -20.332371], [149.013199, -20.333288], [149.011242, -20.333762], [149.008248, -20.334204], [149.005763, -20.33454], [149.003308, -20.335389], [149.00041, -20.336242], [148.998085, -20.336715], [148.99445, -20.337244], [148.991937, -20.337481], [148.989331, -20.337971], [148.987044, -20.338227], [148.983729, -20.338438], [148.980153, -20.338458], [148.977174, -20.338419], [148.97504, -20.338426], [148.971944, -20.338397], [148.969947, -20.338174], [148.967605, -20.337823], [148.964845, -20.337319], [148.961938, -20.335544], [148.959721, -20.334523], [148.956819, -20.333688], [148.954535, -20.332744], [148.952796, -20.331164], [148.95098, -20.328733], [148.949566, -20.327285], [148.94771, -20.325677], [148.945383, -20.323688], [148.943068, -20.321936], [148.939615, -20.319432], [148.937521, -20.318026], [148.935574, -20.316288], [148.93317, -20.314004], [148.931617, -20.312608], [148.929435, -20.310891], [148.926849, -20.309924], [148.923597, -20.309156], [148.921121, -20.308619], [148.918038, -20.308049], [148.914773, -20.30769], [148.911085, -20.307646], [148.907711, -20.307737], [148.905428, -20.307856], [148.901765, -20.308109], [148.898632, -20.30822], [148.895435, -20.308232], [148.89183, -20.308327], [148.8891, -20.308444], [148.885928, -20.308632], [148.882513, -20.308713], [148.879694, -20.308659], [148.876649, -20.308756], [148.874276, -20.308815], [148.871484, -20.308508], [148.869171, -20.307762], [148.865086, -20.306418], [148.862586, -20.305572], [148.859551, -20.304472], [148.85556, -20.302905], [148.852279, -20.301693], [148.849392, -20.300479], [148.845936, -20.298981], [148.843363, -20.297948], [148.839996, -20.296447], [148.837325, -20.295358], [148.833988, -20.294106], [148.83099, -20.293084], [148.827542, -20.292165], [148.825267, -20.290855], [148.8235, -20.288761], [148.822141, -20.286542], [148.820437, -20.283457], [148.8192, -20.280782], [148.817703, -20.277625], [148.816487, -20.275418], [148.814293, -20.272915], [148.812479, -20.270917], [148.810033, -20.268046], [148.80766, -20.265158], [148.805359, -20.262435], [148.802895, -20.259463], [148.800888, -20.257072], [148.798401, -20.254126], [148.795898, -20.251234], [148.79322, -20.248143], [148.790741, -20.245437], [148.788483, -20.242843], [148.786143, -20.24012], [148.783672, -20.23736], [148.781403, -20.234784], [148.77871, -20.231995], [148.775916, -20.231128], [148.77284, -20.230377], [148.769208, -20.229346], [148.766333, -20.22899], [148.76264, -20.229354], [148.759065, -20.229935], [148.7561, -20.230795], [148.752722, -20.23198], [148.749206, -20.233471], [148.74584, -20.235082], [148.743117, -20.2367], [148.741105, -20.238017], [148.738428, -20.240007], [148.735742, -20.242517], [148.733295, -20.244973], [148.731069, -20.247208], [148.728338, -20.249963], [148.726361, -20.252782], [148.724795, -20.255741], [148.723668, -20.258142], [148.72326, -20.259795], [148.722644, -20.262292], [148.72235, -20.263897], [148.722412, -20.263923]]}, "times": ["2023-07-02T11:03:48+00:00", "2023-07-02T22:07:53+00:00", "2023-07-03T02:19:47+00:00", "2023-07-03T02:20:47+00:00", "2023-07-03T02:22:47+00:00", "2023-07-03T02:24:47+00:00", "2023-07-03T02:26:47+00:00", "2023-07-03T02:28:32+00:00", "2023-07-03T02:30:13+00:00", "2023-07-03T02:31:41+00:00", "2023-07-03T02:33:06+00:00", "2023-07-03T02:35:18+00:00", "2023-07-03T02:38:46+00:00", "2023-07-03T02:39:47+00:00", "2023-07-03T02:42:48+00:00", "2023-07-03T02:43:48+00:00", "2023-07-03T02:46:17+00:00", "2023-07-03T02:48:46+00:00", "2023-07-03T02:50:38+00:00", "2023-07-03T02:52:39+00:00", "2023-07-03T02:54:12+00:00", "2023-07-03T02:55:44+00:00", "2023-07-03T02:57:45+00:00", "2023-07-03T02:59:33+00:00", "2023-07-03T03:01:29+00:00", "2023-07-03T03:04:06+00:00", "2023-07-03T03:06:02+00:00", "2023-07-03T03:08:50+00:00", "2023-07-03T03:11:28+00:00", "2023-07-03T03:13:51+00:00", "2023-07-03T03:15:51+00:00", "2023-07-03T03:18:54+00:00", "2023-07-03T03:20:54+00:00", "2023-07-03T03:22:55+00:00", "2023-07-03T03:25:54+00:00", "2023-07-03T03:28:17+00:00", "2023-07-03T03:30:54+00:00", "2023-07-03T03:33:18+00:00", "2023-07-03T03:35:54+00:00", "2023-07-03T03:38:19+00:00", "2023-07-03T03:40:55+00:00", "2023-07-03T03:43:41+00:00", "2023-07-03T03:45:55+00:00", "2023-07-03T03:47:45+00:00", "2023-07-03T03:50:51+00:00", "2023-07-03T03:52:44+00:00", "2023-07-03T03:54:55+00:00", "2023-07-03T03:57:45+00:00", "2023-07-03T04:00:55+00:00", "2023-07-03T04:03:55+00:00", "2023-07-03T04:05:55+00:00", "2023-07-03T04:08:55+00:00", "2023-07-03T04:11:55+00:00", "2023-07-03T04:14:55+00:00", "2023-07-03T04:17:45+00:00", "2023-07-03T04:20:28+00:00", "2023-07-03T04:22:56+00:00", "2023-07-03T04:25:25+00:00", "2023-07-03T04:27:45+00:00", "2023-07-03T04:30:56+00:00", "2023-07-03T04:32:56+00:00", "2023-07-03T04:34:56+00:00", "2023-07-03T04:37:45+00:00", "2023-07-03T04:40:56+00:00", "2023-07-03T04:43:10+00:00", "2023-07-03T04:45:57+00:00", "2023-07-03T04:47:45+00:00", "2023-07-03T04:50:48+00:00", "2023-07-03T04:52:57+00:00", "2023-07-03T04:55:57+00:00", "2023-07-03T04:57:10+00:00", "2023-07-03T04:59:58+00:00", "2023-07-03T05:02:58+00:00", "2023-07-03T05:04:48+00:00", "2023-07-03T05:06:53+00:00", "2023-07-03T05:08:59+00:00", "2023-07-03T05:10:59+00:00", "2023-07-03T05:12:59+00:00", "2023-07-03T05:15:05+00:00", "2023-07-03T05:17:23+00:00", "2023-07-03T05:19:59+00:00", "2023-07-03T05:21:33+00:00", "2023-07-03T05:23:01+00:00", "2023-07-03T05:26:05+00:00", "2023-07-03T05:28:00+00:00", "2023-07-03T05:29:43+00:00", "2023-07-03T05:31:07+00:00", "2023-07-03T05:33:28+00:00", "2023-07-03T05:36:07+00:00", "2023-07-03T05:38:10+00:00", "2023-07-03T05:39:46+00:00", "2023-07-03T05:41:55+00:00", "2023-07-03T05:44:43+00:00", "2023-07-03T15:17:33+00:00", "2023-07-04T00:19:35+00:00", "2023-07-04T00:21:06+00:00", "2023-07-04T00:23:06+00:00", "2023-07-04T00:25:06+00:00", "2023-07-04T00:27:00+00:00", "2023-07-04T00:29:03+00:00", "2023-07-04T00:32:05+00:00", "2023-07-04T00:34:01+00:00", "2023-07-04T00:36:04+00:00", "2023-07-04T01:17:09+00:00", "2023-07-04T01:20:29+00:00", "2023-07-04T01:21:43+00:00", "2023-07-04T01:23:22+00:00", "2023-07-04T01:24:54+00:00", "2023-07-04T01:26:45+00:00", "2023-07-04T01:27:50+00:00", "2023-07-04T01:29:46+00:00", "2023-07-04T01:30:51+00:00", "2023-07-04T01:32:36+00:00", "2023-07-04T01:34:04+00:00", "2023-07-04T01:36:47+00:00", "2023-07-04T01:38:04+00:00", "2023-07-04T01:39:47+00:00", "2023-07-04T01:40:49+00:00", "2023-07-04T01:42:53+00:00", "2023-07-04T01:45:45+00:00", "2023-07-04T01:47:06+00:00", "2023-07-04T01:48:53+00:00", "2023-07-04T01:52:42+00:00", "2023-07-04T01:54:02+00:00", "2023-07-04T01:55:46+00:00", "2023-07-04T01:57:45+00:00", "2023-07-04T01:59:46+00:00", "2023-07-04T02:02:47+00:00", "2023-07-04T02:04:53+00:00", "2023-07-04T02:07:45+00:00", "2023-07-04T02:08:46+00:00", "2023-07-04T02:11:45+00:00", "2023-07-04T02:13:33+00:00", "2023-07-04T02:14:54+00:00", "2023-07-04T02:17:45+00:00", "2023-07-04T02:19:54+00:00", "2023-07-04T02:22:44+00:00", "2023-07-04T02:23:32+00:00", "2023-07-04T02:26:46+00:00", "2023-07-04T02:28:53+00:00", "2023-07-04T02:29:58+00:00", "2023-07-04T02:31:47+00:00", "2023-07-04T02:34:48+00:00", "2023-07-04T02:36:48+00:00", "2023-07-04T02:38:48+00:00", "2023-07-04T02:40:49+00:00", "2023-07-04T02:43:25+00:00", "2023-07-04T02:45:01+00:00", "2023-07-04T02:47:45+00:00", "2023-07-04T02:49:51+00:00", "2023-07-04T02:52:51+00:00", "2023-07-04T02:54:48+00:00", "2023-07-04T02:55:51+00:00", "2023-07-04T02:58:21+00:00", "2023-07-04T03:00:51+00:00", "2023-07-04T03:02:46+00:00", "2023-07-04T03:03:55+00:00", "2023-07-04T03:06:03+00:00", "2023-07-04T03:08:55+00:00", "2023-07-04T03:10:57+00:00", "2023-07-04T03:13:01+00:00", "2023-07-04T09:17:05+00:00", "2023-07-05T01:53:01+00:00", "2023-07-05T01:54:03+00:00", "2023-07-05T01:55:23+00:00", "2023-07-05T01:57:03+00:00", "2023-07-05T01:59:03+00:00", "2023-07-05T02:01:05+00:00", "2023-07-05T02:04:05+00:00", "2023-07-05T02:06:06+00:00", "2023-07-05T02:07:21+00:00", "2023-07-05T02:09:13+00:00", "2023-07-05T02:12:06+00:00", "2023-07-05T02:13:06+00:00", "2023-07-05T02:14:38+00:00", "2023-07-05T02:17:02+00:00", "2023-07-05T02:19:05+00:00", "2023-07-05T02:21:04+00:00", "2023-07-05T02:23:05+00:00", "2023-07-05T02:26:11+00:00", "2023-07-05T02:28:03+00:00", "2023-07-05T02:31:04+00:00", "2023-07-05T02:33:33+00:00", "2023-07-05T02:35:43+00:00", "2023-07-05T02:38:15+00:00", "2023-07-05T02:39:31+00:00", "2023-07-05T02:41:03+00:00", "2023-07-05T02:42:28+00:00", "2023-07-05T02:45:08+00:00", "2023-07-05T02:47:57+00:00", "2023-07-05T02:50:00+00:00", "2023-07-05T02:53:10+00:00", "2023-07-05T02:55:10+00:00", "2023-07-05T02:56:59+00:00", "2023-07-05T02:58:39+00:00", "2023-07-05T03:00:12+00:00", "2023-07-05T03:37:25+00:00", "2023-07-05T03:50:05+00:00", "2023-07-05T06:54:13+00:00", "2023-07-05T18:03:47+00:00", "2023-07-06T00:42:59+00:00", "2023-07-06T00:44:59+00:00", "2023-07-06T00:47:03+00:00", "2023-07-06T00:49:03+00:00", "2023-07-06T00:51:03+00:00", "2023-07-06T00:54:03+00:00", "2023-07-06T00:56:03+00:00", "2023-07-06T00:58:03+00:00", "2023-07-06T00:59:45+00:00", "2023-07-06T01:02:03+00:00", "2023-07-06T01:04:03+00:00", "2023-07-06T01:06:03+00:00", "2023-07-06T01:08:03+00:00", "2023-07-06T01:09:45+00:00", "2023-07-06T01:12:03+00:00", "2023-07-06T01:14:03+00:00", "2023-07-06T01:16:03+00:00", "2023-07-06T01:18:03+00:00", "2023-07-06T01:19:45+00:00", "2023-07-06T01:22:03+00:00", "2023-07-06T01:24:03+00:00", "2023-07-06T01:26:03+00:00", "2023-07-06T01:28:03+00:00", "2023-07-06T01:29:45+00:00", "2023-07-06T01:32:03+00:00", "2023-07-06T01:34:03+00:00", "2023-07-06T01:36:03+00:00", "2023-07-06T01:38:03+00:00", "2023-07-06T01:39:45+00:00", "2023-07-06T01:42:03+00:00", "2023-07-06T01:44:03+00:00", "2023-07-06T01:46:03+00:00", "2023-07-06T01:48:03+00:00", "2023-07-06T01:49:45+00:00", "2023-07-06T01:52:03+00:00", "2023-07-06T01:54:03+00:00", "2023-07-06T01:56:03+00:00", "2023-07-06T01:58:03+00:00", "2023-07-06T01:59:45+00:00", "2023-07-06T02:02:03+00:00", "2023-07-06T02:05:03+00:00", "2023-07-06T02:07:03+00:00", "2023-07-06T02:09:03+00:00", "2023-07-06T02:11:03+00:00", "2023-07-06T02:14:03+00:00", "2023-07-06T02:16:03+00:00", "2023-07-06T02:19:03+00:00", "2023-07-06T02:20:03+00:00", "2023-07-06T02:23:03+00:00", "2023-07-06T02:26:03+00:00", "2023-07-06T04:47:32+00:00", "2023-07-06T04:50:05+00:00", "2023-07-06T04:51:57+00:00", "2023-07-06T04:53:29+00:00", "2023-07-06T04:55:02+00:00", "2023-07-06T04:56:38+00:00", "2023-07-06T04:57:51+00:00", "2023-07-06T04:58:45+00:00", "2023-07-06T05:00:51+00:00", "2023-07-06T05:01:51+00:00", "2023-07-06T05:03:51+00:00", "2023-07-06T05:05:51+00:00", "2023-07-06T17:52:34+00:00", "2023-07-07T01:03:53+00:00", "2023-07-07T01:05:26+00:00", "2023-07-07T01:08:19+00:00", "2023-07-07T01:09:59+00:00", "2023-07-07T01:11:50+00:00", "2023-07-07T01:13:59+00:00", "2023-07-07T01:15:50+00:00", "2023-07-07T01:17:33+00:00", "2023-07-07T01:18:52+00:00", "2023-07-07T05:49:49+00:00", "2023-07-07T05:54:25+00:00", "2023-07-07T05:55:54+00:00", "2023-07-07T05:57:34+00:00", "2023-07-07T05:59:14+00:00", "2023-07-07T06:00:55+00:00", "2023-07-07T06:02:11+00:00", "2023-07-07T06:03:47+00:00", "2023-07-07T06:04:57+00:00", "2023-07-07T06:06:12+00:00", "2023-07-07T06:08:57+00:00", "2023-07-07T06:10:53+00:00", "2023-07-07T06:11:45+00:00", "2023-07-07T06:13:57+00:00", "2023-07-07T06:15:18+00:00", "2023-07-07T06:16:57+00:00", "2023-07-07T06:17:58+00:00", "2023-07-07T06:20:57+00:00", "2023-07-07T06:22:31+00:00", "2023-07-07T06:25:58+00:00", "2023-07-07T06:27:58+00:00", "2023-07-07T06:30:58+00:00", "2023-07-07T06:34:01+00:00", "2023-07-07T20:45:39+00:00", "2023-07-08T01:36:56+00:00", "2023-07-08T01:37:56+00:00", "2023-07-08T01:39:51+00:00", "2023-07-08T01:40:57+00:00", "2023-07-08T01:42:23+00:00", "2023-07-08T01:43:57+00:00", "2023-07-08T01:45:32+00:00", "2023-07-08T01:47:16+00:00", "2023-07-08T01:48:58+00:00", "2023-07-08T01:50:04+00:00", "2023-07-08T01:51:59+00:00", "2023-07-08T01:53:13+00:00", "2023-07-08T01:55:45+00:00", "2023-07-08T01:57:02+00:00", "2023-07-08T01:59:02+00:00", "2023-07-08T02:01:27+00:00", "2023-07-08T02:02:58+00:00", "2023-07-08T02:04:45+00:00", "2023-07-08T02:06:58+00:00", "2023-07-08T02:08:58+00:00", "2023-07-08T02:10:58+00:00", "2023-07-08T02:12:01+00:00", "2023-07-08T02:13:58+00:00", "2023-07-08T02:15:13+00:00", "2023-07-08T02:16:59+00:00", "2023-07-08T02:18:38+00:00", "2023-07-08T02:20:18+00:00", "2023-07-08T02:22:26+00:00", "2023-07-08T02:23:59+00:00", "2023-07-08T02:25:23+00:00", "2023-07-08T02:27:55+00:00", "2023-07-08T02:29:05+00:00", "2023-07-08T02:31:58+00:00", "2023-07-08T02:33:12+00:00", "2023-07-08T02:34:59+00:00", "2023-07-08T02:37:59+00:00", "2023-07-08T02:39:21+00:00", "2023-07-08T02:41:00+00:00", "2023-07-08T02:44:00+00:00", "2023-07-08T02:45:18+00:00", "2023-07-08T02:48:04+00:00", "2023-07-08T02:50:06+00:00", "2023-07-08T02:52:03+00:00", "2023-07-08T02:55:00+00:00", "2023-07-08T02:56:24+00:00", "2023-07-08T02:58:49+00:00", "2023-07-08T03:00:06+00:00", "2023-07-08T03:01:33+00:00", "2023-07-08T03:03:09+00:00", "2023-07-08T03:04:38+00:00", "2023-07-08T03:06:14+00:00", "2023-07-08T03:08:09+00:00", "2023-07-08T03:10:03+00:00", "2023-07-08T03:11:23+00:00", "2023-07-08T03:13:56+00:00", "2023-07-08T03:15:08+00:00", "2023-07-08T03:17:06+00:00", "2023-07-08T03:18:28+00:00", "2023-07-08T03:20:33+00:00", "2023-07-08T03:22:57+00:00", "2023-07-08T03:25:00+00:00", "2023-07-08T03:26:54+00:00", "2023-07-08T03:29:02+00:00", "2023-07-08T03:30:07+00:00", "2023-07-08T03:32:35+00:00", "2023-07-08T03:34:04+00:00", "2023-07-08T03:36:20+00:00", "2023-07-08T03:38:08+00:00", "2023-07-08T03:40:08+00:00", "2023-07-08T03:42:05+00:00", "2023-07-08T03:44:09+00:00", "2023-07-08T03:47:11+00:00", "2023-07-08T03:49:11+00:00", "2023-07-08T03:51:59+00:00", "2023-07-08T03:54:11+00:00", "2023-07-08T03:56:11+00:00", "2023-07-08T04:00:09+00:00", "2023-07-08T04:02:10+00:00", "2023-07-08T04:04:10+00:00", "2023-07-08T04:07:16+00:00", "2023-07-08T04:10:17+00:00", "2023-07-08T04:12:15+00:00", "2023-07-08T04:13:48+00:00", "2023-07-08T04:16:17+00:00", "2023-07-08T04:18:17+00:00", "2023-07-08T04:20:29+00:00", "2023-07-08T04:22:23+00:00", "2023-07-08T04:25:15+00:00", "2023-07-08T04:27:15+00:00", "2023-07-08T04:29:15+00:00", "2023-07-08T04:31:16+00:00", "2023-07-08T04:34:14+00:00", "2023-07-08T04:35:15+00:00", "2023-07-08T04:38:17+00:00", "2023-07-08T04:39:19+00:00", "2023-07-08T04:41:19+00:00", "2023-07-08T04:43:19+00:00", "2023-07-08T04:45:15+00:00", "2023-07-08T04:46:58+00:00", "2023-07-08T04:48:30+00:00", "2023-07-08T04:50:16+00:00", "2023-07-08T04:52:18+00:00", "2023-07-08T04:55:15+00:00", "2023-07-08T04:56:20+00:00", "2023-07-08T04:59:23+00:00", "2023-07-08T05:02:16+00:00", "2023-07-08T05:04:16+00:00", "2023-07-08T05:06:16+00:00", "2023-07-08T05:08:38+00:00", "2023-07-08T05:10:17+00:00", "2023-07-08T05:13:17+00:00", "2023-07-08T05:14:17+00:00", "2023-07-08T05:16:47+00:00", "2023-07-08T05:18:35+00:00", "2023-07-08T05:20:56+00:00", "2023-07-08T05:23:19+00:00", "2023-07-08T05:25:15+00:00", "2023-07-08T05:26:57+00:00", "2023-07-08T05:29:21+00:00", "2023-07-08T05:31:22+00:00", "2023-07-08T05:34:22+00:00", "2023-07-08T05:35:46+00:00", "2023-07-08T05:38:22+00:00", "2023-07-08T05:39:48+00:00", "2023-07-08T05:42:22+00:00", "2023-07-08T05:45:15+00:00", "2023-07-08T05:47:22+00:00", "2023-07-08T05:50:22+00:00", "2023-07-08T05:52:22+00:00", "2023-07-08T05:55:20+00:00", "2023-07-08T05:56:31+00:00", "2023-07-08T06:00:19+00:00", "2023-07-08T06:02:19+00:00", "2023-07-08T06:04:21+00:00", "2023-07-08T06:06:21+00:00", "2023-07-08T06:09:21+00:00", "2023-07-08T06:11:21+00:00", "2023-07-08T06:13:38+00:00", "2023-07-08T06:15:21+00:00", "2023-07-08T06:17:21+00:00", "2023-07-08T06:18:55+00:00", "2023-07-08T06:20:36+00:00", "2023-07-08T06:22:00+00:00", "2023-07-08T06:23:57+00:00", "2023-07-08T06:25:57+00:00", "2023-07-08T06:27:09+00:00", "2023-07-08T06:29:21+00:00", "2023-07-08T06:31:50+00:00", "2023-07-08T06:33:23+00:00", "2023-07-08T06:34:43+00:00", "2023-07-08T06:36:52+00:00", "2023-07-08T06:39:23+00:00", "2023-07-08T06:40:32+00:00", "2023-07-08T06:42:23+00:00", "2023-07-08T06:44:23+00:00", "2023-07-08T06:46:15+00:00", "2023-07-08T06:48:34+00:00", "2023-07-08T06:51:07+00:00", "2023-07-08T06:51:59+00:00", "2023-07-08T06:54:23+00:00", "2023-07-08T06:56:15+00:00", "2023-07-08T15:56:55+00:00"], "elevations": [3.3, 10.9, 7.0, 9.0, 6.0, 6.3, 6.0, 6.7, null, 7.0, 10.0, 4.2, 6.0, 6.0, 6.5, 7.0, 6.0, 6.8, null, 5.5, 4.0, 3.0, 30.8, 0.0, 0.0, -0.7, -1.0, -0.9, 0.0, 0.0, -0.5, -5.6, -0.7, 3.0, 5.5, 4.1, 3.0, 4.0, 5.0, -0.3, 3.7, 4.5, 3.0, 3.2, 1.5, 4.0, 5.0, 4.5, 3.0, 2.3, 2.0, -2.6, 2.0, 0.0, -0.6, -5.0, -4.0, -3.5, -3.6, -2.0, -2.0, 6.0, -1.2, -2.3, -3.0, -2.0, -1.4, -0.5, 0.7, 2.0, 1.0, 1.0, 1.0, 1.0, 1.0, 2.5, 4.0, 4.0, 4.0, 11.0, 6.0, 6.0, 9.0, 9.0, 8.7, 6.0, 5.0, 5.0, 4.3, 4.4, 4.0, 4.0, 4.0, 7.8, 14.0, 17.5, 18.5, 15.5, 13.2, 11.7, 9.5, 10.0, 3.0, 8.4, 8.0, -9.0, 19.5, 41.0, 4.0, 4.4, 4.0, 4.0, 4.0, 3.5, 3.0, 2.3, 3.5, 4.0, 4.0, 3.0, 2.7, 2.0, 1.0, 1.0, 1.0, 1.8, 2.0, 2.5, 3.0, 4.2, 4.0, 4.0, 2.0, 10.0, 10.7, 10.5, 10.0, 5.0, 3.0, 4.7, 4.0, 3.5, 4.0, 7.5, 8.0, 21.3, 7.5, 5.0, 4.4, 2.0, 4.0, 5.0, 5.0, 1.2, 2.0, 2.0, 1.5, 2.0, 2.2, 7.0, 2.0, -0.7, 1.0, 2.0, 3.0, 3.0, 3.7, 1.5, 5.0, 4.0, 4.0, 4.2, 4.0, 4.0, 4.5, 5.5, -0.9, 8.0, 5.3, -1.0, 0.0, 0.2, 3.5, 4.5, 4.0, 0.7, 3.0, 4.0, 4.7, 4.0, 5.8, 6.5, 7.0, 3.5, 5.0, 6.7, 1.3, 0.0, 2.1, 4.8, 1.5, 1.5, 1.5, 2.4, 4.0, 5.0, 6.0, 6.0, 5.8, 2.5, -1.5, -3.0, -2.0, -4.3, -2.0, 0.0, 0.5, 1.0, 0.4, 0.0, 0.5, 1.0, 1.0, 0.8, 1.0, 2.0, 2.0, 2.0, 2.4, 3.0, 9.0, 10.0, 11.5, 10.8, 12.5, 17.5, 21.0, 22.0, 21.2, 19.3, 15.5, 14.0, 14.2, 15.0, 17.0, 17.0, 14.0, 12.5, 7.3, 7.3, 9.1, 7.0, null, 9.0, 10.0, null, 9.0, 8.4, 9.0, 9.0, 8.0, 7.5, 6.9, 0.0, 0.0, 0.0, 0.2, 0.0, 10.0, 8.0, 3.5, -1.0, -0.5, -1.0, -1.0, -1.0, -1.0, -1.4, -1.0, -5.0, -3.0, 0.0, 2.5, 1.0, 0.7, 1.0, 1.0, 1.0, -8.0, -3.5, -0.8, 0.0, 1.3, 1.4, 1.7, 24.5, 9.0, 9.0, 9.5, 10.0, 9.0, 3.5, 4.2, 9.0, 3.5, 3.0, 8.0, 3.5, 7.7, 8.0, 10.0, 10.0, 10.0, 10.2, 10.0, 9.0, 9.0, 0.0, 0.0, 1.0, 0.0, 0.5, 1.0, 5.0, 9.5, 10.0, 10.0, 10.5, null, 30.5, 42.0, 47.0, null, 41.3, 42.0, 42.5, 37.5, 34.5, 16.0, 6.7, null, 11.0, 12.0, 12.0, 12.0, 20.8, 21.0, 43.0, 19.0, 19.0, 19.5, 19.3, 20.0, 20.0, 1.0, 5.0, 4.4, 5.0, 4.0, 4.0, 5.5, 6.0, 5.7, 5.0, 6.0, 6.0, -3.9, -2.0, 1.5, 17.7, 22.0, 18.9, 14.5, 14.5, 13.5, 12.0, 11.0, 11.0, 11.0, 12.2, 12.0, 12.0, 12.0, 12.2, 12.0, 12.0, 12.0, 13.0, 12.2, 13.0, 13.0, 12.5, 12.0, 10.5, 11.0, 11.0, 10.0, 10.0, 10.2, 1.5, 3.0, 7.5, 7.0, 2.8, 8.5, 3.5, 3.0, 2.7, 3.0, 3.5, 5.0, 7.0, 7.7, 28.5, 4.0, 2.7, 3.0, 6.2, 1.0, 9.0, 9.0, 7.2, 6.7, 6.0, 6.0, 6.0, 6.7, 12.5, 10.5, 10.0, 7.7, 6.5, 6.0, 5.5, 6.2, 28.0, 11.0, 7.5, 6.5, 6.0, 4.8, 5.0, 5.0, -5.5, 0.0, -4.5, -1.9, 0.0, -1.0, -1.0, -1.0, -1.4, -1.0, -4.0, -2.0, 7.0, -0.8, 2.4]}