{"type": "Feature", "properties": {"leg_id": 49, "name": "20230505 - Brisbane to Double Island", "stated_nm": 107.8, "computed_nm": 107.8}, "geometry": {"type": "LineString", "coordinates": [[153.191721, -27.452786], [153.192855, -27.451189], [153.19645, -27.449043], [153.198843, -27.447932], [153.20177, -27.446562], [153.205612, -27.444814], [153.208565, -27.443419], [153.209722, -27.441021], [153.211259, -27.436916], [153.21248, -27.43367], [153.213765, -27.430276], [153.214851, -27.427261], [153.216104, -27.423748], [153.217742, -27.421148], [153.219685, -27.418457], [153.22148, -27.415977], [153.223512, -27.414571], [153.226671, -27.412859], [153.230056, -27.410969], [153.232042, -27.409832], [153.23574, -27.40827], [153.238599, -27.407004], [153.24117, -27.405794], [153.243921, -27.403655], [153.246479, -27.401486], [153.249237, -27.398993], [153.251916, -27.396606], [153.254616, -27.394228], [153.257355, -27.391803], [153.259576, -27.389824], [153.262885, -27.387006], [153.26567, -27.384608], [153.268454, -27.382209], [153.271247, -27.379876], [153.273994, -27.377525], [153.276809, -27.375169], [153.28083, -27.371775], [153.283583, -27.369452], [153.28637, -27.367108], [153.289076, -27.364782], [153.292572, -27.361796], [153.295906, -27.358964], [153.298132, -27.357071], [153.302134, -27.353769], [153.305604, -27.350968], [153.308, -27.348984], [153.311096, -27.346308], [153.313854, -27.343924], [153.31652, -27.341674], [153.319406, -27.339224], [153.321892, -27.337165], [153.32457, -27.334966], [153.32766, -27.332433], [153.330055, -27.330548], [153.333257, -27.328022], [153.336397, -27.325407], [153.338211, -27.324098], [153.341562, -27.322478], [153.345497, -27.320679], [153.349937, -27.318655], [153.352654, -27.317195], [153.356603, -27.314929], [153.359006, -27.3135], [153.363717, -27.310669], [153.365961, -27.309145], [153.368601, -27.30649], [153.370977, -27.304425], [153.374344, -27.30236], [153.376625, -27.301183], [153.378767, -27.300378], [153.382158, -27.299133], [153.385715, -27.297919], [153.38845, -27.297581], [153.391137, -27.297528], [153.393921, -27.297469], [153.394419, -27.297365], [153.39039, -27.291083], [153.388366, -27.28819], [153.386711, -27.285834], [153.384125, -27.282331], [153.381974, -27.279376], [153.379903, -27.27647], [153.377914, -27.27354], [153.376091, -27.270895], [153.374653, -27.268836], [153.373224, -27.266836], [153.37168, -27.264284], [153.369785, -27.260654], [153.36798, -27.25758], [153.367376, -27.255885], [153.366364, -27.253923], [153.365142, -27.250723], [153.363877, -27.247605], [153.363096, -27.245537], [153.361933, -27.242111], [153.360638, -27.238483], [153.359948, -27.23659], [153.359711, -27.233785], [153.359538, -27.23126], [153.359323, -27.228104], [153.359074, -27.224994], [153.357918, -27.221392], [153.356877, -27.218226], [153.356148, -27.214876], [153.355927, -27.211229], [153.356102, -27.206902], [153.356239, -27.202894], [153.356395, -27.199765], [153.356629, -27.196121], [153.356836, -27.192776], [153.35707, -27.188679], [153.357315, -27.184726], [153.357597, -27.180926], [153.358766, -27.177862], [153.360822, -27.174323], [153.362033, -27.172126], [153.363293, -27.170277], [153.36491, -27.168883], [153.366528, -27.168614], [153.36866, -27.167682], [153.369138, -27.165779], [153.369228, -27.164539], [153.369343, -27.165388], [153.36992, -27.169071], [153.369643, -27.1707], [153.368614, -27.172604], [153.368429, -27.175152], [153.367855, -27.178093], [153.367125, -27.180547], [153.366322, -27.1831], [153.365103, -27.185682], [153.363369, -27.187851], [153.361751, -27.188666], [153.360562, -27.186552], [153.359871, -27.18395], [153.359489, -27.181531], [153.358616, -27.178661], [153.357696, -27.17563], [153.356758, -27.172053], [153.355965, -27.168897], [153.355125, -27.165382], [153.354469, -27.162822], [153.353604, -27.159161], [153.352622, -27.155266], [153.351562, -27.151165], [153.351058, -27.148847], [153.351617, -27.14567], [153.352228, -27.14222], [153.352882, -27.137821], [153.353432, -27.133902], [153.354063, -27.129833], [153.354995, -27.123888], [153.355574, -27.120424], [153.356378, -27.116104], [153.357146, -27.112344], [153.357934, -27.108342], [153.358808, -27.104909], [153.359587, -27.101116], [153.360032, -27.097855], [153.360199, -27.094263], [153.360343, -27.089627], [153.360474, -27.08415], [153.360522, -27.080627], [153.360519, -27.077297], [153.36029, -27.073798], [153.358905, -27.070738], [153.357315, -27.067457], [153.355537, -27.064062], [153.353819, -27.060759], [153.352158, -27.057376], [153.350753, -27.054623], [153.348892, -27.050984], [153.347254, -27.047965], [153.345557, -27.04534], [153.343773, -27.041658], [153.342256, -27.038484], [153.340767, -27.035303], [153.339271, -27.032168], [153.337792, -27.029036], [153.336122, -27.025639], [153.335755, -27.023221], [153.335792, -27.019211], [153.335777, -27.015901], [153.33573, -27.013034], [153.335386, -27.009343], [153.335097, -27.006701], [153.334629, -27.002956], [153.33429, -26.999157], [153.334029, -26.996612], [153.333511, -26.992525], [153.33313, -26.989254], [153.332761, -26.986135], [153.333791, -26.984949], [153.336697, -26.984272], [153.337074, -26.982412], [153.336649, -26.979316], [153.336206, -26.975969], [153.335856, -26.973102], [153.33537, -26.969641], [153.334966, -26.966987], [153.33438, -26.963367], [153.333752, -26.95977], [153.332963, -26.956096], [153.332, -26.951875], [153.331458, -26.949267], [153.330543, -26.945722], [153.329704, -26.942674], [153.329065, -26.94013], [153.328212, -26.937448], [153.327118, -26.934282], [153.326447, -26.931546], [153.325515, -26.928121], [153.324833, -26.925144], [153.323836, -26.921506], [153.323128, -26.91853], [153.322652, -26.915376], [153.322148, -26.911238], [153.321872, -26.908298], [153.321492, -26.904659], [153.320545, -26.901764], [153.31955, -26.898173], [153.318969, -26.894958], [153.318536, -26.892037], [153.318204, -26.88954], [153.317616, -26.88585], [153.317122, -26.882749], [153.316812, -26.880467], [153.316209, -26.876712], [153.31576, -26.874198], [153.315077, -26.870878], [153.314475, -26.867734], [153.313986, -26.865373], [153.313256, -26.862244], [153.312451, -26.858844], [153.311798, -26.855957], [153.311401, -26.854194], [153.310658, -26.850913], [153.3101, -26.848559], [153.309519, -26.846181], [153.308883, -26.843834], [153.308282, -26.841084], [153.307863, -26.838682], [153.307426, -26.836506], [153.307156, -26.834627], [153.306808, -26.83201], [153.307283, -26.830277], [153.308067, -26.827671], [153.308665, -26.825404], [153.309473, -26.82291], [153.310313, -26.819836], [153.311318, -26.816045], [153.312092, -26.812853], [153.312869, -26.810031], [153.313536, -26.807272], [153.314059, -26.804847], [153.314555, -26.802501], [153.315471, -26.798769], [153.315858, -26.796896], [153.316181, -26.795076], [153.317044, -26.791187], [153.317549, -26.788853], [153.318297, -26.786278], [153.318944, -26.783664], [153.319757, -26.780706], [153.320333, -26.778417], [153.320933, -26.775683], [153.321597, -26.772716], [153.321961, -26.771033], [153.322876, -26.767403], [153.32357, -26.764175], [153.324246, -26.761259], [153.324646, -26.759385], [153.325247, -26.756608], [153.326105, -26.753362], [153.326909, -26.750171], [153.327855, -26.747272], [153.328516, -26.744056], [153.328911, -26.740549], [153.329, -26.738203], [153.328839, -26.735683], [153.328782, -26.733474], [153.32864, -26.730443], [153.328486, -26.728171], [153.328166, -26.725014], [153.32792, -26.72288], [153.327646, -26.719932], [153.327329, -26.716457], [153.327208, -26.714226], [153.327017, -26.711727], [153.326855, -26.709363], [153.326695, -26.707315], [153.32656, -26.704489], [153.326421, -26.701898], [153.32618, -26.698315], [153.326064, -26.695891], [153.325968, -26.692917], [153.325894, -26.690123], [153.32571, -26.687478], [153.325614, -26.685157], [153.32549, -26.68196], [153.325343, -26.678201], [153.325165, -26.674859], [153.325013, -26.671701], [153.324944, -26.669671], [153.324849, -26.665865], [153.324713, -26.662193], [153.324468, -26.658242], [153.324423, -26.65631], [153.324227, -26.653218], [153.324139, -26.651039], [153.323991, -26.647508], [153.323906, -26.644717], [153.323832, -26.642383], [153.323753, -26.638968], [153.323697, -26.636498], [153.323553, -26.632937], [153.32342, -26.629577], [153.323231, -26.627222], [153.323236, -26.62466], [153.323183, -26.622286], [153.323164, -26.620004], [153.32308, -26.616462], [153.322987, -26.61368], [153.322876, -26.610859], [153.32275, -26.60749], [153.322548, -26.60493], [153.322492, -26.602033], [153.322281, -26.598533], [153.322056, -26.595189], [153.321818, -26.592386], [153.321625, -26.588967], [153.321416, -26.585152], [153.321145, -26.581664], [153.320927, -26.579431], [153.320683, -26.577077], [153.320387, -26.573338], [153.320175, -26.570859], [153.319931, -26.569021], [153.319518, -26.567309], [153.318202, -26.56672], [153.317103, -26.565854], [153.316875, -26.563725], [153.316493, -26.562336], [153.315522, -26.561173], [153.314703, -26.559991], [153.31373, -26.559979], [153.312974, -26.55874], [153.312855, -26.556542], [153.31274, -26.55405], [153.312733, -26.552102], [153.312688, -26.549656], [153.312544, -26.547693], [153.312418, -26.546444], [153.31208, -26.545113], [153.311096, -26.542367], [153.310325, -26.540081], [153.309613, -26.537893], [153.308718, -26.535302], [153.308096, -26.533326], [153.307342, -26.530814], [153.306466, -26.528106], [153.305648, -26.525679], [153.305031, -26.523866], [153.304398, -26.522045], [153.303589, -26.519711], [153.303034, -26.518021], [153.302253, -26.515587], [153.301544, -26.513265], [153.300797, -26.510843], [153.300221, -26.509013], [153.299418, -26.506515], [153.298597, -26.503991], [153.297733, -26.501153], [153.297021, -26.498746], [153.296249, -26.496282], [153.295473, -26.493825], [153.294805, -26.491535], [153.294034, -26.489006], [153.29307, -26.48593], [153.292162, -26.48286], [153.291422, -26.480349], [153.290659, -26.47805], [153.289993, -26.4758], [153.289426, -26.473076], [153.288793, -26.470105], [153.287774, -26.466757], [153.286479, -26.464545], [153.285833, -26.462345], [153.285206, -26.460112], [153.284769, -26.458666], [153.284099, -26.45648], [153.283941, -26.454193], [153.28395, -26.451397], [153.283954, -26.449284], [153.284001, -26.447239], [153.283888, -26.444713], [153.283871, -26.442616], [153.283837, -26.440988], [153.283939, -26.439419], [153.283978, -26.437529], [153.283991, -26.434723], [153.283975, -26.43249], [153.28392, -26.43126], [153.28389, -26.428905], [153.283868, -26.427139], [153.283817, -26.425934], [153.283615, -26.424596], [153.283509, -26.422813], [153.283491, -26.421349], [153.283462, -26.419595], [153.283308, -26.418782], [153.282969, -26.417629], [153.282804, -26.416198], [153.282568, -26.414025], [153.282467, -26.412654], [153.282426, -26.409676], [153.282339, -26.407846], [153.282286, -26.406157], [153.282286, -26.404516], [153.282302, -26.402458], [153.282374, -26.400944], [153.282448, -26.398768], [153.28251, -26.397162], [153.283008, -26.396395], [153.283391, -26.392848], [153.283237, -26.38968], [153.283139, -26.387553], [153.283056, -26.384391], [153.282973, -26.38145], [153.282946, -26.379036], [153.282913, -26.37589], [153.282893, -26.372712], [153.282813, -26.369477], [153.282729, -26.367054], [153.282602, -26.364198], [153.282522, -26.361984], [153.282453, -26.359156], [153.282334, -26.35654], [153.282211, -26.353285], [153.282048, -26.350029], [153.281914, -26.346803], [153.281731, -26.343199], [153.281645, -26.340613], [153.281433, -26.337302], [153.281245, -26.334128], [153.281001, -26.330543], [153.280782, -26.327755], [153.280571, -26.325093], [153.280479, -26.32252], [153.280289, -26.319436], [153.280123, -26.315966], [153.279951, -26.312319], [153.279902, -26.309482], [153.279813, -26.306455], [153.279807, -26.303983], [153.279798, -26.301178], [153.279785, -26.298396], [153.279727, -26.295714], [153.279712, -26.293603], [153.279678, -26.290002], [153.27967, -26.288041], [153.279691, -26.285743], [153.279634, -26.282573], [153.27952, -26.279258], [153.279399, -26.276787], [153.27929, -26.274357], [153.279114, -26.271709], [153.27885, -26.267975], [153.278619, -26.265143], [153.278417, -26.262721], [153.278146, -26.259726], [153.277984, -26.257225], [153.27767, -26.253565], [153.277641, -26.250558], [153.277537, -26.247695], [153.277473, -26.245409], [153.277292, -26.241938], [153.277079, -26.238687], [153.277005, -26.23657], [153.276942, -26.234068], [153.277217, -26.230523], [153.277507, -26.227024], [153.277774, -26.223585], [153.277929, -26.221185], [153.278093, -26.218438], [153.278335, -26.21531], [153.278555, -26.211779], [153.278802, -26.208533], [153.27891, -26.205951], [153.278943, -26.204372], [153.279019, -26.202665], [153.279141, -26.199127], [153.279205, -26.197566], [153.279257, -26.196212], [153.279337, -26.193842], [153.279383, -26.192422], [153.279508, -26.19016], [153.279632, -26.187164], [153.279748, -26.183923], [153.279766, -26.181422], [153.279837, -26.179003], [153.279859, -26.176145], [153.279928, -26.173124], [153.279953, -26.169542], [153.279999, -26.165994], [153.280006, -26.162343], [153.280024, -26.15888], [153.280024, -26.155305], [153.280024, -26.151658], [153.280031, -26.147552], [153.280034, -26.145026], [153.279996, -26.14277], [153.28002, -26.140328], [153.279953, -26.136771], [153.279924, -26.134212], [153.279926, -26.130963], [153.279861, -26.12791], [153.279818, -26.124311], [153.279692, -26.121188], [153.279644, -26.118505], [153.279562, -26.114913], [153.279481, -26.111342], [153.279417, -26.108388], [153.279317, -26.105368], [153.279152, -26.101343], [153.279062, -26.098749], [153.278923, -26.095976], [153.278679, -26.092457], [153.278503, -26.089465], [153.278358, -26.086514], [153.278235, -26.083556], [153.278041, -26.080566], [153.277775, -26.07649], [153.277687, -26.074123], [153.277625, -26.070504], [153.277618, -26.067588], [153.27758, -26.064507], [153.277582, -26.062003], [153.277608, -26.058639], [153.277641, -26.055486], [153.277593, -26.052928], [153.277443, -26.049479], [153.27746, -26.046206], [153.277497, -26.042857], [153.277566, -26.039956], [153.277633, -26.036184], [153.277618, -26.032838], [153.277634, -26.029539], [153.277265, -26.026743], [153.276169, -26.022934], [153.275248, -26.019714], [153.274318, -26.016424], [153.273424, -26.013161], [153.272832, -26.010922], [153.271973, -26.007611], [153.271087, -26.00431], [153.270224, -26.001015], [153.269493, -25.998141], [153.268864, -25.995519], [153.268274, -25.993225], [153.267415, -25.989898], [153.266571, -25.986515], [153.265983, -25.984242], [153.265403, -25.981849], [153.264659, -25.978722], [153.26386, -25.975395], [153.263093, -25.973046], [153.261503, -25.970128], [153.259771, -25.967055], [153.25836, -25.964537], [153.257094, -25.962134], [153.255779, -25.959762], [153.254179, -25.95699], [153.252759, -25.954407], [153.251169, -25.95163], [153.249876, -25.949299], [153.248133, -25.946097], [153.246651, -25.943717], [153.244463, -25.942243], [153.241869, -25.940273], [153.238886, -25.937955], [153.23584, -25.935633], [153.233369, -25.93368], [153.230833, -25.931665], [153.227828, -25.929182], [153.22495, -25.926856], [153.2227, -25.925454], [153.219126, -25.924244], [153.215543, -25.923022], [153.212225, -25.921821], [153.208532, -25.92064], [153.20494, -25.919527], [153.201416, -25.918934], [153.198005, -25.918397], [153.19395, -25.91773], [153.191755, -25.917405], [153.189151, -25.917672], [153.186808, -25.919035], [153.183907, -25.9214], [153.18169, -25.923253], [153.178898, -25.925677], [153.176032, -25.928182], [153.173762, -25.930834], [153.171318, -25.933986], [153.169334, -25.93658], [153.167358, -25.939119], [153.165478, -25.941313], [153.164404, -25.943299], [153.16301, -25.945841], [153.161804, -25.948057], [153.161387, -25.949238], [153.163158, -25.949746], [153.165741, -25.948937], [153.167489, -25.948039], [153.168892, -25.946789], [153.167906, -25.947132]]}, "times": ["2023-05-05T05:36:55+00:00", "2023-05-05T05:37:56+00:00", "2023-05-05T05:40:47+00:00", "2023-05-05T05:41:56+00:00", "2023-05-05T05:44:00+00:00", "2023-05-05T05:47:00+00:00", "2023-05-05T05:48:20+00:00", "2023-05-05T05:50:00+00:00", "2023-05-05T05:53:01+00:00", "2023-05-05T05:55:01+00:00", "2023-05-05T05:56:54+00:00", "2023-05-05T05:59:01+00:00", "2023-05-05T06:00:59+00:00", "2023-05-05T06:03:01+00:00", "2023-05-05T06:05:02+00:00", "2023-05-05T06:06:12+00:00", "2023-05-05T06:08:02+00:00", "2023-05-05T06:10:02+00:00", "2023-05-05T06:13:21+00:00", "2023-05-05T06:14:00+00:00", "2023-05-05T06:17:04+00:00", "2023-05-05T06:18:40+00:00", "2023-05-05T06:20:52+00:00", "2023-05-05T06:23:04+00:00", "2023-05-05T06:24:20+00:00", "2023-05-05T06:27:04+00:00", "2023-05-05T06:29:04+00:00", "2023-05-05T06:31:04+00:00", "2023-05-05T06:33:04+00:00", "2023-05-05T06:34:00+00:00", "2023-05-05T06:37:04+00:00", "2023-05-05T06:39:04+00:00", "2023-05-05T06:41:04+00:00", "2023-05-05T06:43:04+00:00", "2023-05-05T06:45:04+00:00", "2023-05-05T06:47:11+00:00", "2023-05-05T06:50:03+00:00", "2023-05-05T06:52:04+00:00", "2023-05-05T06:54:00+00:00", "2023-05-05T06:56:04+00:00", "2023-05-05T06:59:03+00:00", "2023-05-05T07:01:04+00:00", "2023-05-05T07:02:04+00:00", "2023-05-05T07:06:08+00:00", "2023-05-05T07:08:09+00:00", "2023-05-05T07:09:09+00:00", "2023-05-05T07:12:09+00:00", "2023-05-05T07:14:00+00:00", "2023-05-05T07:16:10+00:00", "2023-05-05T07:18:21+00:00", "2023-05-05T07:20:09+00:00", "2023-05-05T07:22:09+00:00", "2023-05-05T07:24:00+00:00", "2023-05-05T07:26:10+00:00", "2023-05-05T07:27:31+00:00", "2023-05-05T07:30:28+00:00", "2023-05-05T07:31:28+00:00", "2023-05-05T07:34:00+00:00", "2023-05-05T07:36:57+00:00", "2023-05-05T07:39:26+00:00", "2023-05-05T07:41:17+00:00", "2023-05-05T07:44:00+00:00", "2023-05-05T07:45:17+00:00", "2023-05-05T07:49:52+00:00", "2023-05-05T07:51:01+00:00", "2023-05-05T07:54:00+00:00", "2023-05-05T07:55:12+00:00", "2023-05-05T07:58:13+00:00", "2023-05-05T07:59:13+00:00", "2023-05-05T08:00:30+00:00", "2023-05-05T08:03:11+00:00", "2023-05-05T08:05:13+00:00", "2023-05-05T08:06:43+00:00", "2023-05-05T08:08:28+00:00", "2023-05-05T08:10:14+00:00", "2023-05-05T17:10:17+00:00", "2023-05-06T00:09:13+00:00", "2023-05-06T00:11:13+00:00", "2023-05-06T00:12:13+00:00", "2023-05-06T00:15:13+00:00", "2023-05-06T00:17:13+00:00", "2023-05-06T00:18:44+00:00", "2023-05-06T00:21:14+00:00", "2023-05-06T00:22:16+00:00", "2023-05-06T00:24:16+00:00", "2023-05-06T00:25:15+00:00", "2023-05-06T00:27:16+00:00", "2023-05-06T00:29:37+00:00", "2023-05-06T00:31:46+00:00", "2023-05-06T00:32:58+00:00", "2023-05-06T00:34:16+00:00", "2023-05-06T00:35:39+00:00", "2023-05-06T00:38:03+00:00", "2023-05-06T00:39:15+00:00", "2023-05-06T00:41:15+00:00", "2023-05-06T00:43:36+00:00", "2023-05-06T00:45:15+00:00", "2023-05-06T00:46:15+00:00", "2023-05-06T00:48:15+00:00", "2023-05-06T00:50:46+00:00", "2023-05-06T00:51:42+00:00", "2023-05-06T00:54:27+00:00", "2023-05-06T00:55:27+00:00", "2023-05-06T00:57:52+00:00", "2023-05-06T00:59:15+00:00", "2023-05-06T01:02:15+00:00", "2023-05-06T01:04:15+00:00", "2023-05-06T01:05:15+00:00", "2023-05-06T01:07:06+00:00", "2023-05-06T01:09:15+00:00", "2023-05-06T01:11:15+00:00", "2023-05-06T01:13:15+00:00", "2023-05-06T01:14:35+00:00", "2023-05-06T01:16:15+00:00", "2023-05-06T01:18:48+00:00", "2023-05-06T01:20:15+00:00", "2023-05-06T01:21:15+00:00", "2023-05-06T01:22:25+00:00", "2023-05-06T01:23:58+00:00", "2023-05-06T01:26:06+00:00", "2023-05-06T01:27:23+00:00", "2023-05-06T01:29:06+00:00", "2023-05-06T02:59:14+00:00", "2023-05-06T03:03:10+00:00", "2023-05-06T03:04:15+00:00", "2023-05-06T03:06:15+00:00", "2023-05-06T03:07:27+00:00", "2023-05-06T03:09:15+00:00", "2023-05-06T03:11:15+00:00", "2023-05-06T03:12:52+00:00", "2023-05-06T03:14:52+00:00", "2023-05-06T03:17:15+00:00", "2023-05-06T03:18:08+00:00", "2023-05-06T03:19:33+00:00", "2023-05-06T03:21:15+00:00", "2023-05-06T03:22:15+00:00", "2023-05-06T03:24:15+00:00", "2023-05-06T03:25:54+00:00", "2023-05-06T03:28:15+00:00", "2023-05-06T03:29:15+00:00", "2023-05-06T03:31:15+00:00", "2023-05-06T03:33:15+00:00", "2023-05-06T03:34:31+00:00", "2023-05-06T03:37:16+00:00", "2023-05-06T03:39:29+00:00", "2023-05-06T03:40:12+00:00", "2023-05-06T03:42:15+00:00", "2023-05-06T03:43:15+00:00", "2023-05-06T03:46:15+00:00", "2023-05-06T03:48:15+00:00", "2023-05-06T03:50:15+00:00", "2023-05-06T03:53:21+00:00", "2023-05-06T03:54:22+00:00", "2023-05-06T03:57:23+00:00", "2023-05-06T03:59:23+00:00", "2023-05-06T04:01:35+00:00", "2023-05-06T04:02:36+00:00", "2023-05-06T04:05:01+00:00", "2023-05-06T04:06:21+00:00", "2023-05-06T04:08:21+00:00", "2023-05-06T04:11:29+00:00", "2023-05-06T04:14:21+00:00", "2023-05-06T04:16:02+00:00", "2023-05-06T04:18:21+00:00", "2023-05-06T04:19:21+00:00", "2023-05-06T04:21:12+00:00", "2023-05-06T04:23:23+00:00", "2023-05-06T04:25:23+00:00", "2023-05-06T04:26:44+00:00", "2023-05-06T04:29:25+00:00", "2023-05-06T04:30:15+00:00", "2023-05-06T04:33:25+00:00", "2023-05-06T04:34:42+00:00", "2023-05-06T04:36:25+00:00", "2023-05-06T04:39:25+00:00", "2023-05-06T04:41:25+00:00", "2023-05-06T04:43:25+00:00", "2023-05-06T04:45:25+00:00", "2023-05-06T04:47:25+00:00", "2023-05-06T04:49:25+00:00", "2023-05-06T04:50:15+00:00", "2023-05-06T04:53:25+00:00", "2023-05-06T04:55:25+00:00", "2023-05-06T04:56:25+00:00", "2023-05-06T04:59:15+00:00", "2023-05-06T05:00:15+00:00", "2023-05-06T05:02:25+00:00", "2023-05-06T05:05:25+00:00", "2023-05-06T05:06:25+00:00", "2023-05-06T05:09:25+00:00", "2023-05-06T05:11:25+00:00", "2023-05-06T05:12:54+00:00", "2023-05-06T05:14:10+00:00", "2023-05-06T05:16:25+00:00", "2023-05-06T05:17:31+00:00", "2023-05-06T05:19:25+00:00", "2023-05-06T05:21:29+00:00", "2023-05-06T05:23:29+00:00", "2023-05-06T05:25:29+00:00", "2023-05-06T05:27:29+00:00", "2023-05-06T05:29:29+00:00", "2023-05-06T05:31:33+00:00", "2023-05-06T05:34:29+00:00", "2023-05-06T05:38:27+00:00", "2023-05-06T05:39:27+00:00", "2023-05-06T05:42:23+00:00", "2023-05-06T05:44:39+00:00", "2023-05-06T05:46:28+00:00", "2023-05-06T05:48:30+00:00", "2023-05-06T05:51:30+00:00", "2023-05-06T05:53:30+00:00", "2023-05-06T05:56:35+00:00", "2023-05-06T05:58:01+00:00", "2023-05-06T06:01:30+00:00", "2023-05-06T06:03:31+00:00", "2023-05-06T06:05:34+00:00", "2023-05-06T06:09:02+00:00", "2023-05-06T06:11:29+00:00", "2023-05-06T06:14:32+00:00", "2023-05-06T06:17:05+00:00", "2023-05-06T06:20:26+00:00", "2023-05-06T06:22:30+00:00", "2023-05-06T06:24:18+00:00", "2023-05-06T06:25:31+00:00", "2023-05-06T06:28:32+00:00", "2023-05-06T06:30:52+00:00", "2023-05-06T06:32:33+00:00", "2023-05-06T06:35:33+00:00", "2023-05-06T06:37:33+00:00", "2023-05-06T06:40:30+00:00", "2023-05-06T06:43:33+00:00", "2023-05-06T06:45:33+00:00", "2023-05-06T06:49:11+00:00", "2023-05-06T06:51:32+00:00", "2023-05-06T06:54:08+00:00", "2023-05-06T06:55:33+00:00", "2023-05-06T06:58:33+00:00", "2023-05-06T07:00:30+00:00", "2023-05-06T07:02:33+00:00", "2023-05-06T07:04:46+00:00", "2023-05-06T07:07:33+00:00", "2023-05-06T07:09:55+00:00", "2023-05-06T07:12:11+00:00", "2023-05-06T07:13:35+00:00", "2023-05-06T07:15:35+00:00", "2023-05-06T07:17:35+00:00", "2023-05-06T07:20:16+00:00", "2023-05-06T07:21:44+00:00", "2023-05-06T07:24:41+00:00", "2023-05-06T07:27:33+00:00", "2023-05-06T07:32:12+00:00", "2023-05-06T07:34:22+00:00", "2023-05-06T07:36:35+00:00", "2023-05-06T07:39:03+00:00", "2023-05-06T07:41:47+00:00", "2023-05-06T07:43:41+00:00", "2023-05-06T07:46:35+00:00", "2023-05-06T07:48:39+00:00", "2023-05-06T07:50:30+00:00", "2023-05-06T07:54:38+00:00", "2023-05-06T07:56:38+00:00", "2023-05-06T07:58:38+00:00", "2023-05-06T08:00:30+00:00", "2023-05-06T08:03:38+00:00", "2023-05-06T08:05:38+00:00", "2023-05-06T08:08:38+00:00", "2023-05-06T08:11:39+00:00", "2023-05-06T08:12:44+00:00", "2023-05-06T08:16:39+00:00", "2023-05-06T08:19:39+00:00", "2023-05-06T08:21:39+00:00", "2023-05-06T08:23:39+00:00", "2023-05-06T08:26:39+00:00", "2023-05-06T08:29:39+00:00", "2023-05-06T08:32:39+00:00", "2023-05-06T08:35:39+00:00", "2023-05-06T08:38:39+00:00", "2023-05-06T08:41:39+00:00", "2023-05-06T08:43:41+00:00", "2023-05-06T08:45:41+00:00", "2023-05-06T08:47:38+00:00", "2023-05-06T08:49:41+00:00", "2023-05-06T08:51:41+00:00", "2023-05-06T08:54:41+00:00", "2023-05-06T08:57:08+00:00", "2023-05-06T08:59:41+00:00", "2023-05-06T09:02:41+00:00", "2023-05-06T09:04:41+00:00", "2023-05-06T09:06:41+00:00", "2023-05-06T09:09:10+00:00", "2023-05-06T09:10:30+00:00", "2023-05-06T09:13:41+00:00", "2023-05-06T09:15:41+00:00", "2023-05-06T09:18:41+00:00", "2023-05-06T09:20:30+00:00", "2023-05-06T09:22:41+00:00", "2023-05-06T09:24:49+00:00", "2023-05-06T09:27:42+00:00", "2023-05-06T09:29:26+00:00", "2023-05-06T09:31:43+00:00", "2023-05-06T09:34:43+00:00", "2023-05-06T09:37:43+00:00", "2023-05-06T09:40:08+00:00", "2023-05-06T09:41:43+00:00", "2023-05-06T09:44:43+00:00", "2023-05-06T09:47:43+00:00", "2023-05-06T09:50:43+00:00", "2023-05-06T09:52:41+00:00", "2023-05-06T09:55:41+00:00", "2023-05-06T09:57:32+00:00", "2023-05-06T09:59:41+00:00", "2023-05-06T10:01:41+00:00", "2023-05-06T10:03:41+00:00", "2023-05-06T10:05:40+00:00", "2023-05-06T10:07:50+00:00", "2023-05-06T10:10:30+00:00", "2023-05-06T10:12:42+00:00", "2023-05-06T10:14:20+00:00", "2023-05-06T10:16:00+00:00", "2023-05-06T10:18:01+00:00", "2023-05-06T10:19:42+00:00", "2023-05-06T10:22:47+00:00", "2023-05-06T10:24:42+00:00", "2023-05-06T10:26:47+00:00", "2023-05-06T10:29:47+00:00", "2023-05-06T10:31:19+00:00", "2023-05-06T10:33:31+00:00", "2023-05-06T10:36:41+00:00", "2023-05-06T10:39:45+00:00", "2023-05-06T10:41:45+00:00", "2023-05-06T10:44:45+00:00", "2023-05-06T10:47:46+00:00", "2023-05-06T10:50:45+00:00", "2023-05-06T10:53:26+00:00", "2023-05-06T10:55:47+00:00", "2023-05-06T10:58:53+00:00", "2023-05-06T11:01:52+00:00", "2023-05-06T11:04:47+00:00", "2023-05-06T11:07:47+00:00", "2023-05-06T11:10:45+00:00", "2023-05-06T11:12:48+00:00", "2023-05-06T11:15:48+00:00", "2023-05-06T11:19:27+00:00", "2023-05-06T11:22:07+00:00", "2023-05-06T11:24:48+00:00", "2023-05-06T11:28:49+00:00", "2023-05-06T11:32:49+00:00", "2023-05-06T11:35:38+00:00", "2023-05-06T11:37:50+00:00", "2023-05-06T11:39:31+00:00", "2023-05-06T11:42:50+00:00", "2023-05-06T11:44:50+00:00", "2023-05-06T11:47:56+00:00", "2023-05-06T11:51:01+00:00", "2023-05-06T11:54:50+00:00", "2023-05-06T11:58:29+00:00", "2023-05-06T12:00:45+00:00", "2023-05-06T12:03:50+00:00", "2023-05-06T12:05:51+00:00", "2023-05-06T12:08:51+00:00", "2023-05-06T12:11:51+00:00", "2023-05-06T12:15:17+00:00", "2023-05-06T12:17:51+00:00", "2023-05-06T12:21:05+00:00", "2023-05-06T12:24:52+00:00", "2023-05-06T12:26:52+00:00", "2023-05-06T12:29:52+00:00", "2023-05-06T12:32:52+00:00", "2023-05-06T12:35:52+00:00", "2023-05-06T12:38:52+00:00", "2023-05-06T12:42:52+00:00", "2023-05-06T12:46:50+00:00", "2023-05-06T12:49:52+00:00", "2023-05-06T12:52:54+00:00", "2023-05-06T12:55:54+00:00", "2023-05-06T12:58:49+00:00", "2023-05-06T13:01:54+00:00", "2023-05-06T13:03:54+00:00", "2023-05-06T13:06:54+00:00", "2023-05-06T13:09:54+00:00", "2023-05-06T13:12:55+00:00", "2023-05-06T13:15:56+00:00", "2023-05-06T13:18:56+00:00", "2023-05-06T13:21:56+00:00", "2023-05-06T13:24:58+00:00", "2023-05-06T13:29:21+00:00", "2023-05-06T13:31:23+00:00", "2023-05-06T13:33:54+00:00", "2023-05-06T13:36:55+00:00", "2023-05-06T13:38:56+00:00", "2023-05-06T13:42:57+00:00", "2023-05-06T13:44:57+00:00", "2023-05-06T13:47:57+00:00", "2023-05-06T13:50:45+00:00", "2023-05-06T13:54:21+00:00", "2023-05-06T13:57:57+00:00", "2023-05-06T14:00:57+00:00", "2023-05-06T14:03:58+00:00", "2023-05-06T14:07:57+00:00", "2023-05-06T14:11:58+00:00", "2023-05-06T14:15:57+00:00", "2023-05-06T14:19:57+00:00", "2023-05-06T14:22:58+00:00", "2023-05-06T14:25:58+00:00", "2023-05-06T14:29:44+00:00", "2023-05-06T14:33:04+00:00", "2023-05-06T14:37:41+00:00", "2023-05-06T14:42:04+00:00", "2023-05-06T14:44:02+00:00", "2023-05-06T14:48:09+00:00", "2023-05-06T14:52:15+00:00", "2023-05-06T14:59:09+00:00", "2023-05-06T15:02:15+00:00", "2023-05-06T15:07:35+00:00", "2023-05-06T15:09:28+00:00", "2023-05-06T15:14:25+00:00", "2023-05-06T15:17:49+00:00", "2023-05-06T15:20:25+00:00", "2023-05-06T15:24:30+00:00", "2023-05-06T15:28:19+00:00", "2023-05-06T15:30:36+00:00", "2023-05-06T15:35:36+00:00", "2023-05-06T15:39:36+00:00", "2023-05-06T15:44:23+00:00", "2023-05-06T15:48:37+00:00", "2023-05-06T15:51:30+00:00", "2023-05-06T15:53:37+00:00", "2023-05-06T15:56:37+00:00", "2023-05-06T15:59:37+00:00", "2023-05-06T16:01:30+00:00", "2023-05-06T16:04:37+00:00", "2023-05-06T16:07:37+00:00", "2023-05-06T16:10:37+00:00", "2023-05-06T16:12:37+00:00", "2023-05-06T16:15:39+00:00", "2023-05-06T16:17:39+00:00", "2023-05-06T16:20:27+00:00", "2023-05-06T16:22:41+00:00", "2023-05-06T16:25:41+00:00", "2023-05-06T16:28:41+00:00", "2023-05-06T16:31:30+00:00", "2023-05-06T16:35:33+00:00", "2023-05-06T16:37:33+00:00", "2023-05-06T16:40:34+00:00", "2023-05-06T16:43:39+00:00", "2023-05-06T16:46:47+00:00", "2023-05-06T16:49:39+00:00", "2023-05-06T16:52:03+00:00", "2023-05-06T16:54:40+00:00", "2023-05-06T16:58:07+00:00", "2023-05-06T17:00:40+00:00", "2023-05-06T17:03:57+00:00", "2023-05-06T17:06:45+00:00", "2023-05-06T17:09:45+00:00", "2023-05-06T17:11:45+00:00", "2023-05-06T17:14:19+00:00", "2023-05-06T17:16:50+00:00", "2023-05-06T17:19:08+00:00", "2023-05-06T17:21:45+00:00", "2023-05-06T17:24:51+00:00", "2023-05-06T17:25:51+00:00", "2023-05-06T17:27:51+00:00", "2023-05-06T17:31:45+00:00", "2023-05-06T17:33:52+00:00", "2023-05-06T17:36:08+00:00", "2023-05-06T17:37:52+00:00", "2023-05-06T17:40:33+00:00", "2023-05-06T17:43:59+00:00", "2023-05-06T17:46:14+00:00", "2023-05-06T17:48:50+00:00", "2023-05-06T17:50:52+00:00", "2023-05-06T17:52:59+00:00", "2023-05-06T17:56:43+00:00", "2023-05-06T17:59:42+00:00", "2023-05-06T18:01:45+00:00", "2023-05-06T18:03:55+00:00", "2023-05-06T18:06:55+00:00", "2023-05-06T18:09:55+00:00", "2023-05-06T18:11:45+00:00", "2023-05-06T18:13:56+00:00", "2023-05-06T18:16:56+00:00", "2023-05-06T18:19:56+00:00", "2023-05-06T18:22:57+00:00", "2023-05-06T18:24:57+00:00", "2023-05-06T18:27:00+00:00", "2023-05-06T18:29:57+00:00", "2023-05-06T18:32:58+00:00", "2023-05-06T18:35:58+00:00", "2023-05-06T18:37:58+00:00", "2023-05-06T18:39:14+00:00", "2023-05-06T18:40:58+00:00", "2023-05-06T18:43:58+00:00", "2023-05-06T18:44:58+00:00", "2023-05-06T18:46:15+00:00", "2023-05-06T18:48:12+00:00", "2023-05-06T18:49:28+00:00", "2023-05-06T18:51:29+00:00", "2023-05-06T18:53:58+00:00", "2023-05-06T18:56:17+00:00", "2023-05-06T18:58:57+00:00", "2023-05-06T19:00:58+00:00", "2023-05-06T19:03:14+00:00", "2023-05-06T19:05:57+00:00", "2023-05-06T19:08:57+00:00", "2023-05-06T19:11:58+00:00", "2023-05-06T19:15:56+00:00", "2023-05-06T19:17:57+00:00", "2023-05-06T19:20:59+00:00", "2023-05-06T19:24:04+00:00", "2023-05-06T19:28:03+00:00", "2023-05-06T19:29:50+00:00", "2023-05-06T19:31:57+00:00", "2023-05-06T19:33:43+00:00", "2023-05-06T19:37:12+00:00", "2023-05-06T19:39:12+00:00", "2023-05-06T19:41:21+00:00", "2023-05-06T19:45:09+00:00", "2023-05-06T19:47:17+00:00", "2023-05-06T19:50:09+00:00", "2023-05-06T19:52:09+00:00", "2023-05-06T19:55:13+00:00", "2023-05-06T19:59:11+00:00", "2023-05-06T20:00:44+00:00", "2023-05-06T20:03:00+00:00", "2023-05-06T20:07:09+00:00", "2023-05-06T20:09:10+00:00", "2023-05-06T20:12:10+00:00", "2023-05-06T20:14:10+00:00", "2023-05-06T20:16:51+00:00", "2023-05-06T20:20:11+00:00", "2023-05-06T20:21:48+00:00", "2023-05-06T20:24:11+00:00", "2023-05-06T20:28:06+00:00", "2023-05-06T20:30:11+00:00", "2023-05-06T20:33:00+00:00", "2023-05-06T20:36:11+00:00", "2023-05-06T20:38:11+00:00", "2023-05-06T20:40:12+00:00", "2023-05-06T20:43:00+00:00", "2023-05-06T20:46:15+00:00", "2023-05-06T20:48:15+00:00", "2023-05-06T20:52:11+00:00", "2023-05-06T20:54:11+00:00", "2023-05-06T20:57:11+00:00", "2023-05-06T20:59:32+00:00", "2023-05-06T21:03:00+00:00", "2023-05-06T21:07:10+00:00", "2023-05-06T21:10:10+00:00", "2023-05-06T21:11:29+00:00", "2023-05-06T21:16:11+00:00", "2023-05-06T21:18:12+00:00", "2023-05-06T21:21:13+00:00", "2023-05-06T21:24:13+00:00", "2023-05-06T21:26:13+00:00", "2023-05-06T21:29:14+00:00", "2023-05-06T21:32:14+00:00", "2023-05-06T21:35:14+00:00", "2023-05-06T21:38:00+00:00", "2023-05-06T21:40:15+00:00", "2023-05-06T21:42:15+00:00", "2023-05-06T21:45:15+00:00", "2023-05-06T21:48:15+00:00", "2023-05-06T21:50:15+00:00", "2023-05-06T21:52:22+00:00", "2023-05-06T21:55:15+00:00", "2023-05-06T21:58:15+00:00", "2023-05-06T22:00:15+00:00", "2023-05-06T22:03:15+00:00", "2023-05-06T22:06:15+00:00", "2023-05-06T22:08:33+00:00", "2023-05-06T22:11:15+00:00", "2023-05-06T22:13:15+00:00", "2023-05-06T22:16:15+00:00", "2023-05-06T22:18:32+00:00", "2023-05-06T22:21:14+00:00", "2023-05-06T22:23:15+00:00", "2023-05-06T22:26:15+00:00", "2023-05-06T22:28:33+00:00", "2023-05-06T22:30:36+00:00", "2023-05-06T22:33:15+00:00", "2023-05-06T22:36:16+00:00", "2023-05-06T22:39:16+00:00", "2023-05-06T22:41:39+00:00", "2023-05-06T22:44:16+00:00", "2023-05-06T22:48:15+00:00", "2023-05-06T22:50:15+00:00", "2023-05-06T22:52:16+00:00", "2023-05-06T22:55:16+00:00", "2023-05-06T22:57:58+00:00", "2023-05-06T23:01:11+00:00", "2023-05-06T23:03:15+00:00", "2023-05-06T23:05:48+00:00", "2023-05-06T23:08:09+00:00", "2023-05-06T23:10:09+00:00", "2023-05-06T23:12:10+00:00", "2023-05-06T23:13:11+00:00", "2023-05-06T23:15:19+00:00", "2023-05-06T23:16:19+00:00", "2023-05-06T23:19:19+00:00", "2023-05-06T23:20:19+00:00", "2023-05-06T23:23:15+00:00", "2023-05-06T23:25:20+00:00", "2023-05-06T23:27:21+00:00", "2023-05-06T23:30:21+00:00", "2023-05-06T23:32:21+00:00", "2023-05-06T23:34:21+00:00", "2023-05-06T23:35:47+00:00", "2023-05-06T23:37:21+00:00", "2023-05-06T23:39:21+00:00", "2023-05-06T23:41:04+00:00", "2023-05-06T23:42:21+00:00", "2023-05-06T23:44:21+00:00", "2023-05-06T23:46:16+00:00", "2023-05-06T23:47:21+00:00", "2023-05-06T23:49:16+00:00", "2023-05-06T23:51:23+00:00"], "elevations": [8.0, 18.0, 2.0, 7.0, 10.5, 14.5, 13.0, 7.3, 11.0, 6.7, 8.0, 10.0, 10.0, 10.0, 10.7, 23.5, -5.0, 22.5, 8.5, 8.2, 7.5, 5.0, 18.5, 11.0, 7.2, 8.0, 7.0, 7.0, 7.0, 6.7, -7.5, 1.5, 5.0, 9.5, 10.2, 10.0, 10.0, 10.0, 9.2, 9.0, 9.0, 9.0, 9.0, 9.2, 10.0, 10.0, 10.0, 10.2, 10.0, 9.0, 9.0, 9.0, 8.7, 9.0, 9.0, 9.0, 9.0, 9.7, 10.0, 10.0, 10.0, 8.7, 11.0, 13.0, 11.0, 9.2, 9.5, 10.5, 9.5, 9.0, 9.0, 9.5, 10.0, 9.0, 9.0, 6.0, 12.0, 12.0, 12.0, 12.0, 12.0, 12.0, 12.0, 12.0, 12.0, 12.2, 21.0, 12.0, 13.0, 14.0, 14.0, 14.3, null, 14.5, 14.0, 23.0, 14.8, 15.0, 15.0, 15.0, 14.0, 14.0, 13.8, 12.5, 12.0, 10.0, 11.0, 10.7, 11.0, 10.5, 6.0, 7.0, 12.2, 1.5, 7.0, 8.0, 7.0, 7.0, 1.5, 11.3, 8.0, -2.5, -7.2, 5.0, 5.0, 7.0, 7.0, 8.0, 9.0, 10.0, 17.5, 7.0, 5.0, 4.7, 6.0, 9.0, 7.5, 6.5, 6.5, 8.2, 8.0, 8.0, 7.5, 8.0, 8.0, 8.4, 8.0, 9.0, 10.0, 13.0, 8.2, 9.0, 9.5, 10.0, 10.0, 10.5, 16.0, 9.0, 6.5, 6.0, 6.7, 6.5, 6.0, 6.5, 7.0, 11.2, 11.5, 13.0, 13.0, 13.0, 12.7, 13.5, 13.0, 13.0, 18.5, 18.8, 15.0, 16.5, 28.0, 20.5, 5.2, 5.0, 7.0, 3.5, 5.0, 6.8, 5.5, 7.5, 8.0, 8.5, 8.7, 9.0, 8.0, 7.0, 10.5, 12.2, 13.0, 14.0, 9.0, 10.0, 8.0, 10.0, 10.0, 13.0, 21.5, 13.5, 13.0, 21.7, 15.0, 7.7, 21.0, 10.5, 11.5, 18.8, 24.0, 24.0, 46.0, 57.6, 90.7, 130.0, null, null, null, null, null, null, null, null, null, null, null, null, null, null, null, null, null, null, null, null, null, null, null, null, null, null, null, null, null, null, null, null, null, null, null, null, null, null, null, null, null, null, null, null, null, null, null, null, null, null, null, null, null, null, null, null, null, null, null, null, null, null, null, null, null, null, null, null, null, null, null, null, null, null, null, null, null, null, null, null, null, null, null, null, null, null, null, null, null, null, null, null, null, null, null, null, null, null, null, null, null, null, null, null, null, null, null, null, null, null, null, null, null, null, null, null, null, null, null, null, null, null, null, null, null, null, null, null, null, null, null, null, null, null, null, null, null, null, null, null, null, null, null, null, null, null, null, null, null, null, null, null, null, null, null, null, null, null, null, null, null, null, null, null, 156.3, 129.0, null, null, null, null, null, null, null, null, null, null, null, null, null, null, null, null, null, null, null, null, null, null, null, null, null, null, null, null, null, null, null, null, null, null, null, null, null, null, null, null, null, null, null, null, null, null, null, null, null, null, null, null, null, null, null, null, null, null, null, null, null, null, null, null, null, null, null, null, null, null, null, null, null, null, null, null, null, null, null, null, null, null, null, null, null, null, null, null, null, null, null, null, null, null, null, null, null, null, null, null, null, null, null, null, null, null, null, null, null, null, null, null, null, null, null, null, null, null, null, null, null, null, null, null, null, null, null, null, null, null, null, null, null, null, null, null, null, null, null, null, null, null, null, null, null, null, null, null, null, null, null, null, null, null, null, null, null, null, null, null, null, null, null, null, null, null, null, null, null, null, null, null, null, null, null, null, null, null, null, null, null, null, null, null, null, null, null, null, null, null, null, null, null, null, null, null, null, null, null, null, null, null, null, null, null, null, null, null, null, null, null, null, null, null, null, null, null, null, null, null, null, null, null, null, null, null, null, null, null, null]}