{"type": "Feature", "properties": {"leg_id": 68, "name": "20231101 - Geraldton to Fremantle", "stated_nm": 263.6, "computed_nm": 263.6}, "geometry": {"type": "LineString", "coordinates": [[114.603444, -28.767278], [114.598117, -28.757507], [114.595977, -28.754626], [114.592007, -28.753064], [114.586228, -28.752393], [114.57931, -28.753965], [114.56855, -28.757367], [114.565109, -28.759287], [114.559577, -28.767373], [114.558925, -28.770671], [114.559192, -28.783197], [114.55871, -28.788432], [114.558437, -28.794282], [114.560092, -28.803645], [114.560887, -28.809557], [114.562073, -28.819868], [114.562427, -28.822266], [114.56373, -28.826797], [114.565133, -28.83036], [114.566897, -28.834498], [114.568198, -28.837827], [114.569901, -28.842442], [114.572073, -28.847113], [114.571619, -28.844765], [114.569603, -28.841111], [114.56978, -28.84277], [114.570247, -28.842712], [114.567173, -28.833748], [114.565143, -28.828521], [114.563566, -28.822483], [114.562498, -28.816918], [114.560783, -28.808035], [114.559545, -28.800825], [114.558628, -28.794437], [114.558024, -28.789891], [114.557588, -28.786597], [114.558135, -28.769062], [114.559948, -28.764087], [114.562678, -28.760833], [114.566132, -28.759032], [114.571084, -28.757223], [114.578553, -28.754836], [114.585638, -28.753198], [114.589553, -28.753187], [114.596042, -28.756331], [114.598757, -28.759625], [114.602148, -28.766762], [114.604042, -28.769381], [114.604319, -28.771963], [114.604005, -28.7733], [114.604016, -28.773368], [114.604472, -28.769402], [114.604047, -28.767034], [114.603387, -28.764963], [114.602464, -28.761111], [114.600001, -28.75581], [114.598149, -28.753573], [114.5913, -28.750632], [114.588589, -28.750157], [114.586068, -28.75008], [114.567792, -28.75453], [114.566472, -28.755471], [114.563823, -28.757716], [114.562394, -28.760317], [114.561953, -28.761252], [114.559038, -28.77222], [114.558219, -28.776055], [114.556402, -28.785875], [114.554895, -28.797515], [114.554636, -28.800027], [114.554343, -28.803779], [114.554074, -28.807406], [114.552923, -28.816908], [114.552523, -28.821607], [114.552385, -28.826933], [114.552495, -28.830213], [114.551336, -28.834159], [114.54967, -28.837892], [114.547589, -28.842917], [114.546377, -28.846716], [114.546398, -28.848471], [114.546416, -28.850586], [114.544342, -28.853037], [114.541312, -28.857755], [114.535137, -28.868127], [114.53368, -28.872217], [114.530318, -28.884575], [114.527215, -28.896183], [114.526315, -28.899206], [114.524788, -28.904778], [114.52347, -28.909681], [114.522513, -28.912674], [114.520075, -28.921117], [114.519328, -28.925782], [114.518857, -28.930347], [114.518448, -28.937158], [114.517757, -28.945433], [114.516458, -28.9654], [114.516219, -28.967935], [114.517792, -28.977867], [114.519507, -28.98494], [114.525633, -29.007805], [114.52651, -29.011309], [114.529055, -29.020562], [114.531018, -29.028013], [114.532717, -29.033708], [114.535327, -29.04376], [114.536833, -29.056878], [114.539153, -29.079178], [114.539515, -29.081667], [114.540156, -29.086734], [114.540797, -29.091794], [114.542653, -29.106305], [114.542974, -29.110151], [114.544127, -29.128713], [114.544193, -29.131274], [114.545005, -29.144492], [114.547672, -29.155718], [114.548476, -29.158771], [114.553945, -29.18169], [114.556863, -29.193128], [114.55694, -29.193707], [114.559017, -29.202577], [114.559182, -29.205161], [114.559432, -29.211934], [114.559479, -29.216383], [114.559549, -29.219068], [114.559635, -29.222792], [114.55965, -29.226977], [114.559664, -29.229632], [114.559953, -29.241092], [114.559822, -29.246105], [114.559863, -29.248711], [114.559903, -29.250267], [114.560048, -29.254393], [114.560101, -29.255973], [114.560125, -29.25916], [114.560925, -29.272343], [114.561177, -29.281432], [114.561372, -29.284035], [114.561531, -29.287434], [114.561707, -29.290168], [114.561808, -29.294328], [114.561708, -29.296652], [114.562045, -29.299685], [114.563193, -29.303356], [114.564483, -29.307677], [114.567082, -29.319795], [114.567855, -29.322942], [114.568196, -29.324518], [114.569015, -29.329493], [114.569178, -29.331899], [114.569427, -29.33842], [114.570092, -29.344452], [114.570482, -29.349871], [114.570439, -29.351965], [114.570401, -29.354901], [114.57037, -29.356549], [114.570643, -29.3596], [114.570784, -29.361141], [114.57129, -29.363459], [114.57186, -29.366276], [114.572166, -29.368002], [114.5725, -29.370519], [114.572758, -29.372982], [114.573208, -29.375543], [114.57346, -29.377208], [114.574187, -29.381018], [114.574805, -29.384722], [114.575328, -29.38732], [114.575524, -29.389511], [114.575813, -29.39377], [114.575793, -29.397843], [114.575917, -29.399741], [114.576672, -29.4052], [114.576829, -29.406608], [114.577081, -29.408481], [114.57761, -29.411745], [114.578103, -29.414761], [114.578474, -29.41839], [114.578684, -29.421304], [114.578719, -29.427932], [114.578694, -29.429602], [114.578406, -29.431518], [114.578386, -29.43461], [114.578376, -29.437213], [114.578246, -29.439507], [114.578517, -29.443568], [114.578921, -29.446579], [114.579364, -29.45034], [114.579673, -29.454327], [114.579967, -29.458877], [114.580449, -29.4625], [114.580985, -29.465369], [114.581717, -29.470122], [114.581742, -29.471789], [114.58176, -29.47984], [114.581641, -29.481842], [114.581203, -29.48915], [114.581259, -29.490518], [114.581303, -29.4956], [114.581326, -29.498714], [114.581407, -29.503182], [114.581298, -29.507252], [114.581123, -29.50895], [114.580779, -29.511716], [114.580531, -29.515068], [114.580335, -29.516898], [114.5801, -29.518381], [114.579622, -29.520527], [114.579223, -29.522192], [114.57834, -29.526371], [114.578063, -29.52832], [114.577656, -29.531557], [114.57753, -29.532863], [114.577313, -29.535152], [114.576804, -29.538867], [114.576392, -29.540866], [114.575935, -29.54255], [114.574718, -29.547943], [114.574044, -29.551982], [114.573563, -29.5546], [114.57218, -29.560878], [114.5713, -29.56389], [114.567317, -29.573262], [114.566553, -29.575297], [114.565667, -29.57844], [114.564222, -29.583107], [114.563845, -29.585507], [114.563554, -29.589314], [114.563268, -29.591844], [114.562959, -29.59349], [114.562051, -29.596492], [114.56074, -29.600915], [114.559994, -29.603195], [114.558673, -29.606192], [114.558088, -29.607759], [114.55703, -29.610962], [114.555651, -29.615886], [114.554736, -29.618018], [114.553647, -29.620564], [114.552712, -29.622217], [114.550982, -29.6248], [114.550002, -29.626006], [114.548431, -29.628128], [114.545934, -29.631646], [114.544833, -29.633484], [114.542758, -29.638018], [114.54235, -29.639037], [114.541642, -29.640821], [114.540487, -29.643854], [114.539067, -29.646494], [114.537013, -29.6509], [114.535908, -29.653302], [114.533823, -29.659812], [114.533298, -29.662446], [114.53287, -29.664314], [114.53212, -29.666484], [114.531263, -29.668766], [114.530701, -29.670015], [114.529619, -29.673283], [114.529107, -29.675206], [114.528539, -29.676602], [114.527794, -29.677978], [114.527294, -29.68011], [114.526946, -29.681561], [114.526575, -29.683802], [114.526199, -29.685554], [114.525607, -29.688732], [114.524985, -29.691951], [114.524739, -29.693739], [114.524344, -29.69673], [114.523668, -29.699085], [114.523183, -29.70181], [114.522907, -29.703285], [114.522563, -29.704472], [114.522325, -29.707447], [114.522115, -29.708709], [114.521907, -29.710443], [114.521904, -29.713365], [114.521757, -29.714499], [114.521285, -29.717336], [114.52078, -29.718501], [114.520475, -29.719779], [114.520141, -29.721419], [114.519605, -29.72267], [114.51931, -29.72435], [114.519581, -29.726561], [114.519638, -29.728115], [114.519485, -29.729647], [114.519392, -29.731884], [114.519046, -29.73313], [114.519043, -29.734921], [114.519047, -29.736916], [114.519207, -29.739113], [114.519235, -29.741169], [114.519456, -29.744699], [114.51955, -29.746073], [114.519336, -29.747429], [114.519307, -29.748965], [114.519108, -29.750368], [114.519172, -29.752773], [114.519238, -29.754405], [114.519537, -29.756512], [114.519531, -29.757727], [114.520213, -29.758855], [114.521612, -29.759564], [114.522241, -29.761742], [114.522294, -29.763673], [114.52259, -29.766701], [114.522914, -29.768039], [114.523207, -29.770142], [114.523422, -29.771612], [114.523608, -29.773032], [114.523577, -29.774327], [114.523595, -29.775611], [114.523821, -29.77711], [114.524288, -29.77931], [114.524719, -29.781073], [114.525103, -29.783067], [114.525429, -29.785316], [114.525823, -29.78779], [114.525848, -29.789496], [114.526868, -29.793755], [114.527289, -29.796772], [114.527373, -29.798522], [114.52773, -29.802482], [114.528207, -29.804719], [114.528769, -29.807463], [114.529143, -29.809571], [114.529516, -29.81158], [114.530308, -29.817168], [114.530826, -29.819085], [114.531467, -29.822083], [114.531747, -29.82435], [114.533495, -29.835323], [114.533713, -29.83722], [114.534, -29.841087], [114.534788, -29.847708], [114.534753, -29.848138], [114.536657, -29.8569], [114.53821, -29.863142], [114.540715, -29.869802], [114.541363, -29.872233], [114.541928, -29.874468], [114.542749, -29.877806], [114.543489, -29.879934], [114.545037, -29.884652], [114.546198, -29.887799], [114.547047, -29.890903], [114.547836, -29.893838], [114.548818, -29.896795], [114.549508, -29.899171], [114.550712, -29.902563], [114.551945, -29.905934], [114.552905, -29.909199], [114.553091, -29.910595], [114.553121, -29.912142], [114.55344, -29.91357], [114.552267, -29.915209], [114.550181, -29.917498], [114.548936, -29.919425], [114.546908, -29.921936], [114.544697, -29.924882], [114.541573, -29.929397], [114.540081, -29.931553], [114.538196, -29.934476], [114.536807, -29.936924], [114.534985, -29.940537], [114.533989, -29.942263], [114.533186, -29.944894], [114.532271, -29.949189], [114.531618, -29.952415], [114.530618, -29.954261], [114.5282, -29.95781], [114.526537, -29.961036], [114.525452, -29.963003], [114.523938, -29.965699], [114.522654, -29.967746], [114.520212, -29.971528], [114.519608, -29.973111], [114.51695, -29.979702], [114.515708, -29.984202], [114.515058, -29.987123], [114.513868, -29.991538], [114.511762, -30.000302], [114.510775, -30.005043], [114.508598, -30.01383], [114.506727, -30.022343], [114.50617, -30.025412], [114.505375, -30.028848], [114.504928, -30.031433], [114.503243, -30.039233], [114.500795, -30.053742], [114.499517, -30.062807], [114.498047, -30.071718], [114.497957, -30.072641], [114.495947, -30.08443], [114.495481, -30.088327], [114.49413, -30.09816], [114.492408, -30.106778], [114.489865, -30.118217], [114.489154, -30.121871], [114.488383, -30.126317], [114.488509, -30.130571], [114.489942, -30.142065], [114.490715, -30.146908], [114.493187, -30.159465], [114.497305, -30.178173], [114.497672, -30.179539], [114.500027, -30.190163], [114.500923, -30.193593], [114.504038, -30.206863], [114.505565, -30.21354], [114.507543, -30.221133], [114.508735, -30.225093], [114.510943, -30.234058], [114.51159, -30.236358], [114.516718, -30.25594], [114.51938, -30.266795], [114.52192, -30.2761], [114.522795, -30.278892], [114.526917, -30.293508], [114.527612, -30.295804], [114.528921, -30.3004], [114.530219, -30.304936], [114.531748, -30.310382], [114.535602, -30.323592], [114.536829, -30.327934], [114.53858, -30.333865], [114.539522, -30.337068], [114.544527, -30.353902], [114.551235, -30.377177], [114.554748, -30.388475], [114.555736, -30.391084], [114.558955, -30.400183], [114.568058, -30.428195], [114.573113, -30.441802], [114.577777, -30.455048], [114.583855, -30.471542], [114.58511, -30.475129], [114.587018, -30.480767], [114.588483, -30.485027], [114.59499, -30.503952], [114.595513, -30.505175], [114.598882, -30.51445], [114.604373, -30.527892], [114.605206, -30.530365], [114.608033, -30.537793], [114.611623, -30.547947], [114.612179, -30.549107], [114.616715, -30.561487], [114.617515, -30.563247], [114.620322, -30.570037], [114.622007, -30.574707], [114.624252, -30.580073], [114.625013, -30.58211], [114.62608, -30.584503], [114.62854, -30.591213], [114.63133, -30.597867], [114.63384, -30.60326], [114.635089, -30.606253], [114.636894, -30.610842], [114.641072, -30.62116], [114.641895, -30.622792], [114.643502, -30.626089], [114.644625, -30.628298], [114.64731, -30.634752], [114.648055, -30.636833], [114.651795, -30.64562], [114.652459, -30.646971], [114.653823, -30.650028], [114.658532, -30.662127], [114.659336, -30.664537], [114.661181, -30.669576], [114.662899, -30.673675], [114.663999, -30.676256], [114.666272, -30.681328], [114.668637, -30.687192], [114.669212, -30.688347], [114.672017, -30.695532], [114.674575, -30.701597], [114.676898, -30.709747], [114.677577, -30.711673], [114.680293, -30.721272], [114.683122, -30.733012], [114.683516, -30.734985], [114.685928, -30.744947], [114.686782, -30.747766], [114.687842, -30.751743], [114.688675, -30.754646], [114.689751, -30.75953], [114.690525, -30.763197], [114.692995, -30.772085], [114.694365, -30.776337], [114.699113, -30.794382], [114.699531, -30.796216], [114.700502, -30.799745], [114.701447, -30.8038], [114.702748, -30.808567], [114.703267, -30.811257], [114.705765, -30.82079], [114.706723, -30.823702], [114.709385, -30.834063], [114.711813, -30.842845], [114.712406, -30.845283], [114.713932, -30.8499], [114.716132, -30.857927], [114.717037, -30.860956], [114.717934, -30.864413], [114.718709, -30.866687], [114.71936, -30.869137], [114.719937, -30.87318], [114.722813, -30.886848], [114.72319, -30.888171], [114.723692, -30.891573], [114.724025, -30.895092], [114.72422, -30.899303], [114.724369, -30.900894], [114.724654, -30.904226], [114.724806, -30.909404], [114.726673, -30.919338], [114.727975, -30.923176], [114.728719, -30.924576], [114.729231, -30.926737], [114.730422, -30.928948], [114.744052, -30.950238], [114.754865, -30.9665], [114.75587, -30.967835], [114.765983, -30.982847], [114.76695, -30.984033], [114.769623, -30.988037], [114.77405, -30.994393], [114.774775, -30.995263], [114.780523, -31.003763], [114.781617, -31.005049], [114.783185, -31.006699], [114.784984, -31.009176], [114.787203, -31.011936], [114.789368, -31.014867], [114.791659, -31.017773], [114.79267, -31.019288], [114.794474, -31.021918], [114.797338, -31.025455], [114.799177, -31.028152], [114.800865, -31.029797], [114.80328, -31.032084], [114.805005, -31.034078], [114.807772, -31.03848], [114.818378, -31.05486], [114.825288, -31.064822], [114.833577, -31.077497], [114.835542, -31.080744], [114.840978, -31.089308], [114.847002, -31.099593], [114.854602, -31.112005], [114.862892, -31.126233], [114.876322, -31.148172], [114.87645, -31.149361], [114.8774, -31.15178], [114.885912, -31.165327], [114.893753, -31.178182], [114.895696, -31.181493], [114.912792, -31.209592], [114.92383, -31.227983], [114.93103, -31.240245], [114.940885, -31.256525], [114.942511, -31.259071], [114.948405, -31.268687], [114.95172, -31.274495], [114.957928, -31.286082], [114.959613, -31.28904], [114.972395, -31.3123], [114.98117, -31.328958], [114.988857, -31.343882], [114.994718, -31.354438], [114.996366, -31.357265], [115.006987, -31.376465], [115.011832, -31.385018], [115.017555, -31.39553], [115.019025, -31.398373], [115.030958, -31.419862], [115.037093, -31.430543], [115.04732, -31.449115], [115.053897, -31.461973], [115.059647, -31.472902], [115.060307, -31.475513], [115.064885, -31.487883], [115.072307, -31.508692], [115.073188, -31.511466], [115.078838, -31.528262], [115.086335, -31.549002], [115.089628, -31.558663], [115.096458, -31.577875], [115.100692, -31.589277], [115.104408, -31.599833], [115.111003, -31.61795], [115.118023, -31.63829], [115.118162, -31.638523], [115.121015, -31.64716], [115.123908, -31.65656], [115.125143, -31.660249], [115.130868, -31.680673], [115.131247, -31.681693], [115.134743, -31.693907], [115.135426, -31.696561], [115.136519, -31.700567], [115.137375, -31.702758], [115.139052, -31.705237], [115.143488, -31.712252], [115.145272, -31.714989], [115.148598, -31.720327], [115.151237, -31.724462], [115.158475, -31.73493], [115.161873, -31.739368], [115.165433, -31.744368], [115.174753, -31.75794], [115.175604, -31.759329], [115.178425, -31.763493], [115.180337, -31.765152], [115.18322, -31.76779], [115.184622, -31.768941], [115.19124, -31.77166], [115.196947, -31.775052], [115.200065, -31.777065], [115.20408, -31.779405], [115.206964, -31.781098], [115.215165, -31.78606], [115.219648, -31.78891], [115.221724, -31.790408], [115.224739, -31.792318], [115.229598, -31.795532], [115.233382, -31.797958], [115.236185, -31.799861], [115.242077, -31.803408], [115.245892, -31.805968], [115.25568, -31.812177], [115.258033, -31.813552], [115.260873, -31.81531], [115.263795, -31.817072], [115.266329, -31.818506], [115.268536, -31.819734], [115.271828, -31.821624], [115.276089, -31.824134], [115.285162, -31.829262], [115.287948, -31.830663], [115.293597, -31.833668], [115.297262, -31.835733], [115.298739, -31.836518], [115.305542, -31.840105], [115.306919, -31.84079], [115.314155, -31.844555], [115.316197, -31.845427], [115.326918, -31.850987], [115.328017, -31.851512], [115.333762, -31.854567], [115.340543, -31.858015], [115.345033, -31.860123], [115.351077, -31.863172], [115.353885, -31.864705], [115.35958, -31.867567], [115.363777, -31.869815], [115.36723, -31.871428], [115.381108, -31.878728], [115.383511, -31.879872], [115.391378, -31.88386], [115.400387, -31.888822], [115.402998, -31.890123], [115.406268, -31.891915], [115.415253, -31.8966], [115.422427, -31.900147], [115.428125, -31.903232], [115.431026, -31.904608], [115.440627, -31.90919], [115.442799, -31.910375], [115.44993, -31.913837], [115.461447, -31.920302], [115.463499, -31.921322], [115.467217, -31.923414], [115.478632, -31.929845], [115.480969, -31.931075], [115.484748, -31.932991], [115.488193, -31.93477], [115.491776, -31.936612], [115.494477, -31.938031], [115.499543, -31.940923], [115.50373, -31.94308], [115.506126, -31.944207], [115.508688, -31.945569], [115.511483, -31.94719], [115.515114, -31.949063], [115.517069, -31.950138], [115.520401, -31.951793], [115.531413, -31.95711], [115.535922, -31.959098], [115.539552, -31.961044], [115.543346, -31.962947], [115.546045, -31.964276], [115.554257, -31.968367], [115.557529, -31.969887], [115.562766, -31.972409], [115.566229, -31.973871], [115.575148, -31.97813], [115.584107, -31.982348], [115.589198, -31.98559], [115.597798, -31.990825], [115.60216, -31.9938], [115.60427, -31.99555], [115.613243, -31.999337], [115.622365, -32.002913], [115.625585, -32.004342], [115.63469, -32.007952], [115.6376, -32.009441], [115.641915, -32.012101], [115.647097, -32.015416], [115.652338, -32.018544], [115.664062, -32.0256], [115.667438, -32.027577], [115.673349, -32.031124], [115.683705, -32.03719], [115.68821, -32.039615], [115.709445, -32.051725], [115.71213, -32.05316], [115.715378, -32.055247], [115.717375, -32.056867], [115.723397, -32.060675], [115.726759, -32.063254], [115.728868, -32.064434], [115.731084, -32.064833], [115.735417, -32.065043], [115.738466, -32.064964], [115.741998, -32.064521], [115.743633, -32.065544], [115.745455, -32.066697], [115.747286, -32.066823], [115.748461, -32.068216], [115.748944, -32.068392], [115.746501, -32.066628], [115.744881, -32.066576], [115.743615, -32.06504], [115.742452, -32.064559], [115.740101, -32.066714], [115.737922, -32.069312], [115.735747, -32.071646], [115.733064, -32.074088], [115.729633, -32.07699], [115.726936, -32.07906], [115.724164, -32.081355], [115.721905, -32.082999], [115.718418, -32.085328], [115.71597, -32.087339], [115.71398, -32.088607], [115.712263, -32.089666], [115.711406, -32.091311], [115.713079, -32.090765], [115.716285, -32.087513], [115.716521, -32.086138], [115.71691, -32.084677], [115.718308, -32.082767], [115.719056, -32.081444], [115.720398, -32.080603], [115.722159, -32.079687], [115.724249, -32.078308], [115.725531, -32.077629], [115.726955, -32.076352], [115.728623, -32.075587], [115.730787, -32.074658], [115.73237, -32.073664], [115.734315, -32.072316], [115.735746, -32.070945], [115.737074, -32.069767], [115.739682, -32.068474], [115.740459, -32.066534], [115.741388, -32.064011], [115.742561, -32.06426], [115.743751, -32.066105], [115.744953, -32.067057], [115.746285, -32.066738], [115.747744, -32.067188], [115.749085, -32.068584], [115.748373, -32.067873], [115.746036, -32.066579], [115.743975, -32.06573], [115.742839, -32.064416], [115.741373, -32.065192], [115.740142, -32.066829], [115.732853, -32.07324], [115.730839, -32.075295], [115.727676, -32.078764], [115.71431, -32.092235], [115.713828, -32.09289], [115.706758, -32.104662], [115.705673, -32.106652], [115.701187, -32.113542], [115.69915, -32.114147], [115.697548, -32.114981], [115.696995, -32.116773], [115.695851, -32.120416], [115.694316, -32.124361], [115.692731, -32.128431], [115.690919, -32.133597], [115.692185, -32.14152], [115.698313, -32.157083], [115.70234, -32.168305], [115.703534, -32.172004], [115.710162, -32.190667], [115.711834, -32.194868], [115.716907, -32.206843], [115.718477, -32.210732], [115.72145, -32.217357], [115.725038, -32.226392], [115.727467, -32.240713], [115.727285, -32.242535], [115.726688, -32.246711], [115.725688, -32.257027], [115.725342, -32.259218], [115.724393, -32.267702], [115.724071, -32.271976], [115.723637, -32.27326], [115.723446, -32.273954]]}, "times": ["2023-11-01T20:52:52+00:00", "2023-11-01T20:59:25+00:00", "2023-11-01T21:01:42+00:00", "2023-11-01T21:05:46+00:00", "2023-11-01T21:07:59+00:00", "2023-11-01T21:12:15+00:00", "2023-11-01T21:19:48+00:00", "2023-11-01T21:22:33+00:00", "2023-11-01T21:30:25+00:00", "2023-11-01T21:35:26+00:00", "2023-11-01T21:45:33+00:00", "2023-11-01T21:50:10+00:00", "2023-11-01T21:55:27+00:00", "2023-11-01T22:05:00+00:00", "2023-11-01T22:10:49+00:00", "2023-11-01T22:21:11+00:00", "2023-11-01T22:24:59+00:00", "2023-11-01T22:29:20+00:00", "2023-11-01T22:34:53+00:00", "2023-11-01T22:38:16+00:00", "2023-11-01T22:44:15+00:00", "2023-11-01T22:48:59+00:00", "2023-11-01T22:52:44+00:00", "2023-11-01T22:53:28+00:00", "2023-11-01T22:57:01+00:00", "2023-11-01T22:59:17+00:00", "2023-11-01T23:00:05+00:00", "2023-11-01T23:05:42+00:00", "2023-11-01T23:10:07+00:00", "2023-11-01T23:14:15+00:00", "2023-11-01T23:18:12+00:00", "2023-11-01T23:23:04+00:00", "2023-11-01T23:28:01+00:00", "2023-11-01T23:32:38+00:00", "2023-11-01T23:36:47+00:00", "2023-11-01T23:37:43+00:00", "2023-11-01T23:49:25+00:00", "2023-11-01T23:53:30+00:00", "2023-11-01T23:57:11+00:00", "2023-11-01T23:59:35+00:00", "2023-11-02T00:03:47+00:00", "2023-11-02T00:09:04+00:00", "2023-11-02T00:14:00+00:00", "2023-11-02T00:15:45+00:00", "2023-11-02T00:22:30+00:00", "2023-11-02T00:26:18+00:00", "2023-11-02T00:31:23+00:00", "2023-11-02T00:34:27+00:00", "2023-11-02T00:36:36+00:00", "2023-11-02T02:03:44+00:00", "2023-11-02T23:52:10+00:00", "2023-11-03T06:09:56+00:00", "2023-11-03T06:12:20+00:00", "2023-11-03T06:12:48+00:00", "2023-11-03T06:17:40+00:00", "2023-11-03T06:19:28+00:00", "2023-11-03T06:22:37+00:00", "2023-11-03T06:27:13+00:00", "2023-11-03T06:30:01+00:00", "2023-11-03T06:30:29+00:00", "2023-11-03T06:41:00+00:00", "2023-11-03T06:42:08+00:00", "2023-11-03T06:44:09+00:00", "2023-11-03T06:45:13+00:00", "2023-11-03T06:46:05+00:00", "2023-11-03T06:53:07+00:00", "2023-11-03T06:58:09+00:00", "2023-11-03T07:02:19+00:00", "2023-11-03T07:10:36+00:00", "2023-11-03T07:14:30+00:00", "2023-11-03T07:16:59+00:00", "2023-11-03T07:20:32+00:00", "2023-11-03T07:25:09+00:00", "2023-11-03T07:28:53+00:00", "2023-11-03T07:34:14+00:00", "2023-11-03T07:38:04+00:00", "2023-11-03T07:42:09+00:00", "2023-11-03T07:48:07+00:00", "2023-11-03T07:54:19+00:00", "2023-11-03T07:57:08+00:00", "2023-11-03T07:58:08+00:00", "2023-11-03T08:02:48+00:00", "2023-11-03T08:05:33+00:00", "2023-11-03T08:08:25+00:00", "2023-11-03T08:15:15+00:00", "2023-11-03T08:20:04+00:00", "2023-11-03T08:25:21+00:00", "2023-11-03T08:32:54+00:00", "2023-11-03T08:37:06+00:00", "2023-11-03T08:40:30+00:00", "2023-11-03T08:43:26+00:00", "2023-11-03T08:44:02+00:00", "2023-11-03T08:48:41+00:00", "2023-11-03T08:51:09+00:00", "2023-11-03T08:53:34+00:00", "2023-11-03T08:57:30+00:00", "2023-11-03T09:02:51+00:00", "2023-11-03T09:15:29+00:00", "2023-11-03T09:18:30+00:00", "2023-11-03T09:22:58+00:00", "2023-11-03T09:27:05+00:00", "2023-11-03T09:41:14+00:00", "2023-11-03T09:45:39+00:00", "2023-11-03T09:49:19+00:00", "2023-11-03T09:54:12+00:00", "2023-11-03T09:58:13+00:00", "2023-11-03T10:05:06+00:00", "2023-11-03T10:13:46+00:00", "2023-11-03T10:28:43+00:00", "2023-11-03T10:32:23+00:00", "2023-11-03T10:36:03+00:00", "2023-11-03T10:39:52+00:00", "2023-11-03T10:49:01+00:00", "2023-11-03T10:54:46+00:00", "2023-11-03T11:07:00+00:00", "2023-11-03T11:10:00+00:00", "2023-11-03T11:18:45+00:00", "2023-11-03T11:28:12+00:00", "2023-11-03T11:32:44+00:00", "2023-11-03T11:45:42+00:00", "2023-11-03T11:52:32+00:00", "2023-11-03T11:53:00+00:00", "2023-11-03T11:57:53+00:00", "2023-11-03T12:00:49+00:00", "2023-11-03T12:02:13+00:00", "2023-11-03T12:06:21+00:00", "2023-11-03T12:07:37+00:00", "2023-11-03T12:08:30+00:00", "2023-11-03T12:12:26+00:00", "2023-11-03T12:13:42+00:00", "2023-11-03T12:19:51+00:00", "2023-11-03T12:22:31+00:00", "2023-11-03T12:24:03+00:00", "2023-11-03T12:24:51+00:00", "2023-11-03T12:26:59+00:00", "2023-11-03T12:28:23+00:00", "2023-11-03T12:29:48+00:00", "2023-11-03T12:37:41+00:00", "2023-11-03T12:42:58+00:00", "2023-11-03T12:45:48+00:00", "2023-11-03T12:46:28+00:00", "2023-11-03T12:47:44+00:00", "2023-11-03T12:50:01+00:00", "2023-11-03T12:51:21+00:00", "2023-11-03T12:52:09+00:00", "2023-11-03T12:55:25+00:00", "2023-11-03T12:59:14+00:00", "2023-11-03T13:04:14+00:00", "2023-11-03T13:05:58+00:00", "2023-11-03T13:07:23+00:00", "2023-11-03T13:09:51+00:00", "2023-11-03T13:11:15+00:00", "2023-11-03T13:14:44+00:00", "2023-11-03T13:18:08+00:00", "2023-11-03T13:21:21+00:00", "2023-11-03T13:23:01+00:00", "2023-11-03T13:23:49+00:00", "2023-11-03T13:25:13+00:00", "2023-11-03T13:26:25+00:00", "2023-11-03T13:27:14+00:00", "2023-11-03T13:28:46+00:00", "2023-11-03T13:30:02+00:00", "2023-11-03T13:30:50+00:00", "2023-11-03T13:32:30+00:00", "2023-11-03T13:33:19+00:00", "2023-11-03T13:35:23+00:00", "2023-11-03T13:35:47+00:00", "2023-11-03T13:38:04+00:00", "2023-11-03T13:40:16+00:00", "2023-11-03T13:41:24+00:00", "2023-11-03T13:43:12+00:00", "2023-11-03T13:45:16+00:00", "2023-11-03T13:47:32+00:00", "2023-11-03T13:48:49+00:00", "2023-11-03T13:51:37+00:00", "2023-11-03T13:52:17+00:00", "2023-11-03T13:53:33+00:00", "2023-11-03T13:54:53+00:00", "2023-11-03T13:57:25+00:00", "2023-11-03T13:58:37+00:00", "2023-11-03T14:01:34+00:00", "2023-11-03T14:03:30+00:00", "2023-11-03T14:04:38+00:00", "2023-11-03T14:05:46+00:00", "2023-11-03T14:07:34+00:00", "2023-11-03T14:08:55+00:00", "2023-11-03T14:10:47+00:00", "2023-11-03T14:12:11+00:00", "2023-11-03T14:13:11+00:00", "2023-11-03T14:16:47+00:00", "2023-11-03T14:19:48+00:00", "2023-11-03T14:22:04+00:00", "2023-11-03T14:24:09+00:00", "2023-11-03T14:25:09+00:00", "2023-11-03T14:27:29+00:00", "2023-11-03T14:28:25+00:00", "2023-11-03T14:33:01+00:00", "2023-11-03T14:34:09+00:00", "2023-11-03T14:38:02+00:00", "2023-11-03T14:38:22+00:00", "2023-11-03T14:42:10+00:00", "2023-11-03T14:44:46+00:00", "2023-11-03T14:47:10+00:00", "2023-11-03T14:48:14+00:00", "2023-11-03T14:48:54+00:00", "2023-11-03T14:50:38+00:00", "2023-11-03T14:52:15+00:00", "2023-11-03T14:53:31+00:00", "2023-11-03T14:54:19+00:00", "2023-11-03T14:55:27+00:00", "2023-11-03T14:56:23+00:00", "2023-11-03T14:58:27+00:00", "2023-11-03T15:00:03+00:00", "2023-11-03T15:01:23+00:00", "2023-11-03T15:02:16+00:00", "2023-11-03T15:03:48+00:00", "2023-11-03T15:05:20+00:00", "2023-11-03T15:06:36+00:00", "2023-11-03T15:07:45+00:00", "2023-11-03T15:10:45+00:00", "2023-11-03T15:12:58+00:00", "2023-11-03T15:15:14+00:00", "2023-11-03T15:18:22+00:00", "2023-11-03T15:20:14+00:00", "2023-11-03T15:26:44+00:00", "2023-11-03T15:28:36+00:00", "2023-11-03T15:29:56+00:00", "2023-11-03T15:33:01+00:00", "2023-11-03T15:33:53+00:00", "2023-11-03T15:37:49+00:00", "2023-11-03T15:38:30+00:00", "2023-11-03T15:39:22+00:00", "2023-11-03T15:42:22+00:00", "2023-11-03T15:43:34+00:00", "2023-11-03T15:45:11+00:00", "2023-11-03T15:46:39+00:00", "2023-11-03T15:47:19+00:00", "2023-11-03T15:48:31+00:00", "2023-11-03T15:53:24+00:00", "2023-11-03T15:54:08+00:00", "2023-11-03T15:55:16+00:00", "2023-11-03T15:56:33+00:00", "2023-11-03T15:58:17+00:00", "2023-11-03T15:59:13+00:00", "2023-11-03T16:01:17+00:00", "2023-11-03T16:02:58+00:00", "2023-11-03T16:04:50+00:00", "2023-11-03T16:07:11+00:00", "2023-11-03T16:07:59+00:00", "2023-11-03T16:08:23+00:00", "2023-11-03T16:10:31+00:00", "2023-11-03T16:13:00+00:00", "2023-11-03T16:14:56+00:00", "2023-11-03T16:17:32+00:00", "2023-11-03T16:20:21+00:00", "2023-11-03T16:21:41+00:00", "2023-11-03T16:22:45+00:00", "2023-11-03T16:24:37+00:00", "2023-11-03T16:25:33+00:00", "2023-11-03T16:26:05+00:00", "2023-11-03T16:27:34+00:00", "2023-11-03T16:28:50+00:00", "2023-11-03T16:29:38+00:00", "2023-11-03T16:30:14+00:00", "2023-11-03T16:31:30+00:00", "2023-11-03T16:32:02+00:00", "2023-11-03T16:33:30+00:00", "2023-11-03T16:34:46+00:00", "2023-11-03T16:36:18+00:00", "2023-11-03T16:37:22+00:00", "2023-11-03T16:38:47+00:00", "2023-11-03T16:40:19+00:00", "2023-11-03T16:41:55+00:00", "2023-11-03T16:42:31+00:00", "2023-11-03T16:43:31+00:00", "2023-11-03T16:43:59+00:00", "2023-11-03T16:45:35+00:00", "2023-11-03T16:46:19+00:00", "2023-11-03T16:47:04+00:00", "2023-11-03T16:48:36+00:00", "2023-11-03T16:49:04+00:00", "2023-11-03T16:50:36+00:00", "2023-11-03T16:51:24+00:00", "2023-11-03T16:51:56+00:00", "2023-11-03T16:52:57+00:00", "2023-11-03T16:53:41+00:00", "2023-11-03T16:54:33+00:00", "2023-11-03T16:55:29+00:00", "2023-11-03T16:56:29+00:00", "2023-11-03T16:57:09+00:00", "2023-11-03T16:58:17+00:00", "2023-11-03T16:58:57+00:00", "2023-11-03T17:00:05+00:00", "2023-11-03T17:01:09+00:00", "2023-11-03T17:01:38+00:00", "2023-11-03T17:03:10+00:00", "2023-11-03T17:04:42+00:00", "2023-11-03T17:05:46+00:00", "2023-11-03T17:06:26+00:00", "2023-11-03T17:07:14+00:00", "2023-11-03T17:08:02+00:00", "2023-11-03T17:09:10+00:00", "2023-11-03T17:09:42+00:00", "2023-11-03T17:11:15+00:00", "2023-11-03T17:11:43+00:00", "2023-11-03T17:13:27+00:00", "2023-11-03T17:14:47+00:00", "2023-11-03T17:16:27+00:00", "2023-11-03T17:17:24+00:00", "2023-11-03T17:18:36+00:00", "2023-11-03T17:19:32+00:00", "2023-11-03T17:20:44+00:00", "2023-11-03T17:21:24+00:00", "2023-11-03T17:22:12+00:00", "2023-11-03T17:22:57+00:00", "2023-11-03T17:23:33+00:00", "2023-11-03T17:24:09+00:00", "2023-11-03T17:26:01+00:00", "2023-11-03T17:26:25+00:00", "2023-11-03T17:27:18+00:00", "2023-11-03T17:28:30+00:00", "2023-11-03T17:30:14+00:00", "2023-11-03T17:30:54+00:00", "2023-11-03T17:33:15+00:00", "2023-11-03T17:34:59+00:00", "2023-11-03T17:36:07+00:00", "2023-11-03T17:38:40+00:00", "2023-11-03T17:40:04+00:00", "2023-11-03T17:41:36+00:00", "2023-11-03T17:43:16+00:00", "2023-11-03T17:44:04+00:00", "2023-11-03T17:47:00+00:00", "2023-11-03T17:48:40+00:00", "2023-11-03T17:50:37+00:00", "2023-11-03T17:51:25+00:00", "2023-11-03T17:58:13+00:00", "2023-11-03T17:59:58+00:00", "2023-11-03T18:01:50+00:00", "2023-11-03T18:05:59+00:00", "2023-11-03T18:06:15+00:00", "2023-11-03T18:11:36+00:00", "2023-11-03T18:15:13+00:00", "2023-11-03T18:19:25+00:00", "2023-11-03T18:21:02+00:00", "2023-11-03T18:21:46+00:00", "2023-11-03T18:25:11+00:00", "2023-11-03T18:25:43+00:00", "2023-11-03T18:28:23+00:00", "2023-11-03T18:29:56+00:00", "2023-11-03T18:33:20+00:00", "2023-11-03T18:35:25+00:00", "2023-11-03T18:36:57+00:00", "2023-11-03T18:37:25+00:00", "2023-11-03T18:41:34+00:00", "2023-11-03T18:43:42+00:00", "2023-11-03T18:45:58+00:00", "2023-11-03T18:50:07+00:00", "2023-11-03T18:52:59+00:00", "2023-11-03T18:58:36+00:00", "2023-11-03T19:00:00+00:00", "2023-11-03T19:02:21+00:00", "2023-11-03T19:03:49+00:00", "2023-11-03T19:04:33+00:00", "2023-11-03T19:08:30+00:00", "2023-11-03T19:12:54+00:00", "2023-11-03T19:13:58+00:00", "2023-11-03T19:15:30+00:00", "2023-11-03T19:18:18+00:00", "2023-11-03T19:20:31+00:00", "2023-11-03T19:22:07+00:00", "2023-11-03T19:22:51+00:00", "2023-11-03T19:28:08+00:00", "2023-11-03T19:29:16+00:00", "2023-11-03T19:31:04+00:00", "2023-11-03T19:33:21+00:00", "2023-11-03T19:35:29+00:00", "2023-11-03T19:38:09+00:00", "2023-11-03T19:39:38+00:00", "2023-11-03T19:42:26+00:00", "2023-11-03T19:45:39+00:00", "2023-11-03T19:47:27+00:00", "2023-11-03T19:51:59+00:00", "2023-11-03T19:55:15+00:00", "2023-11-03T19:57:23+00:00", "2023-11-03T20:00:35+00:00", "2023-11-03T20:07:04+00:00", "2023-11-03T20:10:24+00:00", "2023-11-03T20:16:37+00:00", "2023-11-03T20:22:26+00:00", "2023-11-03T20:24:34+00:00", "2023-11-03T20:26:59+00:00", "2023-11-03T20:28:43+00:00", "2023-11-03T20:34:00+00:00", "2023-11-03T20:43:41+00:00", "2023-11-03T20:49:42+00:00", "2023-11-03T20:55:43+00:00", "2023-11-03T20:56:39+00:00", "2023-11-03T21:04:20+00:00", "2023-11-03T21:09:37+00:00", "2023-11-03T21:13:41+00:00", "2023-11-03T21:19:47+00:00", "2023-11-03T21:27:52+00:00", "2023-11-03T21:32:56+00:00", "2023-11-03T21:34:00+00:00", "2023-11-03T21:38:46+00:00", "2023-11-03T21:45:39+00:00", "2023-11-03T21:49:40+00:00", "2023-11-03T22:00:13+00:00", "2023-11-03T22:15:27+00:00", "2023-11-03T22:17:08+00:00", "2023-11-03T22:25:05+00:00", "2023-11-03T22:30:21+00:00", "2023-11-03T22:38:01+00:00", "2023-11-03T22:43:15+00:00", "2023-11-03T22:49:08+00:00", "2023-11-03T22:52:08+00:00", "2023-11-03T22:59:16+00:00", "2023-11-03T23:02:57+00:00", "2023-11-03T23:16:35+00:00", "2023-11-03T23:25:12+00:00", "2023-11-03T23:32:30+00:00", "2023-11-03T23:35:54+00:00", "2023-11-03T23:46:25+00:00", "2023-11-03T23:50:02+00:00", "2023-11-03T23:53:50+00:00", "2023-11-03T23:57:31+00:00", "2023-11-04T00:02:40+00:00", "2023-11-04T00:10:55+00:00", "2023-11-04T00:17:53+00:00", "2023-11-04T00:20:29+00:00", "2023-11-04T00:23:02+00:00", "2023-11-04T00:35:04+00:00", "2023-11-04T00:53:28+00:00", "2023-11-04T01:02:05+00:00", "2023-11-04T01:06:01+00:00", "2023-11-04T01:10:50+00:00", "2023-11-04T01:31:04+00:00", "2023-11-04T01:42:26+00:00", "2023-11-04T01:53:23+00:00", "2023-11-04T02:06:44+00:00", "2023-11-04T02:12:04+00:00", "2023-11-04T02:15:09+00:00", "2023-11-04T02:18:57+00:00", "2023-11-04T02:31:55+00:00", "2023-11-04T02:33:27+00:00", "2023-11-04T02:40:16+00:00", "2023-11-04T02:51:48+00:00", "2023-11-04T02:54:49+00:00", "2023-11-04T02:59:51+00:00", "2023-11-04T03:07:48+00:00", "2023-11-04T03:09:24+00:00", "2023-11-04T03:19:12+00:00", "2023-11-04T03:21:45+00:00", "2023-11-04T03:27:13+00:00", "2023-11-04T03:31:02+00:00", "2023-11-04T03:35:38+00:00", "2023-11-04T03:36:22+00:00", "2023-11-04T03:39:50+00:00", "2023-11-04T03:45:35+00:00", "2023-11-04T03:51:27+00:00", "2023-11-04T03:56:52+00:00", "2023-11-04T03:59:28+00:00", "2023-11-04T04:06:25+00:00", "2023-11-04T04:12:22+00:00", "2023-11-04T04:13:58+00:00", "2023-11-04T04:19:24+00:00", "2023-11-04T04:21:12+00:00", "2023-11-04T04:27:00+00:00", "2023-11-04T04:28:41+00:00", "2023-11-04T04:36:09+00:00", "2023-11-04T04:36:41+00:00", "2023-11-04T04:40:26+00:00", "2023-11-04T04:49:27+00:00", "2023-11-04T04:53:00+00:00", "2023-11-04T04:57:17+00:00", "2023-11-04T04:59:45+00:00", "2023-11-04T05:01:05+00:00", "2023-11-04T05:04:49+00:00", "2023-11-04T05:09:34+00:00", "2023-11-04T05:10:38+00:00", "2023-11-04T05:18:03+00:00", "2023-11-04T05:23:16+00:00", "2023-11-04T05:29:42+00:00", "2023-11-04T05:31:30+00:00", "2023-11-04T05:39:37+00:00", "2023-11-04T05:48:26+00:00", "2023-11-04T05:50:50+00:00", "2023-11-04T05:58:27+00:00", "2023-11-04T06:02:39+00:00", "2023-11-04T06:05:03+00:00", "2023-11-04T06:06:15+00:00", "2023-11-04T06:12:36+00:00", "2023-11-04T06:16:00+00:00", "2023-11-04T06:23:06+00:00", "2023-11-04T06:27:02+00:00", "2023-11-04T06:42:04+00:00", "2023-11-04T06:44:25+00:00", "2023-11-04T06:46:53+00:00", "2023-11-04T06:50:22+00:00", "2023-11-04T06:55:26+00:00", "2023-11-04T06:58:31+00:00", "2023-11-04T07:08:09+00:00", "2023-11-04T07:17:04+00:00", "2023-11-04T07:24:21+00:00", "2023-11-04T07:35:39+00:00", "2023-11-04T07:40:03+00:00", "2023-11-04T07:45:30+00:00", "2023-11-04T07:55:57+00:00", "2023-11-04T07:58:42+00:00", "2023-11-04T08:06:39+00:00", "2023-11-04T08:09:32+00:00", "2023-11-04T08:11:48+00:00", "2023-11-04T08:15:53+00:00", "2023-11-04T08:34:24+00:00", "2023-11-04T08:36:00+00:00", "2023-11-04T08:44:13+00:00", "2023-11-04T08:48:46+00:00", "2023-11-04T08:55:15+00:00", "2023-11-04T08:57:43+00:00", "2023-11-04T09:04:00+00:00", "2023-11-04T09:09:13+00:00", "2023-11-04T09:13:25+00:00", "2023-11-04T09:18:02+00:00", "2023-11-04T09:21:50+00:00", "2023-11-04T09:24:59+00:00", "2023-11-04T09:26:23+00:00", "2023-11-04T09:41:07+00:00", "2023-11-04T09:54:09+00:00", "2023-11-04T09:57:06+00:00", "2023-11-04T10:12:52+00:00", "2023-11-04T10:14:08+00:00", "2023-11-04T10:20:05+00:00", "2023-11-04T10:26:34+00:00", "2023-11-04T10:29:26+00:00", "2023-11-04T10:40:23+00:00", "2023-11-04T10:43:51+00:00", "2023-11-04T10:48:24+00:00", "2023-11-04T10:54:41+00:00", "2023-11-04T10:58:25+00:00", "2023-11-04T11:02:30+00:00", "2023-11-04T11:07:07+00:00", "2023-11-04T11:11:08+00:00", "2023-11-04T11:17:45+00:00", "2023-11-04T11:23:58+00:00", "2023-11-04T11:29:03+00:00", "2023-11-04T11:36:31+00:00", "2023-11-04T11:40:48+00:00", "2023-11-04T11:45:05+00:00", "2023-11-04T11:47:49+00:00", "2023-11-04T12:00:39+00:00", "2023-11-04T12:08:29+00:00", "2023-11-04T12:18:18+00:00", "2023-11-04T12:23:08+00:00", "2023-11-04T12:27:04+00:00", "2023-11-04T12:34:37+00:00", "2023-11-04T12:43:43+00:00", "2023-11-04T12:53:59+00:00", "2023-11-04T13:10:23+00:00", "2023-11-04T13:11:07+00:00", "2023-11-04T13:12:48+00:00", "2023-11-04T13:22:31+00:00", "2023-11-04T13:31:45+00:00", "2023-11-04T13:36:27+00:00", "2023-11-04T13:53:42+00:00", "2023-11-04T14:06:05+00:00", "2023-11-04T14:14:19+00:00", "2023-11-04T14:25:09+00:00", "2023-11-04T14:28:37+00:00", "2023-11-04T14:33:26+00:00", "2023-11-04T14:37:14+00:00", "2023-11-04T14:44:43+00:00", "2023-11-04T14:48:36+00:00", "2023-11-04T15:01:50+00:00", "2023-11-04T15:12:30+00:00", "2023-11-04T15:22:02+00:00", "2023-11-04T15:28:50+00:00", "2023-11-04T15:32:38+00:00", "2023-11-04T15:43:31+00:00", "2023-11-04T15:49:16+00:00", "2023-11-04T15:56:10+00:00", "2023-11-04T15:59:50+00:00", "2023-11-04T16:12:04+00:00", "2023-11-04T16:19:02+00:00", "2023-11-04T16:31:00+00:00", "2023-11-04T16:39:09+00:00", "2023-11-04T16:46:06+00:00", "2023-11-04T16:49:19+00:00", "2023-11-04T16:58:58+00:00", "2023-11-04T17:17:15+00:00", "2023-11-04T17:22:11+00:00", "2023-11-04T17:34:36+00:00", "2023-11-04T17:52:25+00:00", "2023-11-04T18:00:51+00:00", "2023-11-04T18:16:36+00:00", "2023-11-04T18:26:04+00:00", "2023-11-04T18:34:50+00:00", "2023-11-04T18:49:19+00:00", "2023-11-04T19:05:12+00:00", "2023-11-04T19:05:28+00:00", "2023-11-04T19:11:45+00:00", "2023-11-04T19:18:45+00:00", "2023-11-04T19:24:25+00:00", "2023-11-04T19:38:38+00:00", "2023-11-04T19:39:50+00:00", "2023-11-04T19:49:59+00:00", "2023-11-04T19:54:35+00:00", "2023-11-04T19:56:36+00:00", "2023-11-04T19:57:40+00:00", "2023-11-04T19:59:36+00:00", "2023-11-04T20:06:02+00:00", "2023-11-04T20:06:38+00:00", "2023-11-04T20:14:31+00:00", "2023-11-04T20:19:44+00:00", "2023-11-04T20:27:13+00:00", "2023-11-04T20:31:38+00:00", "2023-11-04T20:36:43+00:00", "2023-11-04T20:49:20+00:00", "2023-11-04T20:51:05+00:00", "2023-11-04T20:53:53+00:00", "2023-11-04T20:54:49+00:00", "2023-11-04T20:59:22+00:00", "2023-11-04T20:59:42+00:00", "2023-11-04T21:03:47+00:00", "2023-11-04T21:07:45+00:00", "2023-11-04T21:09:53+00:00", "2023-11-04T21:12:21+00:00", "2023-11-04T21:15:09+00:00", "2023-11-04T21:19:58+00:00", "2023-11-04T21:23:18+00:00", "2023-11-04T21:24:10+00:00", "2023-11-04T21:27:38+00:00", "2023-11-04T21:31:02+00:00", "2023-11-04T21:33:39+00:00", "2023-11-04T21:36:59+00:00", "2023-11-04T21:40:35+00:00", "2023-11-04T21:43:43+00:00", "2023-11-04T21:51:04+00:00", "2023-11-04T21:53:28+00:00", "2023-11-04T21:54:12+00:00", "2023-11-04T21:57:02+00:00", "2023-11-04T21:58:39+00:00", "2023-11-04T21:59:07+00:00", "2023-11-04T22:03:06+00:00", "2023-11-04T22:06:52+00:00", "2023-11-04T22:11:20+00:00", "2023-11-04T22:13:21+00:00", "2023-11-04T22:16:57+00:00", "2023-11-04T22:19:33+00:00", "2023-11-04T22:20:21+00:00", "2023-11-04T22:25:43+00:00", "2023-11-04T22:26:47+00:00", "2023-11-04T22:31:52+00:00", "2023-11-04T22:33:12+00:00", "2023-11-04T22:41:18+00:00", "2023-11-04T22:42:56+00:00", "2023-11-04T22:46:45+00:00", "2023-11-04T22:51:40+00:00", "2023-11-04T22:54:36+00:00", "2023-11-04T22:58:49+00:00", "2023-11-04T23:00:53+00:00", "2023-11-04T23:04:53+00:00", "2023-11-04T23:07:49+00:00", "2023-11-04T23:10:01+00:00", "2023-11-04T23:19:14+00:00", "2023-11-04T23:21:34+00:00", "2023-11-04T23:25:46+00:00", "2023-11-04T23:31:58+00:00", "2023-11-04T23:34:46+00:00", "2023-11-04T23:36:10+00:00", "2023-11-04T23:42:43+00:00", "2023-11-04T23:47:48+00:00", "2023-11-04T23:51:56+00:00", "2023-11-04T23:54:08+00:00", "2023-11-05T00:00:56+00:00", "2023-11-05T00:03:17+00:00", "2023-11-05T00:07:41+00:00", "2023-11-05T00:16:29+00:00", "2023-11-05T00:17:57+00:00", "2023-11-05T00:21:30+00:00", "2023-11-05T00:30:27+00:00", "2023-11-05T00:34:19+00:00", "2023-11-05T00:36:35+00:00", "2023-11-05T00:39:59+00:00", "2023-11-05T00:42:00+00:00", "2023-11-05T00:44:01+00:00", "2023-11-05T00:48:05+00:00", "2023-11-05T00:51:31+00:00", "2023-11-05T00:52:55+00:00", "2023-11-05T00:55:35+00:00", "2023-11-05T00:58:39+00:00", "2023-11-05T01:01:03+00:00", "2023-11-05T01:03:11+00:00", "2023-11-05T01:07:21+00:00", "2023-11-05T01:14:30+00:00", "2023-11-05T01:18:07+00:00", "2023-11-05T01:19:59+00:00", "2023-11-05T01:25:47+00:00", "2023-11-05T01:27:51+00:00", "2023-11-05T01:34:52+00:00", "2023-11-05T01:36:00+00:00", "2023-11-05T01:42:36+00:00", "2023-11-05T01:44:32+00:00", "2023-11-05T01:50:49+00:00", "2023-11-05T01:57:37+00:00", "2023-11-05T02:02:02+00:00", "2023-11-05T02:09:39+00:00", "2023-11-05T02:14:03+00:00", "2023-11-05T02:17:16+00:00", "2023-11-05T02:22:16+00:00", "2023-11-05T02:27:21+00:00", "2023-11-05T02:29:13+00:00", "2023-11-05T02:34:30+00:00", "2023-11-05T02:35:51+00:00", "2023-11-05T02:41:27+00:00", "2023-11-05T02:45:08+00:00", "2023-11-05T02:48:56+00:00", "2023-11-05T02:55:33+00:00", "2023-11-05T03:00:25+00:00", "2023-11-05T03:04:10+00:00", "2023-11-05T03:09:46+00:00", "2023-11-05T03:13:03+00:00", "2023-11-05T03:28:10+00:00", "2023-11-05T03:30:58+00:00", "2023-11-05T03:32:27+00:00", "2023-11-05T03:34:03+00:00", "2023-11-05T03:38:53+00:00", "2023-11-05T03:41:10+00:00", "2023-11-05T03:43:06+00:00", "2023-11-05T03:44:54+00:00", "2023-11-05T03:47:06+00:00", "2023-11-05T03:48:19+00:00", "2023-11-05T03:51:33+00:00", "2023-11-05T03:52:41+00:00", "2023-11-05T03:54:26+00:00", "2023-11-05T03:55:30+00:00", "2023-11-05T03:59:51+00:00", "2023-11-06T02:16:45+00:00", "2023-11-10T05:06:48+00:00", "2023-11-10T05:08:32+00:00", "2023-11-10T05:10:12+00:00", "2023-11-10T05:11:28+00:00", "2023-11-10T05:13:17+00:00", "2023-11-10T05:18:25+00:00", "2023-11-10T05:20:22+00:00", "2023-11-10T05:26:47+00:00", "2023-11-10T05:31:12+00:00", "2023-11-10T05:33:44+00:00", "2023-11-10T05:37:06+00:00", "2023-11-10T05:42:47+00:00", "2023-11-10T05:46:40+00:00", "2023-11-10T05:50:08+00:00", "2023-11-10T05:54:33+00:00", "2023-11-10T05:58:34+00:00", "2023-11-10T06:01:46+00:00", "2023-11-10T06:03:18+00:00", "2023-11-10T06:06:02+00:00", "2023-11-10T06:06:38+00:00", "2023-11-10T06:07:31+00:00", "2023-11-10T06:09:15+00:00", "2023-11-10T06:09:56+00:00", "2023-11-10T06:10:56+00:00", "2023-11-10T06:12:16+00:00", "2023-11-10T06:13:36+00:00", "2023-11-10T06:14:08+00:00", "2023-11-10T06:15:20+00:00", "2023-11-10T06:16:12+00:00", "2023-11-10T06:17:52+00:00", "2023-11-10T06:18:53+00:00", "2023-11-10T06:19:57+00:00", "2023-11-10T06:21:05+00:00", "2023-11-10T06:22:29+00:00", "2023-11-10T06:24:33+00:00", "2023-11-10T06:26:50+00:00", "2023-11-10T06:27:46+00:00", "2023-11-10T06:29:10+00:00", "2023-11-10T06:30:26+00:00", "2023-11-10T06:33:06+00:00", "2023-11-10T06:35:39+00:00", "2023-11-10T06:39:16+00:00", "2023-11-10T13:38:36+00:00", "2023-11-11T02:06:10+00:00", "2023-11-11T02:09:30+00:00", "2023-11-11T02:10:54+00:00", "2023-11-11T02:12:15+00:00", "2023-11-11T02:13:19+00:00", "2023-11-11T02:14:52+00:00", "2023-11-11T02:20:00+00:00", "2023-11-11T02:21:08+00:00", "2023-11-11T02:25:41+00:00", "2023-11-11T02:33:42+00:00", "2023-11-11T02:34:22+00:00", "2023-11-11T02:41:51+00:00", "2023-11-11T02:43:43+00:00", "2023-11-11T02:47:36+00:00", "2023-11-11T02:49:00+00:00", "2023-11-11T02:49:32+00:00", "2023-11-11T02:50:48+00:00", "2023-11-11T02:54:21+00:00", "2023-11-11T02:56:25+00:00", "2023-11-11T02:59:21+00:00", "2023-11-11T03:02:58+00:00", "2023-11-11T03:07:55+00:00", "2023-11-11T03:22:55+00:00", "2023-11-11T03:33:05+00:00", "2023-11-11T03:39:38+00:00", "2023-11-11T03:52:37+00:00", "2023-11-11T04:00:05+00:00", "2023-11-11T04:06:47+00:00", "2023-11-11T04:10:15+00:00", "2023-11-11T04:16:04+00:00", "2023-11-11T04:23:49+00:00", "2023-11-11T04:35:06+00:00", "2023-11-11T04:36:30+00:00", "2023-11-11T04:41:18+00:00", "2023-11-11T04:46:55+00:00", "2023-11-11T04:48:35+00:00", "2023-11-11T04:54:56+00:00", "2023-11-11T04:57:48+00:00", "2023-11-11T04:59:20+00:00", "2023-11-12T03:37:44+00:00"], "elevations": [null, null, null, null, null, null, null, null, null, null, null, null, null, null, null, null, null, null, null, null, null, null, null, null, null, null, null, null, null, null, null, null, null, null, null, null, null, null, null, null, null, null, null, null, null, null, null, null, null, null, 0.0, 0.0, 0.0, 0.0, 0.0, 0.0, 0.0, 0.0, 0.0, 0.0, 0.0, 0.0, 0.0, 0.0, null, 0.0, 0.0, 0.0, 0.0, 0.0, 0.0, 0.0, 0.0, 0.0, 0.0, 0.0, 0.0, 0.0, 0.0, 0.0, 0.0, 0.0, 0.0, 0.0, 0.0, 0.0, 0.0, 0.0, 0.0, 0.0, 0.0, 0.0, 0.0, 0.0, 0.0, 0.0, 0.0, 0.0, 0.0, 0.0, 0.0, 0.0, 0.0, 0.0, 0.0, 0.0, 0.0, 0.0, 0.0, 0.0, 0.0, 0.0, 0.0, 0.0, 0.0, 0.0, 0.0, 0.0, 0.0, 0.0, 0.0, 0.0, 0.0, 0.0, 0.0, 0.0, 0.0, 0.0, 0.0, 0.0, 0.0, 0.0, 0.0, 0.0, 0.0, 0.0, 0.0, 0.0, 0.0, 0.0, 0.0, 0.0, 0.0, 0.0, 0.0, 0.0, 0.0, 0.0, 0.0, 0.0, 0.0, 0.0, 0.0, 0.0, 0.0, 0.0, 0.0, 0.0, 0.0, 0.0, 0.0, 0.0, 0.0, 0.0, 0.0, 0.0, 0.0, 0.0, 0.0, 0.0, 0.0, 0.0, 0.0, 0.0, 0.0, 0.0, 0.0, 0.0, 0.0, 0.0, 0.0, 0.0, 0.0, 0.0, 0.0, 0.0, 0.0, 0.0, 0.0, 0.0, 0.0, 0.0, 0.0, 0.0, 0.0, 0.0, 0.0, 0.0, 0.0, 0.0, 0.0, 0.0, 0.0, 0.0, 0.0, 0.0, 0.0, 0.0, 0.0, 0.0, 0.0, 0.0, 0.0, 0.0, 0.0, 0.0, 0.0, 0.0, 0.0, 0.0, 0.0, 0.0, 0.0, 0.0, 0.0, 0.0, 0.0, 0.0, 0.0, 0.0, 0.0, 0.0, 0.0, 0.0, 0.0, 0.0, 0.0, 0.0, 0.0, 0.0, 0.0, 0.0, 0.0, 0.0, 0.0, 0.0, 0.0, 0.0, 0.0, 0.0, 0.0, 0.0, 0.0, 0.0, 0.0, 0.0, 0.0, 0.0, 0.0, 0.0, 0.0, 0.0, 0.0, 0.0, 0.0, 0.0, 0.0, 0.0, 0.0, 0.0, 0.0, 0.0, 0.0, 0.0, 0.0, 0.0, 0.0, 0.0, 0.0, 0.0, 0.0, 0.0, 0.0, 0.0, 0.0, 0.0, 0.0, 0.0, 0.0, 0.0, 0.0, 0.0, 0.0, 0.0, 0.0, 0.0, 0.0, 0.0, 0.0, 0.0, 0.0, 0.0, 0.0, 0.0, 0.0, 0.0, 0.0, 0.0, 0.0, 0.0, 0.0, 0.0, 0.0, 0.0, 0.0, 0.0, 0.0, 0.0, 0.0, 0.0, 0.0, 0.0, 0.0, 0.0, 0.0, 0.0, 0.0, 0.0, 0.0, 0.0, 0.0, 0.0, 0.0, 0.0, 0.0, 0.0, 0.0, 0.0, 0.0, 0.0, 0.0, 0.0, 0.0, 0.0, 0.0, 0.0, 0.0, 0.0, 0.0, 0.0, 0.0, 0.0, 0.0, 0.0, 0.0, 0.0, 0.0, 0.0, 0.0, 0.0, 0.0, 0.0, 0.0, 0.0, 0.0, 0.0, 0.0, 0.0, 0.0, 0.0, 0.0, 0.0, 0.0, 0.0, 0.0, 0.0, 0.0, 0.0, 0.0, 0.0, 0.0, 0.0, 0.0, 0.0, 0.0, 0.0, 0.0, 0.0, 0.0, 0.0, 0.0, 0.0, 0.0, 0.0, 0.0, 0.0, 0.0, 0.0, 0.0, 0.0, 0.0, 0.0, 0.0, 0.0, 0.0, 0.0, 0.0, 0.0, 0.0, 0.0, 0.0, 0.0, 0.0, null, 0.0, 0.0, 0.0, 0.0, 0.0, 0.0, 0.0, 0.0, 0.0, 0.0, 0.0, 0.0, 0.0, 0.0, 0.0, 0.0, 0.0, 0.0, 0.0, 0.0, 0.0, 0.0, 0.0, 0.0, 0.0, 0.0, 0.0, 0.0, 0.0, 0.0, 0.0, 0.0, 0.0, 0.0, 0.0, 0.0, 0.0, 0.0, 0.0, 0.0, 0.0, 0.0, 0.0, null, 0.0, 0.0, 0.0, 0.0, 0.0, 0.0, 0.0, 0.0, 0.0, 0.0, 0.0, 0.0, 0.0, null, 0.0, 0.0, 0.0, 0.0, 0.0, 0.0, 0.0, 0.0, 0.0, 0.0, 0.0, 0.0, 0.0, 0.0, 0.0, 0.0, 0.0, 0.0, 0.0, 0.0, 0.0, 0.0, 0.0, 0.0, 0.0, 0.0, 0.0, 0.0, 0.0, 0.0, 0.0, 0.0, 0.0, 0.0, 0.0, 0.0, 0.0, 0.0, 0.0, 0.0, 0.0, 0.0, 0.0, 0.0, 0.0, 0.0, 0.0, 0.0, 0.0, 0.0, 0.0, 0.0, 0.0, 0.0, 0.0, 0.0, 0.0, 0.0, 0.0, 0.0, 0.0, 0.0, 0.0, 0.0, 0.0, 0.0, 0.0, 0.0, 0.0, 0.0, 0.0, 0.0, 0.0, 0.0, 0.0, 0.0, 0.0, 0.0, 0.0, 0.0, 0.0, 0.0, 0.0, 0.0, 0.0, 0.0, 0.0, 0.0, 0.0, 0.0, 0.0, 0.0, 0.0, 0.0, 0.0, 0.0, 0.0, 0.0, 0.0, 0.0, 0.0, 0.0, 0.0, 0.0, 0.0, 0.0, 0.0, 0.0, 0.0, 0.0, 0.0, 0.0, 0.0, 0.0, 0.0, 0.0, 0.0, 0.0, 0.0, 0.0, 0.0, 0.0, 0.0, 0.0, 0.0, 0.0, 0.0, 0.0, 0.0, 0.0, 0.0, 0.0, 0.0, 0.0, 0.0, 0.0, 0.0, 0.0, 0.0, 0.0, 0.0, 0.0, 0.0, 0.0, 0.0, 0.0, 0.0, 0.0, 0.0, 0.0, 0.0, 0.0, 0.0, 0.0, 0.0, 0.0, 0.0, 0.0, 0.0, 0.0, 0.0, 0.0, 0.0, 0.0, 0.0, 0.0, 0.0, 0.0, 0.0, 0.0, 0.0, 0.0, 0.0, 0.0, 0.0, 0.0, 0.0, 0.0, 0.0, 0.0, 0.0, 0.0, 0.0, 0.0, 0.0, 0.0, 0.0, 0.0, 0.0, 0.0, 0.0, 0.0, 0.0, 0.0, 0.0, 0.0, 0.0, 0.0, 0.0, 0.0, 0.0, 0.0, 0.0, 0.0, 0.0, 0.0, 0.0, 0.0, 0.0, 0.0, 0.0, 0.0, 0.0, 0.0, 0.0, 0.0, 0.0, 0.0, 0.0, 0.0, 0.0, 0.0, 0.0, 0.0, 0.0, 0.0, 0.0, 0.0, 0.0, 0.0, 0.0, 0.0, 0.0, 0.0, 0.0, 0.0, 0.0, 0.0, 0.0, 0.0, 0.0, 0.0, 0.0, 0.0, 0.0, 0.0, 0.0, 0.0, 0.0, 0.0, 0.0, 0.0, 0.0, 0.0, 0.0, 0.0, 0.0, 0.0, 0.0, 0.0, 0.0, 0.0, 0.0, 0.0, 0.0, 0.0, 0.0, 0.0, 0.0, 0.0, 0.0, 0.0, 0.0, 0.0, 0.0, 0.0, 0.0, 0.0, 0.0, 0.0, 0.0, 0.0, 0.0, 0.0, 0.0, 0.0, 0.0, 0.0, 0.0, 0.0, 0.0, 0.0, 0.0, 0.0, 0.0, 0.0, 0.0, 0.0, 0.0, 0.0, 0.0, 0.0, 0.0, 0.0, 0.0, 0.0, 0.0, 0.0, 0.0, 0.0, 0.0, 0.0, 0.0, 0.0, 0.0, 0.0, 0.0, 0.0, 0.0, 0.0, 0.0, 0.0, 0.0, 0.0, 0.0, 0.0, 0.0, 0.0, 0.0, null, 0.0, 0.0, 0.0, 0.0, 0.0, 0.0, 0.0, 0.0, 0.0, 0.0, 0.0, 0.0, 0.0, 0.0, 0.0, 0.0, 0.0, 0.0]}