{"type": "Feature", "properties": {"leg_id": 20, "name": "20210325 - Vancouver to Pender Island", "stated_nm": 43.7, "computed_nm": 43.7}, "geometry": {"type": "LineString", "coordinates": [[-123.136183, 49.274959], [-123.143025, 49.280358], [-123.147037, 49.282549], [-123.152778, 49.28464], [-123.16261, 49.288375], [-123.175623, 49.293142], [-123.179953, 49.293742], [-123.187187, 49.294855], [-123.195315, 49.295625], [-123.203895, 49.295282], [-123.216593, 49.29503], [-123.222757, 49.29503], [-123.234713, 49.295057], [-123.243446, 49.293722], [-123.246638, 49.293174], [-123.251961, 49.292222], [-123.255867, 49.291458], [-123.261796, 49.290368], [-123.266122, 49.290217], [-123.270409, 49.289059], [-123.286665, 49.246437], [-123.287005, 49.243356], [-123.287283, 49.239488], [-123.287402, 49.236349], [-123.287866, 49.232542], [-123.288094, 49.230355], [-123.288342, 49.227417], [-123.288516, 49.223792], [-123.288806, 49.220618], [-123.288968, 49.218005], [-123.289095, 49.215742], [-123.289313, 49.212247], [-123.289554, 49.208353], [-123.289526, 49.205306], [-123.289607, 49.201779], [-123.289923, 49.198722], [-123.291385, 49.195434], [-123.295257, 49.190027], [-123.29863, 49.185467], [-123.301182, 49.182079], [-123.302246, 49.178998], [-123.302841, 49.175263], [-123.303005, 49.173265], [-123.303333, 49.169698], [-123.303613, 49.166598], [-123.303771, 49.164977], [-123.304109, 49.16043], [-123.304512, 49.158173], [-123.305034, 49.154726], [-123.305567, 49.151115], [-123.30595, 49.148713], [-123.306154, 49.146364], [-123.306688, 49.14225], [-123.307146, 49.139692], [-123.307993, 49.136478], [-123.309266, 49.133442], [-123.311075, 49.129363], [-123.312587, 49.126369], [-123.314462, 49.122811], [-123.317082, 49.116843], [-123.319463, 49.111968], [-123.321497, 49.10753], [-123.322707, 49.104509], [-123.3245, 49.098997], [-123.325863, 49.0908], [-123.326575, 49.084563], [-123.327017, 49.081989], [-123.327376, 49.07887], [-123.327438, 49.075654], [-123.327111, 49.073091], [-123.326399, 49.068576], [-123.326374, 49.065399], [-123.327742, 49.061408], [-123.329218, 49.057699], [-123.330237, 49.055148], [-123.331153, 49.051923], [-123.330943, 49.049252], [-123.330035, 49.043087], [-123.329622, 49.040647], [-123.329046, 49.036882], [-123.328514, 49.033146], [-123.328467, 49.030596], [-123.332297, 49.024279], [-123.334714, 49.020984], [-123.336615, 49.017546], [-123.336991, 49.014389], [-123.337291, 49.012242], [-123.337228, 49.009933], [-123.337125, 49.006828], [-123.336305, 49.003124], [-123.335734, 48.999048], [-123.335544, 48.997265], [-123.335203, 48.994693], [-123.334839, 48.992626], [-123.33457, 48.989915], [-123.334356, 48.987963], [-123.334064, 48.985818], [-123.333601, 48.98305], [-123.333243, 48.980474], [-123.332943, 48.977976], [-123.332655, 48.975392], [-123.332385, 48.97324], [-123.332146, 48.971331], [-123.331383, 48.966289], [-123.330898, 48.963201], [-123.330374, 48.960616], [-123.32998, 48.958011], [-123.329645, 48.955581], [-123.32958, 48.953423], [-123.329247, 48.951701], [-123.327526, 48.947077], [-123.326633, 48.945446], [-123.323887, 48.942522], [-123.32162, 48.94035], [-123.318687, 48.937543], [-123.316425, 48.93536], [-123.31428, 48.933354], [-123.311544, 48.930652], [-123.308516, 48.927893], [-123.304957, 48.924692], [-123.301379, 48.921731], [-123.298227, 48.919088], [-123.297214, 48.916082], [-123.297188, 48.912032], [-123.297313, 48.909781], [-123.297414, 48.907096], [-123.297325, 48.90411], [-123.297492, 48.901407], [-123.297657, 48.89917], [-123.297834, 48.897065], [-123.298018, 48.89443], [-123.298211, 48.892222], [-123.298418, 48.88996], [-123.298603, 48.887864], [-123.298821, 48.885331], [-123.299267, 48.882668], [-123.301791, 48.8762], [-123.302761, 48.873909], [-123.304326, 48.870952], [-123.306034, 48.867618], [-123.305963, 48.865543], [-123.304757, 48.861853], [-123.303933, 48.858333], [-123.304396, 48.855941], [-123.306759, 48.854264], [-123.311875, 48.854711], [-123.315698, 48.855549], [-123.319032, 48.856448], [-123.32138, 48.857076], [-123.326724, 48.858497], [-123.333533, 48.860117], [-123.338553, 48.861381], [-123.343298, 48.861393], [-123.348432, 48.859418], [-123.348732, 48.855957], [-123.34696, 48.852586], [-123.341613, 48.847602], [-123.338467, 48.844152], [-123.336298, 48.837313], [-123.334492, 48.833842], [-123.331462, 48.831289], [-123.3248, 48.828452], [-123.318868, 48.826806], [-123.315029, 48.825859], [-123.307823, 48.824206], [-123.303666, 48.823193], [-123.299232, 48.822165], [-123.294751, 48.820961], [-123.288975, 48.819457], [-123.280084, 48.815053], [-123.271497, 48.811528], [-123.266472, 48.809727], [-123.258394, 48.805322], [-123.254447, 48.802113], [-123.249444, 48.798201], [-123.244713, 48.792832], [-123.240017, 48.786766], [-123.238083, 48.78247], [-123.235287, 48.776582], [-123.233951, 48.772834], [-123.235441, 48.769778], [-123.240467, 48.768688], [-123.245847, 48.768621], [-123.249419, 48.768721], [-123.255995, 48.768847], [-123.258976, 48.769477], [-123.269111, 48.773684], [-123.271231, 48.776593], [-123.27317, 48.776755]]}, "times": ["2021-03-25T16:46:51+00:00", "2021-03-25T16:51:05+00:00", "2021-03-25T16:53:50+00:00", "2021-03-25T16:56:31+00:00", "2021-03-25T17:01:32+00:00", "2021-03-25T17:08:03+00:00", "2021-03-25T17:11:44+00:00", "2021-03-25T17:13:31+00:00", "2021-03-25T17:17:20+00:00", "2021-03-25T17:21:11+00:00", "2021-03-25T17:27:18+00:00", "2021-03-25T17:32:12+00:00", "2021-03-25T17:36:19+00:00", "2021-03-25T17:41:48+00:00", "2021-03-25T17:43:13+00:00", "2021-03-25T17:48:24+00:00", "2021-03-25T17:49:19+00:00", "2021-03-25T17:54:10+00:00", "2021-03-25T17:57:20+00:00", "2021-03-25T17:59:14+00:00", "2021-03-25T18:31:29+00:00", "2021-03-25T18:33:12+00:00", "2021-03-25T18:36:42+00:00", "2021-03-25T18:38:55+00:00", "2021-03-25T18:41:26+00:00", "2021-03-25T18:43:08+00:00", "2021-03-25T18:45:16+00:00", "2021-03-25T18:47:36+00:00", "2021-03-25T18:49:12+00:00", "2021-03-25T18:50:56+00:00", "2021-03-25T18:52:52+00:00", "2021-03-25T18:54:48+00:00", "2021-03-25T18:57:09+00:00", "2021-03-25T18:59:13+00:00", "2021-03-25T19:01:20+00:00", "2021-03-25T19:03:32+00:00", "2021-03-25T19:05:23+00:00", "2021-03-25T19:10:34+00:00", "2021-03-25T19:12:29+00:00", "2021-03-25T19:15:03+00:00", "2021-03-25T19:16:24+00:00", "2021-03-25T19:18:35+00:00", "2021-03-25T19:20:01+00:00", "2021-03-25T19:21:39+00:00", "2021-03-25T19:23:36+00:00", "2021-03-25T19:24:38+00:00", "2021-03-25T19:27:22+00:00", "2021-03-25T19:28:44+00:00", "2021-03-25T19:30:15+00:00", "2021-03-25T19:32:38+00:00", "2021-03-25T19:34:00+00:00", "2021-03-25T19:35:03+00:00", "2021-03-25T19:38:24+00:00", "2021-03-25T19:38:52+00:00", "2021-03-25T19:40:17+00:00", "2021-03-25T19:42:40+00:00", "2021-03-25T19:45:13+00:00", "2021-03-25T19:47:00+00:00", "2021-03-25T19:48:39+00:00", "2021-03-25T19:51:58+00:00", "2021-03-25T19:55:28+00:00", "2021-03-25T19:57:42+00:00", "2021-03-25T19:59:59+00:00", "2021-03-25T20:02:50+00:00", "2021-03-25T20:06:42+00:00", "2021-03-25T20:09:47+00:00", "2021-03-25T20:11:12+00:00", "2021-03-25T20:13:01+00:00", "2021-03-25T20:14:51+00:00", "2021-03-25T20:16:44+00:00", "2021-03-25T20:19:35+00:00", "2021-03-25T20:20:38+00:00", "2021-03-25T20:23:37+00:00", "2021-03-25T20:25:12+00:00", "2021-03-25T20:26:00+00:00", "2021-03-25T20:27:54+00:00", "2021-03-25T20:29:51+00:00", "2021-03-25T20:34:02+00:00", "2021-03-25T20:35:10+00:00", "2021-03-25T20:37:05+00:00", "2021-03-25T20:40:06+00:00", "2021-03-25T20:40:50+00:00", "2021-03-25T20:45:22+00:00", "2021-03-25T20:47:09+00:00", "2021-03-25T20:49:00+00:00", "2021-03-25T20:50:18+00:00", "2021-03-25T20:51:43+00:00", "2021-03-25T20:53:14+00:00", "2021-03-25T20:54:36+00:00", "2021-03-25T20:57:18+00:00", "2021-03-25T20:59:28+00:00", "2021-03-25T21:00:36+00:00", "2021-03-25T21:02:02+00:00", "2021-03-25T21:03:09+00:00", "2021-03-25T21:04:48+00:00", "2021-03-25T21:06:04+00:00", "2021-03-25T21:07:22+00:00", "2021-03-25T21:09:07+00:00", "2021-03-25T21:10:40+00:00", "2021-03-25T21:12:28+00:00", "2021-03-25T21:13:54+00:00", "2021-03-25T21:15:19+00:00", "2021-03-25T21:16:31+00:00", "2021-03-25T21:21:14+00:00", "2021-03-25T21:21:58+00:00", "2021-03-25T21:23:50+00:00", "2021-03-25T21:25:28+00:00", "2021-03-25T21:27:23+00:00", "2021-03-25T21:28:43+00:00", "2021-03-25T21:29:41+00:00", "2021-03-25T21:33:23+00:00", "2021-03-25T21:34:12+00:00", "2021-03-25T21:37:06+00:00", "2021-03-25T21:38:46+00:00", "2021-03-25T21:40:46+00:00", "2021-03-25T21:43:10+00:00", "2021-03-25T21:44:31+00:00", "2021-03-25T21:46:42+00:00", "2021-03-25T21:48:53+00:00", "2021-03-25T21:51:47+00:00", "2021-03-25T21:54:20+00:00", "2021-03-25T21:57:05+00:00", "2021-03-25T21:59:01+00:00", "2021-03-25T22:02:31+00:00", "2021-03-25T22:04:26+00:00", "2021-03-25T22:06:11+00:00", "2021-03-25T22:09:58+00:00", "2021-03-25T22:11:17+00:00", "2021-03-25T22:13:26+00:00", "2021-03-25T22:15:08+00:00", "2021-03-25T22:17:24+00:00", "2021-03-25T22:19:27+00:00", "2021-03-25T22:21:27+00:00", "2021-03-25T22:23:13+00:00", "2021-03-25T22:25:06+00:00", "2021-03-25T22:26:59+00:00", "2021-03-25T22:31:44+00:00", "2021-03-25T22:33:20+00:00", "2021-03-25T22:35:59+00:00", "2021-03-25T22:38:09+00:00", "2021-03-25T22:40:41+00:00", "2021-03-25T22:43:22+00:00", "2021-03-25T22:47:23+00:00", "2021-03-25T22:49:13+00:00", "2021-03-25T22:51:18+00:00", "2021-03-25T22:53:40+00:00", "2021-03-25T22:55:13+00:00", "2021-03-25T22:56:24+00:00", "2021-03-25T22:57:20+00:00", "2021-03-25T22:59:08+00:00", "2021-03-25T23:02:08+00:00", "2021-03-25T23:02:53+00:00", "2021-03-25T23:04:05+00:00", "2021-03-25T23:05:52+00:00", "2021-03-25T23:08:42+00:00", "2021-03-25T23:10:26+00:00", "2021-03-25T23:14:46+00:00", "2021-03-25T23:16:01+00:00", "2021-03-25T23:20:02+00:00", "2021-03-25T23:21:04+00:00", "2021-03-25T23:23:16+00:00", "2021-03-25T23:26:17+00:00", "2021-03-25T23:29:08+00:00", "2021-03-25T23:30:38+00:00", "2021-03-25T23:34:44+00:00", "2021-03-25T23:35:58+00:00", "2021-03-25T23:38:45+00:00", "2021-03-25T23:39:53+00:00", "2021-03-25T23:43:15+00:00", "2021-03-25T23:48:04+00:00", "2021-03-25T23:52:15+00:00", "2021-03-25T23:54:01+00:00", "2021-03-25T23:58:35+00:00", "2021-03-26T00:02:49+00:00", "2021-03-26T00:04:09+00:00", "2021-03-26T00:07:47+00:00", "2021-03-26T00:12:28+00:00", "2021-03-26T00:14:41+00:00", "2021-03-26T00:18:55+00:00", "2021-03-26T00:20:32+00:00", "2021-03-26T00:22:43+00:00", "2021-03-26T00:25:38+00:00", "2021-03-26T00:27:49+00:00", "2021-03-26T00:28:49+00:00", "2021-03-26T00:31:26+00:00", "2021-03-26T00:32:50+00:00", "2021-03-26T00:38:14+00:00", "2021-03-26T00:40:22+00:00", "2021-03-26T02:00:01+00:00"], "elevations": [null, null, null, null, null, null, null, null, null, null, null, null, null, null, null, null, null, null, null, null, null, null, null, null, null, null, null, null, null, null, null, null, null, null, null, null, null, null, null, null, null, null, null, null, null, null, null, null, null, null, null, null, null, null, null, null, null, null, null, null, null, null, null, null, null, null, null, null, null, null, null, null, null, null, null, null, null, null, null, null, null, null, null, null, null, null, null, null, null, null, null, null, null, null, null, null, null, null, null, null, null, null, null, null, null, null, null, null, null, null, null, null, null, null, null, null, null, null, null, null, null, null, null, null, null, null, null, null, null, null, null, null, null, null, null, null, null, null, null, null, null, null, null, null, null, null, null, null, null, null, null, null, null, null, null, null, null, null, null, null, null, null, null, null, null, null, null, null, null, null, null, null, null, null, null, null, null, null, null, null, null, null, null, null, null, null, null, null, null]}