{"type": "Feature", "properties": {"leg_id": 29, "name": "20220110 - Santa Catalina to San Diego", "stated_nm": 79.2, "computed_nm": 79.2}, "geometry": {"type": "LineString", "coordinates": [[-118.367818, 33.394041], [-118.36026, 33.39303], [-118.355788, 33.392373], [-118.353908, 33.391895], [-118.338118, 33.38376], [-118.335843, 33.382584], [-118.327153, 33.377966], [-118.325489, 33.376989], [-118.320017, 33.372914], [-118.313218, 33.367683], [-118.309685, 33.364953], [-118.299103, 33.356552], [-118.293223, 33.352195], [-118.283635, 33.345075], [-118.281008, 33.342952], [-118.277257, 33.340205], [-118.273073, 33.336938], [-118.270483, 33.335047], [-118.265852, 33.331425], [-118.262328, 33.328682], [-118.260529, 33.327291], [-118.258057, 33.325285], [-118.254871, 33.322815], [-118.253289, 33.3219], [-118.249767, 33.319505], [-118.247742, 33.317907], [-118.247053, 33.318599], [-118.244734, 33.318773], [-118.241727, 33.316505], [-118.238448, 33.313573], [-118.233927, 33.30996], [-118.231964, 33.308364], [-118.229257, 33.306475], [-118.223815, 33.301952], [-118.220381, 33.299483], [-118.217733, 33.297438], [-118.21555, 33.295615], [-118.2121, 33.2929], [-118.207097, 33.288713], [-118.202458, 33.284587], [-118.196049, 33.279144], [-118.194327, 33.277802], [-118.191633, 33.275701], [-118.188887, 33.273315], [-118.186487, 33.271326], [-118.184713, 33.269878], [-118.181653, 33.267331], [-118.180568, 33.266332], [-118.174007, 33.260925], [-118.171338, 33.258843], [-118.166882, 33.254972], [-118.164196, 33.252551], [-118.159563, 33.249315], [-118.157388, 33.247744], [-118.150725, 33.242837], [-118.148413, 33.240999], [-118.14538, 33.238658], [-118.139775, 33.234592], [-118.138053, 33.233406], [-118.134235, 33.230732], [-118.131507, 33.22904], [-118.12809, 33.226577], [-118.12569, 33.224701], [-118.123671, 33.223222], [-118.120095, 33.220583], [-118.117307, 33.218723], [-118.112948, 33.21547], [-118.110139, 33.213614], [-118.107366, 33.211881], [-118.104993, 33.210223], [-118.097175, 33.204715], [-118.094423, 33.202872], [-118.091033, 33.200451], [-118.085914, 33.197054], [-118.077487, 33.191385], [-118.071072, 33.186877], [-118.069405, 33.185573], [-118.064632, 33.18219], [-118.059973, 33.179018], [-118.053152, 33.174738], [-118.049195, 33.172095], [-118.046317, 33.17021], [-118.041164, 33.166806], [-118.030958, 33.15997], [-118.026562, 33.157119], [-118.01932, 33.15219], [-118.012188, 33.147525], [-118.002475, 33.140913], [-117.999802, 33.139015], [-117.979313, 33.125147], [-117.970988, 33.119318], [-117.968878, 33.11792], [-117.965289, 33.115451], [-117.954467, 33.108177], [-117.951887, 33.10656], [-117.936536, 33.096248], [-117.931922, 33.093007], [-117.929147, 33.091225], [-117.925067, 33.088408], [-117.921524, 33.085033], [-117.918242, 33.082335], [-117.914593, 33.079817], [-117.910483, 33.077006], [-117.901776, 33.070875], [-117.899678, 33.069349], [-117.896243, 33.066845], [-117.876013, 33.052723], [-117.873436, 33.050982], [-117.869084, 33.047926], [-117.864662, 33.044801], [-117.861398, 33.042462], [-117.85925, 33.04111], [-117.853088, 33.036736], [-117.849339, 33.034113], [-117.847412, 33.032737], [-117.841317, 33.02852], [-117.839302, 33.027042], [-117.8357, 33.024522], [-117.832814, 33.022631], [-117.829264, 33.020131], [-117.827013, 33.018544], [-117.816665, 33.011458], [-117.814253, 33.00969], [-117.811043, 33.007434], [-117.808648, 33.005687], [-117.801865, 33.00107], [-117.797772, 32.998078], [-117.793727, 32.995338], [-117.788492, 32.991457], [-117.782687, 32.987635], [-117.779228, 32.985282], [-117.774337, 32.982106], [-117.77048, 32.979585], [-117.766475, 32.976867], [-117.762849, 32.974371], [-117.757068, 32.970322], [-117.755415, 32.969448], [-117.749725, 32.96573], [-117.747787, 32.964344], [-117.745384, 32.962746], [-117.743318, 32.961307], [-117.741177, 32.959854], [-117.739022, 32.958413], [-117.737029, 32.957216], [-117.73336, 32.955103], [-117.730792, 32.953487], [-117.725897, 32.95004], [-117.724407, 32.949082], [-117.720649, 32.946553], [-117.718672, 32.945084], [-117.715825, 32.943138], [-117.711998, 32.94036], [-117.703357, 32.934455], [-117.699379, 32.931616], [-117.696419, 32.929655], [-117.693992, 32.92793], [-117.689113, 32.924715], [-117.686759, 32.923346], [-117.683438, 32.920883], [-117.678273, 32.91736], [-117.676527, 32.916402], [-117.673922, 32.914929], [-117.671952, 32.913627], [-117.669182, 32.911743], [-117.666843, 32.910199], [-117.664359, 32.908617], [-117.661008, 32.906504], [-117.657095, 32.903919], [-117.654804, 32.902386], [-117.651777, 32.900398], [-117.644625, 32.895482], [-117.640593, 32.89243], [-117.638247, 32.890784], [-117.63493, 32.888367], [-117.62913, 32.884453], [-117.62717, 32.883277], [-117.622775, 32.880475], [-117.62064, 32.878979], [-117.614065, 32.87448], [-117.612063, 32.87302], [-117.606619, 32.869325], [-117.600911, 32.865252], [-117.598525, 32.863606], [-117.597019, 32.862541], [-117.591865, 32.858752], [-117.585062, 32.854017], [-117.582752, 32.85259], [-117.578935, 32.849749], [-117.574816, 32.846762], [-117.562383, 32.838003], [-117.560982, 32.836948], [-117.557197, 32.834334], [-117.554117, 32.832252], [-117.550192, 32.829657], [-117.545996, 32.826729], [-117.54161, 32.823691], [-117.536791, 32.820602], [-117.533239, 32.818608], [-117.529718, 32.816585], [-117.526922, 32.814738], [-117.524704, 32.813375], [-117.522071, 32.811721], [-117.519173, 32.80993], [-117.513552, 32.805937], [-117.510119, 32.803938], [-117.502783, 32.798488], [-117.499902, 32.796474], [-117.497357, 32.794573], [-117.494523, 32.792461], [-117.491861, 32.790559], [-117.489857, 32.789053], [-117.482663, 32.784098], [-117.477512, 32.780137], [-117.474957, 32.778424], [-117.470988, 32.775868], [-117.468336, 32.773949], [-117.465618, 32.772185], [-117.456645, 32.766263], [-117.455759, 32.765597], [-117.450642, 32.762273], [-117.44881, 32.760968], [-117.441477, 32.756203], [-117.43827, 32.754317], [-117.434309, 32.751697], [-117.430487, 32.749146], [-117.426497, 32.74648], [-117.422884, 32.744119], [-117.419992, 32.742455], [-117.413877, 32.738763], [-117.410744, 32.736596], [-117.406531, 32.733772], [-117.403607, 32.731874], [-117.38796, 32.72194], [-117.385004, 32.719961], [-117.380795, 32.717177], [-117.378692, 32.715966], [-117.372825, 32.712778], [-117.370608, 32.711425], [-117.360425, 32.705712], [-117.357879, 32.704427], [-117.353944, 32.702412], [-117.350103, 32.700244], [-117.337417, 32.693362], [-117.334939, 32.692153], [-117.32224, 32.685473], [-117.310703, 32.679963], [-117.309737, 32.679559], [-117.302548, 32.67649], [-117.297957, 32.674365], [-117.286482, 32.66792], [-117.284204, 32.666553], [-117.279448, 32.663879], [-117.275337, 32.6618], [-117.270728, 32.659976], [-117.266982, 32.658727], [-117.262798, 32.657383], [-117.25953, 32.6562], [-117.256511, 32.655183], [-117.251912, 32.654475], [-117.247572, 32.654069], [-117.245428, 32.654523], [-117.238482, 32.65605], [-117.23354, 32.658082], [-117.231733, 32.659756], [-117.229114, 32.662625], [-117.228583, 32.66458], [-117.228548, 32.667352], [-117.228326, 32.671317], [-117.228242, 32.672681], [-117.228444, 32.676777], [-117.229035, 32.679938], [-117.229857, 32.682718], [-117.230878, 32.686463], [-117.231328, 32.688996], [-117.231627, 32.692786], [-117.231496, 32.695267], [-117.232176, 32.697868], [-117.232915, 32.700795], [-117.234413, 32.704358], [-117.235614, 32.707982], [-117.235148, 32.709112], [-117.234509, 32.709498], [-117.235162, 32.707629], [-117.233751, 32.707371], [-117.229773, 32.708212], [-117.227615, 32.70876], [-117.22591, 32.709587], [-117.220918, 32.712758], [-117.215658, 32.715892], [-117.213161, 32.716922], [-117.20848, 32.717907], [-117.203953, 32.718237], [-117.193258, 32.718587], [-117.19164, 32.718726], [-117.18946, 32.71961], [-117.187196, 32.721618], [-117.185828, 32.723712], [-117.185006, 32.725403]]}, "times": ["2022-01-10T04:49:27+00:00", "2022-01-10T13:21:34+00:00", "2022-01-10T13:23:29+00:00", "2022-01-10T13:25:03+00:00", "2022-01-10T13:35:00+00:00", "2022-01-10T13:36:15+00:00", "2022-01-10T13:42:00+00:00", "2022-01-10T13:43:17+00:00", "2022-01-10T13:48:30+00:00", "2022-01-10T13:52:27+00:00", "2022-01-10T13:57:30+00:00", "2022-01-10T14:03:02+00:00", "2022-01-10T14:08:30+00:00", "2022-01-10T14:14:18+00:00", "2022-01-10T14:16:17+00:00", "2022-01-10T14:19:01+00:00", "2022-01-10T14:22:10+00:00", "2022-01-10T14:23:24+00:00", "2022-01-10T14:29:49+00:00", "2022-01-10T14:30:51+00:00", "2022-01-10T14:32:09+00:00", "2022-01-10T14:33:35+00:00", "2022-01-10T14:35:38+00:00", "2022-01-10T14:36:47+00:00", "2022-01-10T14:39:15+00:00", "2022-01-10T14:40:45+00:00", "2022-01-10T14:42:07+00:00", "2022-01-10T14:43:42+00:00", "2022-01-10T14:44:56+00:00", "2022-01-10T14:50:41+00:00", "2022-01-10T14:53:50+00:00", "2022-01-10T14:54:47+00:00", "2022-01-10T14:57:28+00:00", "2022-01-10T15:00:53+00:00", "2022-01-10T15:02:45+00:00", "2022-01-10T15:05:29+00:00", "2022-01-10T15:06:35+00:00", "2022-01-10T15:09:00+00:00", "2022-01-10T15:12:34+00:00", "2022-01-10T15:15:57+00:00", "2022-01-10T15:20:50+00:00", "2022-01-10T15:21:44+00:00", "2022-01-10T15:24:04+00:00", "2022-01-10T15:25:35+00:00", "2022-01-10T15:27:10+00:00", "2022-01-10T15:29:05+00:00", "2022-01-10T15:30:24+00:00", "2022-01-10T15:31:38+00:00", "2022-01-10T15:36:18+00:00", "2022-01-10T15:37:20+00:00", "2022-01-10T15:43:03+00:00", "2022-01-10T15:43:40+00:00", "2022-01-10T15:46:29+00:00", "2022-01-10T15:48:12+00:00", "2022-01-10T15:52:32+00:00", "2022-01-10T15:54:32+00:00", "2022-01-10T15:56:19+00:00", "2022-01-10T16:00:05+00:00", "2022-01-10T16:01:36+00:00", "2022-01-10T16:03:44+00:00", "2022-01-10T16:04:41+00:00", "2022-01-10T16:07:47+00:00", "2022-01-10T16:09:13+00:00", "2022-01-10T16:11:17+00:00", "2022-01-10T16:13:20+00:00", "2022-01-10T16:15:15+00:00", "2022-01-10T16:18:20+00:00", "2022-01-10T16:19:50+00:00", "2022-01-10T16:23:08+00:00", "2022-01-10T16:23:57+00:00", "2022-01-10T16:29:22+00:00", "2022-01-10T16:31:00+00:00", "2022-01-10T16:35:36+00:00", "2022-01-10T16:39:02+00:00", "2022-01-10T16:42:57+00:00", "2022-01-10T16:47:17+00:00", "2022-01-10T16:48:27+00:00", "2022-01-10T16:51:41+00:00", "2022-01-10T16:54:47+00:00", "2022-01-10T16:59:08+00:00", "2022-01-10T17:01:28+00:00", "2022-01-10T17:05:03+00:00", "2022-01-10T17:09:14+00:00", "2022-01-10T17:14:07+00:00", "2022-01-10T17:19:30+00:00", "2022-01-10T17:22:17+00:00", "2022-01-10T17:27:14+00:00", "2022-01-10T17:34:02+00:00", "2022-01-10T17:37:48+00:00", "2022-01-10T17:50:06+00:00", "2022-01-10T17:56:08+00:00", "2022-01-10T17:59:14+00:00", "2022-01-10T18:01:30+00:00", "2022-01-10T18:08:18+00:00", "2022-01-10T18:11:03+00:00", "2022-01-10T18:21:45+00:00", "2022-01-10T18:25:35+00:00", "2022-01-10T18:28:13+00:00", "2022-01-10T18:31:02+00:00", "2022-01-10T18:35:26+00:00", "2022-01-10T18:38:57+00:00", "2022-01-10T18:41:21+00:00", "2022-01-10T18:45:30+00:00", "2022-01-10T18:50:30+00:00", "2022-01-10T18:51:27+00:00", "2022-01-10T18:55:45+00:00", "2022-01-10T19:09:29+00:00", "2022-01-10T19:13:09+00:00", "2022-01-10T19:15:42+00:00", "2022-01-10T19:19:15+00:00", "2022-01-10T19:19:55+00:00", "2022-01-10T19:21:22+00:00", "2022-01-10T19:25:45+00:00", "2022-01-10T19:28:08+00:00", "2022-01-10T19:29:39+00:00", "2022-01-10T19:34:20+00:00", "2022-01-10T19:34:53+00:00", "2022-01-10T19:38:52+00:00", "2022-01-10T19:39:58+00:00", "2022-01-10T19:42:59+00:00", "2022-01-10T19:45:28+00:00", "2022-01-10T19:52:20+00:00", "2022-01-10T19:55:58+00:00", "2022-01-10T19:56:47+00:00", "2022-01-10T19:58:38+00:00", "2022-01-10T20:03:09+00:00", "2022-01-10T20:06:10+00:00", "2022-01-10T20:09:03+00:00", "2022-01-10T20:12:57+00:00", "2022-01-10T20:17:03+00:00", "2022-01-10T20:18:46+00:00", "2022-01-10T20:24:43+00:00", "2022-01-10T20:26:14+00:00", "2022-01-10T20:30:17+00:00", "2022-01-10T20:31:02+00:00", "2022-01-10T20:34:48+00:00", "2022-01-10T20:35:50+00:00", "2022-01-10T20:39:40+00:00", "2022-01-10T20:40:26+00:00", "2022-01-10T20:42:37+00:00", "2022-01-10T20:44:32+00:00", "2022-01-10T20:45:51+00:00", "2022-01-10T20:47:05+00:00", "2022-01-10T20:48:39+00:00", "2022-01-10T20:50:39+00:00", "2022-01-10T20:52:21+00:00", "2022-01-10T20:55:43+00:00", "2022-01-10T20:57:21+00:00", "2022-01-10T20:58:51+00:00", "2022-01-10T21:00:59+00:00", "2022-01-10T21:02:37+00:00", "2022-01-10T21:05:17+00:00", "2022-01-10T21:12:40+00:00", "2022-01-10T21:15:24+00:00", "2022-01-10T21:16:22+00:00", "2022-01-10T21:17:44+00:00", "2022-01-10T21:21:01+00:00", "2022-01-10T21:23:08+00:00", "2022-01-10T21:24:51+00:00", "2022-01-10T21:28:20+00:00", "2022-01-10T21:29:46+00:00", "2022-01-10T21:30:48+00:00", "2022-01-10T21:32:47+00:00", "2022-01-10T21:33:32+00:00", "2022-01-10T21:35:51+00:00", "2022-01-10T21:38:07+00:00", "2022-01-10T21:38:52+00:00", "2022-01-10T21:43:15+00:00", "2022-01-10T21:43:52+00:00", "2022-01-10T21:45:39+00:00", "2022-01-10T21:50:26+00:00", "2022-01-10T21:53:14+00:00", "2022-01-10T21:55:17+00:00", "2022-01-10T21:57:04+00:00", "2022-01-10T22:00:54+00:00", "2022-01-10T22:02:20+00:00", "2022-01-10T22:05:00+00:00", "2022-01-10T22:06:50+00:00", "2022-01-10T22:10:48+00:00", "2022-01-10T22:12:00+00:00", "2022-01-10T22:17:34+00:00", "2022-01-10T22:19:50+00:00", "2022-01-10T22:20:55+00:00", "2022-01-10T22:22:25+00:00", "2022-01-10T22:25:38+00:00", "2022-01-10T22:30:06+00:00", "2022-01-10T22:30:51+00:00", "2022-01-10T22:35:14+00:00", "2022-01-10T22:38:18+00:00", "2022-01-10T22:44:44+00:00", "2022-01-10T22:45:25+00:00", "2022-01-10T22:49:02+00:00", "2022-01-10T22:50:53+00:00", "2022-01-10T22:53:54+00:00", "2022-01-10T22:56:13+00:00", "2022-01-10T22:59:26+00:00", "2022-01-10T23:02:06+00:00", "2022-01-10T23:03:11+00:00", "2022-01-10T23:04:54+00:00", "2022-01-10T23:06:16+00:00", "2022-01-10T23:07:50+00:00", "2022-01-10T23:09:58+00:00", "2022-01-10T23:11:20+00:00", "2022-01-10T23:14:53+00:00", "2022-01-10T23:16:07+00:00", "2022-01-10T23:21:43+00:00", "2022-01-10T23:23:13+00:00", "2022-01-10T23:26:14+00:00", "2022-01-10T23:27:32+00:00", "2022-01-10T23:28:09+00:00", "2022-01-10T23:30:08+00:00", "2022-01-10T23:34:46+00:00", "2022-01-10T23:38:19+00:00", "2022-01-10T23:40:18+00:00", "2022-01-10T23:42:34+00:00", "2022-01-10T23:43:39+00:00", "2022-01-10T23:46:20+00:00", "2022-01-10T23:52:04+00:00", "2022-01-10T23:52:57+00:00", "2022-01-10T23:55:58+00:00", "2022-01-10T23:57:12+00:00", "2022-01-11T00:01:59+00:00", "2022-01-11T00:03:13+00:00", "2022-01-11T00:07:36+00:00", "2022-01-11T00:10:36+00:00", "2022-01-11T00:12:52+00:00", "2022-01-11T00:15:21+00:00", "2022-01-11T00:16:14+00:00", "2022-01-11T00:19:52+00:00", "2022-01-11T00:23:55+00:00", "2022-01-11T00:25:42+00:00", "2022-01-11T00:27:49+00:00", "2022-01-11T00:37:05+00:00", "2022-01-11T00:41:03+00:00", "2022-01-11T00:42:41+00:00", "2022-01-11T00:43:26+00:00", "2022-01-11T00:46:47+00:00", "2022-01-11T00:48:14+00:00", "2022-01-11T00:54:36+00:00", "2022-01-11T00:57:41+00:00", "2022-01-11T00:59:24+00:00", "2022-01-11T01:02:33+00:00", "2022-01-11T01:08:59+00:00", "2022-01-11T01:12:04+00:00", "2022-01-11T01:18:43+00:00", "2022-01-11T01:25:58+00:00", "2022-01-11T01:27:00+00:00", "2022-01-11T01:30:56+00:00", "2022-01-11T01:33:46+00:00", "2022-01-11T01:41:22+00:00", "2022-01-11T01:44:28+00:00", "2022-01-11T01:47:43+00:00", "2022-01-11T01:49:48+00:00", "2022-01-11T01:53:24+00:00", "2022-01-11T01:54:06+00:00", "2022-01-11T01:56:23+00:00", "2022-01-11T01:57:41+00:00", "2022-01-11T02:00:28+00:00", "2022-01-11T02:02:53+00:00", "2022-01-11T02:05:10+00:00", "2022-01-11T02:07:06+00:00", "2022-01-11T02:10:55+00:00", "2022-01-11T02:14:10+00:00", "2022-01-11T02:14:51+00:00", "2022-01-11T02:18:39+00:00", "2022-01-11T02:19:04+00:00", "2022-01-11T02:21:36+00:00", "2022-01-11T02:24:13+00:00", "2022-01-11T02:25:07+00:00", "2022-01-11T02:27:32+00:00", "2022-01-11T02:30:58+00:00", "2022-01-11T02:32:25+00:00", "2022-01-11T02:35:23+00:00", "2022-01-11T02:37:52+00:00", "2022-01-11T02:39:31+00:00", "2022-01-11T02:42:21+00:00", "2022-01-11T02:44:34+00:00", "2022-01-11T02:46:09+00:00", "2022-01-11T02:48:55+00:00", "2022-01-11T02:51:28+00:00", "2022-01-11T03:00:00+00:00", "2022-01-11T12:02:10+00:00", "2022-01-11T22:23:27+00:00", "2022-01-11T22:24:12+00:00", "2022-01-11T22:26:33+00:00", "2022-01-11T22:28:12+00:00", "2022-01-11T22:29:27+00:00", "2022-01-11T22:32:34+00:00", "2022-01-11T22:35:53+00:00", "2022-01-11T22:37:28+00:00", "2022-01-11T22:39:49+00:00", "2022-01-11T22:42:10+00:00", "2022-01-11T22:47:41+00:00", "2022-01-11T22:48:35+00:00", "2022-01-11T22:50:22+00:00", "2022-01-11T22:51:16+00:00", "2022-01-11T22:53:37+00:00", "2022-01-11T22:56:48+00:00"], "elevations": [null, null, null, null, null, null, null, null, null, null, null, null, null, null, null, null, null, null, null, null, null, null, null, null, null, null, null, null, null, null, null, null, null, null, null, null, null, null, null, null, null, null, null, null, null, null, null, null, null, null, null, null, null, null, null, null, null, null, null, null, null, null, null, null, null, null, null, null, null, null, null, null, null, null, null, null, null, null, null, null, null, null, null, null, null, null, null, null, null, null, null, null, null, null, null, null, null, null, null, 20.6, null, null, 0.3, -1.7, null, -1.7, null, null, null, 2.3, null, null, -1.7, null, 4.4, null, null, null, 2.3, null, null, null, null, null, 6.4, null, null, null, null, null, null, null, null, null, null, null, null, null, null, null, null, null, null, null, null, null, null, null, null, null, null, null, null, null, null, null, null, null, null, null, null, null, null, null, null, null, null, null, null, null, null, null, null, null, null, null, null, null, null, -11.8, null, null, null, null, null, null, null, null, null, null, null, null, null, null, null, null, null, null, null, null, null, null, null, null, -5.8, null, null, null, null, null, null, null, null, null, null, null, null, null, null, null, null, null, null, null, null, null, null, null, null, -5.8, null, null, null, null, null, null, null, null, null, null, null, null, null, null, null, null, -5.8, null, null, null, null, null, null, null, null, null, null, null, null, null, null, null, null, null, null, 0.3, null, null, null, null, null, null, null, null, null, null, null, null, null, null, null, -1.7, null, null, null, null, null, null, null, null, null, null, null, null, null, null, null, null]}