{"type": "Feature", "properties": {"leg_id": 13, "name": "20200620 - Honolulu to Kauai", "stated_nm": 105.9, "computed_nm": 105.9}, "geometry": {"type": "LineString", "coordinates": [[-157.843755, 21.286203], [-157.844654, 21.2846], [-157.845752, 21.280585], [-157.846317, 21.278688], [-157.846632, 21.27667], [-157.846541, 21.275345], [-157.845008, 21.274113], [-157.843632, 21.272848], [-157.841047, 21.272376], [-157.839589, 21.271896], [-157.840007, 21.271619], [-157.839841, 21.269149], [-157.838457, 21.268239], [-157.837144, 21.267715], [-157.834588, 21.267796], [-157.832264, 21.267695], [-157.83142, 21.267269], [-157.831494, 21.267283], [-157.834694, 21.268058], [-157.836484, 21.269081], [-157.838582, 21.270239], [-157.840548, 21.272011], [-157.842176, 21.272781], [-157.845333, 21.274163], [-157.846194, 21.275175], [-157.846179, 21.277414], [-157.845543, 21.280704], [-157.844946, 21.283085], [-157.844146, 21.285349], [-157.842875, 21.286567], [-157.841546, 21.286668], [-157.841293, 21.286413], [-157.84667, 21.275936], [-157.852962, 21.273085], [-157.854728, 21.272559], [-157.85648, 21.271958], [-157.858091, 21.270644], [-157.859913, 21.269678], [-157.8614, 21.268975], [-157.863648, 21.26761], [-157.865042, 21.266684], [-157.867351, 21.265132], [-157.870528, 21.262287], [-157.872035, 21.260845], [-157.873918, 21.259198], [-157.875651, 21.257938], [-157.87706, 21.257645], [-157.878708, 21.256827], [-157.880977, 21.256175], [-157.882372, 21.255889], [-157.883628, 21.255094], [-157.884588, 21.254636], [-157.886086, 21.253687], [-157.88701, 21.252461], [-157.888133, 21.250517], [-157.890242, 21.247955], [-157.89148, 21.24657], [-157.892737, 21.24513], [-157.893955, 21.243746], [-157.895748, 21.242587], [-157.897652, 21.24197], [-157.900038, 21.241235], [-157.902675, 21.240567], [-157.904727, 21.240569], [-157.90726, 21.240441], [-157.911912, 21.23957], [-157.913875, 21.239032], [-157.917292, 21.238565], [-157.919087, 21.23828], [-157.921832, 21.237851], [-157.923749, 21.237861], [-157.92619, 21.237854], [-157.927922, 21.237936], [-157.931052, 21.237048], [-157.932866, 21.236514], [-157.935217, 21.236354], [-157.93746, 21.236217], [-157.940802, 21.234931], [-157.943199, 21.234124], [-157.945636, 21.233476], [-157.947953, 21.233001], [-157.950741, 21.23186], [-157.952909, 21.230595], [-157.954759, 21.229815], [-157.956438, 21.229636], [-157.958475, 21.229754], [-157.960058, 21.230239], [-157.962024, 21.2305], [-157.964009, 21.230622], [-157.966096, 21.230851], [-157.968014, 21.230925], [-157.970478, 21.230987], [-157.972634, 21.231211], [-157.974638, 21.231187], [-157.976652, 21.23119], [-157.979182, 21.230969], [-157.981443, 21.231127], [-157.983369, 21.231737], [-157.984993, 21.231906], [-157.988137, 21.232213], [-157.990559, 21.232827], [-157.992673, 21.233384], [-157.994767, 21.234025], [-157.996635, 21.234412], [-157.998497, 21.235183], [-158.001558, 21.236002], [-158.003048, 21.236547], [-158.006943, 21.237645], [-158.009664, 21.238627], [-158.011299, 21.239352], [-158.013307, 21.239759], [-158.015744, 21.24012], [-158.017641, 21.240588], [-158.019615, 21.240887], [-158.021316, 21.241149], [-158.0228, 21.241207], [-158.02471, 21.241759], [-158.027797, 21.242443], [-158.030019, 21.242516], [-158.032007, 21.243223], [-158.03415, 21.24394], [-158.036442, 21.244508], [-158.037999, 21.244643], [-158.040008, 21.245186], [-158.041855, 21.245761], [-158.044328, 21.246597], [-158.046264, 21.24688], [-158.048812, 21.247323], [-158.050966, 21.248053], [-158.052728, 21.248591], [-158.05488, 21.249473], [-158.057001, 21.250411], [-158.058782, 21.25035], [-158.06051, 21.250026], [-158.063247, 21.250361], [-158.064858, 21.25106], [-158.06602, 21.251644], [-158.068387, 21.252298], [-158.069688, 21.252595], [-158.072042, 21.253123], [-158.073701, 21.253477], [-158.075597, 21.254219], [-158.079723, 21.254258], [-158.081955, 21.25462], [-158.084047, 21.255097], [-158.08584, 21.255677], [-158.088008, 21.256297], [-158.091002, 21.256977], [-158.092659, 21.257604], [-158.094862, 21.258564], [-158.096354, 21.259081], [-158.097949, 21.259927], [-158.099973, 21.26115], [-158.101239, 21.261829], [-158.103192, 21.263184], [-158.104701, 21.264842], [-158.104037, 21.266049], [-158.103083, 21.267178], [-158.104845, 21.267845], [-158.108289, 21.271013], [-158.109126, 21.272038], [-158.11065, 21.27376], [-158.112352, 21.275237], [-158.114704, 21.277211], [-158.116511, 21.278126], [-158.118078, 21.278763], [-158.119799, 21.279702], [-158.121809, 21.280585], [-158.124347, 21.281026], [-158.12807, 21.28163], [-158.130804, 21.282491], [-158.133045, 21.28336], [-158.134399, 21.284203], [-158.136506, 21.286981], [-158.137928, 21.288099], [-158.139385, 21.289131], [-158.138887, 21.290128], [-158.140008, 21.290617], [-158.141427, 21.291568], [-158.142688, 21.292347], [-158.145932, 21.295241], [-158.147053, 21.296023], [-158.148805, 21.297326], [-158.150067, 21.298517], [-158.151355, 21.2999], [-158.152727, 21.301178], [-158.153797, 21.302352], [-158.154715, 21.303447], [-158.156072, 21.305026], [-158.157102, 21.306172], [-158.158299, 21.307637], [-158.159037, 21.30871], [-158.159808, 21.309961], [-158.160732, 21.311144], [-158.161977, 21.312573], [-158.163509, 21.31379], [-158.164709, 21.314894], [-158.165616, 21.315706], [-158.166973, 21.316726], [-158.168237, 21.317951], [-158.169462, 21.319511], [-158.170963, 21.32071], [-158.171981, 21.32133], [-158.173145, 21.322], [-158.175663, 21.323083], [-158.178125, 21.324233], [-158.179722, 21.325054], [-158.182263, 21.32622], [-158.184003, 21.326951], [-158.186969, 21.328768], [-158.188427, 21.33008], [-158.18971, 21.33131], [-158.190991, 21.332838], [-158.191891, 21.333887], [-158.192689, 21.335515], [-158.193499, 21.337597], [-158.194106, 21.339377], [-158.194688, 21.341001], [-158.195573, 21.342226], [-158.197023, 21.342725], [-158.199141, 21.343999], [-158.200525, 21.344839], [-158.201812, 21.345449], [-158.20333, 21.346638], [-158.20486, 21.347849], [-158.20671, 21.348494], [-158.208555, 21.348771], [-158.210116, 21.349563], [-158.211655, 21.35132], [-158.21335, 21.353082], [-158.21535, 21.356057], [-158.217144, 21.358205], [-158.219297, 21.361001], [-158.220121, 21.362144], [-158.221236, 21.363494], [-158.222794, 21.365327], [-158.224937, 21.367705], [-158.226364, 21.368922], [-158.228115, 21.370731], [-158.229325, 21.37206], [-158.230693, 21.373777], [-158.231588, 21.375147], [-158.232954, 21.376444], [-158.234584, 21.378188], [-158.236078, 21.379067], [-158.237418, 21.379724], [-158.238799, 21.380926], [-158.240393, 21.381896], [-158.241846, 21.382932], [-158.243573, 21.383685], [-158.245174, 21.384279], [-158.247044, 21.384877], [-158.248562, 21.38569], [-158.249802, 21.386629], [-158.250473, 21.387661], [-158.250714, 21.389115], [-158.250668, 21.390398], [-158.250788, 21.391619], [-158.252453, 21.392898], [-158.254584, 21.395015], [-158.255942, 21.396629], [-158.257457, 21.398688], [-158.259037, 21.400767], [-158.26014, 21.402095], [-158.261539, 21.403173], [-158.263253, 21.404312], [-158.264382, 21.405909], [-158.265979, 21.407349], [-158.26745, 21.408897], [-158.267899, 21.410316], [-158.268853, 21.411705], [-158.270229, 21.413134], [-158.271354, 21.414699], [-158.273667, 21.416704], [-158.276346, 21.418719], [-158.278921, 21.420625], [-158.281401, 21.42211], [-158.289605, 21.426605], [-158.292019, 21.428176], [-158.294085, 21.429747], [-158.296897, 21.431509], [-158.299023, 21.432785], [-158.302293, 21.434656], [-158.304159, 21.435927], [-158.308022, 21.438465], [-158.30969, 21.439249], [-158.311865, 21.440785], [-158.316535, 21.443723], [-158.318764, 21.444877], [-158.321004, 21.446351], [-158.323076, 21.447731], [-158.325374, 21.449268], [-158.327186, 21.45072], [-158.33087, 21.453183], [-158.333607, 21.454497], [-158.335314, 21.455603], [-158.337844, 21.457848], [-158.339125, 21.458823], [-158.348348, 21.464073], [-158.350025, 21.465272], [-158.353757, 21.467813], [-158.356216, 21.469613], [-158.361243, 21.472735], [-158.363516, 21.474007], [-158.365701, 21.475488], [-158.36825, 21.477144], [-158.370389, 21.478697], [-158.372447, 21.480208], [-158.374747, 21.481911], [-158.378213, 21.483983], [-158.382855, 21.487213], [-158.386034, 21.489721], [-158.389247, 21.491836], [-158.392218, 21.493805], [-158.394175, 21.495247], [-158.396855, 21.497249], [-158.400239, 21.499675], [-158.406433, 21.503913], [-158.408427, 21.505489], [-158.410542, 21.507223], [-158.413403, 21.509638], [-158.415487, 21.511274], [-158.4174, 21.512702], [-158.419943, 21.514593], [-158.428433, 21.521825], [-158.429901, 21.522884], [-158.435327, 21.527437], [-158.437285, 21.529561], [-158.439452, 21.531522], [-158.441211, 21.533191], [-158.442769, 21.535481], [-158.444034, 21.536957], [-158.445702, 21.538887], [-158.446579, 21.54107], [-158.44795, 21.543075], [-158.449241, 21.545144], [-158.449983, 21.546366], [-158.451362, 21.548369], [-158.452552, 21.550433], [-158.453487, 21.552407], [-158.454552, 21.554547], [-158.455289, 21.556124], [-158.456266, 21.557324], [-158.457554, 21.558887], [-158.459496, 21.560505], [-158.459992, 21.561644], [-158.461309, 21.563245], [-158.462769, 21.564739], [-158.464042, 21.566801], [-158.465458, 21.568807], [-158.466941, 21.570713], [-158.467727, 21.57211], [-158.468754, 21.573458], [-158.470158, 21.57473], [-158.471778, 21.575847], [-158.473178, 21.57678], [-158.47421, 21.577959], [-158.475345, 21.580018], [-158.476406, 21.581004], [-158.477768, 21.582339], [-158.47872, 21.583363], [-158.480448, 21.584697], [-158.481885, 21.585842], [-158.48356, 21.586524], [-158.486274, 21.587285], [-158.488898, 21.587943], [-158.4905, 21.588993], [-158.491986, 21.589527], [-158.493687, 21.590444], [-158.494856, 21.591304], [-158.495762, 21.592045], [-158.497104, 21.593192], [-158.499268, 21.595012], [-158.500907, 21.595551], [-158.50249, 21.596717], [-158.504682, 21.598846], [-158.505437, 21.599885], [-158.507518, 21.600732], [-158.509176, 21.601958], [-158.510691, 21.603171], [-158.512798, 21.604565], [-158.514165, 21.606052], [-158.515645, 21.607297], [-158.517172, 21.608137], [-158.518747, 21.609246], [-158.520044, 21.610105], [-158.521823, 21.61103], [-158.52316, 21.611686], [-158.52561, 21.611613], [-158.527526, 21.611588], [-158.52904, 21.612156], [-158.530771, 21.6126], [-158.533178, 21.61264], [-158.535217, 21.613803], [-158.537144, 21.614953], [-158.538342, 21.615718], [-158.539847, 21.616569], [-158.54096, 21.617352], [-158.54219, 21.617874], [-158.543988, 21.619008], [-158.545436, 21.61956], [-158.54724, 21.620412], [-158.550013, 21.621615], [-158.551367, 21.622432], [-158.552935, 21.623235], [-158.553941, 21.624426], [-158.55516, 21.625], [-158.556558, 21.625476], [-158.558111, 21.626734], [-158.559432, 21.627788], [-158.560969, 21.628559], [-158.562535, 21.629585], [-158.564122, 21.63021], [-158.56576, 21.630396], [-158.567832, 21.631428], [-158.570606, 21.633022], [-158.573982, 21.634512], [-158.575554, 21.634656], [-158.57751, 21.635711], [-158.579209, 21.636435], [-158.580592, 21.637498], [-158.58171, 21.638248], [-158.583514, 21.639171], [-158.584677, 21.639942], [-158.584085, 21.641213], [-158.583729, 21.642606], [-158.584582, 21.643795], [-158.58604, 21.645123], [-158.587863, 21.64666], [-158.589636, 21.648113], [-158.591884, 21.650003], [-158.592967, 21.65107], [-158.595617, 21.652924], [-158.596925, 21.654264], [-158.598355, 21.655865], [-158.599147, 21.656829], [-158.599953, 21.657942], [-158.601873, 21.659617], [-158.603094, 21.66055], [-158.604058, 21.661518], [-158.606084, 21.663762], [-158.60711, 21.664778], [-158.608614, 21.666577], [-158.610142, 21.668519], [-158.611413, 21.670118], [-158.612312, 21.671204], [-158.613874, 21.672646], [-158.614863, 21.67346], [-158.61692, 21.674872], [-158.618388, 21.675997], [-158.619704, 21.677165], [-158.621101, 21.678467], [-158.623264, 21.680264], [-158.624965, 21.681745], [-158.626026, 21.682763], [-158.627835, 21.684355], [-158.629366, 21.685727], [-158.630774, 21.686965], [-158.632098, 21.688179], [-158.634214, 21.68962], [-158.637057, 21.691802], [-158.64038, 21.694309], [-158.642222, 21.695843], [-158.64619, 21.698657], [-158.648008, 21.700269], [-158.649187, 21.701442], [-158.650702, 21.702645], [-158.652213, 21.70386], [-158.654133, 21.705173], [-158.655405, 21.706239], [-158.6567, 21.707239], [-158.659859, 21.709489], [-158.661385, 21.710694], [-158.663432, 21.712197], [-158.664899, 21.713345], [-158.666881, 21.715065], [-158.669614, 21.716736], [-158.671139, 21.717657], [-158.673226, 21.719178], [-158.674837, 21.720943], [-158.676058, 21.722148], [-158.677441, 21.723404], [-158.680244, 21.725356], [-158.682491, 21.726922], [-158.683909, 21.727795], [-158.686321, 21.729509], [-158.688003, 21.730519], [-158.690161, 21.731846], [-158.691625, 21.732747], [-158.693157, 21.733658], [-158.694531, 21.734487], [-158.696356, 21.735514], [-158.697788, 21.736248], [-158.69958, 21.737248], [-158.701051, 21.738081], [-158.703813, 21.739464], [-158.704885, 21.740039], [-158.707676, 21.741383], [-158.709315, 21.742243], [-158.711193, 21.743315], [-158.712793, 21.744073], [-158.714226, 21.744835], [-158.715992, 21.7458], [-158.718496, 21.747363], [-158.721934, 21.749551], [-158.723579, 21.750512], [-158.725517, 21.751657], [-158.727112, 21.752652], [-158.729502, 21.754094], [-158.731401, 21.755263], [-158.73334, 21.756575], [-158.734525, 21.757272], [-158.736181, 21.758253], [-158.737476, 21.758918], [-158.739351, 21.760065], [-158.741325, 21.761337], [-158.743809, 21.762877], [-158.745153, 21.763636], [-158.747366, 21.765016], [-158.749214, 21.76624], [-158.750838, 21.767351], [-158.753104, 21.769109], [-158.754259, 21.769983], [-158.755528, 21.770716], [-158.757243, 21.771641], [-158.758959, 21.772544], [-158.760763, 21.773552], [-158.762435, 21.774784], [-158.763782, 21.775715], [-158.765009, 21.776478], [-158.766735, 21.77761], [-158.768912, 21.779089], [-158.770403, 21.779918], [-158.771619, 21.7807], [-158.773848, 21.782171], [-158.774764, 21.782821], [-158.776898, 21.78421], [-158.778785, 21.785313], [-158.780932, 21.786749], [-158.782673, 21.787691], [-158.7843, 21.788585], [-158.786045, 21.789532], [-158.787856, 21.790657], [-158.789048, 21.791412], [-158.791356, 21.792803], [-158.793023, 21.793729], [-158.796177, 21.795391], [-158.798661, 21.796926], [-158.800443, 21.79802], [-158.802814, 21.799571], [-158.804289, 21.800738], [-158.805731, 21.801644], [-158.807428, 21.802703], [-158.808954, 21.803442], [-158.810544, 21.804047], [-158.812163, 21.804748], [-158.814703, 21.805988], [-158.8158, 21.806543], [-158.818184, 21.807788], [-158.820651, 21.809234], [-158.823891, 21.811027], [-158.826197, 21.812411], [-158.827665, 21.813125], [-158.829506, 21.814008], [-158.831947, 21.814836], [-158.838583, 21.817862], [-158.840924, 21.818964], [-158.846, 21.821292], [-158.848426, 21.822773], [-158.851291, 21.824438], [-158.852884, 21.825383], [-158.854161, 21.826003], [-158.856045, 21.826945], [-158.858012, 21.827883], [-158.861911, 21.829866], [-158.864001, 21.831139], [-158.866388, 21.8324], [-158.868396, 21.83353], [-158.870417, 21.834782], [-158.872245, 21.835719], [-158.873391, 21.836394], [-158.875321, 21.837233], [-158.876725, 21.837933], [-158.878354, 21.838713], [-158.879936, 21.839501], [-158.88215, 21.840665], [-158.88364, 21.841334], [-158.885853, 21.842464], [-158.887833, 21.843712], [-158.889503, 21.844637], [-158.891358, 21.845604], [-158.895679, 21.848767], [-158.896661, 21.849654], [-158.899037, 21.851348], [-158.900942, 21.852525], [-158.9023, 21.853397], [-158.903621, 21.854131], [-158.905489, 21.855122], [-158.907068, 21.856132], [-158.90867, 21.85699], [-158.912563, 21.858854], [-158.914111, 21.859489], [-158.916159, 21.860457], [-158.917171, 21.860869], [-158.919524, 21.8621], [-158.921219, 21.863247], [-158.922243, 21.864001], [-158.923702, 21.864882], [-158.925272, 21.865838], [-158.927121, 21.866833], [-158.928473, 21.867597], [-158.930093, 21.868587], [-158.931976, 21.869639], [-158.933818, 21.871108], [-158.9359, 21.872406], [-158.93759, 21.873353], [-158.939027, 21.874062], [-158.940667, 21.874913], [-158.941764, 21.875476], [-158.943892, 21.876743], [-158.945121, 21.877599], [-158.948303, 21.879362], [-158.949704, 21.879998], [-158.951087, 21.880655], [-158.952782, 21.881564], [-158.955893, 21.883079], [-158.958363, 21.884858], [-158.960342, 21.886033], [-158.962832, 21.887673], [-158.964497, 21.888846], [-158.967183, 21.890158], [-158.968897, 21.890982], [-158.970382, 21.891708], [-158.97227, 21.892778], [-158.973847, 21.89393], [-158.976164, 21.895469], [-158.978991, 21.897138], [-158.980318, 21.898103], [-158.982686, 21.899316], [-158.984733, 21.900606], [-158.985842, 21.901374], [-158.988089, 21.902615], [-158.989755, 21.903646], [-158.991068, 21.904541], [-158.992562, 21.905595], [-158.994744, 21.907169], [-158.996992, 21.908807], [-158.998152, 21.90944], [-159.000182, 21.910493], [-159.002039, 21.911707], [-159.003198, 21.912506], [-159.004637, 21.913505], [-159.006526, 21.914926], [-159.008765, 21.916817], [-159.01014, 21.917684], [-159.011836, 21.918657], [-159.01436, 21.919941], [-159.016307, 21.921276], [-159.017561, 21.922108], [-159.019365, 21.923106], [-159.020712, 21.923797], [-159.02207, 21.924628], [-159.023355, 21.925288], [-159.025109, 21.926226], [-159.027041, 21.927265], [-159.028338, 21.928006], [-159.029979, 21.928855], [-159.032152, 21.929915], [-159.033555, 21.930578], [-159.035341, 21.931913], [-159.036377, 21.932595], [-159.037788, 21.933598], [-159.038929, 21.934215], [-159.041131, 21.935724], [-159.042452, 21.936526], [-159.043563, 21.937334], [-159.044814, 21.938012], [-159.046382, 21.938885], [-159.048119, 21.939869], [-159.049873, 21.940706], [-159.051096, 21.941376], [-159.052618, 21.94209], [-159.054396, 21.942878], [-159.056234, 21.943731], [-159.057673, 21.944597], [-159.0598, 21.945651], [-159.061518, 21.946545], [-159.06314, 21.947706], [-159.064654, 21.94886], [-159.066297, 21.949909], [-159.068309, 21.951129], [-159.070241, 21.952442], [-159.071646, 21.953318], [-159.074077, 21.954749], [-159.076173, 21.956204], [-159.078062, 21.957476], [-159.080726, 21.959291], [-159.082077, 21.95933], [-159.08427, 21.959655], [-159.086802, 21.959893], [-159.08914, 21.960129], [-159.09066, 21.960485], [-159.092742, 21.960752], [-159.094957, 21.961153], [-159.098732, 21.961126], [-159.100453, 21.960909], [-159.102246, 21.960779], [-159.103583, 21.961026], [-159.106961, 21.961302], [-159.108627, 21.961318], [-159.110757, 21.961588], [-159.11296, 21.961863], [-159.114516, 21.96219], [-159.116585, 21.962843], [-159.11818, 21.963081], [-159.120234, 21.963709], [-159.122604, 21.964134], [-159.124303, 21.96419], [-159.127102, 21.964613], [-159.129, 21.964955], [-159.131195, 21.965195], [-159.132832, 21.965442], [-159.134755, 21.965467], [-159.136291, 21.965494], [-159.138673, 21.965584], [-159.140533, 21.965727], [-159.142967, 21.966014], [-159.145035, 21.966263], [-159.147973, 21.966835], [-159.150226, 21.967428], [-159.152677, 21.96796], [-159.154226, 21.968329], [-159.155879, 21.968879], [-159.157298, 21.969361], [-159.159123, 21.969554], [-159.160742, 21.969679], [-159.163283, 21.969902], [-159.164785, 21.970003], [-159.166625, 21.970164], [-159.168214, 21.970193], [-159.170845, 21.970387], [-159.173155, 21.97024], [-159.17526, 21.970389], [-159.177064, 21.970547], [-159.178761, 21.970501], [-159.181397, 21.970694], [-159.184424, 21.970942], [-159.186169, 21.971164], [-159.187691, 21.971464], [-159.189162, 21.971668], [-159.191236, 21.971766], [-159.192859, 21.971779], [-159.196408, 21.97177], [-159.19788, 21.971762], [-159.200848, 21.971656], [-159.202268, 21.97164], [-159.2043, 21.971425], [-159.206651, 21.971356], [-159.209484, 21.971197], [-159.212383, 21.970952], [-159.214392, 21.970852], [-159.216565, 21.970654], [-159.220672, 21.970401], [-159.222592, 21.970266], [-159.225223, 21.97052], [-159.227196, 21.97087], [-159.22923, 21.970543], [-159.231147, 21.970261], [-159.233631, 21.97017], [-159.235919, 21.970108], [-159.238741, 21.969847], [-159.240842, 21.969657], [-159.243334, 21.969458], [-159.245167, 21.969155], [-159.247882, 21.96865], [-159.249848, 21.968393], [-159.252482, 21.968009], [-159.254176, 21.967622], [-159.256987, 21.967142], [-159.259477, 21.966915], [-159.262229, 21.966507], [-159.264322, 21.966193], [-159.266337, 21.96595], [-159.268435, 21.965678], [-159.269918, 21.965322], [-159.272808, 21.965017], [-159.276268, 21.964497], [-159.278893, 21.964205], [-159.280411, 21.963913], [-159.282395, 21.963468], [-159.284337, 21.963322], [-159.287037, 21.962813], [-159.28963, 21.962349], [-159.292358, 21.962068], [-159.294461, 21.961668], [-159.296552, 21.961441], [-159.298709, 21.961153], [-159.300454, 21.960954], [-159.302854, 21.960297], [-159.304485, 21.95979], [-159.306854, 21.958983], [-159.309543, 21.958604], [-159.313768, 21.958061], [-159.315534, 21.957785], [-159.31758, 21.95713], [-159.319175, 21.956685], [-159.321588, 21.955881], [-159.323914, 21.954963], [-159.325846, 21.954263], [-159.327464, 21.953714], [-159.329484, 21.953024], [-159.332482, 21.952412], [-159.335691, 21.952331], [-159.337852, 21.95295], [-159.340579, 21.953421], [-159.342805, 21.953668], [-159.344908, 21.954188], [-159.347612, 21.954483], [-159.349417, 21.953656], [-159.351453, 21.952406], [-159.353909, 21.951612], [-159.356531, 21.950482], [-159.357777, 21.949332], [-159.359155, 21.949673]]}, "times": ["2020-06-20T23:48:15+00:00", "2020-06-20T23:49:59+00:00", "2020-06-20T23:52:11+00:00", "2020-06-20T23:53:47+00:00", "2020-06-20T23:54:59+00:00", "2020-06-20T23:56:11+00:00", "2020-06-20T23:59:48+00:00", "2020-06-21T00:01:04+00:00", "2020-06-21T00:03:44+00:00", "2020-06-21T00:05:48+00:00", "2020-06-21T00:13:04+00:00", "2020-06-21T00:15:40+00:00", "2020-06-21T00:16:44+00:00", "2020-06-21T00:17:20+00:00", "2020-06-21T00:20:04+00:00", "2020-06-21T00:22:21+00:00", "2020-06-21T00:29:01+00:00", "2020-06-21T01:51:15+00:00", "2020-06-21T02:31:09+00:00", "2020-06-21T02:32:29+00:00", "2020-06-21T02:34:17+00:00", "2020-06-21T02:36:01+00:00", "2020-06-21T02:37:13+00:00", "2020-06-21T02:38:41+00:00", "2020-06-21T02:39:45+00:00", "2020-06-21T02:41:53+00:00", "2020-06-21T02:43:13+00:00", "2020-06-21T02:45:29+00:00", "2020-06-21T02:47:13+00:00", "2020-06-21T02:48:05+00:00", "2020-06-21T02:50:05+00:00", "2020-06-21T07:25:24+00:00", "2020-06-22T05:48:30+00:00", "2020-06-22T05:53:21+00:00", "2020-06-22T05:54:33+00:00", "2020-06-22T05:55:45+00:00", "2020-06-22T05:57:13+00:00", "2020-06-22T05:58:37+00:00", "2020-06-22T05:59:42+00:00", "2020-06-22T06:01:26+00:00", "2020-06-22T06:02:26+00:00", "2020-06-22T06:04:46+00:00", "2020-06-22T06:06:46+00:00", "2020-06-22T06:08:54+00:00", "2020-06-22T06:10:50+00:00", "2020-06-22T06:11:59+00:00", "2020-06-22T06:12:35+00:00", "2020-06-22T06:13:43+00:00", "2020-06-22T06:15:27+00:00", "2020-06-22T06:16:39+00:00", "2020-06-22T06:17:39+00:00", "2020-06-22T06:18:23+00:00", "2020-06-22T06:19:51+00:00", "2020-06-22T06:20:55+00:00", "2020-06-22T06:22:31+00:00", "2020-06-22T06:24:23+00:00", "2020-06-22T06:25:47+00:00", "2020-06-22T06:27:07+00:00", "2020-06-22T06:28:23+00:00", "2020-06-22T06:30:11+00:00", "2020-06-22T06:31:31+00:00", "2020-06-22T06:32:07+00:00", "2020-06-22T06:34:39+00:00", "2020-06-22T06:36:08+00:00", "2020-06-22T06:37:52+00:00", "2020-06-22T06:41:00+00:00", "2020-06-22T06:42:28+00:00", "2020-06-22T06:44:56+00:00", "2020-06-22T06:45:52+00:00", "2020-06-22T06:48:00+00:00", "2020-06-22T06:48:36+00:00", "2020-06-22T06:50:36+00:00", "2020-06-22T06:51:28+00:00", "2020-06-22T06:53:28+00:00", "2020-06-22T06:54:53+00:00", "2020-06-22T06:57:09+00:00", "2020-06-22T06:57:53+00:00", "2020-06-22T06:59:57+00:00", "2020-06-22T07:01:57+00:00", "2020-06-22T07:03:41+00:00", "2020-06-22T07:05:09+00:00", "2020-06-22T07:07:46+00:00", "2020-06-22T07:08:46+00:00", "2020-06-22T07:10:18+00:00", "2020-06-22T07:11:22+00:00", "2020-06-22T07:12:50+00:00", "2020-06-22T07:13:38+00:00", "2020-06-22T07:15:26+00:00", "2020-06-22T07:16:38+00:00", "2020-06-22T07:18:10+00:00", "2020-06-22T07:19:38+00:00", "2020-06-22T07:21:35+00:00", "2020-06-22T07:22:39+00:00", "2020-06-22T07:24:07+00:00", "2020-06-22T07:25:15+00:00", "2020-06-22T07:27:27+00:00", "2020-06-22T07:28:30+00:00", "2020-06-22T07:29:55+00:00", "2020-06-22T07:31:31+00:00", "2020-06-22T07:32:59+00:00", "2020-06-22T07:35:04+00:00", "2020-06-22T07:36:28+00:00", "2020-06-22T07:38:16+00:00", "2020-06-22T07:39:28+00:00", "2020-06-22T07:40:40+00:00", "2020-06-22T07:42:52+00:00", "2020-06-22T07:44:08+00:00", "2020-06-22T07:46:16+00:00", "2020-06-22T07:48:30+00:00", "2020-06-22T07:50:00+00:00", "2020-06-22T07:51:32+00:00", "2020-06-22T07:53:12+00:00", "2020-06-22T07:54:16+00:00", "2020-06-22T07:55:44+00:00", "2020-06-22T07:57:05+00:00", "2020-06-22T07:58:05+00:00", "2020-06-22T07:59:01+00:00", "2020-06-22T08:01:25+00:00", "2020-06-22T08:02:57+00:00", "2020-06-22T08:04:13+00:00", "2020-06-22T08:05:42+00:00", "2020-06-22T08:07:10+00:00", "2020-06-22T08:07:46+00:00", "2020-06-22T08:09:18+00:00", "2020-06-22T08:10:34+00:00", "2020-06-22T08:12:18+00:00", "2020-06-22T08:13:30+00:00", "2020-06-22T08:15:02+00:00", "2020-06-22T08:16:30+00:00", "2020-06-22T08:17:46+00:00", "2020-06-22T08:19:46+00:00", "2020-06-22T08:20:58+00:00", "2020-06-22T08:21:54+00:00", "2020-06-22T08:22:50+00:00", "2020-06-22T08:24:10+00:00", "2020-06-22T08:25:35+00:00", "2020-06-22T08:26:35+00:00", "2020-06-22T08:28:11+00:00", "2020-06-22T08:28:47+00:00", "2020-06-22T08:30:35+00:00", "2020-06-22T08:31:31+00:00", "2020-06-22T08:32:31+00:00", "2020-06-22T08:34:51+00:00", "2020-06-22T08:36:35+00:00", "2020-06-22T08:37:47+00:00", "2020-06-22T08:39:19+00:00", "2020-06-22T08:40:39+00:00", "2020-06-22T08:42:31+00:00", "2020-06-22T08:43:27+00:00", "2020-06-22T08:45:16+00:00", "2020-06-22T08:46:04+00:00", "2020-06-22T08:47:32+00:00", "2020-06-22T08:48:45+00:00", "2020-06-22T08:49:24+00:00", "2020-06-22T08:51:28+00:00", "2020-06-22T08:52:36+00:00", "2020-06-22T08:53:56+00:00", "2020-06-22T08:54:52+00:00", "2020-06-22T08:56:00+00:00", "2020-06-22T08:59:08+00:00", "2020-06-22T09:00:00+00:00", "2020-06-22T09:01:08+00:00", "2020-06-22T09:02:08+00:00", "2020-06-22T09:05:32+00:00", "2020-06-22T09:06:57+00:00", "2020-06-22T09:08:45+00:00", "2020-06-22T09:11:25+00:00", "2020-06-22T09:13:09+00:00", "2020-06-22T09:18:45+00:00", "2020-06-22T09:21:09+00:00", "2020-06-22T09:23:49+00:00", "2020-06-22T09:27:17+00:00", "2020-06-22T09:29:58+00:00", "2020-06-22T09:35:58+00:00", "2020-06-22T09:43:46+00:00", "2020-06-22T09:50:58+00:00", "2020-06-22T09:53:51+00:00", "2020-06-22T09:56:39+00:00", "2020-06-22T09:58:31+00:00", "2020-06-22T10:00:15+00:00", "2020-06-22T10:03:07+00:00", "2020-06-22T10:04:20+00:00", "2020-06-22T10:06:29+00:00", "2020-06-22T10:07:25+00:00", "2020-06-22T10:09:09+00:00", "2020-06-22T10:11:25+00:00", "2020-06-22T10:13:13+00:00", "2020-06-22T10:14:05+00:00", "2020-06-22T10:16:53+00:00", "2020-06-22T10:17:45+00:00", "2020-06-22T10:20:05+00:00", "2020-06-22T10:21:01+00:00", "2020-06-22T10:22:21+00:00", "2020-06-22T10:23:25+00:00", "2020-06-22T10:25:29+00:00", "2020-06-22T10:27:02+00:00", "2020-06-22T10:29:10+00:00", "2020-06-22T10:30:10+00:00", "2020-06-22T10:32:06+00:00", "2020-06-22T10:34:18+00:00", "2020-06-22T10:35:14+00:00", "2020-06-22T10:37:22+00:00", "2020-06-22T10:38:38+00:00", "2020-06-22T10:40:14+00:00", "2020-06-22T10:43:06+00:00", "2020-06-22T10:45:43+00:00", "2020-06-22T10:46:35+00:00", "2020-06-22T10:50:31+00:00", "2020-06-22T10:51:59+00:00", "2020-06-22T10:54:11+00:00", "2020-06-22T10:56:51+00:00", "2020-06-22T10:59:00+00:00", "2020-06-22T11:00:31+00:00", "2020-06-22T11:01:51+00:00", "2020-06-22T11:03:43+00:00", "2020-06-22T11:05:43+00:00", "2020-06-22T11:07:27+00:00", "2020-06-22T11:09:00+00:00", "2020-06-22T11:10:40+00:00", "2020-06-22T11:12:00+00:00", "2020-06-22T11:14:48+00:00", "2020-06-22T11:17:08+00:00", "2020-06-22T11:19:00+00:00", "2020-06-22T11:21:28+00:00", "2020-06-22T11:23:00+00:00", "2020-06-22T11:24:40+00:00", "2020-06-22T11:27:48+00:00", "2020-06-22T11:31:24+00:00", "2020-06-22T11:32:53+00:00", "2020-06-22T11:35:13+00:00", "2020-06-22T11:36:53+00:00", "2020-06-22T11:39:57+00:00", "2020-06-22T11:41:53+00:00", "2020-06-22T11:43:25+00:00", "2020-06-22T11:44:33+00:00", "2020-06-22T11:45:53+00:00", "2020-06-22T11:49:01+00:00", "2020-06-22T11:50:09+00:00", "2020-06-22T11:52:05+00:00", "2020-06-22T11:53:34+00:00", "2020-06-22T11:55:22+00:00", "2020-06-22T11:56:22+00:00", "2020-06-22T11:58:30+00:00", "2020-06-22T12:00:22+00:00", "2020-06-22T12:02:26+00:00", "2020-06-22T12:04:58+00:00", "2020-06-22T12:07:30+00:00", "2020-06-22T12:10:02+00:00", "2020-06-22T12:12:42+00:00", "2020-06-22T12:15:15+00:00", "2020-06-22T12:17:15+00:00", "2020-06-22T12:19:07+00:00", "2020-06-22T12:21:23+00:00", "2020-06-22T12:23:43+00:00", "2020-06-22T12:25:19+00:00", "2020-06-22T12:27:51+00:00", "2020-06-22T12:30:55+00:00", "2020-06-22T12:34:15+00:00", "2020-06-22T12:37:07+00:00", "2020-06-22T12:39:15+00:00", "2020-06-22T12:40:36+00:00", "2020-06-22T12:43:08+00:00", "2020-06-22T12:44:12+00:00", "2020-06-22T12:45:40+00:00", "2020-06-22T12:47:44+00:00", "2020-06-22T12:48:44+00:00", "2020-06-22T12:50:36+00:00", "2020-06-22T12:52:36+00:00", "2020-06-22T12:53:40+00:00", "2020-06-22T12:54:44+00:00", "2020-06-22T12:55:56+00:00", "2020-06-22T12:57:28+00:00", "2020-06-22T12:59:04+00:00", "2020-06-22T13:00:48+00:00", "2020-06-22T13:04:29+00:00", "2020-06-22T13:05:37+00:00", "2020-06-22T13:09:15+00:00", "2020-06-22T13:14:57+00:00", "2020-06-22T13:16:29+00:00", "2020-06-22T13:19:14+00:00", "2020-06-22T13:20:58+00:00", "2020-06-22T13:23:42+00:00", "2020-06-22T13:25:38+00:00", "2020-06-22T13:27:18+00:00", "2020-06-22T13:30:58+00:00", "2020-06-22T13:32:42+00:00", "2020-06-22T13:34:18+00:00", "2020-06-22T13:38:22+00:00", "2020-06-22T13:41:15+00:00", "2020-06-22T13:41:47+00:00", "2020-06-22T13:44:31+00:00", "2020-06-22T13:46:55+00:00", "2020-06-22T13:48:23+00:00", "2020-06-22T13:52:55+00:00", "2020-06-22T13:53:43+00:00", "2020-06-22T13:55:35+00:00", "2020-06-22T13:57:19+00:00", "2020-06-22T13:58:43+00:00", "2020-06-22T14:06:49+00:00", "2020-06-22T14:07:17+00:00", "2020-06-22T14:12:37+00:00", "2020-06-22T14:14:37+00:00", "2020-06-22T14:18:21+00:00", "2020-06-22T14:20:38+00:00", "2020-06-22T14:21:50+00:00", "2020-06-22T14:25:54+00:00", "2020-06-22T14:26:46+00:00", "2020-06-22T14:29:06+00:00", "2020-06-22T14:31:02+00:00", "2020-06-22T14:33:34+00:00", "2020-06-22T14:37:46+00:00", "2020-06-22T14:41:51+00:00", "2020-06-22T14:45:19+00:00", "2020-06-22T14:47:07+00:00", "2020-06-22T14:48:03+00:00", "2020-06-22T14:49:30+00:00", "2020-06-22T14:53:51+00:00", "2020-06-22T14:58:55+00:00", "2020-06-22T15:01:15+00:00", "2020-06-22T15:03:23+00:00", "2020-06-22T15:05:28+00:00", "2020-06-22T15:06:56+00:00", "2020-06-22T15:09:28+00:00", "2020-06-22T15:11:20+00:00", "2020-06-22T15:19:12+00:00", "2020-06-22T15:21:28+00:00", "2020-06-22T15:25:20+00:00", "2020-06-22T15:26:44+00:00", "2020-06-22T15:29:30+00:00", "2020-06-22T15:31:33+00:00", "2020-06-22T15:33:05+00:00", "2020-06-22T15:34:41+00:00", "2020-06-22T15:35:21+00:00", "2020-06-22T15:37:49+00:00", "2020-06-22T15:39:30+00:00", "2020-06-22T15:41:05+00:00", "2020-06-22T15:42:02+00:00", "2020-06-22T15:43:34+00:00", "2020-06-22T15:45:14+00:00", "2020-06-22T15:46:50+00:00", "2020-06-22T15:48:34+00:00", "2020-06-22T15:49:42+00:00", "2020-06-22T15:50:58+00:00", "2020-06-22T15:52:34+00:00", "2020-06-22T15:54:02+00:00", "2020-06-22T15:54:46+00:00", "2020-06-22T15:56:18+00:00", "2020-06-22T15:57:54+00:00", "2020-06-22T16:00:06+00:00", "2020-06-22T16:01:30+00:00", "2020-06-22T16:03:10+00:00", "2020-06-22T16:03:59+00:00", "2020-06-22T16:05:11+00:00", "2020-06-22T16:06:43+00:00", "2020-06-22T16:08:03+00:00", "2020-06-22T16:09:15+00:00", "2020-06-22T16:10:23+00:00", "2020-06-22T16:12:03+00:00", "2020-06-22T16:13:15+00:00", "2020-06-22T16:14:35+00:00", "2020-06-22T16:15:19+00:00", "2020-06-22T16:17:03+00:00", "2020-06-22T16:18:35+00:00", "2020-06-22T16:20:07+00:00", "2020-06-22T16:22:55+00:00", "2020-06-22T16:24:40+00:00", "2020-06-22T16:25:32+00:00", "2020-06-22T16:26:48+00:00", "2020-06-22T16:28:24+00:00", "2020-06-22T16:29:32+00:00", "2020-06-22T16:30:28+00:00", "2020-06-22T16:32:08+00:00", "2020-06-22T16:34:04+00:00", "2020-06-22T16:35:12+00:00", "2020-06-22T16:36:12+00:00", "2020-06-22T16:38:32+00:00", "2020-06-22T16:39:45+00:00", "2020-06-22T16:41:32+00:00", "2020-06-22T16:42:52+00:00", "2020-06-22T16:43:52+00:00", "2020-06-22T16:46:01+00:00", "2020-06-22T16:47:41+00:00", "2020-06-22T16:48:57+00:00", "2020-06-22T16:49:45+00:00", "2020-06-22T16:51:37+00:00", "2020-06-22T16:52:53+00:00", "2020-06-22T16:54:17+00:00", "2020-06-22T16:55:41+00:00", "2020-06-22T16:57:21+00:00", "2020-06-22T16:58:57+00:00", "2020-06-22T17:00:25+00:00", "2020-06-22T17:01:29+00:00", "2020-06-22T17:03:53+00:00", "2020-06-22T17:05:25+00:00", "2020-06-22T17:06:57+00:00", "2020-06-22T17:08:01+00:00", "2020-06-22T17:09:14+00:00", "2020-06-22T17:10:42+00:00", "2020-06-22T17:11:14+00:00", "2020-06-22T17:13:10+00:00", "2020-06-22T17:14:30+00:00", "2020-06-22T17:15:46+00:00", "2020-06-22T17:17:46+00:00", "2020-06-22T17:19:30+00:00", "2020-06-22T17:20:46+00:00", "2020-06-22T17:22:02+00:00", "2020-06-22T17:23:02+00:00", "2020-06-22T17:23:58+00:00", "2020-06-22T17:25:18+00:00", "2020-06-22T17:26:46+00:00", "2020-06-22T17:28:02+00:00", "2020-06-22T17:29:34+00:00", "2020-06-22T17:30:50+00:00", "2020-06-22T17:32:35+00:00", "2020-06-22T17:34:15+00:00", "2020-06-22T17:35:03+00:00", "2020-06-22T17:38:59+00:00", "2020-06-22T17:40:03+00:00", "2020-06-22T17:41:35+00:00", "2020-06-22T17:42:55+00:00", "2020-06-22T17:44:27+00:00", "2020-06-22T17:45:27+00:00", "2020-06-22T17:47:07+00:00", "2020-06-22T17:48:03+00:00", "2020-06-22T17:49:07+00:00", "2020-06-22T17:50:19+00:00", "2020-06-22T17:51:24+00:00", "2020-06-22T17:53:32+00:00", "2020-06-22T17:55:40+00:00", "2020-06-22T17:56:12+00:00", "2020-06-22T17:59:12+00:00", "2020-06-22T17:59:45+00:00", "2020-06-22T18:01:40+00:00", "2020-06-22T18:02:52+00:00", "2020-06-22T18:04:20+00:00", "2020-06-22T18:05:08+00:00", "2020-06-22T18:06:00+00:00", "2020-06-22T18:08:12+00:00", "2020-06-22T18:09:12+00:00", "2020-06-22T18:09:45+00:00", "2020-06-22T18:11:53+00:00", "2020-06-22T18:13:17+00:00", "2020-06-22T18:14:29+00:00", "2020-06-22T18:16:25+00:00", "2020-06-22T18:17:41+00:00", "2020-06-22T18:18:21+00:00", "2020-06-22T18:19:45+00:00", "2020-06-22T18:20:49+00:00", "2020-06-22T18:23:01+00:00", "2020-06-22T18:24:01+00:00", "2020-06-22T18:24:53+00:00", "2020-06-22T18:26:05+00:00", "2020-06-22T18:28:33+00:00", "2020-06-22T18:29:45+00:00", "2020-06-22T18:30:33+00:00", "2020-06-22T18:33:01+00:00", "2020-06-22T18:33:53+00:00", "2020-06-22T18:35:14+00:00", "2020-06-22T18:36:22+00:00", "2020-06-22T18:38:26+00:00", "2020-06-22T18:41:42+00:00", "2020-06-22T18:44:02+00:00", "2020-06-22T18:45:22+00:00", "2020-06-22T18:48:42+00:00", "2020-06-22T18:50:10+00:00", "2020-06-22T18:51:18+00:00", "2020-06-22T18:52:42+00:00", "2020-06-22T18:54:06+00:00", "2020-06-22T18:55:47+00:00", "2020-06-22T18:56:47+00:00", "2020-06-22T18:57:23+00:00", "2020-06-22T18:59:43+00:00", "2020-06-22T19:01:15+00:00", "2020-06-22T19:03:11+00:00", "2020-06-22T19:04:07+00:00", "2020-06-22T19:05:39+00:00", "2020-06-22T19:07:27+00:00", "2020-06-22T19:08:47+00:00", "2020-06-22T19:10:11+00:00", "2020-06-22T19:12:11+00:00", "2020-06-22T19:13:23+00:00", "2020-06-22T19:14:39+00:00", "2020-06-22T19:16:08+00:00", "2020-06-22T19:18:40+00:00", "2020-06-22T19:19:45+00:00", "2020-06-22T19:22:00+00:00", "2020-06-22T19:23:20+00:00", "2020-06-22T19:24:56+00:00", "2020-06-22T19:25:32+00:00", "2020-06-22T19:26:44+00:00", "2020-06-22T19:27:56+00:00", "2020-06-22T19:29:16+00:00", "2020-06-22T19:30:16+00:00", "2020-06-22T19:31:32+00:00", "2020-06-22T19:33:24+00:00", "2020-06-22T19:34:36+00:00", "2020-06-22T19:35:32+00:00", "2020-06-22T19:37:20+00:00", "2020-06-22T19:38:49+00:00", "2020-06-22T19:40:17+00:00", "2020-06-22T19:41:09+00:00", "2020-06-22T19:42:05+00:00", "2020-06-22T19:43:21+00:00", "2020-06-22T19:45:37+00:00", "2020-06-22T19:47:29+00:00", "2020-06-22T19:48:57+00:00", "2020-06-22T19:50:49+00:00", "2020-06-22T19:51:13+00:00", "2020-06-22T19:53:17+00:00", "2020-06-22T19:54:57+00:00", "2020-06-22T19:56:09+00:00", "2020-06-22T19:56:33+00:00", "2020-06-22T19:57:49+00:00", "2020-06-22T19:58:45+00:00", "2020-06-22T20:00:02+00:00", "2020-06-22T20:01:18+00:00", "2020-06-22T20:03:26+00:00", "2020-06-22T20:04:46+00:00", "2020-06-22T20:05:46+00:00", "2020-06-22T20:07:18+00:00", "2020-06-22T20:07:42+00:00", "2020-06-22T20:09:58+00:00", "2020-06-22T20:10:46+00:00", "2020-06-22T20:11:42+00:00", "2020-06-22T20:12:54+00:00", "2020-06-22T20:14:02+00:00", "2020-06-22T20:15:38+00:00", "2020-06-22T20:16:42+00:00", "2020-06-22T20:17:43+00:00", "2020-06-22T20:18:27+00:00", "2020-06-22T20:20:00+00:00", "2020-06-22T20:21:23+00:00", "2020-06-22T20:22:15+00:00", "2020-06-22T20:22:47+00:00", "2020-06-22T20:24:35+00:00", "2020-06-22T20:25:07+00:00", "2020-06-22T20:26:47+00:00", "2020-06-22T20:28:07+00:00", "2020-06-22T20:29:51+00:00", "2020-06-22T20:30:15+00:00", "2020-06-22T20:31:27+00:00", "2020-06-22T20:33:35+00:00", "2020-06-22T20:34:07+00:00", "2020-06-22T20:34:39+00:00", "2020-06-22T20:37:03+00:00", "2020-06-22T20:37:51+00:00", "2020-06-22T20:39:44+00:00", "2020-06-22T20:41:56+00:00", "2020-06-22T20:43:28+00:00", "2020-06-22T20:45:08+00:00", "2020-06-22T20:46:04+00:00", "2020-06-22T20:46:52+00:00", "2020-06-22T20:48:36+00:00", "2020-06-22T20:49:12+00:00", "2020-06-22T20:50:04+00:00", "2020-06-22T20:51:12+00:00", "2020-06-22T20:53:04+00:00", "2020-06-22T20:53:44+00:00", "2020-06-22T20:55:44+00:00", "2020-06-22T20:57:32+00:00", "2020-06-22T20:59:04+00:00", "2020-06-22T21:00:48+00:00", "2020-06-22T21:02:25+00:00", "2020-06-22T21:04:09+00:00", "2020-06-22T21:05:37+00:00", "2020-06-22T21:10:15+00:00", "2020-06-22T21:12:01+00:00", "2020-06-22T21:15:05+00:00", "2020-06-22T21:16:57+00:00", "2020-06-22T21:18:41+00:00", "2020-06-22T21:20:01+00:00", "2020-06-22T21:20:49+00:00", "2020-06-22T21:22:09+00:00", "2020-06-22T21:22:41+00:00", "2020-06-22T21:26:06+00:00", "2020-06-22T21:26:38+00:00", "2020-06-22T21:28:58+00:00", "2020-06-22T21:30:15+00:00", "2020-06-22T21:31:58+00:00", "2020-06-22T21:33:02+00:00", "2020-06-22T21:33:42+00:00", "2020-06-22T21:35:22+00:00", "2020-06-22T21:35:58+00:00", "2020-06-22T21:37:38+00:00", "2020-06-22T21:38:54+00:00", "2020-06-22T21:40:15+00:00", "2020-06-22T21:41:06+00:00", "2020-06-22T21:42:46+00:00", "2020-06-22T21:44:26+00:00", "2020-06-22T21:45:26+00:00", "2020-06-22T21:47:23+00:00", "2020-06-22T21:50:19+00:00", "2020-06-22T21:51:27+00:00", "2020-06-22T21:52:55+00:00", "2020-06-22T21:54:39+00:00", "2020-06-22T21:55:39+00:00", "2020-06-22T21:56:35+00:00", "2020-06-22T21:57:55+00:00", "2020-06-22T21:58:55+00:00", "2020-06-22T22:00:15+00:00", "2020-06-22T22:02:59+00:00", "2020-06-22T22:03:47+00:00", "2020-06-22T22:05:32+00:00", "2020-06-22T22:06:08+00:00", "2020-06-22T22:08:28+00:00", "2020-06-22T22:09:08+00:00", "2020-06-22T22:09:44+00:00", "2020-06-22T22:11:00+00:00", "2020-06-22T22:12:20+00:00", "2020-06-22T22:13:24+00:00", "2020-06-22T22:14:12+00:00", "2020-06-22T22:15:04+00:00", "2020-06-22T22:16:24+00:00", "2020-06-22T22:18:08+00:00", "2020-06-22T22:20:15+00:00", "2020-06-22T22:20:44+00:00", "2020-06-22T22:22:00+00:00", "2020-06-22T22:23:16+00:00", "2020-06-22T22:23:48+00:00", "2020-06-22T22:25:36+00:00", "2020-06-22T22:26:48+00:00", "2020-06-22T22:28:37+00:00", "2020-06-22T22:30:05+00:00", "2020-06-22T22:30:45+00:00", "2020-06-22T22:31:57+00:00", "2020-06-22T22:34:53+00:00", "2020-06-22T22:36:29+00:00", "2020-06-22T22:37:57+00:00", "2020-06-22T22:40:15+00:00", "2020-06-22T22:42:17+00:00", "2020-06-22T22:43:25+00:00", "2020-06-22T22:45:09+00:00", "2020-06-22T22:46:21+00:00", "2020-06-22T22:48:26+00:00", "2020-06-22T22:48:58+00:00", "2020-06-22T22:50:15+00:00", "2020-06-22T22:53:46+00:00", "2020-06-22T22:54:46+00:00", "2020-06-22T22:56:10+00:00", "2020-06-22T22:58:38+00:00", "2020-06-22T22:59:30+00:00", "2020-06-22T23:01:34+00:00", "2020-06-22T23:02:54+00:00", "2020-06-22T23:04:02+00:00", "2020-06-22T23:04:42+00:00", "2020-06-22T23:07:31+00:00", "2020-06-22T23:09:51+00:00", "2020-06-22T23:10:39+00:00", "2020-06-22T23:12:51+00:00", "2020-06-22T23:14:19+00:00", "2020-06-22T23:15:19+00:00", "2020-06-22T23:16:43+00:00", "2020-06-22T23:18:39+00:00", "2020-06-22T23:20:23+00:00", "2020-06-22T23:21:35+00:00", "2020-06-22T23:23:23+00:00", "2020-06-22T23:25:19+00:00", "2020-06-22T23:26:51+00:00", "2020-06-22T23:27:31+00:00", "2020-06-22T23:29:12+00:00", "2020-06-22T23:30:30+00:00", "2020-06-22T23:31:20+00:00", "2020-06-22T23:32:28+00:00", "2020-06-22T23:33:40+00:00", "2020-06-22T23:35:24+00:00", "2020-06-22T23:36:52+00:00", "2020-06-22T23:37:24+00:00", "2020-06-22T23:39:56+00:00", "2020-06-22T23:40:30+00:00", "2020-06-22T23:42:20+00:00", "2020-06-22T23:43:04+00:00", "2020-06-22T23:44:24+00:00", "2020-06-22T23:45:12+00:00", "2020-06-22T23:47:36+00:00", "2020-06-22T23:48:20+00:00", "2020-06-22T23:49:13+00:00", "2020-06-22T23:50:30+00:00", "2020-06-22T23:51:57+00:00", "2020-06-22T23:53:09+00:00", "2020-06-22T23:54:49+00:00", "2020-06-22T23:55:49+00:00", "2020-06-22T23:57:05+00:00", "2020-06-22T23:58:33+00:00", "2020-06-23T00:00:30+00:00", "2020-06-23T00:01:45+00:00", "2020-06-23T00:03:53+00:00", "2020-06-23T00:05:17+00:00", "2020-06-23T00:07:57+00:00", "2020-06-23T00:09:21+00:00", "2020-06-23T00:11:30+00:00", "2020-06-23T00:12:06+00:00", "2020-06-23T00:14:50+00:00", "2020-06-23T00:16:10+00:00", "2020-06-23T00:18:06+00:00", "2020-06-23T00:21:06+00:00", "2020-06-23T00:23:26+00:00", "2020-06-23T00:25:14+00:00", "2020-06-23T00:26:26+00:00", "2020-06-23T00:27:54+00:00", "2020-06-23T00:30:42+00:00", "2020-06-23T00:32:42+00:00", "2020-06-23T00:34:07+00:00", "2020-06-23T00:36:15+00:00", "2020-06-23T00:38:23+00:00", "2020-06-23T00:40:15+00:00", "2020-06-23T00:41:31+00:00", "2020-06-23T00:43:19+00:00", "2020-06-23T00:44:11+00:00", "2020-06-23T00:46:31+00:00", "2020-06-23T00:48:07+00:00", "2020-06-23T00:49:59+00:00", "2020-06-23T00:51:27+00:00", "2020-06-23T00:52:31+00:00", "2020-06-23T00:54:15+00:00", "2020-06-23T00:55:20+00:00", "2020-06-23T00:57:24+00:00", "2020-06-23T00:59:28+00:00", "2020-06-23T01:00:20+00:00", "2020-06-23T01:02:56+00:00", "2020-06-23T01:04:24+00:00", "2020-06-23T01:05:28+00:00", "2020-06-23T01:06:24+00:00", "2020-06-23T01:08:04+00:00", "2020-06-23T01:08:52+00:00", "2020-06-23T01:10:56+00:00", "2020-06-23T01:12:20+00:00", "2020-06-23T01:13:52+00:00", "2020-06-23T01:15:32+00:00", "2020-06-23T01:16:56+00:00", "2020-06-23T01:18:49+00:00", "2020-06-23T01:20:57+00:00", "2020-06-23T01:22:01+00:00", "2020-06-23T01:23:13+00:00", "2020-06-23T01:24:33+00:00", "2020-06-23T01:26:21+00:00", "2020-06-23T01:27:05+00:00", "2020-06-23T01:29:17+00:00", "2020-06-23T01:30:09+00:00", "2020-06-23T01:31:37+00:00", "2020-06-23T01:32:29+00:00", "2020-06-23T01:35:33+00:00", "2020-06-23T01:37:05+00:00", "2020-06-23T01:38:09+00:00", "2020-06-23T01:39:25+00:00", "2020-06-23T01:40:45+00:00", "2020-06-23T01:42:02+00:00", "2020-06-23T01:45:26+00:00", "2020-06-23T01:46:30+00:00", "2020-06-23T01:47:50+00:00", "2020-06-23T01:49:06+00:00", "2020-06-23T01:50:30+00:00", "2020-06-23T01:51:58+00:00", "2020-06-23T01:54:42+00:00", "2020-06-23T01:55:58+00:00", "2020-06-23T01:58:42+00:00", "2020-06-23T01:59:42+00:00", "2020-06-23T02:01:10+00:00", "2020-06-23T02:03:39+00:00", "2020-06-23T02:05:07+00:00", "2020-06-23T02:08:43+00:00", "2020-06-23T02:09:55+00:00", "2020-06-23T02:13:03+00:00", "2020-06-23T02:15:15+00:00", "2020-06-23T02:16:51+00:00", "2020-06-23T02:19:03+00:00", "2020-06-23T02:19:55+00:00", "2020-06-23T02:21:00+00:00", "2020-06-23T02:21:55+00:00", "2020-06-23T02:23:23+00:00", "2020-06-23T02:24:20+00:00", "2020-06-23T02:26:28+00:00", "2020-06-23T02:27:44+00:00", "2020-06-23T02:29:16+00:00", "2020-06-23T02:30:24+00:00", "2020-06-23T02:31:36+00:00", "2020-06-23T02:33:08+00:00", "2020-06-23T02:34:16+00:00", "2020-06-23T02:35:00+00:00", "2020-06-23T02:36:52+00:00", "2020-06-23T02:38:28+00:00", "2020-06-23T02:39:28+00:00", "2020-06-23T02:41:24+00:00", "2020-06-23T02:42:28+00:00", "2020-06-23T02:43:52+00:00", "2020-06-23T02:44:24+00:00", "2020-06-23T02:45:37+00:00", "2020-06-23T02:49:09+00:00", "2020-06-23T02:49:45+00:00", "2020-06-23T02:50:17+00:00", "2020-06-23T02:51:45+00:00", "2020-06-23T02:52:57+00:00", "2020-06-23T02:54:57+00:00", "2020-06-23T02:55:45+00:00", "2020-06-23T02:58:09+00:00", "2020-06-23T02:59:21+00:00", "2020-06-23T03:00:29+00:00", "2020-06-23T03:01:45+00:00", "2020-06-23T03:02:57+00:00", "2020-06-23T03:04:21+00:00", "2020-06-23T03:05:09+00:00", "2020-06-23T03:07:29+00:00", "2020-06-23T03:08:58+00:00", "2020-06-23T03:10:58+00:00", "2020-06-23T03:12:10+00:00", "2020-06-23T03:13:34+00:00", "2020-06-23T03:14:26+00:00", "2020-06-23T03:16:30+00:00", "2020-06-23T03:18:14+00:00", "2020-06-23T03:19:18+00:00", "2020-06-23T03:20:10+00:00", "2020-06-23T03:21:34+00:00", "2020-06-23T03:24:18+00:00", "2020-06-23T03:25:34+00:00", "2020-06-23T03:27:14+00:00", "2020-06-23T03:29:22+00:00", "2020-06-23T03:30:50+00:00", "2020-06-23T03:31:23+00:00", "2020-06-23T03:33:51+00:00", "2020-06-23T03:34:55+00:00", "2020-06-23T03:36:15+00:00", "2020-06-23T03:38:27+00:00", "2020-06-23T03:40:11+00:00", "2020-06-23T03:41:07+00:00", "2020-06-23T03:44:55+00:00"], "elevations": [null, null, null, null, null, null, 12.5, null, null, null, 12.5, null, null, 22.6, null, null, 14.5, 14.5, null, null, null, null, null, null, 8.4, null, null, null, null, null, 18.6, 64.4, 16.5, null, null, null, null, 16.5, null, null, null, null, null, 16.5, null, null, null, null, null, null, null, 16.5, null, null, null, null, null, null, 14.5, null, null, null, null, null, 14.5, null, null, null, null, null, 12.5, null, null, null, null, null, 12.5, null, null, null, null, null, 14.5, null, null, null, null, null, null, 40.9, null, null, null, null, null, null, 12.5, null, null, null, null, null, 12.5, null, null, null, null, null, 12.5, null, null, null, null, null, null, null, 12.5, null, null, null, null, null, 10.5, null, null, null, null, null, null, null, 10.5, null, null, null, null, null, null, null, 20.6, null, null, null, null, null, null, 2.3, null, null, null, null, null, null, 6.4, null, null, null, null, null, null, 12.5, null, null, null, null, null, 12.5, null, null, 12.5, null, null, null, 12.5, 16.5, null, 20.6, null, null, 49.0, null, null, null, null, null, 10.5, null, null, null, null, 10.5, null, null, null, null, null, null, 12.5, null, null, null, null, null, null, 12.5, null, null, null, 12.5, null, null, null, 12.5, null, null, null, null, null, 14.5, null, null, null, null, 2.3, null, null, null, null, null, 6.4, null, null, null, null, 28.7, null, null, null, null, null, 24.7, null, null, null, null, null, 0.3, null, null, null, 16.5, null, null, null, 12.5, null, null, null, null, null, 12.5, null, null, null, null, null, 14.5, null, null, null, null, null, null, 14.5, null, null, null, 14.5, null, null, 14.5, null, null, null, 26.7, null, null, null, null, null, null, null, null, null, 49.0, null, null, null, null, null, 2.3, null, null, null, 4.4, null, null, null, null, 4.4, null, null, 4.4, null, null, null, 6.4, null, null, 4.4, null, null, null, null, null, null, 6.4, null, null, 6.4, null, null, null, null, null, 8.4, null, null, null, null, null, null, 8.4, null, null, null, null, null, null, null, null, null, null, null, null, null, 16.5, null, null, null, null, null, null, null, 18.6, null, null, null, null, null, 18.6, null, null, null, null, null, null, -7.8, null, null, null, null, null, null, 6.4, null, null, null, null, null, null, 4.4, null, null, null, null, null, null, 8.4, null, null, null, null, null, 4.4, null, null, null, null, null, null, null, 6.4, null, null, null, null, null, 4.4, null, null, null, null, null, null, 6.4, null, null, null, null, null, null, 6.4, null, null, null, null, null, null, null, 6.4, null, null, null, null, null, null, null, null, null, null, null, null, null, null, null, null, null, null, null, null, 10.5, null, null, null, 10.5, null, null, null, null, null, null, null, null, null, null, null, null, 10.5, null, null, null, null, null, null, 14.5, null, null, null, null, null, null, 10.5, null, null, null, null, null, null, null, 10.5, null, null, null, null, null, null, 2.3, null, null, null, null, null, null, null, 2.3, null, null, null, null, null, null, 2.3, null, null, null, null, null, null, null, null, 2.3, null, null, null, null, null, null, null, null, 4.4, null, null, null, null, null, null, -11.8, null, null, null, null, null, null, null, 2.3, null, null, null, null, null, 0.3, null, null, null, null, 12.5, null, null, null, null, 12.5, null, null, null, null, null, null, 12.5, null, null, null, null, null, null, null, 14.5, null, null, null, null, null, 36.9, null, null, null, null, null, null, null, 12.5, null, null, null, null, null, null, 12.5, null, null, null, null, null, null, null, 12.5, null, null, null, null, null, null, null, null, null, null, null, null, null, 12.5, null, null, null, null, null, null, 12.5, null, null, null, null, null, 14.5, null, null, null, null, null, 14.5, null, null, null, null, null, 14.5, null, null, null, null, null, null, 45.0, null, null, null, null, null, null, null, 16.5, null, null, null, null, null, null, null, 10.5, null, null, null, null, null, null, 4.4, null, null, null, null, null, 2.3, null, null, null, null, 4.4, null, null, null, null, 4.4, null, null, null, null, 2.3, null, null, null, null, null, null, -1.7, null, null, null, null, null, 14.5, null, null, null, null, null, null, 18.6, null, null, null, null, null, 32.8, null, null, null, null, null, null, 12.5, null, null, null, null, null, null, 12.5, null, null, null, null, null, 14.5, null, null, null, null, null, 14.5, null, null, null, 14.5, null, null, null, null, null, -15.9, null, null, null, null, null, null, null, 10.5, null, null, null, null, null, null, null, null, null, null, null, null, null, 30.8, null, null, null, null, null, null, 22.6, null, null, null, null, null, null, null, null, null, null, null, null, null, null, 20.6, null, null, null, null, null, 20.6, null, null, null, null, null, -1.7, 45.0]}