{"type": "Feature", "properties": {"leg_id": 55, "name": "20230611 - Middle Percy Island to Mackay", "stated_nm": 100.9, "computed_nm": 100.9}, "geometry": {"type": "LineString", "coordinates": [[150.241809, -21.649883], [150.239102, -21.64743], [150.235077, -21.643648], [150.232169, -21.640916], [150.229691, -21.638613], [150.226993, -21.636214], [150.224136, -21.634062], [150.22141, -21.632057], [150.219245, -21.630354], [150.217006, -21.628665], [150.213869, -21.626362], [150.210905, -21.624354], [150.207624, -21.622383], [150.204824, -21.620817], [150.200966, -21.618933], [150.198433, -21.617862], [150.194633, -21.616418], [150.191474, -21.615189], [150.18841, -21.613948], [150.18496, -21.612489], [150.182409, -21.61135], [150.178721, -21.609621], [150.175961, -21.608383], [150.173538, -21.607245], [150.169166, -21.605133], [150.165627, -21.603397], [150.162613, -21.601853], [150.159822, -21.600412], [150.154731, -21.597691], [150.150857, -21.595647], [150.147712, -21.593955], [150.145554, -21.592803], [150.14193, -21.590902], [150.138509, -21.589062], [150.135384, -21.58735], [150.132697, -21.585791], [150.129394, -21.583955], [150.126472, -21.582298], [150.123532, -21.580577], [150.120643, -21.578861], [150.118103, -21.577309], [150.115423, -21.575529], [150.112011, -21.573277], [150.109954, -21.572112], [150.106754, -21.570095], [150.104594, -21.568591], [150.101742, -21.566359], [150.099106, -21.564253], [150.096065, -21.56177], [150.092681, -21.559011], [150.09093, -21.557609], [150.08818, -21.555281], [150.085629, -21.55311], [150.083486, -21.551169], [150.080857, -21.548808], [150.078685, -21.546771], [150.076713, -21.544985], [150.074566, -21.543058], [150.071763, -21.540442], [150.069815, -21.53868], [150.067117, -21.536129], [150.06494, -21.534189], [150.063057, -21.532496], [150.060536, -21.530252], [150.057687, -21.527532], [150.055655, -21.525712], [150.05278, -21.522893], [150.051238, -21.521266], [150.049212, -21.519349], [150.046463, -21.51746], [150.042803, -21.51499], [150.039734, -21.512993], [150.036868, -21.51111], [150.033074, -21.508523], [150.030777, -21.506961], [150.027153, -21.504578], [150.025055, -21.50319], [150.021461, -21.500695], [150.01833, -21.498499], [150.015087, -21.496212], [150.012217, -21.494114], [150.009461, -21.492113], [150.007429, -21.490568], [150.005245, -21.488965], [150.002446, -21.486719], [149.998962, -21.484178], [149.996968, -21.48267], [149.993768, -21.480338], [149.991301, -21.478677], [149.988574, -21.47676], [149.986458, -21.475193], [149.984218, -21.473649], [149.981222, -21.471467], [149.97932, -21.470081], [149.976282, -21.467986], [149.974197, -21.466513], [149.971, -21.464258], [149.96925, -21.462978], [149.966281, -21.460888], [149.96361, -21.458965], [149.961054, -21.457191], [149.958702, -21.455981], [149.955885, -21.454765], [149.952999, -21.453457], [149.949455, -21.45194], [149.946822, -21.450735], [149.943666, -21.449465], [149.939868, -21.447936], [149.936832, -21.446819], [149.933554, -21.445581], [149.930209, -21.444278], [149.927607, -21.443124], [149.925037, -21.441774], [149.922568, -21.440339], [149.919842, -21.438716], [149.91659, -21.436611], [149.914133, -21.435132], [149.911742, -21.433998], [149.908712, -21.432798], [149.906459, -21.431972], [149.903625, -21.430872], [149.90121, -21.429793], [149.899004, -21.42864], [149.896374, -21.427419], [149.893624, -21.425985], [149.89131, -21.424981], [149.88783, -21.423403], [149.885027, -21.422206], [149.882543, -21.421102], [149.880057, -21.420015], [149.877317, -21.418704], [149.874961, -21.417401], [149.872904, -21.416118], [149.869949, -21.414418], [149.867642, -21.413081], [149.864675, -21.411452], [149.862494, -21.410175], [149.860021, -21.408907], [149.858092, -21.407901], [149.854863, -21.406545], [149.852035, -21.4053], [149.84935, -21.403973], [149.846648, -21.402836], [149.844137, -21.401728], [149.84086, -21.400163], [149.838256, -21.398769], [149.83582, -21.397609], [149.832352, -21.396167], [149.829261, -21.394793], [149.827051, -21.393745], [149.824641, -21.392599], [149.822007, -21.391367], [149.817666, -21.389643], [149.814817, -21.388541], [149.811243, -21.387257], [149.808492, -21.386219], [149.805942, -21.385286], [149.803224, -21.384269], [149.799395, -21.382707], [149.796819, -21.381724], [149.793547, -21.380373], [149.790521, -21.379212], [149.78755, -21.378074], [149.784087, -21.376755], [149.780366, -21.375189], [149.777873, -21.374247], [149.775621, -21.373399], [149.772594, -21.372366], [149.769891, -21.371518], [149.766439, -21.370266], [149.762444, -21.368818], [149.758976, -21.367554], [149.756028, -21.366592], [149.752887, -21.365502], [149.749386, -21.364367], [149.744262, -21.362491], [149.740742, -21.361265], [149.738779, -21.360596], [149.736322, -21.359607], [149.733917, -21.358744], [149.731001, -21.357745], [149.727818, -21.35651], [149.724755, -21.355443], [149.721546, -21.354268], [149.718914, -21.353375], [149.716647, -21.35259], [149.714174, -21.351712], [149.712102, -21.351024], [149.709621, -21.350144], [149.70707, -21.349249], [149.704195, -21.348192], [149.701172, -21.34722], [149.698028, -21.346319], [149.694612, -21.345359], [149.6924, -21.344791], [149.689624, -21.344115], [149.687212, -21.343522], [149.683093, -21.342446], [149.680311, -21.341635], [149.677903, -21.340997], [149.674557, -21.339931], [149.671043, -21.338896], [149.667623, -21.337911], [149.664905, -21.33717], [149.661894, -21.336244], [149.658156, -21.335286], [149.655159, -21.334451], [149.651552, -21.333536], [149.647712, -21.332535], [149.645003, -21.331533], [149.642428, -21.330339], [149.63852, -21.328577], [149.635384, -21.327189], [149.632136, -21.325769], [149.628886, -21.324444], [149.625549, -21.323047], [149.621453, -21.321306], [149.61894, -21.320207], [149.615769, -21.318859], [149.612409, -21.31747], [149.609472, -21.316269], [149.605806, -21.314734], [149.603545, -21.313792], [149.6003, -21.312464], [149.597581, -21.311293], [149.593934, -21.309796], [149.590915, -21.307991], [149.587952, -21.306162], [149.585298, -21.304632], [149.581517, -21.302404], [149.57885, -21.300774], [149.575417, -21.298843], [149.572448, -21.297179], [149.568061, -21.294562], [149.565404, -21.293054], [149.561487, -21.290969], [149.559074, -21.289624], [149.555299, -21.287625], [149.551442, -21.285544], [149.549246, -21.284287], [149.546784, -21.282962], [149.544128, -21.28149], [149.540398, -21.27952], [149.537918, -21.278325], [149.535425, -21.276993], [149.532084, -21.274928], [149.528991, -21.272927], [149.525869, -21.270921], [149.522539, -21.268749], [149.520172, -21.267326], [149.516655, -21.265209], [149.513498, -21.263365], [149.511384, -21.262081], [149.508515, -21.260384], [149.505397, -21.258538], [149.502381, -21.256886], [149.499827, -21.255481], [149.496435, -21.253491], [149.493276, -21.251701], [149.489923, -21.249792], [149.486641, -21.247967], [149.484044, -21.246552], [149.480698, -21.244623], [149.478235, -21.24325], [149.475962, -21.241979], [149.47334, -21.240506], [149.470599, -21.238937], [149.467689, -21.237301], [149.46502, -21.235728], [149.461533, -21.23375], [149.459111, -21.23245], [149.454757, -21.229997], [149.452344, -21.228603], [149.449932, -21.227208], [149.447671, -21.225937], [149.444996, -21.22434], [149.44194, -21.222598], [149.439487, -21.221261], [149.436377, -21.219384], [149.433586, -21.217859], [149.430625, -21.216136], [149.428621, -21.215014], [149.424971, -21.21298], [149.422523, -21.211525], [149.420261, -21.210197], [149.417349, -21.208489], [149.414084, -21.206512], [149.411717, -21.204659], [149.409269, -21.202572], [149.406931, -21.200411], [149.404839, -21.198586], [149.401901, -21.196109], [149.399388, -21.193872], [149.397183, -21.192566], [149.394111, -21.191442], [149.391167, -21.190338], [149.388147, -21.189243], [149.384786, -21.188071], [149.381594, -21.18691], [149.379639, -21.185372], [149.377249, -21.183392], [149.374848, -21.181432], [149.372349, -21.179228], [149.370099, -21.177352], [149.367183, -21.174919], [149.365133, -21.173181], [149.362147, -21.170587], [149.358943, -21.167762], [149.357061, -21.166119], [149.354866, -21.164468], [149.351883, -21.162757], [149.348964, -21.161064], [149.346533, -21.159702], [149.34408, -21.158276], [149.340889, -21.156368], [149.337961, -21.154623], [149.334742, -21.152747], [149.330597, -21.150287], [149.328189, -21.148856], [149.325678, -21.147434], [149.322422, -21.145436], [149.319274, -21.143504], [149.315963, -21.141577], [149.312032, -21.139265], [149.309975, -21.138011], [149.307, -21.136162], [149.304336, -21.134526], [149.302055, -21.1331], [149.29944, -21.131531], [149.296132, -21.129493], [149.293359, -21.127748], [149.290368, -21.125915], [149.288135, -21.124557], [149.286198, -21.123338], [149.283315, -21.121496], [149.279594, -21.119087], [149.276766, -21.117261], [149.274401, -21.115605], [149.27243, -21.113171], [149.270525, -21.110703], [149.269208, -21.109021], [149.267361, -21.107409], [149.264654, -21.106885], [149.261934, -21.106413], [149.258506, -21.10564], [149.255953, -21.105086], [149.254158, -21.104636], [149.252176, -21.103961], [149.248664, -21.102777], [149.245633, -21.102079], [149.242644, -21.102095], [149.239727, -21.102099], [149.23706, -21.102713], [149.23489, -21.104249], [149.232342, -21.106556], [149.231142, -21.108581], [149.229586, -21.11055], [149.228123, -21.111392], [149.226607, -21.113316], [149.229348, -21.110327], [149.230783, -21.108848], [149.232207, -21.106641], [149.234228, -21.105486], [149.235477, -21.1041], [149.234804, -21.10033], [149.235104, -21.09819], [149.236712, -21.095254], [149.238875, -21.093381], [149.241691, -21.091908], [149.245285, -21.09044], [149.247999, -21.089195], [149.249815, -21.087743], [149.252738, -21.084881], [149.254916, -21.082452], [149.257882, -21.079401], [149.260564, -21.076644], [149.263183, -21.073941], [149.265575, -21.071647], [149.268761, -21.068856], [149.271703, -21.066242], [149.273183, -21.065853], [149.274627, -21.065375], [149.276776, -21.062407], [149.278134, -21.060484], [149.280279, -21.05788], [149.282535, -21.055357], [149.284583, -21.05317], [149.286653, -21.050991], [149.289154, -21.048244], [149.291258, -21.045961], [149.2937, -21.043385], [149.296196, -21.040796], [149.298741, -21.038197], [149.300841, -21.036047], [149.303574, -21.033321], [149.305696, -21.031293], [149.307943, -21.029087], [149.310095, -21.02694], [149.312375, -21.024846], [149.314657, -21.022568], [149.316764, -21.020475], [149.319539, -21.01786], [149.322007, -21.015635], [149.324627, -21.013442], [149.326864, -21.011514], [149.328903, -21.009541], [149.331532, -21.006899], [149.334031, -21.004547], [149.336777, -21.00212], [149.339246, -20.999878], [149.341816, -20.997637], [149.344253, -20.995523], [149.347341, -20.993035], [149.35047, -20.990359], [149.35236, -20.988664], [149.355149, -20.986247], [149.357474, -20.984249], [149.359269, -20.982709], [149.361399, -20.980807], [149.36382, -20.978539], [149.366072, -20.976611], [149.368474, -20.974379], [149.370621, -20.97243], [149.372982, -20.970369], [149.37513, -20.968601], [149.377847, -20.966214], [149.380046, -20.9643], [149.382828, -20.962019], [149.385611, -20.959709], [149.388021, -20.957687], [149.390854, -20.955462], [149.393921, -20.953076], [149.396938, -20.950698], [149.399433, -20.94875], [149.402561, -20.946369], [149.405349, -20.944149], [149.408368, -20.941765], [149.410503, -20.940075], [149.413147, -20.938129], [149.415582, -20.936354], [149.417911, -20.934933], [149.420824, -20.933391], [149.422716, -20.932158], [149.424246, -20.932338], [149.426245, -20.932306], [149.426407, -20.932303], [149.425711, -20.928443], [149.425444, -20.926005], [149.425612, -20.922868], [149.425839, -20.920595], [149.424815, -20.917829], [149.423245, -20.916099], [149.420986, -20.914048], [149.419857, -20.913965], [149.419725, -20.913757], [149.423922, -20.915912], [149.424509, -20.917444], [149.425525, -20.919825], [149.426241, -20.921926], [149.425869, -20.924493], [149.424472, -20.926614], [149.422689, -20.928727], [149.422801, -20.929864], [149.424094, -20.93068], [149.421268, -20.93259], [149.419189, -20.934837], [149.417309, -20.936882], [149.415678, -20.938237], [149.413416, -20.9396], [149.410749, -20.942139], [149.408454, -20.944631], [149.40609, -20.94713], [149.402804, -20.950657], [149.399972, -20.953687], [149.397484, -20.956382], [149.395721, -20.957953], [149.393364, -20.960303], [149.391198, -20.962576], [149.388999, -20.965005], [149.386826, -20.967467], [149.384574, -20.969977], [149.382431, -20.972453], [149.380232, -20.974968], [149.378006, -20.977539], [149.375751, -20.980147], [149.373542, -20.982653], [149.371246, -20.98523], [149.36867, -20.988111], [149.36614, -20.99086], [149.363296, -20.99398], [149.360985, -20.99649], [149.358685, -20.998932], [149.35633, -21.001255], [149.354119, -21.003375], [149.351539, -21.005769], [149.348497, -21.008549], [149.345915, -21.01102], [149.343163, -21.013626], [149.340758, -21.015906], [149.338394, -21.018176], [149.335876, -21.020582], [149.333654, -21.022665], [149.331253, -21.024919], [149.328874, -21.027064], [149.326447, -21.029373], [149.323571, -21.032046], [149.31934, -21.035897], [149.316834, -21.038273], [149.314369, -21.040564], [149.311883, -21.042934], [149.309386, -21.045086], [149.30648, -21.047022], [149.303573, -21.048851], [149.300746, -21.050666], [149.297923, -21.05239], [149.29499, -21.054225], [149.292175, -21.056031], [149.289345, -21.057833], [149.286415, -21.05969], [149.283683, -21.061476], [149.280775, -21.063358], [149.277924, -21.065261], [149.273826, -21.067947], [149.270894, -21.069857], [149.268193, -21.071525], [149.265511, -21.073218], [149.262748, -21.074936], [149.260305, -21.076527], [149.257774, -21.078789], [149.255358, -21.080897], [149.253089, -21.082902], [149.250726, -21.085106], [149.248339, -21.087068], [149.2453, -21.089725], [149.243439, -21.091245], [149.240529, -21.093602], [149.238627, -21.095672], [149.23785, -21.097696], [149.236219, -21.100141], [149.235097, -21.10227], [149.233346, -21.105002], [149.231655, -21.107086], [149.230366, -21.109186], [149.228969, -21.110276], [149.227476, -21.112441], [149.226469, -21.113192], [149.226733, -21.112946]]}, "times": ["2023-06-11T19:21:09+00:00", "2023-06-11T19:22:52+00:00", "2023-06-11T19:26:53+00:00", "2023-06-11T19:28:53+00:00", "2023-06-11T19:31:51+00:00", "2023-06-11T19:32:54+00:00", "2023-06-11T19:36:03+00:00", "2023-06-11T19:37:57+00:00", "2023-06-11T19:39:15+00:00", "2023-06-11T19:41:21+00:00", "2023-06-11T19:43:21+00:00", "2023-06-11T19:46:03+00:00", "2023-06-11T19:48:30+00:00", "2023-06-11T19:50:30+00:00", "2023-06-11T19:53:21+00:00", "2023-06-11T19:54:23+00:00", "2023-06-11T19:57:23+00:00", "2023-06-11T19:59:15+00:00", "2023-06-11T20:00:47+00:00", "2023-06-11T20:03:35+00:00", "2023-06-11T20:04:35+00:00", "2023-06-11T20:07:20+00:00", "2023-06-11T20:09:05+00:00", "2023-06-11T20:10:54+00:00", "2023-06-11T20:14:45+00:00", "2023-06-11T20:16:46+00:00", "2023-06-11T20:18:53+00:00", "2023-06-11T20:19:30+00:00", "2023-06-11T20:24:50+00:00", "2023-06-11T20:27:11+00:00", "2023-06-11T20:29:11+00:00", "2023-06-11T20:30:11+00:00", "2023-06-11T20:33:40+00:00", "2023-06-11T20:34:47+00:00", "2023-06-11T20:36:42+00:00", "2023-06-11T20:38:42+00:00", "2023-06-11T20:41:42+00:00", "2023-06-11T20:43:16+00:00", "2023-06-11T20:45:30+00:00", "2023-06-11T20:47:42+00:00", "2023-06-11T20:48:57+00:00", "2023-06-11T20:50:57+00:00", "2023-06-11T20:53:22+00:00", "2023-06-11T20:54:57+00:00", "2023-06-11T20:57:57+00:00", "2023-06-11T21:00:04+00:00", "2023-06-11T21:03:04+00:00", "2023-06-11T21:05:27+00:00", "2023-06-11T21:08:33+00:00", "2023-06-11T21:12:25+00:00", "2023-06-11T21:13:25+00:00", "2023-06-11T21:16:26+00:00", "2023-06-11T21:19:15+00:00", "2023-06-11T21:21:27+00:00", "2023-06-11T21:24:25+00:00", "2023-06-11T21:26:27+00:00", "2023-06-11T21:28:27+00:00", "2023-06-11T21:30:27+00:00", "2023-06-11T21:33:53+00:00", "2023-06-11T21:34:59+00:00", "2023-06-11T21:37:50+00:00", "2023-06-11T21:39:52+00:00", "2023-06-11T21:41:53+00:00", "2023-06-11T21:43:53+00:00", "2023-06-11T21:47:29+00:00", "2023-06-11T21:48:55+00:00", "2023-06-11T21:51:48+00:00", "2023-06-11T21:53:26+00:00", "2023-06-11T21:55:27+00:00", "2023-06-11T21:57:27+00:00", "2023-06-11T22:01:32+00:00", "2023-06-11T22:03:32+00:00", "2023-06-11T22:04:35+00:00", "2023-06-11T22:08:56+00:00", "2023-06-11T22:10:16+00:00", "2023-06-11T22:13:35+00:00", "2023-06-11T22:14:35+00:00", "2023-06-11T22:19:04+00:00", "2023-06-11T22:20:04+00:00", "2023-06-11T22:23:04+00:00", "2023-06-11T22:25:33+00:00", "2023-06-11T22:27:49+00:00", "2023-06-11T22:29:30+00:00", "2023-06-11T22:31:41+00:00", "2023-06-11T22:33:58+00:00", "2023-06-11T22:37:33+00:00", "2023-06-11T22:39:23+00:00", "2023-06-11T22:41:34+00:00", "2023-06-11T22:43:36+00:00", "2023-06-11T22:45:36+00:00", "2023-06-11T22:47:36+00:00", "2023-06-11T22:48:45+00:00", "2023-06-11T22:51:26+00:00", "2023-06-11T22:52:43+00:00", "2023-06-11T22:55:15+00:00", "2023-06-11T22:56:43+00:00", "2023-06-11T22:59:28+00:00", "2023-06-11T23:01:02+00:00", "2023-06-11T23:03:27+00:00", "2023-06-11T23:05:03+00:00", "2023-06-11T23:07:39+00:00", "2023-06-11T23:09:30+00:00", "2023-06-11T23:12:16+00:00", "2023-06-11T23:13:23+00:00", "2023-06-11T23:17:16+00:00", "2023-06-11T23:19:15+00:00", "2023-06-11T23:21:39+00:00", "2023-06-11T23:24:36+00:00", "2023-06-11T23:26:39+00:00", "2023-06-11T23:28:47+00:00", "2023-06-11T23:31:40+00:00", "2023-06-11T23:33:40+00:00", "2023-06-11T23:35:41+00:00", "2023-06-11T23:37:41+00:00", "2023-06-11T23:39:30+00:00", "2023-06-11T23:42:42+00:00", "2023-06-11T23:44:42+00:00", "2023-06-11T23:46:42+00:00", "2023-06-11T23:48:54+00:00", "2023-06-11T23:50:42+00:00", "2023-06-11T23:52:42+00:00", "2023-06-11T23:54:42+00:00", "2023-06-11T23:56:56+00:00", "2023-06-11T23:59:30+00:00", "2023-06-12T00:01:42+00:00", "2023-06-12T00:03:43+00:00", "2023-06-12T00:06:43+00:00", "2023-06-12T00:08:43+00:00", "2023-06-12T00:11:04+00:00", "2023-06-12T00:12:45+00:00", "2023-06-12T00:14:56+00:00", "2023-06-12T00:17:09+00:00", "2023-06-12T00:18:49+00:00", "2023-06-12T00:21:45+00:00", "2023-06-12T00:23:45+00:00", "2023-06-12T00:25:45+00:00", "2023-06-12T00:27:45+00:00", "2023-06-12T00:29:45+00:00", "2023-06-12T00:31:45+00:00", "2023-06-12T00:33:46+00:00", "2023-06-12T00:35:46+00:00", "2023-06-12T00:37:46+00:00", "2023-06-12T00:39:45+00:00", "2023-06-12T00:41:46+00:00", "2023-06-12T00:44:45+00:00", "2023-06-12T00:46:45+00:00", "2023-06-12T00:48:48+00:00", "2023-06-12T00:51:45+00:00", "2023-06-12T00:53:45+00:00", "2023-06-12T00:55:45+00:00", "2023-06-12T00:57:45+00:00", "2023-06-12T00:59:38+00:00", "2023-06-12T01:02:45+00:00", "2023-06-12T01:03:47+00:00", "2023-06-12T01:06:32+00:00", "2023-06-12T01:07:45+00:00", "2023-06-12T01:09:45+00:00", "2023-06-12T01:11:09+00:00", "2023-06-12T01:14:14+00:00", "2023-06-12T01:14:50+00:00", "2023-06-12T01:16:46+00:00", "2023-06-12T01:18:55+00:00", "2023-06-12T01:20:46+00:00", "2023-06-12T01:23:44+00:00", "2023-06-12T01:25:45+00:00", "2023-06-12T01:26:45+00:00", "2023-06-12T01:28:09+00:00", "2023-06-12T01:30:05+00:00", "2023-06-12T01:31:47+00:00", "2023-06-12T01:33:47+00:00", "2023-06-12T01:36:48+00:00", "2023-06-12T01:38:43+00:00", "2023-06-12T01:39:59+00:00", "2023-06-12T01:42:08+00:00", "2023-06-12T01:43:48+00:00", "2023-06-12T01:47:46+00:00", "2023-06-12T01:49:29+00:00", "2023-06-12T01:50:47+00:00", "2023-06-12T01:52:10+00:00", "2023-06-12T01:53:48+00:00", "2023-06-12T01:55:14+00:00", "2023-06-12T01:57:39+00:00", "2023-06-12T01:59:45+00:00", "2023-06-12T02:01:44+00:00", "2023-06-12T02:03:04+00:00", "2023-06-12T02:04:49+00:00", "2023-06-12T02:06:17+00:00", "2023-06-12T02:07:37+00:00", "2023-06-12T02:08:49+00:00", "2023-06-12T02:10:50+00:00", "2023-06-12T02:12:29+00:00", "2023-06-12T02:14:50+00:00", "2023-06-12T02:16:50+00:00", "2023-06-12T02:18:43+00:00", "2023-06-12T02:19:45+00:00", "2023-06-12T02:21:47+00:00", "2023-06-12T02:22:59+00:00", "2023-06-12T02:25:48+00:00", "2023-06-12T02:27:24+00:00", "2023-06-12T02:28:50+00:00", "2023-06-12T02:30:50+00:00", "2023-06-12T02:33:51+00:00", "2023-06-12T02:35:50+00:00", "2023-06-12T02:36:58+00:00", "2023-06-12T02:38:56+00:00", "2023-06-12T02:41:44+00:00", "2023-06-12T02:43:00+00:00", "2023-06-12T02:45:25+00:00", "2023-06-12T02:47:51+00:00", "2023-06-12T02:49:02+00:00", "2023-06-12T02:50:51+00:00", "2023-06-12T02:53:51+00:00", "2023-06-12T02:55:51+00:00", "2023-06-12T02:57:28+00:00", "2023-06-12T02:59:24+00:00", "2023-06-12T03:01:52+00:00", "2023-06-12T03:04:51+00:00", "2023-06-12T03:05:34+00:00", "2023-06-12T03:07:51+00:00", "2023-06-12T03:09:45+00:00", "2023-06-12T03:10:59+00:00", "2023-06-12T03:13:52+00:00", "2023-06-12T03:14:52+00:00", "2023-06-12T03:16:45+00:00", "2023-06-12T03:18:01+00:00", "2023-06-12T03:20:51+00:00", "2023-06-12T03:22:59+00:00", "2023-06-12T03:24:51+00:00", "2023-06-12T03:26:36+00:00", "2023-06-12T03:29:45+00:00", "2023-06-12T03:30:59+00:00", "2023-06-12T03:32:57+00:00", "2023-06-12T03:35:52+00:00", "2023-06-12T03:38:52+00:00", "2023-06-12T03:40:00+00:00", "2023-06-12T03:42:56+00:00", "2023-06-12T03:43:56+00:00", "2023-06-12T03:47:06+00:00", "2023-06-12T03:48:57+00:00", "2023-06-12T03:50:57+00:00", "2023-06-12T03:52:14+00:00", "2023-06-12T03:54:03+00:00", "2023-06-12T03:56:59+00:00", "2023-06-12T03:58:59+00:00", "2023-06-12T04:00:20+00:00", "2023-06-12T04:03:00+00:00", "2023-06-12T04:06:00+00:00", "2023-06-12T04:08:00+00:00", "2023-06-12T04:11:00+00:00", "2023-06-12T04:13:00+00:00", "2023-06-12T04:15:39+00:00", "2023-06-12T04:17:39+00:00", "2023-06-12T04:19:40+00:00", "2023-06-12T04:22:00+00:00", "2023-06-12T04:24:29+00:00", "2023-06-12T04:27:02+00:00", "2023-06-12T04:29:02+00:00", "2023-06-12T04:32:02+00:00", "2023-06-12T04:34:02+00:00", "2023-06-12T04:37:02+00:00", "2023-06-12T04:39:59+00:00", "2023-06-12T04:41:00+00:00", "2023-06-12T04:43:05+00:00", "2023-06-12T04:45:14+00:00", "2023-06-12T04:47:00+00:00", "2023-06-12T04:49:01+00:00", "2023-06-12T04:51:01+00:00", "2023-06-12T04:53:02+00:00", "2023-06-12T04:55:05+00:00", "2023-06-12T04:58:05+00:00", "2023-06-12T04:59:05+00:00", "2023-06-12T05:03:03+00:00", "2023-06-12T05:04:11+00:00", "2023-06-12T05:06:03+00:00", "2023-06-12T05:07:24+00:00", "2023-06-12T05:09:03+00:00", "2023-06-12T05:12:03+00:00", "2023-06-12T05:13:06+00:00", "2023-06-12T05:15:26+00:00", "2023-06-12T05:18:03+00:00", "2023-06-12T05:19:51+00:00", "2023-06-12T05:21:03+00:00", "2023-06-12T05:23:57+00:00", "2023-06-12T05:25:29+00:00", "2023-06-12T05:27:03+00:00", "2023-06-12T05:29:05+00:00", "2023-06-12T05:31:23+00:00", "2023-06-12T05:33:11+00:00", "2023-06-12T05:35:44+00:00", "2023-06-12T05:38:22+00:00", "2023-06-12T05:40:00+00:00", "2023-06-12T05:43:03+00:00", "2023-06-12T05:45:04+00:00", "2023-06-12T05:47:04+00:00", "2023-06-12T05:48:19+00:00", "2023-06-12T05:50:00+00:00", "2023-06-12T05:52:04+00:00", "2023-06-12T05:54:11+00:00", "2023-06-12T05:56:49+00:00", "2023-06-12T05:59:04+00:00", "2023-06-12T06:02:04+00:00", "2023-06-12T06:05:02+00:00", "2023-06-12T06:07:04+00:00", "2023-06-12T06:09:11+00:00", "2023-06-12T06:12:05+00:00", "2023-06-12T06:14:05+00:00", "2023-06-12T06:17:05+00:00", "2023-06-12T06:20:14+00:00", "2023-06-12T06:22:11+00:00", "2023-06-12T06:24:12+00:00", "2023-06-12T06:27:12+00:00", "2023-06-12T06:29:13+00:00", "2023-06-12T06:31:13+00:00", "2023-06-12T06:32:43+00:00", "2023-06-12T06:35:14+00:00", "2023-06-12T06:37:15+00:00", "2023-06-12T06:39:15+00:00", "2023-06-12T06:43:21+00:00", "2023-06-12T06:44:26+00:00", "2023-06-12T06:46:46+00:00", "2023-06-12T06:49:21+00:00", "2023-06-12T06:51:47+00:00", "2023-06-12T06:54:29+00:00", "2023-06-12T06:57:57+00:00", "2023-06-12T06:59:22+00:00", "2023-06-12T07:02:22+00:00", "2023-06-12T07:04:22+00:00", "2023-06-12T07:05:47+00:00", "2023-06-12T07:08:21+00:00", "2023-06-12T07:11:21+00:00", "2023-06-12T07:14:29+00:00", "2023-06-12T07:17:21+00:00", "2023-06-12T07:18:58+00:00", "2023-06-12T07:21:20+00:00", "2023-06-12T07:23:29+00:00", "2023-06-12T07:28:21+00:00", "2023-06-12T07:30:15+00:00", "2023-06-12T07:33:02+00:00", "2023-06-12T07:36:21+00:00", "2023-06-12T07:38:15+00:00", "2023-06-12T07:40:15+00:00", "2023-06-12T07:42:20+00:00", "2023-06-12T07:44:24+00:00", "2023-06-12T07:47:24+00:00", "2023-06-12T07:50:15+00:00", "2023-06-12T07:53:04+00:00", "2023-06-12T07:55:12+00:00", "2023-06-12T07:56:24+00:00", "2023-06-12T07:59:24+00:00", "2023-06-12T08:00:41+00:00", "2023-06-12T08:02:24+00:00", "2023-06-12T08:04:25+00:00", "2023-06-12T08:06:11+00:00", "2023-06-12T08:07:25+00:00", "2023-06-12T08:09:25+00:00", "2023-06-12T08:11:26+00:00", "2023-06-12T08:12:53+00:00", "2023-06-12T08:14:31+00:00", "2023-06-12T08:17:34+00:00", "2023-06-19T02:58:31+00:00", "2023-06-19T03:00:01+00:00", "2023-06-19T03:01:12+00:00", "2023-06-19T03:03:01+00:00", "2023-06-19T03:04:22+00:00", "2023-06-19T03:06:21+00:00", "2023-06-19T03:07:17+00:00", "2023-06-19T03:08:58+00:00", "2023-06-19T03:10:34+00:00", "2023-06-19T03:13:02+00:00", "2023-06-19T03:15:08+00:00", "2023-06-19T03:17:00+00:00", "2023-06-19T03:18:09+00:00", "2023-06-19T03:21:00+00:00", "2023-06-19T03:22:00+00:00", "2023-06-19T03:25:00+00:00", "2023-06-19T03:27:00+00:00", "2023-06-19T03:29:00+00:00", "2023-06-19T03:30:00+00:00", "2023-06-19T03:33:00+00:00", "2023-06-19T03:35:00+00:00", "2023-06-19T03:36:22+00:00", "2023-06-19T03:38:00+00:00", "2023-06-19T03:41:00+00:00", "2023-06-19T03:43:01+00:00", "2023-06-19T03:45:27+00:00", "2023-06-19T03:48:01+00:00", "2023-06-19T03:50:01+00:00", "2023-06-19T03:52:01+00:00", "2023-06-19T03:55:01+00:00", "2023-06-19T03:57:10+00:00", "2023-06-19T04:00:01+00:00", "2023-06-19T04:03:02+00:00", "2023-06-19T04:05:02+00:00", "2023-06-19T04:07:00+00:00", "2023-06-19T04:10:02+00:00", "2023-06-19T04:12:02+00:00", "2023-06-19T04:14:02+00:00", "2023-06-19T04:16:02+00:00", "2023-06-19T04:18:40+00:00", "2023-06-19T04:21:02+00:00", "2023-06-19T04:23:03+00:00", "2023-06-19T04:26:03+00:00", "2023-06-19T04:28:19+00:00", "2023-06-19T04:31:03+00:00", "2023-06-19T04:33:03+00:00", "2023-06-19T04:35:03+00:00", "2023-06-19T04:38:03+00:00", "2023-06-19T04:40:03+00:00", "2023-06-19T04:43:03+00:00", "2023-06-19T04:45:04+00:00", "2023-06-19T04:47:00+00:00", "2023-06-19T04:49:24+00:00", "2023-06-19T04:51:36+00:00", "2023-06-19T04:55:03+00:00", "2023-06-19T04:56:21+00:00", "2023-06-19T04:59:04+00:00", "2023-06-19T05:01:05+00:00", "2023-06-19T05:03:05+00:00", "2023-06-19T05:05:05+00:00", "2023-06-19T05:07:44+00:00", "2023-06-19T05:10:05+00:00", "2023-06-19T05:12:09+00:00", "2023-06-19T05:14:09+00:00", "2023-06-19T05:16:09+00:00", "2023-06-19T05:18:05+00:00", "2023-06-19T05:21:06+00:00", "2023-06-19T05:22:40+00:00", "2023-06-19T05:25:06+00:00", "2023-06-19T05:28:06+00:00", "2023-06-19T05:30:06+00:00", "2023-06-19T05:32:07+00:00", "2023-06-19T05:35:07+00:00", "2023-06-19T05:37:00+00:00", "2023-06-19T05:39:08+00:00", "2023-06-19T05:42:01+00:00", "2023-06-19T05:44:08+00:00", "2023-06-19T05:47:00+00:00", "2023-06-19T05:48:10+00:00", "2023-06-19T05:51:09+00:00", "2023-06-19T05:52:28+00:00", "2023-06-19T05:54:09+00:00", "2023-06-19T05:56:45+00:00", "2023-06-19T05:58:33+00:00", "2023-06-19T05:59:58+00:00", "2023-06-19T06:03:30+00:00", "2023-06-19T19:17:10+00:00", "2023-06-20T00:31:36+00:00", "2023-06-20T00:33:17+00:00", "2023-06-20T00:36:11+00:00", "2023-06-20T00:37:01+00:00", "2023-06-20T00:38:51+00:00", "2023-06-20T00:40:25+00:00", "2023-06-20T00:42:30+00:00", "2023-06-20T00:46:58+00:00", "2023-06-20T19:48:15+00:00", "2023-06-22T04:21:58+00:00", "2023-06-22T04:23:54+00:00", "2023-06-22T04:26:54+00:00", "2023-06-22T04:29:03+00:00", "2023-06-22T04:31:28+00:00", "2023-06-22T04:33:54+00:00", "2023-06-22T04:35:41+00:00", "2023-06-22T04:36:54+00:00", "2023-06-22T04:38:25+00:00", "2023-06-22T04:41:21+00:00", "2023-06-22T04:43:21+00:00", "2023-06-22T04:45:21+00:00", "2023-06-22T04:47:35+00:00", "2023-06-22T04:49:21+00:00", "2023-06-22T04:51:20+00:00", "2023-06-22T04:53:55+00:00", "2023-06-22T04:56:09+00:00", "2023-06-22T04:58:45+00:00", "2023-06-22T05:01:53+00:00", "2023-06-22T05:03:30+00:00", "2023-06-22T05:05:43+00:00", "2023-06-22T05:08:05+00:00", "2023-06-22T05:09:23+00:00", "2023-06-22T05:11:56+00:00", "2023-06-22T05:13:57+00:00", "2023-06-22T05:15:33+00:00", "2023-06-22T05:17:57+00:00", "2023-06-22T05:19:57+00:00", "2023-06-22T05:21:58+00:00", "2023-06-22T05:23:34+00:00", "2023-06-22T05:25:58+00:00", "2023-06-22T05:27:58+00:00", "2023-06-22T05:29:58+00:00", "2023-06-22T05:31:58+00:00", "2023-06-22T05:34:58+00:00", "2023-06-22T05:37:00+00:00", "2023-06-22T05:38:33+00:00", "2023-06-22T05:41:00+00:00", "2023-06-22T05:42:05+00:00", "2023-06-22T05:45:00+00:00", "2023-06-22T05:48:02+00:00", "2023-06-22T05:49:00+00:00", "2023-06-22T05:52:01+00:00", "2023-06-22T05:54:01+00:00", "2023-06-22T05:56:01+00:00", "2023-06-22T05:57:56+00:00", "2023-06-22T06:00:01+00:00", "2023-06-22T06:02:01+00:00", "2023-06-22T06:03:21+00:00", "2023-06-22T06:06:01+00:00", "2023-06-22T06:07:28+00:00", "2023-06-22T06:11:42+00:00", "2023-06-22T06:14:02+00:00", "2023-06-22T06:16:03+00:00", "2023-06-22T06:18:03+00:00", "2023-06-22T06:19:19+00:00", "2023-06-22T06:22:03+00:00", "2023-06-22T06:24:03+00:00", "2023-06-22T06:25:28+00:00", "2023-06-22T06:27:29+00:00", "2023-06-22T06:30:03+00:00", "2023-06-22T06:32:03+00:00", "2023-06-22T06:34:03+00:00", "2023-06-22T06:35:46+00:00", "2023-06-22T06:38:04+00:00", "2023-06-22T06:40:08+00:00", "2023-06-22T06:42:14+00:00", "2023-06-22T06:45:06+00:00", "2023-06-22T06:46:56+00:00", "2023-06-22T06:49:00+00:00", "2023-06-22T06:51:07+00:00", "2023-06-22T06:53:07+00:00", "2023-06-22T06:54:07+00:00", "2023-06-22T06:57:07+00:00", "2023-06-22T06:59:00+00:00", "2023-06-22T07:00:11+00:00", "2023-06-22T07:02:07+00:00", "2023-06-22T07:04:08+00:00", "2023-06-22T07:06:48+00:00", "2023-06-22T07:08:04+00:00", "2023-06-22T07:10:08+00:00", "2023-06-22T07:12:08+00:00", "2023-06-22T07:13:25+00:00", "2023-06-22T07:15:13+00:00", "2023-06-22T07:17:09+00:00", "2023-06-22T07:19:00+00:00", "2023-06-22T07:21:09+00:00", "2023-06-22T07:23:09+00:00", "2023-06-22T07:24:09+00:00", "2023-06-22T07:26:09+00:00", "2023-06-22T07:27:11+00:00", "2023-06-23T01:29:12+00:00"], "elevations": [10.0, 6.5, 6.0, 6.1, 7.0, 6.5, 12.5, 7.0, 8.2, 8.3, 9.5, 6.0, 6.0, 6.2, 6.0, 6.0, 6.0, 6.2, 6.0, 5.0, 5.0, 4.5, 4.2, 4.0, 4.0, 4.0, 4.0, 4.2, 4.0, 5.0, 5.0, 4.7, 5.0, 5.0, 5.5, 6.7, 5.0, 5.0, 5.5, 5.0, 1.6, 4.0, 2.0, -3.5, 3.0, -1.9, 2.5, 6.3, 0.4, 1.0, 2.0, 1.0, 7.8, 5.3, 4.5, 4.0, 4.2, 4.0, 0.0, 5.5, 6.0, 4.7, 4.0, 3.3, 10.5, 3.7, 5.0, 5.0, 5.0, 10.0, 4.7, 7.0, 6.0, 6.5, 6.1, 6.0, 6.0, 6.0, 6.1, 6.0, 5.7, 5.0, 4.4, 9.5, 5.5, 6.0, 6.2, 5.0, 5.5, 6.0, 6.0, 6.2, 7.0, 9.0, 9.0, 9.0, 9.0, 9.0, 9.0, 23.5, 10.0, 7.2, 7.0, 18.0, 8.5, 7.0, 7.5, 18.0, 4.0, 7.1, 1.5, 4.0, 5.5, 4.0, 2.2, 3.0, 8.5, 2.0, 11.2, 3.0, 2.5, 23.0, 9.0, 8.2, 9.0, 7.3, 8.0, 8.1, 8.0, 8.0, 7.0, 7.0, 6.7, 7.0, 7.0, 7.0, 7.0, 6.4, 5.5, 5.5, 6.0, 7.0, 6.2, 8.5, 6.0, 6.0, 6.7, 7.0, 7.0, 7.0, 7.0, 6.7, 7.5, 7.0, 7.0, 7.0, 6.4, 7.0, 7.0, 6.5, 2.5, 13.0, 2.8, 3.0, 3.0, 4.0, 3.5, 8.4, 10.5, 4.7, 4.0, 4.0, 4.7, 5.0, 20.5, 6.0, 7.7, 8.0, 8.0, 8.0, 8.0, 18.0, 8.2, 26.5, 53.0, 22.5, -2.0, 1.0, 6.0, 5.2, 4.5, 4.0, 0.5, 1.0, 0.3, 4.5, 3.0, 3.0, 3.5, 4.0, 4.0, 4.0, 4.0, 3.5, 2.7, 2.0, 2.0, 5.0, 0.0, -0.8, 0.5, 1.0, 1.0, -1.5, 0.2, -6.5, 0.5, 1.0, 2.0, 0.7, 3.0, 4.5, 7.0, 3.0, 5.5, 6.2, 6.5, 4.0, 4.0, 3.2, 2.0, 8.0, 3.0, 3.0, 2.3, 3.0, 3.0, 3.5, 3.0, 3.5, 2.0, 2.5, -1.0, 1.5, 3.0, 2.0, -1.0, 0.0, 0.2, 0.0, 0.0, 0.0, 1.8, 22.7, 31.5, 16.7, 5.2, 7.5, 6.0, 6.0, 6.0, 5.0, 5.0, 1.0, 1.5, 2.0, -0.6, 0.0, 0.0, 5.0, -3.4, 1.0, 2.0, 5.0, 7.5, 6.2, 6.0, 5.5, 5.5, 10.0, 9.2, 8.0, 10.5, 9.0, 8.0, 24.2, 21.5, 10.5, 13.0, 13.5, 19.2, -1.5, 1.0, 11.0, 15.5, -7.4, -7.0, -6.7, -6.0, -5.5, -5.4, -5.0, -1.0, 2.5, 9.7, 3.0, 10.0, 3.7, 0.3, 9.5, 10.0, 11.0, 10.5, 10.0, 18.0, 17.0, 15.8, 0.0, 1.0, 2.0, 2.4, 2.0, 2.0, 2.0, 2.4, 9.5, 3.5, 5.0, 2.5, 5.8, 4.0, 5.0, 5.0, 4.7, 4.0, 4.5, 4.5, 4.0, 6.5, 4.5, 5.2, 4.0, 3.3, 3.0, 5.5, 6.5, 6.5, 7.0, 13.5, 8.0, 25.0, 31.0, 14.0, 15.0, 1.0, 39.9, 11.0, -0.3, null, null, -0.5, 5.0, 3.0, 7.0, 3.0, 3.5, 0.0, 7.0, 6.5, 6.7, 7.7, 7.0, 6.5, 6.0, 5.5, 4.2, 7.0, 5.5, 5.5, 8.5, 1.7, 2.5, 3.0, 4.7, 5.0, 10.8, 10.5, 11.0, 11.7, 8.2, 8.0, 7.0, 7.0, 6.2, 5.0, 5.0, 5.0, 5.7, 6.0, 4.0, 3.5, 4.8, 2.0, 1.5, 5.0, 3.0, 5.2, 8.0, 8.5, 8.0, 6.8, 2.0, 2.5, 3.0, 2.7, 2.7, 2.0, 2.5, 0.7, 0.7, 1.0, 0.0, 0.0, 4.7, -4.5, 0.5, 0.0, -7.0, -3.9, -4.0, -5.3, -4.5, 3.8, 0.0, -1.0, 3.0, 0.2, 0.0, 0.0, 0.0, 0.0, 0.2, 0.0, 1.0, 6.8, 7.2, 10.0, 8.0, 8.0, 8.0, 8.2, 8.0, 8.0, 7.7, 6.8, 4.0, 3.7, 2.7, 4.2, 3.0, 1.0, 3.0, 1.0, -1.7, 0.0, 4.3, -2.5, 2.5, 0.0, 5.5, -2.0, -1.5, -1.4, 1.0, 1.0, 1.0, 1.5, 0.2, 0.5, 0.5, 0.0, 0.0, -0.8, 0.0, -0.5, 0.0, 1.5, 0.5, 1.3, 0.5, 2.5, 2.5, 3.0, 4.0, 4.0, 4.0, 2.8, 3.0, 1.5, 0.0, 0.0, 0.7, 1.0, 0.0, 1.5, 0.2, 1.0, 0.0, 0.5, 1.0, 0.2, 8.5, 2.0, 2.0, 5.0, 1.7, 2.0, 3.0, 3.0, 2.5, 2.7, 1.0, 0.0, -1.5, -0.8, -2.0, -0.5, -2.0, 2.0, -0.8, -3.0, -1.5, -6.5, -1.0, -1.5, -0.9, 6.5, 4.0, -3.0, -2.0, -1.9, -9.0, -7.5, -7.0, 1.0, 0.0, 9.0]}