{"type": "Feature", "properties": {"leg_id": 19, "name": "20210222 - Pender Island to Vancouver", "stated_nm": 59.6, "computed_nm": 59.6}, "geometry": {"type": "LineString", "coordinates": [[-123.305737, 48.796436], [-123.31642, 48.797936], [-123.322257, 48.798999], [-123.328373, 48.800112], [-123.331072, 48.801653], [-123.334037, 48.806007], [-123.335262, 48.809152], [-123.336146, 48.81446], [-123.336666, 48.816567], [-123.33776, 48.820317], [-123.339996, 48.82677], [-123.341562, 48.8314], [-123.344617, 48.836093], [-123.347319, 48.838883], [-123.349362, 48.841117], [-123.354028, 48.844209], [-123.358069, 48.846195], [-123.364222, 48.84863], [-123.369431, 48.850853], [-123.37456, 48.853278], [-123.383665, 48.85773], [-123.38889, 48.861283], [-123.394145, 48.868827], [-123.394632, 48.870527], [-123.39332, 48.874383], [-123.393337, 48.877375], [-123.396225, 48.88154], [-123.400085, 48.885893], [-123.401337, 48.888908], [-123.401605, 48.893352], [-123.400764, 48.895538], [-123.401049, 48.896195], [-123.414693, 48.896452], [-123.421335, 48.899993], [-123.42701, 48.903168], [-123.439523, 48.90802], [-123.448397, 48.911623], [-123.45261, 48.91355], [-123.465423, 48.918993], [-123.473185, 48.922122], [-123.48557, 48.927472], [-123.50074, 48.933552], [-123.511627, 48.937605], [-123.528908, 48.943837], [-123.53457, 48.946987], [-123.545388, 48.95268], [-123.557917, 48.958602], [-123.563699, 48.961458], [-123.5706, 48.965025], [-123.581588, 48.970327], [-123.586725, 48.971872], [-123.592514, 48.973365], [-123.596182, 48.974333], [-123.600607, 48.975518], [-123.602947, 48.975993], [-123.606012, 48.978343], [-123.60976, 48.980149], [-123.618503, 48.983327], [-123.622177, 48.98536], [-123.637742, 48.99482], [-123.641495, 48.997337], [-123.652862, 49.004283], [-123.657245, 49.008155], [-123.663335, 49.01391], [-123.66932, 49.019288], [-123.673967, 49.023424], [-123.681313, 49.028608], [-123.684822, 49.030922], [-123.697993, 49.039082], [-123.700052, 49.04067], [-123.708742, 49.058783], [-123.714982, 49.066728], [-123.718908, 49.072716], [-123.722925, 49.082885], [-123.723714, 49.086911], [-123.723599, 49.092042], [-123.724387, 49.092953], [-123.724065, 49.092945], [-123.718885, 49.090473], [-123.716182, 49.092934], [-123.716761, 49.096028], [-123.717483, 49.101343], [-123.718188, 49.107992], [-123.721422, 49.119252], [-123.722257, 49.122802], [-123.721703, 49.125718], [-123.719107, 49.127855], [-123.715561, 49.128903], [-123.709632, 49.129538], [-123.706184, 49.129187], [-123.700354, 49.128964], [-123.696014, 49.128674], [-123.691574, 49.128806], [-123.688713, 49.130339], [-123.688509, 49.134331], [-123.687658, 49.137691], [-123.685787, 49.142978], [-123.683917, 49.146489], [-123.68276, 49.149771], [-123.685103, 49.152665], [-123.690134, 49.153748], [-123.693799, 49.153166], [-123.69558, 49.15097], [-123.695837, 49.149524], [-123.695761, 49.149207], [-123.692828, 49.153457], [-123.689778, 49.153476], [-123.682744, 49.151588], [-123.677921, 49.152291], [-123.671602, 49.15455], [-123.663695, 49.156817], [-123.655719, 49.159337], [-123.647323, 49.162131], [-123.644331, 49.163083], [-123.640578, 49.164862], [-123.635722, 49.166455], [-123.631133, 49.168031], [-123.622443, 49.170682], [-123.61502, 49.172988], [-123.60755, 49.175088], [-123.599715, 49.177568], [-123.58736, 49.181218], [-123.580383, 49.183378], [-123.570213, 49.186517], [-123.567213, 49.187327], [-123.557015, 49.190632], [-123.551072, 49.192628], [-123.541658, 49.195699], [-123.534752, 49.197928], [-123.519235, 49.20242], [-123.515375, 49.20344], [-123.502468, 49.20737], [-123.495742, 49.209165], [-123.488773, 49.211158], [-123.471367, 49.216413], [-123.463455, 49.21891], [-123.452537, 49.222225], [-123.444482, 49.224639], [-123.437451, 49.226777], [-123.429047, 49.229633], [-123.420605, 49.23238], [-123.412881, 49.234997], [-123.404332, 49.237932], [-123.402547, 49.238535], [-123.393853, 49.24142], [-123.384818, 49.244073], [-123.378425, 49.24593], [-123.37271, 49.247706], [-123.366495, 49.249463], [-123.357958, 49.25182], [-123.34779, 49.255225], [-123.344003, 49.2566], [-123.334785, 49.259955], [-123.32991, 49.262125], [-123.322085, 49.266188], [-123.317925, 49.268477], [-123.30476, 49.276162], [-123.293542, 49.281878], [-123.283488, 49.286617], [-123.276782, 49.289585], [-123.271332, 49.291354], [-123.26608, 49.292337], [-123.258852, 49.293276], [-123.249286, 49.29336], [-123.240115, 49.292845], [-123.229112, 49.29145], [-123.223124, 49.29048], [-123.218313, 49.289748], [-123.20936, 49.287988], [-123.203757, 49.286784], [-123.195576, 49.285207], [-123.192297, 49.285126], [-123.187798, 49.285028], [-123.176384, 49.285508], [-123.171413, 49.285382], [-123.166566, 49.285439], [-123.161552, 49.28489], [-123.155908, 49.284002], [-123.151268, 49.282761], [-123.14709, 49.281476], [-123.142672, 49.279507], [-123.139641, 49.277698], [-123.136998, 49.275487], [-123.134793, 49.2734], [-123.133803, 49.272576], [-123.129787, 49.271138], [-123.127549, 49.269996], [-123.121774, 49.270107], [-123.118491, 49.270854], [-123.114947, 49.271825], [-123.110384, 49.272799], [-123.106433, 49.272756], [-123.10587, 49.273629], [-123.114459, 49.272047], [-123.119494, 49.27076], [-123.124264, 49.270265], [-123.128302, 49.270286], [-123.133065, 49.272843], [-123.137232, 49.276113], [-123.137028, 49.275265], [-123.13427, 49.272918], [-123.136092, 49.27328], [-123.138262, 49.271515]]}, "times": ["2021-02-22T04:15:19+00:00", "2021-02-22T20:44:19+00:00", "2021-02-22T20:48:19+00:00", "2021-02-22T20:49:48+00:00", "2021-02-22T20:51:28+00:00", "2021-02-22T20:55:19+00:00", "2021-02-22T20:57:44+00:00", "2021-02-22T21:01:07+00:00", "2021-02-22T21:03:14+00:00", "2021-02-22T21:05:12+00:00", "2021-02-22T21:10:11+00:00", "2021-02-22T21:13:32+00:00", "2021-02-22T21:16:38+00:00", "2021-02-22T21:18:53+00:00", "2021-02-22T21:20:44+00:00", "2021-02-22T21:24:06+00:00", "2021-02-22T21:26:39+00:00", "2021-02-22T21:30:36+00:00", "2021-02-22T21:35:11+00:00", "2021-02-22T21:36:43+00:00", "2021-02-22T21:42:54+00:00", "2021-02-22T21:47:02+00:00", "2021-02-22T21:54:01+00:00", "2021-02-22T21:55:21+00:00", "2021-02-22T21:59:09+00:00", "2021-02-22T22:00:39+00:00", "2021-02-22T22:04:13+00:00", "2021-02-22T22:08:01+00:00", "2021-02-22T22:10:26+00:00", "2021-02-22T22:13:32+00:00", "2021-02-22T22:15:59+00:00", "2021-02-23T05:44:57+00:00", "2021-02-23T17:39:52+00:00", "2021-02-23T17:43:49+00:00", "2021-02-23T17:47:19+00:00", "2021-02-23T17:54:06+00:00", "2021-02-23T17:59:10+00:00", "2021-02-23T18:01:41+00:00", "2021-02-23T18:09:14+00:00", "2021-02-23T18:13:42+00:00", "2021-02-23T18:21:01+00:00", "2021-02-23T18:29:22+00:00", "2021-02-23T18:35:42+00:00", "2021-02-23T18:45:38+00:00", "2021-02-23T18:49:24+00:00", "2021-02-23T18:56:12+00:00", "2021-02-23T19:04:02+00:00", "2021-02-23T19:08:42+00:00", "2021-02-23T19:11:50+00:00", "2021-02-23T19:18:53+00:00", "2021-02-23T19:21:38+00:00", "2021-02-23T19:25:56+00:00", "2021-02-23T19:28:13+00:00", "2021-02-23T19:31:47+00:00", "2021-02-23T19:34:17+00:00", "2021-02-23T19:37:58+00:00", "2021-02-23T19:41:40+00:00", "2021-02-23T19:46:56+00:00", "2021-02-23T19:49:57+00:00", "2021-02-23T20:02:47+00:00", "2021-02-23T20:06:17+00:00", "2021-02-23T20:15:32+00:00", "2021-02-23T20:19:45+00:00", "2021-02-23T20:25:53+00:00", "2021-02-23T20:31:58+00:00", "2021-02-23T20:36:56+00:00", "2021-02-23T20:40:12+00:00", "2021-02-23T20:42:31+00:00", "2021-02-23T20:50:38+00:00", "2021-02-23T20:52:23+00:00", "2021-02-23T21:05:09+00:00", "2021-02-23T21:11:43+00:00", "2021-02-23T21:17:42+00:00", "2021-02-23T21:23:57+00:00", "2021-02-23T21:27:18+00:00", "2021-02-23T21:30:40+00:00", "2021-02-23T21:45:52+00:00", "2021-02-24T06:17:24+00:00", "2021-02-24T20:12:02+00:00", "2021-02-24T20:13:42+00:00", "2021-02-24T20:16:35+00:00", "2021-02-24T20:21:43+00:00", "2021-02-24T20:24:55+00:00", "2021-02-24T20:31:04+00:00", "2021-02-24T20:34:04+00:00", "2021-02-24T20:35:25+00:00", "2021-02-24T20:37:21+00:00", "2021-02-24T20:39:09+00:00", "2021-02-24T20:41:33+00:00", "2021-02-24T20:42:53+00:00", "2021-02-24T20:45:09+00:00", "2021-02-24T20:47:06+00:00", "2021-02-24T20:49:22+00:00", "2021-02-24T20:50:54+00:00", "2021-02-24T20:54:06+00:00", "2021-02-24T20:55:14+00:00", "2021-02-24T20:59:58+00:00", "2021-02-24T21:02:39+00:00", "2021-02-24T21:04:19+00:00", "2021-02-24T21:06:11+00:00", "2021-02-24T21:08:27+00:00", "2021-02-24T21:10:07+00:00", "2021-02-24T21:12:32+00:00", "2021-02-24T21:15:12+00:00", "2021-02-25T04:19:40+00:00", "2021-02-25T17:07:55+00:00", "2021-02-25T17:09:15+00:00", "2021-02-25T17:12:56+00:00", "2021-02-25T17:14:48+00:00", "2021-02-25T17:18:40+00:00", "2021-02-25T17:22:21+00:00", "2021-02-25T17:26:41+00:00", "2021-02-25T17:31:18+00:00", "2021-02-25T17:34:58+00:00", "2021-02-25T17:38:02+00:00", "2021-02-25T17:40:26+00:00", "2021-02-25T17:41:22+00:00", "2021-02-25T17:46:23+00:00", "2021-02-25T17:49:59+00:00", "2021-02-25T17:53:35+00:00", "2021-02-25T17:57:24+00:00", "2021-02-25T18:03:16+00:00", "2021-02-25T18:08:32+00:00", "2021-02-25T18:11:24+00:00", "2021-02-25T18:12:48+00:00", "2021-02-25T18:17:41+00:00", "2021-02-25T18:21:37+00:00", "2021-02-25T18:25:49+00:00", "2021-02-25T18:28:57+00:00", "2021-02-25T18:36:26+00:00", "2021-02-25T18:38:14+00:00", "2021-02-25T18:44:22+00:00", "2021-02-25T18:47:35+00:00", "2021-02-25T18:50:55+00:00", "2021-02-25T18:59:07+00:00", "2021-02-25T19:02:48+00:00", "2021-02-25T19:07:48+00:00", "2021-02-25T19:13:25+00:00", "2021-02-25T19:15:45+00:00", "2021-02-25T19:19:01+00:00", "2021-02-25T19:24:06+00:00", "2021-02-25T19:27:58+00:00", "2021-02-25T19:31:18+00:00", "2021-02-25T19:31:42+00:00", "2021-02-25T19:35:35+00:00", "2021-02-25T19:41:07+00:00", "2021-02-25T19:42:43+00:00", "2021-02-25T19:45:47+00:00", "2021-02-25T19:49:24+00:00", "2021-02-25T19:52:00+00:00", "2021-02-25T19:56:04+00:00", "2021-02-25T19:58:13+00:00", "2021-02-25T20:02:09+00:00", "2021-02-25T20:04:33+00:00", "2021-02-25T20:08:37+00:00", "2021-02-25T20:10:45+00:00", "2021-02-25T20:17:26+00:00", "2021-02-25T20:22:42+00:00", "2021-02-25T20:27:07+00:00", "2021-02-25T20:30:59+00:00", "2021-02-25T20:32:43+00:00", "2021-02-25T20:33:39+00:00", "2021-02-25T20:37:00+00:00", "2021-02-25T20:41:12+00:00", "2021-02-25T20:44:24+00:00", "2021-02-25T20:47:21+00:00", "2021-02-25T20:50:13+00:00", "2021-02-25T20:50:53+00:00", "2021-02-25T20:54:17+00:00", "2021-02-25T20:56:38+00:00", "2021-02-25T20:59:50+00:00", "2021-02-25T21:00:42+00:00", "2021-02-25T21:02:14+00:00", "2021-02-25T21:06:51+00:00", "2021-02-25T21:08:19+00:00", "2021-02-25T21:10:15+00:00", "2021-02-25T21:11:19+00:00", "2021-02-25T21:14:15+00:00", "2021-02-25T21:16:19+00:00", "2021-02-25T21:19:03+00:00", "2021-02-25T21:20:52+00:00", "2021-02-25T21:22:24+00:00", "2021-02-25T21:24:28+00:00", "2021-02-25T21:27:24+00:00", "2021-02-25T23:54:46+00:00", "2021-02-26T00:23:28+00:00", "2021-02-26T00:25:16+00:00", "2021-02-26T00:28:12+00:00", "2021-02-26T00:29:24+00:00", "2021-02-26T00:31:05+00:00", "2021-02-26T00:34:05+00:00", "2021-02-26T00:36:05+00:00", "2021-02-26T01:16:21+00:00", "2021-03-06T20:50:33+00:00", "2021-03-06T20:52:49+00:00", "2021-03-06T20:54:50+00:00", "2021-03-06T20:55:54+00:00", "2021-03-06T20:59:38+00:00", "2021-03-06T21:01:02+00:00", "2021-03-06T21:05:07+00:00", "2021-03-06T23:06:09+00:00", "2021-03-06T23:07:41+00:00", "2021-03-06T23:09:57+00:00"], "elevations": [null, null, null, null, null, null, null, null, null, null, null, null, null, null, null, null, null, null, null, null, null, null, null, null, null, null, null, null, null, null, null, null, null, null, null, null, null, null, null, null, null, null, null, null, null, null, null, null, null, null, null, null, null, null, null, null, null, null, null, null, null, null, null, null, null, null, null, null, null, null, null, null, null, null, null, null, null, null, null, null, null, null, null, null, null, null, null, null, null, null, null, null, null, null, null, null, null, null, null, null, null, null, null, null, null, null, null, null, null, null, null, null, null, null, null, null, null, null, null, null, null, null, null, null, null, null, null, null, null, null, null, null, null, null, null, null, null, null, null, null, null, null, null, null, null, null, null, null, null, null, null, null, null, null, null, null, null, null, null, null, null, null, null, null, null, null, null, null, null, null, null, null, null, null, null, null, null, null, null, null, null, null, null, null, null, null, null, null, null, null, null, null, null, null, null, null, null, null, null, null, null, null, null]}