{"type": "Feature", "properties": {"leg_id": 10, "name": "20200323 - La Cruz to Barra de Navidad", "stated_nm": 166.9, "computed_nm": 166.9}, "geometry": {"type": "LineString", "coordinates": [[-105.513327, 20.767427], [-105.513186, 20.764332], [-105.515303, 20.760782], [-105.517785, 20.75674], [-105.52055, 20.751607], [-105.525025, 20.742518], [-105.525976, 20.740717], [-105.527444, 20.737738], [-105.531797, 20.729363], [-105.532718, 20.727777], [-105.534543, 20.724255], [-105.535355, 20.722451], [-105.539092, 20.714192], [-105.541477, 20.708455], [-105.541573, 20.708312], [-105.5466, 20.695937], [-105.547319, 20.69478], [-105.552947, 20.686088], [-105.554855, 20.684075], [-105.568079, 20.670708], [-105.569212, 20.669574], [-105.572173, 20.666683], [-105.579506, 20.65925], [-105.580214, 20.658503], [-105.592625, 20.646796], [-105.592895, 20.646503], [-105.601408, 20.638673], [-105.603086, 20.636918], [-105.605464, 20.634568], [-105.607417, 20.63278], [-105.612608, 20.627755], [-105.614891, 20.625728], [-105.626092, 20.615112], [-105.627448, 20.613959], [-105.6346, 20.606958], [-105.635785, 20.605065], [-105.638538, 20.600998], [-105.640228, 20.598376], [-105.642046, 20.595604], [-105.64508, 20.591277], [-105.647081, 20.588214], [-105.648891, 20.585494], [-105.654358, 20.576791], [-105.655532, 20.574932], [-105.661235, 20.564947], [-105.662144, 20.563252], [-105.664083, 20.559828], [-105.66579, 20.556748], [-105.668602, 20.55207], [-105.669338, 20.551017], [-105.672015, 20.546622], [-105.673722, 20.544077], [-105.675728, 20.540698], [-105.677038, 20.538849], [-105.681208, 20.532015], [-105.68281, 20.529234], [-105.687635, 20.521703], [-105.688905, 20.519987], [-105.692468, 20.514596], [-105.694298, 20.512024], [-105.694682, 20.511547], [-105.700793, 20.502397], [-105.701796, 20.500974], [-105.706245, 20.49452], [-105.709513, 20.489275], [-105.711895, 20.485756], [-105.714831, 20.481476], [-105.717419, 20.477647], [-105.720483, 20.473293], [-105.725397, 20.465922], [-105.727009, 20.463782], [-105.728528, 20.461004], [-105.730367, 20.457142], [-105.73299, 20.452053], [-105.734868, 20.448107], [-105.736097, 20.445846], [-105.737568, 20.442945], [-105.738544, 20.441003], [-105.739465, 20.440465], [-105.740828, 20.441291], [-105.741777, 20.44065], [-105.744547, 20.437577], [-105.746684, 20.435139], [-105.747618, 20.433465], [-105.749112, 20.430975], [-105.751226, 20.424973], [-105.751742, 20.423468], [-105.752557, 20.421134], [-105.753109, 20.419281], [-105.753675, 20.415836], [-105.753935, 20.413699], [-105.754473, 20.408701], [-105.754583, 20.406542], [-105.75476, 20.40152], [-105.755117, 20.397821], [-105.755184, 20.395405], [-105.755592, 20.388729], [-105.755641, 20.387685], [-105.755857, 20.384487], [-105.755985, 20.38271], [-105.756127, 20.379667], [-105.756312, 20.377163], [-105.756322, 20.373979], [-105.756385, 20.372527], [-105.756434, 20.370596], [-105.756322, 20.368257], [-105.756398, 20.366768], [-105.756449, 20.36331], [-105.756474, 20.361721], [-105.756691, 20.360103], [-105.757051, 20.35747], [-105.75665, 20.354636], [-105.756453, 20.353168], [-105.755938, 20.35019], [-105.755658, 20.347829], [-105.755261, 20.343759], [-105.754892, 20.341694], [-105.754012, 20.338138], [-105.753494, 20.334486], [-105.753302, 20.331874], [-105.753184, 20.329804], [-105.752862, 20.326674], [-105.752601, 20.324333], [-105.752931, 20.322825], [-105.751549, 20.321019], [-105.750945, 20.320339], [-105.748487, 20.320058], [-105.746619, 20.319884], [-105.745099, 20.319328], [-105.742784, 20.318781], [-105.741001, 20.317782], [-105.739176, 20.316706], [-105.736333, 20.315063], [-105.732728, 20.313185], [-105.729788, 20.311688], [-105.725018, 20.309088], [-105.722309, 20.307564], [-105.720797, 20.306523], [-105.719133, 20.305567], [-105.717448, 20.304706], [-105.715742, 20.303979], [-105.713855, 20.302937], [-105.711199, 20.30138], [-105.708796, 20.299899], [-105.707017, 20.298753], [-105.704763, 20.297516], [-105.702598, 20.296154], [-105.700139, 20.294631], [-105.698585, 20.293733], [-105.696685, 20.292627], [-105.695139, 20.291581], [-105.692599, 20.289872], [-105.690867, 20.288821], [-105.688917, 20.287457], [-105.686343, 20.285445], [-105.684409, 20.284124], [-105.682838, 20.283253], [-105.680964, 20.282275], [-105.678703, 20.28104], [-105.67728, 20.280118], [-105.675705, 20.279578], [-105.673597, 20.278659], [-105.6715, 20.277418], [-105.6694, 20.276508], [-105.666241, 20.274788], [-105.664481, 20.273587], [-105.663099, 20.27318], [-105.660571, 20.272604], [-105.659078, 20.272165], [-105.657665, 20.272053], [-105.656015, 20.271939], [-105.654331, 20.272235], [-105.652466, 20.272092], [-105.650491, 20.271589], [-105.647793, 20.270553], [-105.646141, 20.269892], [-105.642639, 20.268609], [-105.63953, 20.266842], [-105.636964, 20.265387], [-105.635689, 20.26459], [-105.632003, 20.262435], [-105.630889, 20.26178], [-105.627077, 20.259689], [-105.62565, 20.258999], [-105.623017, 20.257762], [-105.61998, 20.256151], [-105.617411, 20.254947], [-105.615833, 20.254271], [-105.611443, 20.25225], [-105.609618, 20.251273], [-105.606955, 20.249404], [-105.605976, 20.24861], [-105.602197, 20.245803], [-105.599364, 20.243449], [-105.597944, 20.242378], [-105.595059, 20.240217], [-105.591433, 20.237368], [-105.590334, 20.236538], [-105.58886, 20.235613], [-105.587416, 20.234842], [-105.585898, 20.234263], [-105.583745, 20.233453], [-105.579701, 20.232544], [-105.577105, 20.232647], [-105.575318, 20.232934], [-105.574207, 20.233706], [-105.572998, 20.235185], [-105.573536, 20.236313], [-105.572979, 20.236164], [-105.572212, 20.236131], [-105.57242, 20.23631], [-105.572769, 20.232521], [-105.573226, 20.221666], [-105.57325, 20.219859], [-105.573263, 20.217099], [-105.573387, 20.212067], [-105.573436, 20.208505], [-105.573669, 20.204186], [-105.572703, 20.203834], [-105.571135, 20.205105], [-105.569963, 20.204375], [-105.569176, 20.202142], [-105.569006, 20.199849], [-105.569532, 20.197942], [-105.571617, 20.190045], [-105.572268, 20.187666], [-105.573312, 20.184272], [-105.57422, 20.181199], [-105.575417, 20.176953], [-105.578617, 20.166238], [-105.580375, 20.16068], [-105.58142, 20.157604], [-105.582836, 20.153798], [-105.583252, 20.151279], [-105.58389, 20.145348], [-105.584755, 20.140007], [-105.585209, 20.1362], [-105.585314, 20.134105], [-105.584802, 20.129187], [-105.58414, 20.12147], [-105.583774, 20.117353], [-105.583542, 20.114424], [-105.583387, 20.112723], [-105.582882, 20.108845], [-105.58275, 20.106742], [-105.582153, 20.101637], [-105.581675, 20.096957], [-105.581599, 20.094136], [-105.581425, 20.086225], [-105.581228, 20.082792], [-105.580898, 20.081306], [-105.579185, 20.07611], [-105.577823, 20.07243], [-105.576962, 20.069692], [-105.575893, 20.066813], [-105.574388, 20.06225], [-105.573184, 20.058903], [-105.57199, 20.055408], [-105.570325, 20.049813], [-105.569162, 20.046548], [-105.56854, 20.04425], [-105.565755, 20.036098], [-105.564735, 20.032474], [-105.561997, 20.023905], [-105.560065, 20.018237], [-105.558939, 20.014577], [-105.557079, 20.00885], [-105.556017, 20.005826], [-105.553062, 19.997005], [-105.552278, 19.994405], [-105.550924, 19.989221], [-105.550253, 19.986648], [-105.549623, 19.984047], [-105.547715, 19.977938], [-105.54691, 19.975668], [-105.546175, 19.973155], [-105.541576, 19.96514], [-105.539532, 19.961175], [-105.538566, 19.959318], [-105.53543, 19.953527], [-105.534448, 19.951394], [-105.533076, 19.948744], [-105.531002, 19.94473], [-105.527083, 19.937562], [-105.525785, 19.934823], [-105.522505, 19.92878], [-105.520611, 19.925409], [-105.518023, 19.920548], [-105.517005, 19.918614], [-105.515378, 19.91537], [-105.513917, 19.912728], [-105.512092, 19.90917], [-105.510331, 19.906001], [-105.508551, 19.90299], [-105.506846, 19.899817], [-105.503377, 19.893603], [-105.502483, 19.892104], [-105.497967, 19.884317], [-105.496628, 19.881773], [-105.493723, 19.876517], [-105.492112, 19.873883], [-105.49053, 19.871113], [-105.487716, 19.866427], [-105.483787, 19.859393], [-105.482328, 19.857309], [-105.480599, 19.854112], [-105.478285, 19.849869], [-105.476538, 19.846785], [-105.475371, 19.844464], [-105.473665, 19.840917], [-105.471883, 19.837546], [-105.470837, 19.835501], [-105.46993, 19.833808], [-105.46523, 19.824325], [-105.464554, 19.822948], [-105.463261, 19.820539], [-105.461955, 19.817641], [-105.460004, 19.814095], [-105.458456, 19.811617], [-105.457229, 19.809236], [-105.455788, 19.806524], [-105.453977, 19.802682], [-105.452371, 19.799782], [-105.451442, 19.798221], [-105.446597, 19.789238], [-105.445664, 19.787753], [-105.444697, 19.786149], [-105.443726, 19.784945], [-105.441736, 19.781489], [-105.439917, 19.779212], [-105.43785, 19.776781], [-105.435615, 19.774338], [-105.432883, 19.7711], [-105.429862, 19.767795], [-105.426752, 19.7642], [-105.424615, 19.761612], [-105.422961, 19.759902], [-105.419942, 19.756277], [-105.418148, 19.754245], [-105.414168, 19.750246], [-105.41084, 19.746813], [-105.406816, 19.742494], [-105.400848, 19.735908], [-105.3974, 19.732225], [-105.395945, 19.730808], [-105.39315, 19.728392], [-105.386095, 19.721188], [-105.384196, 19.719166], [-105.381051, 19.715517], [-105.377987, 19.712255], [-105.375362, 19.709642], [-105.371925, 19.705817], [-105.367327, 19.701153], [-105.364526, 19.69846], [-105.355668, 19.689485], [-105.351532, 19.685303], [-105.348715, 19.6827], [-105.345307, 19.67923], [-105.344025, 19.677767], [-105.340527, 19.674932], [-105.334495, 19.67105], [-105.332267, 19.669499], [-105.329393, 19.66764], [-105.324956, 19.664671], [-105.321484, 19.662323], [-105.319497, 19.660943], [-105.31673, 19.658993], [-105.312069, 19.656123], [-105.308018, 19.653627], [-105.303417, 19.650698], [-105.300801, 19.648953], [-105.297414, 19.646852], [-105.29488, 19.645275], [-105.292718, 19.643822], [-105.28696, 19.64032], [-105.284298, 19.638508], [-105.280932, 19.636464], [-105.277928, 19.634444], [-105.274073, 19.631877], [-105.27078, 19.62957], [-105.267583, 19.627134], [-105.265153, 19.625369], [-105.261868, 19.62292], [-105.259607, 19.621078], [-105.257333, 19.620498], [-105.256539, 19.620072], [-105.253201, 19.618779], [-105.252126, 19.618868], [-105.249291, 19.617704], [-105.247488, 19.617148], [-105.244711, 19.616373], [-105.242818, 19.615551], [-105.240868, 19.6143], [-105.232247, 19.610225], [-105.230188, 19.609307], [-105.228332, 19.608559], [-105.226845, 19.608317], [-105.224757, 19.607481], [-105.222542, 19.606594], [-105.221394, 19.605512], [-105.219529, 19.604396], [-105.216865, 19.602904], [-105.215694, 19.602374], [-105.213244, 19.601531], [-105.210715, 19.600415], [-105.208707, 19.599599], [-105.206311, 19.598416], [-105.204104, 19.597407], [-105.202235, 19.596563], [-105.198951, 19.595314], [-105.196813, 19.594466], [-105.195078, 19.593824], [-105.191725, 19.592592], [-105.187885, 19.590325], [-105.185347, 19.588796], [-105.183313, 19.587762], [-105.17705, 19.584193], [-105.173438, 19.582006], [-105.167205, 19.578587], [-105.166102, 19.577922], [-105.159783, 19.574303], [-105.157404, 19.573054], [-105.151213, 19.57066], [-105.148737, 19.56967], [-105.145243, 19.568372], [-105.141873, 19.567358], [-105.139144, 19.567181], [-105.135213, 19.56749], [-105.129398, 19.570013], [-105.12801, 19.570839], [-105.126438, 19.57255], [-105.125885, 19.575145], [-105.126747, 19.578892], [-105.128308, 19.58076], [-105.130541, 19.581863], [-105.131887, 19.582173], [-105.127435, 19.579474], [-105.120665, 19.57461], [-105.118548, 19.573148], [-105.117045, 19.57178], [-105.114017, 19.569735], [-105.112376, 19.568577], [-105.110789, 19.566693], [-105.108603, 19.563025], [-105.108215, 19.561527], [-105.109149, 19.560237], [-105.109876, 19.559318], [-105.10998, 19.55923], [-105.109425, 19.556121], [-105.108382, 19.553998], [-105.107323, 19.552199], [-105.107981, 19.55275], [-105.109763, 19.555692], [-105.1099, 19.557044], [-105.110643, 19.558581], [-105.107574, 19.558096], [-105.10611, 19.557055], [-105.105275, 19.5559], [-105.104146, 19.554546], [-105.103776, 19.552956], [-105.103492, 19.551424], [-105.103492, 19.550004], [-105.103498, 19.548471], [-105.102097, 19.545928], [-105.101039, 19.543631], [-105.101188, 19.541771], [-105.101262, 19.539706], [-105.103095, 19.535363], [-105.103573, 19.532657], [-105.104909, 19.529629], [-105.105706, 19.527633], [-105.10514, 19.526404], [-105.104726, 19.524861], [-105.101519, 19.520004], [-105.097807, 19.515057], [-105.093005, 19.508231], [-105.091365, 19.505812], [-105.085088, 19.497415], [-105.084722, 19.49689], [-105.079883, 19.490222], [-105.075925, 19.484456], [-105.071945, 19.478582], [-105.06965, 19.476627], [-105.066849, 19.475202], [-105.064495, 19.474599], [-105.0619, 19.473541], [-105.060531, 19.472681], [-105.060665, 19.472037], [-105.061025, 19.472521], [-105.064867, 19.474641], [-105.066811, 19.474986], [-105.069272, 19.475414], [-105.070755, 19.475494], [-105.073838, 19.474746], [-105.076395, 19.473502], [-105.079222, 19.471416], [-105.080249, 19.469898], [-105.080587, 19.468775], [-105.080755, 19.461554], [-105.080046, 19.45824], [-105.079448, 19.45355], [-105.078609, 19.450299], [-105.07748, 19.44333], [-105.077033, 19.44141], [-105.076504, 19.438447], [-105.078129, 19.435991], [-105.0778, 19.434938], [-105.075617, 19.43239], [-105.074449, 19.430935], [-105.07204, 19.427661], [-105.069857, 19.424499], [-105.068245, 19.422185], [-105.06488, 19.416977], [-105.062347, 19.412668], [-105.060475, 19.409734], [-105.058465, 19.40627], [-105.055567, 19.400767], [-105.05495, 19.399301], [-105.053895, 19.396992], [-105.05288, 19.395082], [-105.051487, 19.392649], [-105.050137, 19.390473], [-105.04874, 19.388116], [-105.047565, 19.386033], [-105.04556, 19.382323], [-105.043979, 19.379371], [-105.042225, 19.37714], [-105.037105, 19.371476], [-105.03278, 19.366793], [-105.031118, 19.36483], [-105.02889, 19.362483], [-105.025838, 19.359808], [-105.024127, 19.358326], [-105.021464, 19.355925], [-105.019294, 19.35391], [-105.016838, 19.351638], [-105.015371, 19.350231], [-105.012332, 19.347188], [-105.0086, 19.343774], [-105.006686, 19.342162], [-105.003603, 19.339434], [-105.00053, 19.336567], [-104.999498, 19.335484], [-104.998434, 19.33438], [-104.996531, 19.332193], [-104.99504, 19.329904], [-104.99401, 19.328214], [-104.992565, 19.325948], [-104.990377, 19.323423], [-104.986483, 19.31957], [-104.985462, 19.318657], [-104.978925, 19.312717], [-104.975825, 19.309518], [-104.973921, 19.307774], [-104.972343, 19.306462], [-104.964958, 19.302143], [-104.963041, 19.301188], [-104.959742, 19.29912], [-104.954768, 19.296379], [-104.944128, 19.290628], [-104.942024, 19.289415], [-104.938402, 19.287618], [-104.931393, 19.283913], [-104.928113, 19.282504], [-104.92631, 19.281779], [-104.922233, 19.279922], [-104.919834, 19.278898], [-104.915992, 19.277243], [-104.914398, 19.276466], [-104.907813, 19.273943], [-104.90432, 19.272274], [-104.89919, 19.269252], [-104.897917, 19.268824], [-104.894763, 19.268806], [-104.891816, 19.26903], [-104.888461, 19.269164], [-104.884142, 19.269422], [-104.881507, 19.269579], [-104.876401, 19.269656], [-104.873383, 19.269784], [-104.871292, 19.269834], [-104.866602, 19.270792], [-104.862999, 19.271453], [-104.859658, 19.272475], [-104.8537, 19.274807], [-104.8515, 19.275734], [-104.84121, 19.28019], [-104.839037, 19.28116], [-104.834903, 19.283012], [-104.831923, 19.2851], [-104.828393, 19.287494], [-104.827414, 19.28877], [-104.826772, 19.290828], [-104.827093, 19.293624], [-104.828938, 19.296779], [-104.831388, 19.296772], [-104.835103, 19.296574], [-104.836589, 19.296593], [-104.833566, 19.295244], [-104.830954, 19.293657], [-104.828624, 19.291903], [-104.827402, 19.290301], [-104.828467, 19.289409], [-104.831037, 19.288457], [-104.83363, 19.287832], [-104.837073, 19.286784], [-104.839519, 19.2862], [-104.842703, 19.285433], [-104.846575, 19.284807], [-104.850687, 19.28456], [-104.853683, 19.284567], [-104.856937, 19.284434], [-104.858916, 19.28448], [-104.861877, 19.284742], [-104.86399, 19.284852], [-104.865634, 19.284923], [-104.869891, 19.284189], [-104.870844, 19.283717], [-104.87059, 19.283621], [-104.864462, 19.283233], [-104.862202, 19.282903], [-104.851172, 19.281543], [-104.849875, 19.2814], [-104.841611, 19.281485], [-104.839857, 19.281531], [-104.835548, 19.282182], [-104.830138, 19.283805], [-104.829076, 19.284444], [-104.828023, 19.286562], [-104.827458, 19.288685], [-104.827599, 19.291132], [-104.828833, 19.29314], [-104.830063, 19.294493], [-104.833584, 19.296501], [-104.835155, 19.297143], [-104.836605, 19.296867], [-104.836729, 19.296697], [-104.83359, 19.295735], [-104.831474, 19.294412], [-104.828718, 19.292978], [-104.827597, 19.291743], [-104.826834, 19.288993], [-104.82617, 19.286348], [-104.8268, 19.285884], [-104.827602, 19.282043], [-104.827466, 19.280136], [-104.827697, 19.277472], [-104.827667, 19.275696], [-104.827687, 19.273056], [-104.827638, 19.271247], [-104.828144, 19.268922], [-104.828564, 19.266238], [-104.828406, 19.263825], [-104.828587, 19.261113], [-104.828861, 19.258318], [-104.829537, 19.255155], [-104.829972, 19.251534], [-104.830614, 19.249036], [-104.830799, 19.246965], [-104.830834, 19.242828], [-104.830951, 19.241265], [-104.830953, 19.238727], [-104.830886, 19.236258], [-104.831118, 19.232961], [-104.831403, 19.230883], [-104.831856, 19.2283], [-104.832564, 19.225538], [-104.832519, 19.223952], [-104.83244, 19.221476], [-104.832182, 19.218691], [-104.831998, 19.216703], [-104.831526, 19.215113], [-104.83001, 19.213341], [-104.829118, 19.212013], [-104.828126, 19.210767], [-104.826325, 19.208893], [-104.824304, 19.207074], [-104.822645, 19.205659], [-104.821152, 19.204701], [-104.819636, 19.20386], [-104.817088, 19.201235], [-104.815079, 19.199302], [-104.812984, 19.197435], [-104.810774, 19.195296], [-104.809143, 19.193885], [-104.806334, 19.191574], [-104.804736, 19.19023], [-104.803116, 19.188836], [-104.800782, 19.186787], [-104.799397, 19.184933], [-104.797488, 19.182589], [-104.796525, 19.181782], [-104.794922, 19.181286], [-104.793352, 19.181932], [-104.791218, 19.182791], [-104.788957, 19.183562], [-104.786237, 19.184781], [-104.783894, 19.185768], [-104.781766, 19.186331], [-104.78033, 19.186883], [-104.778685, 19.187602], [-104.776444, 19.188395], [-104.774754, 19.188862], [-104.7729, 19.18962], [-104.770139, 19.190468], [-104.768175, 19.191089], [-104.765764, 19.191883], [-104.762932, 19.192411], [-104.760128, 19.192891], [-104.75764, 19.193539], [-104.755301, 19.194153], [-104.753883, 19.194383], [-104.750784, 19.194909], [-104.74887, 19.195151], [-104.745902, 19.195773], [-104.743894, 19.196599], [-104.741646, 19.197908], [-104.73924, 19.198747], [-104.737097, 19.19935], [-104.734333, 19.200261], [-104.732048, 19.20081], [-104.729552, 19.201456], [-104.726524, 19.202594], [-104.723686, 19.203308], [-104.721914, 19.203553], [-104.719068, 19.203826], [-104.71694, 19.203973], [-104.713838, 19.204051], [-104.711003, 19.20412], [-104.707703, 19.204035], [-104.703921, 19.2041], [-104.702488, 19.204231], [-104.701408, 19.203858], [-104.697584, 19.203178], [-104.695844, 19.202757], [-104.694269, 19.202165], [-104.69185, 19.200944], [-104.689049, 19.199771], [-104.687104, 19.198584], [-104.684733, 19.197566], [-104.682135, 19.197091], [-104.680654, 19.196019], [-104.679413, 19.194488], [-104.677012, 19.192398], [-104.675953, 19.19151], [-104.674848, 19.190555], [-104.673388, 19.189434], [-104.672487, 19.189268], [-104.677159, 19.192303], [-104.679458, 19.1948], [-104.681882, 19.197127], [-104.684983, 19.197459], [-104.688307, 19.199561], [-104.691904, 19.20076], [-104.699838, 19.20319], [-104.70757, 19.206007], [-104.712838, 19.207758], [-104.717957, 19.209673], [-104.725613, 19.2122], [-104.730858, 19.214455], [-104.736403, 19.218441], [-104.738542, 19.221038], [-104.73932, 19.224522], [-104.738844, 19.227823], [-104.737055, 19.230569], [-104.734014, 19.231418], [-104.731792, 19.230591], [-104.738435, 19.22873], [-104.739733, 19.224974], [-104.737851, 19.221189], [-104.734217, 19.217447], [-104.731833, 19.21618], [-104.725263, 19.212685], [-104.721748, 19.210585], [-104.719081, 19.209287], [-104.715352, 19.207407], [-104.707078, 19.204727], [-104.70535, 19.20415], [-104.701535, 19.202882], [-104.694095, 19.200308], [-104.691145, 19.199906], [-104.688239, 19.199337], [-104.684831, 19.197348], [-104.682088, 19.196981], [-104.679507, 19.194411], [-104.677378, 19.192283], [-104.674435, 19.190322], [-104.672384, 19.189259], [-104.674607, 19.190497], [-104.676928, 19.191976], [-104.678574, 19.193911], [-104.681118, 19.196411], [-104.683541, 19.197425], [-104.686872, 19.19878], [-104.69086, 19.202356], [-104.692758, 19.204194], [-104.697912, 19.208188], [-104.701595, 19.211161], [-104.708277, 19.216537], [-104.710113, 19.218545], [-104.710298, 19.220094], [-104.710265, 19.22048], [-104.699943, 19.208746], [-104.689278, 19.20011], [-104.678571, 19.193545], [-104.672119, 19.189323]]}, "times": ["2020-03-23T17:35:58+00:00", "2020-03-24T14:41:47+00:00", "2020-03-24T14:43:56+00:00", "2020-03-24T14:49:24+00:00", "2020-03-24T14:51:45+00:00", "2020-03-24T14:57:28+00:00", "2020-03-24T14:58:52+00:00", "2020-03-24T15:01:45+00:00", "2020-03-24T15:06:53+00:00", "2020-03-24T15:08:37+00:00", "2020-03-24T15:09:57+00:00", "2020-03-24T15:11:54+00:00", "2020-03-24T15:17:46+00:00", "2020-03-24T15:21:45+00:00", "2020-03-24T15:21:51+00:00", "2020-03-24T15:30:20+00:00", "2020-03-24T15:31:21+00:00", "2020-03-24T15:37:44+00:00", "2020-03-24T15:41:08+00:00", "2020-03-24T15:50:55+00:00", "2020-03-24T15:51:14+00:00", "2020-03-24T15:54:22+00:00", "2020-03-24T16:00:42+00:00", "2020-03-24T16:00:59+00:00", "2020-03-24T16:11:45+00:00", "2020-03-24T16:12:12+00:00", "2020-03-24T16:19:17+00:00", "2020-03-24T16:21:33+00:00", "2020-03-24T16:23:45+00:00", "2020-03-24T16:24:49+00:00", "2020-03-24T16:28:54+00:00", "2020-03-24T16:30:10+00:00", "2020-03-24T16:40:15+00:00", "2020-03-24T16:41:35+00:00", "2020-03-24T16:47:40+00:00", "2020-03-24T16:48:32+00:00", "2020-03-24T16:52:32+00:00", "2020-03-24T16:54:08+00:00", "2020-03-24T16:57:36+00:00", "2020-03-24T17:00:37+00:00", "2020-03-24T17:04:09+00:00", "2020-03-24T17:06:18+00:00", "2020-03-24T17:12:00+00:00", "2020-03-24T17:13:34+00:00", "2020-03-24T17:21:19+00:00", "2020-03-24T17:21:59+00:00", "2020-03-24T17:25:44+00:00", "2020-03-24T17:27:44+00:00", "2020-03-24T17:31:25+00:00", "2020-03-24T17:32:21+00:00", "2020-03-24T17:35:41+00:00", "2020-03-24T17:37:41+00:00", "2020-03-24T17:40:18+00:00", "2020-03-24T17:41:38+00:00", "2020-03-24T17:47:02+00:00", "2020-03-24T17:48:43+00:00", "2020-03-24T17:56:28+00:00", "2020-03-24T17:57:52+00:00", "2020-03-24T18:02:00+00:00", "2020-03-24T18:04:01+00:00", "2020-03-24T18:04:37+00:00", "2020-03-24T18:11:42+00:00", "2020-03-24T18:12:06+00:00", "2020-03-24T18:17:42+00:00", "2020-03-24T18:21:35+00:00", "2020-03-24T18:26:19+00:00", "2020-03-24T18:28:36+00:00", "2020-03-24T18:32:00+00:00", "2020-03-24T18:33:44+00:00", "2020-03-24T18:39:21+00:00", "2020-03-24T18:41:21+00:00", "2020-03-24T18:43:26+00:00", "2020-03-24T18:45:42+00:00", "2020-03-24T18:49:14+00:00", "2020-03-24T18:51:57+00:00", "2020-03-24T18:54:09+00:00", "2020-03-24T18:55:09+00:00", "2020-03-24T18:58:10+00:00", "2020-03-24T18:59:38+00:00", "2020-03-24T19:01:38+00:00", "2020-03-24T19:02:50+00:00", "2020-03-24T19:05:55+00:00", "2020-03-24T19:10:19+00:00", "2020-03-24T19:12:00+00:00", "2020-03-24T19:16:04+00:00", "2020-03-24T19:22:13+00:00", "2020-03-24T19:24:21+00:00", "2020-03-24T19:27:13+00:00", "2020-03-24T19:28:33+00:00", "2020-03-24T19:32:34+00:00", "2020-03-24T19:33:58+00:00", "2020-03-24T19:42:00+00:00", "2020-03-24T19:44:35+00:00", "2020-03-24T19:48:56+00:00", "2020-03-24T19:53:00+00:00", "2020-03-24T19:55:21+00:00", "2020-03-24T20:02:37+00:00", "2020-03-24T20:03:26+00:00", "2020-03-24T20:06:22+00:00", "2020-03-24T20:08:14+00:00", "2020-03-24T20:12:06+00:00", "2020-03-24T20:14:47+00:00", "2020-03-24T20:16:55+00:00", "2020-03-24T20:18:51+00:00", "2020-03-24T20:19:55+00:00", "2020-03-24T20:22:52+00:00", "2020-03-24T20:23:32+00:00", "2020-03-24T20:27:04+00:00", "2020-03-24T20:28:41+00:00", "2020-03-24T20:30:29+00:00", "2020-03-24T20:32:17+00:00", "2020-03-24T20:36:30+00:00", "2020-03-24T20:37:06+00:00", "2020-03-24T20:41:14+00:00", "2020-03-24T20:42:15+00:00", "2020-03-24T20:47:23+00:00", "2020-03-24T20:50:43+00:00", "2020-03-24T20:53:48+00:00", "2020-03-24T20:56:28+00:00", "2020-03-24T21:00:09+00:00", "2020-03-24T21:01:05+00:00", "2020-03-24T21:04:13+00:00", "2020-03-24T21:07:14+00:00", "2020-03-24T21:08:30+00:00", "2020-03-24T21:11:06+00:00", "2020-03-24T21:12:06+00:00", "2020-03-24T21:16:27+00:00", "2020-03-24T21:17:27+00:00", "2020-03-24T21:19:15+00:00", "2020-03-24T21:21:47+00:00", "2020-03-24T21:24:16+00:00", "2020-03-24T21:25:56+00:00", "2020-03-24T21:29:48+00:00", "2020-03-24T21:34:33+00:00", "2020-03-24T21:39:05+00:00", "2020-03-24T21:42:15+00:00", "2020-03-24T21:45:34+00:00", "2020-03-24T21:47:18+00:00", "2020-03-24T21:48:43+00:00", "2020-03-24T21:50:23+00:00", "2020-03-24T21:52:15+00:00", "2020-03-24T21:54:55+00:00", "2020-03-24T21:56:51+00:00", "2020-03-24T22:01:00+00:00", "2020-03-24T22:02:11+00:00", "2020-03-24T22:05:04+00:00", "2020-03-24T22:05:52+00:00", "2020-03-24T22:09:17+00:00", "2020-03-24T22:11:13+00:00", "2020-03-24T22:14:05+00:00", "2020-03-24T22:15:26+00:00", "2020-03-24T22:17:18+00:00", "2020-03-24T22:19:06+00:00", "2020-03-24T22:20:58+00:00", "2020-03-24T22:24:59+00:00", "2020-03-24T22:25:35+00:00", "2020-03-24T22:26:47+00:00", "2020-03-24T22:28:39+00:00", "2020-03-24T22:31:32+00:00", "2020-03-24T22:32:04+00:00", "2020-03-24T22:33:16+00:00", "2020-03-24T22:35:04+00:00", "2020-03-24T22:37:00+00:00", "2020-03-24T22:37:56+00:00", "2020-03-24T22:41:19+00:00", "2020-03-24T22:42:15+00:00", "2020-03-24T22:43:29+00:00", "2020-03-24T22:45:21+00:00", "2020-03-24T22:46:17+00:00", "2020-03-24T22:47:14+00:00", "2020-03-24T22:48:34+00:00", "2020-03-24T22:49:34+00:00", "2020-03-24T22:50:54+00:00", "2020-03-24T22:52:15+00:00", "2020-03-24T22:54:34+00:00", "2020-03-24T22:55:15+00:00", "2020-03-24T22:58:23+00:00", "2020-03-24T23:00:03+00:00", "2020-03-24T23:02:27+00:00", "2020-03-24T23:03:24+00:00", "2020-03-24T23:06:24+00:00", "2020-03-24T23:07:08+00:00", "2020-03-24T23:10:41+00:00", "2020-03-24T23:11:17+00:00", "2020-03-24T23:12:21+00:00", "2020-03-24T23:15:49+00:00", "2020-03-24T23:17:41+00:00", "2020-03-24T23:18:05+00:00", "2020-03-24T23:21:54+00:00", "2020-03-24T23:23:02+00:00", "2020-03-24T23:25:22+00:00", "2020-03-24T23:25:46+00:00", "2020-03-24T23:29:35+00:00", "2020-03-24T23:31:47+00:00", "2020-03-24T23:33:07+00:00", "2020-03-24T23:36:28+00:00", "2020-03-24T23:38:52+00:00", "2020-03-24T23:40:12+00:00", "2020-03-24T23:41:00+00:00", "2020-03-24T23:42:13+00:00", "2020-03-24T23:43:09+00:00", "2020-03-24T23:44:57+00:00", "2020-03-24T23:47:25+00:00", "2020-03-24T23:49:33+00:00", "2020-03-24T23:51:34+00:00", "2020-03-24T23:53:30+00:00", "2020-03-24T23:55:02+00:00", "2020-03-25T00:00:19+00:00", "2020-03-25T01:04:29+00:00", "2020-03-25T01:53:36+00:00", "2020-03-25T19:21:42+00:00", "2020-03-26T14:21:21+00:00", "2020-03-26T14:26:30+00:00", "2020-03-26T14:27:30+00:00", "2020-03-26T14:30:27+00:00", "2020-03-26T14:35:05+00:00", "2020-03-26T14:36:30+00:00", "2020-03-26T14:38:34+00:00", "2020-03-26T14:39:46+00:00", "2020-03-26T14:41:06+00:00", "2020-03-26T14:42:46+00:00", "2020-03-26T14:46:30+00:00", "2020-03-26T14:49:41+00:00", "2020-03-26T14:51:13+00:00", "2020-03-26T14:56:26+00:00", "2020-03-26T14:59:19+00:00", "2020-03-26T15:00:55+00:00", "2020-03-26T15:03:15+00:00", "2020-03-26T15:06:28+00:00", "2020-03-26T15:11:52+00:00", "2020-03-26T15:15:41+00:00", "2020-03-26T15:18:45+00:00", "2020-03-26T15:20:41+00:00", "2020-03-26T15:26:30+00:00", "2020-03-26T15:29:54+00:00", "2020-03-26T15:34:18+00:00", "2020-03-26T15:38:14+00:00", "2020-03-26T15:38:50+00:00", "2020-03-26T15:46:30+00:00", "2020-03-26T15:52:55+00:00", "2020-03-26T15:56:30+00:00", "2020-03-26T15:57:11+00:00", "2020-03-26T15:59:43+00:00", "2020-03-26T16:03:09+00:00", "2020-03-26T16:04:17+00:00", "2020-03-26T16:12:06+00:00", "2020-03-26T16:14:34+00:00", "2020-03-26T16:16:12+00:00", "2020-03-26T16:22:43+00:00", "2020-03-26T16:25:19+00:00", "2020-03-26T16:26:59+00:00", "2020-03-26T16:31:16+00:00", "2020-03-26T16:34:20+00:00", "2020-03-26T16:36:30+00:00", "2020-03-26T16:39:53+00:00", "2020-03-26T16:42:41+00:00", "2020-03-26T16:44:45+00:00", "2020-03-26T16:48:09+00:00", "2020-03-26T16:52:25+00:00", "2020-03-26T16:55:02+00:00", "2020-03-26T16:56:54+00:00", "2020-03-26T17:03:07+00:00", "2020-03-26T17:05:27+00:00", "2020-03-26T17:12:23+00:00", "2020-03-26T17:16:33+00:00", "2020-03-26T17:22:13+00:00", "2020-03-26T17:25:09+00:00", "2020-03-26T17:26:30+00:00", "2020-03-26T17:32:22+00:00", "2020-03-26T17:35:14+00:00", "2020-03-26T17:39:15+00:00", "2020-03-26T17:40:03+00:00", "2020-03-26T17:41:40+00:00", "2020-03-26T17:46:04+00:00", "2020-03-26T17:47:24+00:00", "2020-03-26T17:49:44+00:00", "2020-03-26T17:56:30+00:00", "2020-03-26T18:00:01+00:00", "2020-03-26T18:02:25+00:00", "2020-03-26T18:06:41+00:00", "2020-03-26T18:08:27+00:00", "2020-03-26T18:10:16+00:00", "2020-03-26T18:16:41+00:00", "2020-03-26T18:20:13+00:00", "2020-03-26T18:22:29+00:00", "2020-03-26T18:28:42+00:00", "2020-03-26T18:32:22+00:00", "2020-03-26T18:34:07+00:00", "2020-03-26T18:36:15+00:00", "2020-03-26T18:38:47+00:00", "2020-03-26T18:40:23+00:00", "2020-03-26T18:45:26+00:00", "2020-03-26T18:46:42+00:00", "2020-03-26T18:50:46+00:00", "2020-03-26T18:51:50+00:00", "2020-03-26T18:56:35+00:00", "2020-03-26T18:57:11+00:00", "2020-03-26T19:04:20+00:00", "2020-03-26T19:06:12+00:00", "2020-03-26T19:10:45+00:00", "2020-03-26T19:12:37+00:00", "2020-03-26T19:16:45+00:00", "2020-03-26T19:20:03+00:00", "2020-03-26T19:25:15+00:00", "2020-03-26T19:26:52+00:00", "2020-03-26T19:31:40+00:00", "2020-03-26T19:35:13+00:00", "2020-03-26T19:36:45+00:00", "2020-03-26T19:37:25+00:00", "2020-03-26T19:42:45+00:00", "2020-03-26T19:44:17+00:00", "2020-03-26T19:46:14+00:00", "2020-03-26T19:46:45+00:00", "2020-03-26T19:54:43+00:00", "2020-03-26T19:55:27+00:00", "2020-03-26T19:58:27+00:00", "2020-03-26T19:59:19+00:00", "2020-03-26T20:04:20+00:00", "2020-03-26T20:06:00+00:00", "2020-03-26T20:07:41+00:00", "2020-03-26T20:08:49+00:00", "2020-03-26T20:14:13+00:00", "2020-03-26T20:16:14+00:00", "2020-03-26T20:16:45+00:00", "2020-03-26T20:24:10+00:00", "2020-03-26T20:25:26+00:00", "2020-03-26T20:30:43+00:00", "2020-03-26T20:32:55+00:00", "2020-03-26T20:34:31+00:00", "2020-03-26T20:36:56+00:00", "2020-03-26T20:40:44+00:00", "2020-03-26T20:42:41+00:00", "2020-03-26T20:45:54+00:00", "2020-03-26T20:51:43+00:00", "2020-03-26T20:54:15+00:00", "2020-03-26T20:56:49+00:00", "2020-03-26T20:57:35+00:00", "2020-03-26T21:01:00+00:00", "2020-03-26T21:03:04+00:00", "2020-03-26T21:08:05+00:00", "2020-03-26T21:14:14+00:00", "2020-03-26T21:16:59+00:00", "2020-03-26T21:22:03+00:00", "2020-03-26T21:25:47+00:00", "2020-03-26T21:27:23+00:00", "2020-03-26T21:29:56+00:00", "2020-03-26T21:37:00+00:00", "2020-03-26T21:38:13+00:00", "2020-03-26T21:44:13+00:00", "2020-03-26T21:47:00+00:00", "2020-03-26T21:48:18+00:00", "2020-03-26T21:51:59+00:00", "2020-03-26T21:56:23+00:00", "2020-03-26T22:00:52+00:00", "2020-03-26T22:07:00+00:00", "2020-03-26T22:10:57+00:00", "2020-03-26T22:13:29+00:00", "2020-03-26T22:16:41+00:00", "2020-03-26T22:17:46+00:00", "2020-03-26T22:20:58+00:00", "2020-03-26T22:25:47+00:00", "2020-03-26T22:27:47+00:00", "2020-03-26T22:29:07+00:00", "2020-03-26T22:35:28+00:00", "2020-03-26T22:36:24+00:00", "2020-03-26T22:37:28+00:00", "2020-03-26T22:41:09+00:00", "2020-03-26T22:45:29+00:00", "2020-03-26T22:47:00+00:00", "2020-03-26T22:49:46+00:00", "2020-03-26T22:50:54+00:00", "2020-03-26T22:54:42+00:00", "2020-03-26T22:55:50+00:00", "2020-03-26T22:58:26+00:00", "2020-03-26T23:02:27+00:00", "2020-03-26T23:04:35+00:00", "2020-03-26T23:07:00+00:00", "2020-03-26T23:11:28+00:00", "2020-03-26T23:13:40+00:00", "2020-03-26T23:16:41+00:00", "2020-03-26T23:18:21+00:00", "2020-03-26T23:21:06+00:00", "2020-03-26T23:23:42+00:00", "2020-03-26T23:24:58+00:00", "2020-03-26T23:26:55+00:00", "2020-03-26T23:27:23+00:00", "2020-03-26T23:30:11+00:00", "2020-03-26T23:31:03+00:00", "2020-03-26T23:33:35+00:00", "2020-03-26T23:34:27+00:00", "2020-03-26T23:36:51+00:00", "2020-03-26T23:37:39+00:00", "2020-03-26T23:40:20+00:00", "2020-03-26T23:45:28+00:00", "2020-03-26T23:47:15+00:00", "2020-03-26T23:48:13+00:00", "2020-03-26T23:49:45+00:00", "2020-03-26T23:51:05+00:00", "2020-03-26T23:52:25+00:00", "2020-03-26T23:53:57+00:00", "2020-03-26T23:55:14+00:00", "2020-03-26T23:56:46+00:00", "2020-03-26T23:57:42+00:00", "2020-03-26T23:59:50+00:00", "2020-03-27T00:01:42+00:00", "2020-03-27T00:02:47+00:00", "2020-03-27T00:05:03+00:00", "2020-03-27T00:06:19+00:00", "2020-03-27T00:07:03+00:00", "2020-03-27T00:09:15+00:00", "2020-03-27T00:11:03+00:00", "2020-03-27T00:11:48+00:00", "2020-03-27T00:14:16+00:00", "2020-03-27T00:16:56+00:00", "2020-03-27T00:18:13+00:00", "2020-03-27T00:20:21+00:00", "2020-03-27T00:24:49+00:00", "2020-03-27T00:27:29+00:00", "2020-03-27T00:32:06+00:00", "2020-03-27T00:32:34+00:00", "2020-03-27T00:37:02+00:00", "2020-03-27T00:39:19+00:00", "2020-03-27T00:42:39+00:00", "2020-03-27T00:43:35+00:00", "2020-03-27T00:47:15+00:00", "2020-03-27T00:47:56+00:00", "2020-03-27T00:50:24+00:00", "2020-03-27T00:52:37+00:00", "2020-03-27T00:56:53+00:00", "2020-03-27T00:58:05+00:00", "2020-03-27T00:59:25+00:00", "2020-03-27T01:02:02+00:00", "2020-03-27T01:03:55+00:00", "2020-03-27T01:05:55+00:00", "2020-03-27T01:07:15+00:00", "2020-03-27T01:15:28+00:00", "2020-04-01T21:17:33+00:00", "2020-04-01T21:21:27+00:00", "2020-04-01T21:23:30+00:00", "2020-04-01T21:25:04+00:00", "2020-04-01T21:29:04+00:00", "2020-04-01T21:30:00+00:00", "2020-04-01T21:32:12+00:00", "2020-04-01T21:35:40+00:00", "2020-04-01T21:37:49+00:00", "2020-04-01T21:39:17+00:00", "2020-04-01T21:45:14+00:00", "2020-04-01T23:39:34+00:00", "2020-04-02T01:29:23+00:00", "2020-04-02T01:31:15+00:00", "2020-04-02T01:33:23+00:00", "2020-04-02T01:39:08+00:00", "2020-04-02T01:43:00+00:00", "2020-04-02T01:43:52+00:00", "2020-04-02T01:47:04+00:00", "2020-04-06T17:11:32+00:00", "2020-04-06T17:13:16+00:00", "2020-04-06T17:15:16+00:00", "2020-04-06T17:16:40+00:00", "2020-04-06T17:18:00+00:00", "2020-04-06T17:19:52+00:00", "2020-04-06T17:20:56+00:00", "2020-04-06T17:22:17+00:00", "2020-04-06T17:29:13+00:00", "2020-04-06T17:30:01+00:00", "2020-04-06T17:31:42+00:00", "2020-04-06T17:33:14+00:00", "2020-04-06T17:36:46+00:00", "2020-04-06T17:38:02+00:00", "2020-04-06T17:41:30+00:00", "2020-04-06T17:43:07+00:00", "2020-04-06T17:45:23+00:00", "2020-04-06T17:46:43+00:00", "2020-04-06T17:52:00+00:00", "2020-04-06T17:56:20+00:00", "2020-04-06T18:02:00+00:00", "2020-04-06T18:04:09+00:00", "2020-04-06T18:11:18+00:00", "2020-04-06T18:12:00+00:00", "2020-04-06T18:17:15+00:00", "2020-04-06T18:22:00+00:00", "2020-04-06T18:27:08+00:00", "2020-04-06T18:28:32+00:00", "2020-04-06T18:31:40+00:00", "2020-04-06T18:33:20+00:00", "2020-04-06T18:36:21+00:00", "2020-04-06T18:37:01+00:00", "2020-04-07T11:58:50+00:00", "2020-04-09T16:49:13+00:00", "2020-04-09T16:54:10+00:00", "2020-04-09T16:57:10+00:00", "2020-04-09T16:58:31+00:00", "2020-04-09T16:59:07+00:00", "2020-04-09T17:02:44+00:00", "2020-04-09T17:04:04+00:00", "2020-04-09T17:06:21+00:00", "2020-04-09T17:08:09+00:00", "2020-04-09T17:08:49+00:00", "2020-04-09T17:14:17+00:00", "2020-04-09T17:18:27+00:00", "2020-04-09T17:19:42+00:00", "2020-04-09T17:21:26+00:00", "2020-04-09T17:27:18+00:00", "2020-04-09T17:28:32+00:00", "2020-04-09T17:30:59+00:00", "2020-04-09T17:33:07+00:00", "2020-04-09T17:35:35+00:00", "2020-04-09T17:39:23+00:00", "2020-04-09T17:41:44+00:00", "2020-04-09T17:50:12+00:00", "2020-04-09T17:51:25+00:00", "2020-04-09T17:53:57+00:00", "2020-04-09T18:00:30+00:00", "2020-04-09T18:08:31+00:00", "2020-04-09T18:10:19+00:00", "2020-04-09T18:14:36+00:00", "2020-04-09T18:21:49+00:00", "2020-04-09T18:23:44+00:00", "2020-04-09T18:26:10+00:00", "2020-04-09T18:29:30+00:00", "2020-04-09T18:33:43+00:00", "2020-04-09T18:35:39+00:00", "2020-04-09T18:39:40+00:00", "2020-04-09T18:42:36+00:00", "2020-04-09T18:50:06+00:00", "2020-04-09T18:51:22+00:00", "2020-04-09T18:54:30+00:00", "2020-04-09T19:03:44+00:00", "2020-04-09T19:11:21+00:00", "2020-04-09T19:13:45+00:00", "2020-04-09T19:19:07+00:00", "2020-04-09T19:22:48+00:00", "2020-04-09T19:28:33+00:00", "2020-04-09T19:30:29+00:00", "2020-04-09T19:34:13+00:00", "2020-04-09T19:41:30+00:00", "2020-04-09T19:43:45+00:00", "2020-04-09T19:48:18+00:00", "2020-04-09T19:54:47+00:00", "2020-04-09T19:58:52+00:00", "2020-04-09T20:02:12+00:00", "2020-04-09T20:09:05+00:00", "2020-04-09T20:13:26+00:00", "2020-04-09T20:16:46+00:00", "2020-04-09T20:23:19+00:00", "2020-04-09T20:31:44+00:00", "2020-04-09T20:34:32+00:00", "2020-04-09T20:36:25+00:00", "2020-04-09T20:39:57+00:00", "2020-04-09T20:43:02+00:00", "2020-04-09T20:43:59+00:00", "2020-04-09T20:49:59+00:00", "2020-04-09T20:53:04+00:00", "2020-04-09T20:54:32+00:00", "2020-04-09T20:56:12+00:00", "2020-04-09T21:02:09+00:00", "2020-04-09T21:03:25+00:00", "2020-04-09T21:05:33+00:00", "2020-04-09T21:13:06+00:00", "2020-04-09T21:19:23+00:00", "2020-04-09T21:22:15+00:00", "2020-04-09T21:23:59+00:00", "2020-04-09T21:29:40+00:00", "2020-04-09T21:31:40+00:00", "2020-04-09T21:33:55+00:00", "2020-04-09T21:37:13+00:00", "2020-04-09T21:39:42+00:00", "2020-04-09T21:42:30+00:00", "2020-04-09T21:43:50+00:00", "2020-04-09T21:49:23+00:00", "2020-04-09T21:51:47+00:00", "2020-04-09T21:57:32+00:00", "2020-04-09T21:58:32+00:00", "2020-04-09T22:00:52+00:00", "2020-04-09T22:03:57+00:00", "2020-04-09T22:06:45+00:00", "2020-04-09T22:08:49+00:00", "2020-04-09T22:11:49+00:00", "2020-04-09T22:16:46+00:00", "2020-04-09T22:18:06+00:00", "2020-04-09T22:19:46+00:00", "2020-04-09T22:22:47+00:00", "2020-04-09T22:26:07+00:00", "2020-04-09T22:27:51+00:00", "2020-04-09T22:32:16+00:00", "2020-04-09T22:34:00+00:00", "2020-04-09T22:41:25+00:00", "2020-04-09T22:43:32+00:00", "2020-04-09T22:46:01+00:00", "2020-04-09T22:47:13+00:00", "2020-04-09T22:51:43+00:00", "2020-04-09T22:52:43+00:00", "2020-04-09T22:54:00+00:00", "2020-04-09T22:57:31+00:00", "2020-04-09T22:59:24+00:00", "2020-04-09T23:01:40+00:00", "2020-04-09T23:03:49+00:00", "2020-04-09T23:06:17+00:00", "2020-04-14T15:38:40+00:00", "2020-04-14T15:39:44+00:00", "2020-04-14T15:42:36+00:00", "2020-04-14T15:43:44+00:00", "2020-04-14T15:45:05+00:00", "2020-04-14T15:46:49+00:00", "2020-04-14T15:47:53+00:00", "2020-04-14T15:52:37+00:00", "2020-04-14T15:53:05+00:00", "2020-04-14T15:56:08+00:00", "2020-04-14T15:58:01+00:00", "2020-04-14T16:03:14+00:00", "2020-04-14T16:04:06+00:00", "2020-04-14T16:06:06+00:00", "2020-04-14T16:06:50+00:00", "2020-04-14T16:09:50+00:00", "2020-04-14T16:11:06+00:00", "2020-04-14T16:12:14+00:00", "2020-04-14T16:14:54+00:00", "2020-04-14T16:16:47+00:00", "2020-04-14T19:54:24+00:00", "2020-04-14T20:33:11+00:00", "2020-04-14T20:33:59+00:00", "2020-04-14T20:41:16+00:00", "2020-04-14T20:42:28+00:00", "2020-04-14T20:47:49+00:00", "2020-04-14T20:48:33+00:00", "2020-04-14T20:50:57+00:00", "2020-04-14T20:54:21+00:00", "2020-04-14T20:55:01+00:00", "2020-04-14T20:56:30+00:00", "2020-04-14T20:58:02+00:00", "2020-04-14T20:59:58+00:00", "2020-04-14T21:01:39+00:00", "2020-04-14T21:03:15+00:00", "2020-04-14T21:05:59+00:00", "2020-04-14T21:07:39+00:00", "2020-04-14T21:10:16+00:00", "2020-04-15T06:46:41+00:00", "2020-04-15T20:51:26+00:00", "2020-04-15T20:52:26+00:00", "2020-04-15T20:55:27+00:00", "2020-04-15T20:56:22+00:00", "2020-04-15T20:57:23+00:00", "2020-04-15T21:00:24+00:00", "2020-04-15T21:02:00+00:00", "2020-04-15T21:05:12+00:00", "2020-04-15T21:06:28+00:00", "2020-04-15T21:08:40+00:00", "2020-04-15T21:09:48+00:00", "2020-04-15T21:11:30+00:00", "2020-04-15T21:12:17+00:00", "2020-04-15T21:14:17+00:00", "2020-04-15T21:15:57+00:00", "2020-04-15T21:17:35+00:00", "2020-04-15T21:19:09+00:00", "2020-04-15T21:19:45+00:00", "2020-04-15T21:22:22+00:00", "2020-04-15T21:23:54+00:00", "2020-04-15T21:26:23+00:00", "2020-04-15T21:27:34+00:00", "2020-04-15T21:30:27+00:00", "2020-04-15T21:31:39+00:00", "2020-04-15T21:33:47+00:00", "2020-04-15T21:35:12+00:00", "2020-04-15T21:36:32+00:00", "2020-04-15T21:38:36+00:00", "2020-04-15T21:40:08+00:00", "2020-04-15T21:41:08+00:00", "2020-04-15T21:42:08+00:00", "2020-04-15T21:43:08+00:00", "2020-04-15T21:45:37+00:00", "2020-04-15T21:46:41+00:00", "2020-04-15T21:47:25+00:00", "2020-04-15T21:49:37+00:00", "2020-04-15T21:50:33+00:00", "2020-04-15T21:52:13+00:00", "2020-04-15T21:55:33+00:00", "2020-04-15T21:57:39+00:00", "2020-04-15T21:59:26+00:00", "2020-04-15T22:01:14+00:00", "2020-04-15T22:02:54+00:00", "2020-04-15T22:05:10+00:00", "2020-04-15T22:08:51+00:00", "2020-04-15T22:10:35+00:00", "2020-04-15T22:13:11+00:00", "2020-04-15T22:15:35+00:00", "2020-04-15T22:18:51+00:00", "2020-04-15T22:21:39+00:00", "2020-04-15T22:25:03+00:00", "2020-04-15T22:26:15+00:00", "2020-04-15T22:30:08+00:00", "2020-04-15T22:31:44+00:00", "2020-04-15T22:33:44+00:00", "2020-04-15T22:35:12+00:00", "2020-04-15T22:37:16+00:00", "2020-04-15T22:40:41+00:00", "2020-04-15T22:41:45+00:00", "2020-04-15T22:45:17+00:00", "2020-04-15T22:47:29+00:00", "2020-04-15T22:49:21+00:00", "2020-04-15T22:50:13+00:00", "2020-04-15T22:52:02+00:00", "2020-04-15T22:55:26+00:00", "2020-04-15T22:57:14+00:00", "2020-04-15T22:59:58+00:00", "2020-04-15T23:01:45+00:00", "2020-04-15T23:03:10+00:00", "2020-04-15T23:06:18+00:00", "2020-04-15T23:09:23+00:00", "2020-04-15T23:11:45+00:00", "2020-04-15T23:13:59+00:00", "2020-04-15T23:16:15+00:00", "2020-04-15T23:17:35+00:00", "2020-04-15T23:20:04+00:00", "2020-04-15T23:22:04+00:00", "2020-04-15T23:25:08+00:00", "2020-04-15T23:25:32+00:00", "2020-04-15T23:28:44+00:00", "2020-04-15T23:31:20+00:00", "2020-04-15T23:33:17+00:00", "2020-04-15T23:35:09+00:00", "2020-04-15T23:37:35+00:00", "2020-04-15T23:39:49+00:00", "2020-04-15T23:41:09+00:00", "2020-04-15T23:43:09+00:00", "2020-04-15T23:44:22+00:00", "2020-04-15T23:47:10+00:00", "2020-04-15T23:47:42+00:00", "2020-04-15T23:49:14+00:00", "2020-04-15T23:51:58+00:00", "2020-04-15T23:53:50+00:00", "2020-04-15T23:55:55+00:00", "2020-04-15T23:57:35+00:00", "2020-04-15T23:59:56+00:00", "2020-04-16T00:02:12+00:00", "2020-04-16T00:03:28+00:00", "2020-04-16T00:04:36+00:00", "2020-04-16T00:07:35+00:00", "2020-04-16T00:08:25+00:00", "2020-04-16T00:11:09+00:00", "2020-04-16T00:12:25+00:00", "2020-04-16T00:14:45+00:00", "2020-04-16T00:16:01+00:00", "2020-04-16T00:17:54+00:00", "2020-04-16T00:19:38+00:00", "2020-04-16T00:22:02+00:00", "2020-04-16T00:55:10+00:00", "2020-04-16T00:56:58+00:00", "2020-04-16T02:05:21+00:00", "2020-04-19T16:26:58+00:00", "2020-04-19T16:30:59+00:00", "2020-04-19T16:32:15+00:00", "2020-04-19T16:34:39+00:00", "2020-04-19T16:37:19+00:00", "2020-04-19T16:40:40+00:00", "2020-04-19T16:46:08+00:00", "2020-04-19T16:52:49+00:00", "2020-04-19T16:57:09+00:00", "2020-04-19T17:01:22+00:00", "2020-04-19T17:07:47+00:00", "2020-04-19T17:13:51+00:00", "2020-04-19T17:18:18+00:00", "2020-04-19T17:20:58+00:00", "2020-04-19T17:22:30+00:00", "2020-04-19T17:25:42+00:00", "2020-04-19T17:27:11+00:00", "2020-04-19T17:29:15+00:00", "2020-04-19T17:31:52+00:00", "2020-04-22T23:13:41+00:00", "2020-04-22T23:16:29+00:00", "2020-04-22T23:19:49+00:00", "2020-04-22T23:22:13+00:00", "2020-04-22T23:24:22+00:00", "2020-04-22T23:28:10+00:00", "2020-04-22T23:32:07+00:00", "2020-04-22T23:33:10+00:00", "2020-04-22T23:35:47+00:00", "2020-04-22T23:41:36+00:00", "2020-04-22T23:42:30+00:00", "2020-04-22T23:45:37+00:00", "2020-04-22T23:51:18+00:00", "2020-04-22T23:53:02+00:00", "2020-04-22T23:55:46+00:00", "2020-04-22T23:58:15+00:00", "2020-04-23T00:00:07+00:00", "2020-04-23T00:02:30+00:00", "2020-04-23T00:04:32+00:00", "2020-04-23T00:06:48+00:00", "2020-04-23T00:09:12+00:00", "2020-04-28T15:34:00+00:00", "2020-04-28T15:37:15+00:00", "2020-04-28T15:40:03+00:00", "2020-04-28T15:44:00+00:00", "2020-04-28T15:47:19+00:00", "2020-04-28T15:49:52+00:00", "2020-04-28T15:54:00+00:00", "2020-04-28T15:56:16+00:00", "2020-04-28T16:01:01+00:00", "2020-04-28T16:04:00+00:00", "2020-04-28T16:11:02+00:00", "2020-04-28T16:12:38+00:00", "2020-04-28T16:14:02+00:00", "2020-04-28T21:37:32+00:00", "2020-04-29T00:14:00+00:00", "2020-04-29T00:24:00+00:00", "2020-04-29T00:34:00+00:00", "2020-04-29T04:09:30+00:00"], "elevations": [1.6, -1.7, null, null, 0.3, null, null, -1.7, null, null, 2.3, 2.0, null, 0.2, null, null, 0.2, null, 0.0, 0.0, 0.3, null, 5.0, 2.3, 2.3, null, null, null, 4.4, null, null, 4.4, null, 4.0, null, 3.0, null, null, null, null, 3.0, null, 2.3, null, null, 2.0, null, null, null, 2.3, null, null, null, 2.3, null, 2.3, null, null, 4.4, null, null, null, 4.4, null, null, 20.6, null, -1.7, null, null, null, -7.8, null, null, null, null, null, null, null, null, null, null, null, -1.7, null, 0.3, null, null, 0.3, null, null, -9.8, null, null, -7.8, null, -9.8, null, null, null, null, -1.7, null, null, null, 42.0, null, null, null, null, -1.7, null, null, null, -1.7, null, null, -1.7, null, null, 0.3, null, null, null, null, -8.0, null, null, null, -3.7, null, null, null, -3.7, null, -1.7, null, null, null, null, -1.7, null, null, null, -3.0, null, null, null, null, -3.4, null, null, null, -2.0, -3.7, null, null, null, 5.0, -1.7, null, null, null, null, -3.0, -3.7, null, null, null, null, null, null, -3.0, 20.6, null, null, null, 43.0, null, null, null, null, null, 38.9, null, null, null, null, null, null, null, null, null, null, null, null, null, null, null, null, null, null, null, null, null, 18.6, null, null, 14.4, 11.1, 1.3, null, -5.8, null, null, 2.0, -3.7, null, null, null, -3.0, -5.8, null, null, null, -5.8, null, null, -5.0, null, null, 0.3, null, 0.3, null, null, -5.8, null, -1.7, null, -13.9, null, null, null, -8.0, -7.8, null, -7.4, null, -7.0, -7.8, null, null, 2.7, null, null, 2.3, null, null, null, 0.3, null, 0.3, null, -5.8, null, null, 2.3, null, null, -1.7, null, null, null, -7.8, null, 26.7, null, null, 0.0, null, null, -34.0, null, null, -29.0, null, null, -3.0, null, null, null, -10.0, null, null, null, 26.7, null, -9.8, null, null, -9.8, null, null, -1.7, null, null, 0.3, null, null, null, null, 0.3, null, 0.3, null, null, null, null, 0.3, null, null, null, 2.3, null, -9.8, null, null, -3.7, null, null, null, null, -1.0, null, -8.0, -3.7, null, null, -2.0, null, -3.0, null, null, -1.7, null, -1.7, null, null, -1.7, null, null, null, -3.7, -3.7, null, null, null, 4.4, null, null, -1.7, null, null, null, 18.6, null, null, 4.4, null, null, null, 14.5, 15.0, null, null, 16.3, null, null, 16.0, 16.5, null, null, null, null, 16.5, null, null, null, null, null, 16.5, null, null, 2.3, null, null, null, null, null, null, 10.0, 6.4, null, null, null, null, null, 0.3, null, null, null, null, -1.7, null, null, null, 0.3, null, null, null, 0.3, null, null, 0.3, null, null, null, null, 6.4, null, null, null, null, -5.8, -7.8, -1.9, null, -7.8, null, null, -6.0, -7.8, null, null, -6.0, 2.3, 10.9, null, null, null, 1.0, null, null, 1.0, -1.7, null, null, null, -4.0, null, null, -3.7, null, null, -4.9, null, null, null, -3.9, null, null, null, -2.4, null, 4.4, null, null, -5.8, null, 4.4, null, null, null, -9.8, null, null, 3.1, 2.3, null, 0.0, null, null, null, -3.7, null, 9.0, null, -15.9, null, null, null, null, -2.0, null, -5.8, null, null, null, -9.8, null, -5.8, null, -6.0, null, -7.0, null, -5.0, null, null, -2.0, null, null, null, -1.0, null, 0.0, 0.0, null, 10.5, null, -3.7, null, -3.7, null, null, -3.7, null, -3.7, null, -1.7, null, 10.5, null, 0.3, null, -1.7, null, null, null, -1.4, null, null, -5.8, null, null, -5.8, null, null, null, null, -3.0, null, null, -48.5, null, null, null, null, null, 1.0, null, null, null, 3.0, null, null, null, 3.0, null, null, null, 4.0, null, null, 4.7, null, 2.7, null, null, null, null, 0.7, null, null, null, 2.3, null, null, null, null, null, 1.0, 0.3, null, null, null, 0.7, null, null, null, 0.0, 0.3, null, null, null, null, 3.5, -1.4, null, -15.9, null, null, -5.8, null, null, null, null, -5.8, null, null, null, null, -1.7, null, null, -3.3, 2.3, null, null, -2.0, null, null, -1.7, null, -1.0, null, null, -9.8, null, null, null, -1.0, null, -5.8, null, null, null, 15.0, null, 14.5, null, null, null, null, null, -5.8, null, null, null, null, -4.0, null, -5.8, null, null, -3.0, null, -48.3, null, -48.0, null, -32.1, null, -32.0, null, -32.1, null, -31.0, null, -32.1, null, null, -7.0, null, -5.8, null, null, -6.0, null, -5.8, null, null, -6.0, -3.7, null, null, -2.0, -1.7, null, null, -2.0, null, -3.7, null, -1.0, null, null, null, null, -1.0, null, -1.7, null, null, null, -1.0, null, -1.7, null, null, -2.0, -1.7, null, null, null, -1.0, null, null, 2.3, null, null, 2.0, null, 0.3, null, 0.3, 4.0, null, null, null, null, null, null, null, null, null, null, null, null, null, null, null, null, null, null, null, null, null, null, null, 0.3, null, 2.0, -13.9, null, null, 4.7, null, null, 0.0, null, null, null, -1.7, null, null, -1.7, 0.3, null, 1.0, 2.3, null, 3.0, 2.3, null, -4.0, 2.3, 2.0, null, 2.3, -0.4, 2.3, 0.3, 0.3, 8.2]}