{"type": "Feature", "properties": {"leg_id": 24, "name": "20210920 - Vancouver to Port Angeles, USA", "stated_nm": 91.6, "computed_nm": 91.6}, "geometry": {"type": "LineString", "coordinates": [[-123.114415, 49.272012], [-123.116227, 49.271674], [-123.119889, 49.270774], [-123.123041, 49.270225], [-123.126109, 49.270031], [-123.12892, 49.270349], [-123.133248, 49.272667], [-123.134416, 49.272972], [-123.13739, 49.276229], [-123.138305, 49.276441], [-123.141513, 49.279131], [-123.145216, 49.280656], [-123.150578, 49.282143], [-123.156981, 49.283621], [-123.163075, 49.285032], [-123.17848, 49.288672], [-123.209022, 49.292735], [-123.212664, 49.292654], [-123.218846, 49.292651], [-123.220287, 49.292597], [-123.234362, 49.29272], [-123.23636, 49.292689], [-123.240148, 49.292666], [-123.243172, 49.292708], [-123.25496, 49.292548], [-123.261109, 49.291119], [-123.263927, 49.290097], [-123.270836, 49.286032], [-123.27427, 49.283885], [-123.279315, 49.280423], [-123.285375, 49.276752], [-123.286385, 49.274932], [-123.288752, 49.271517], [-123.289882, 49.270015], [-123.295272, 49.263437], [-123.296874, 49.261009], [-123.300291, 49.255957], [-123.305157, 49.247421], [-123.306304, 49.245724], [-123.308257, 49.243238], [-123.31405, 49.235347], [-123.316169, 49.233723], [-123.326155, 49.226065], [-123.328586, 49.224297], [-123.330881, 49.222589], [-123.331405, 49.22199], [-123.332455, 49.210188], [-123.3328, 49.207902], [-123.335015, 49.202822], [-123.336637, 49.199961], [-123.338767, 49.195719], [-123.342838, 49.186878], [-123.344473, 49.182915], [-123.345757, 49.179588], [-123.34687, 49.17719], [-123.349965, 49.168698], [-123.351707, 49.163897], [-123.351311, 49.15567], [-123.350878, 49.144097], [-123.350917, 49.142452], [-123.351123, 49.127586], [-123.351122, 49.125379], [-123.351288, 49.120977], [-123.352201, 49.117558], [-123.353562, 49.113895], [-123.354247, 49.111785], [-123.35664, 49.106605], [-123.358685, 49.102735], [-123.360117, 49.100221], [-123.362462, 49.096198], [-123.36328, 49.09258], [-123.36301, 49.08962], [-123.362608, 49.08657], [-123.362218, 49.084165], [-123.361658, 49.078628], [-123.360965, 49.075698], [-123.359727, 49.072196], [-123.356355, 49.065113], [-123.352692, 49.060838], [-123.350692, 49.05877], [-123.342858, 49.049893], [-123.341154, 49.047756], [-123.33473, 49.040558], [-123.330598, 49.036303], [-123.328859, 49.034567], [-123.325657, 49.031382], [-123.323048, 49.028533], [-123.321007, 49.02625], [-123.319873, 49.024963], [-123.319184, 49.022853], [-123.31829, 49.017076], [-123.317798, 49.014259], [-123.317454, 49.012528], [-123.316458, 49.0085], [-123.315348, 49.004778], [-123.31382, 49.000825], [-123.313078, 48.998549], [-123.312526, 48.995149], [-123.311744, 48.990646], [-123.310013, 48.981897], [-123.309768, 48.977916], [-123.309283, 48.974934], [-123.308636, 48.970197], [-123.308072, 48.966224], [-123.307605, 48.963235], [-123.307369, 48.961194], [-123.306565, 48.956247], [-123.30652, 48.954575], [-123.307033, 48.947965], [-123.307244, 48.945108], [-123.308097, 48.936877], [-123.308428, 48.932247], [-123.308863, 48.926672], [-123.308902, 48.920028], [-123.309073, 48.918411], [-123.309093, 48.914265], [-123.309292, 48.911503], [-123.309295, 48.90656], [-123.308572, 48.903886], [-123.306575, 48.89746], [-123.305866, 48.89508], [-123.304825, 48.891559], [-123.304114, 48.88285], [-123.303926, 48.879547], [-123.303927, 48.875444], [-123.304222, 48.872908], [-123.305225, 48.868703], [-123.306821, 48.865447], [-123.308882, 48.862701], [-123.309967, 48.861347], [-123.313378, 48.860816], [-123.3163, 48.860749], [-123.31838, 48.860828], [-123.324274, 48.860849], [-123.326568, 48.86065], [-123.329946, 48.860976], [-123.332593, 48.862156], [-123.334713, 48.863612], [-123.336675, 48.864229], [-123.339129, 48.863749], [-123.341362, 48.862328], [-123.343595, 48.86089], [-123.345405, 48.859143], [-123.347052, 48.857152], [-123.348754, 48.852741], [-123.349744, 48.84935], [-123.350455, 48.847756], [-123.350944, 48.846273], [-123.351647, 48.842719], [-123.351973, 48.840314], [-123.349112, 48.834697], [-123.347925, 48.83238], [-123.346125, 48.829305], [-123.341785, 48.823817], [-123.339999, 48.820899], [-123.338809, 48.819084], [-123.336741, 48.815806], [-123.335055, 48.813112], [-123.329928, 48.803452], [-123.328979, 48.802246], [-123.326516, 48.800172], [-123.32251, 48.798445], [-123.319002, 48.797563], [-123.315595, 48.797223], [-123.312583, 48.796845], [-123.309667, 48.796487], [-123.30686, 48.79622], [-123.306219, 48.796231], [-123.313485, 48.797231], [-123.318369, 48.796673], [-123.320546, 48.795691], [-123.322706, 48.79416], [-123.324995, 48.791157], [-123.326765, 48.786802], [-123.327999, 48.784202], [-123.328351, 48.780584], [-123.327174, 48.775981], [-123.324027, 48.768928], [-123.322387, 48.766865], [-123.320273, 48.765628], [-123.314042, 48.762513], [-123.306331, 48.758972], [-123.302686, 48.757023], [-123.299528, 48.755079], [-123.289403, 48.746967], [-123.288125, 48.746056], [-123.28404, 48.74273], [-123.283335, 48.740591], [-123.280567, 48.729463], [-123.280313, 48.728554], [-123.277997, 48.719826], [-123.276898, 48.714685], [-123.27523, 48.707914], [-123.27446, 48.704408], [-123.273535, 48.699], [-123.272794, 48.694997], [-123.272349, 48.692169], [-123.271905, 48.688285], [-123.271103, 48.680083], [-123.269849, 48.674387], [-123.268846, 48.670316], [-123.267127, 48.663042], [-123.266299, 48.659913], [-123.26462, 48.654314], [-123.264127, 48.651883], [-123.263628, 48.647728], [-123.263288, 48.645816], [-123.262755, 48.642508], [-123.261918, 48.640008], [-123.261311, 48.637794], [-123.260652, 48.635728], [-123.258093, 48.630648], [-123.255944, 48.626013], [-123.252826, 48.618395], [-123.251693, 48.614184], [-123.251642, 48.612547], [-123.251607, 48.608549], [-123.251291, 48.605933], [-123.251172, 48.602625], [-123.250818, 48.598453], [-123.250813, 48.59505], [-123.251024, 48.591211], [-123.25142, 48.588274], [-123.252078, 48.584717], [-123.252596, 48.580978], [-123.253062, 48.576788], [-123.253195, 48.573402], [-123.253585, 48.572225], [-123.258938, 48.564565], [-123.260681, 48.561957], [-123.262393, 48.559509], [-123.264168, 48.556893], [-123.265394, 48.554369], [-123.268351, 48.547679], [-123.269546, 48.545405], [-123.270285, 48.542149], [-123.270911, 48.538814], [-123.271148, 48.534892], [-123.270632, 48.530118], [-123.269878, 48.526382], [-123.269428, 48.523487], [-123.26716, 48.510315], [-123.266963, 48.50908], [-123.266454, 48.505716], [-123.265926, 48.503605], [-123.264305, 48.496465], [-123.263845, 48.494661], [-123.262038, 48.487527], [-123.261611, 48.485587], [-123.26063, 48.481283], [-123.260154, 48.479608], [-123.258307, 48.47152], [-123.257617, 48.467423], [-123.257455, 48.464172], [-123.25769, 48.46239], [-123.258255, 48.458879], [-123.257508, 48.456836], [-123.255458, 48.45429], [-123.254511, 48.453103], [-123.255251, 48.451669], [-123.256952, 48.449289], [-123.258285, 48.447358], [-123.259642, 48.446033], [-123.260854, 48.444944], [-123.262523, 48.444153], [-123.264311, 48.443451], [-123.266948, 48.442097], [-123.269525, 48.4403], [-123.271745, 48.437927], [-123.273301, 48.436548], [-123.276897, 48.432777], [-123.280087, 48.428698], [-123.281989, 48.426893], [-123.283849, 48.425375], [-123.28548, 48.423337], [-123.287087, 48.417745], [-123.288347, 48.414396], [-123.288952, 48.411926], [-123.2908, 48.408288], [-123.29597, 48.406376], [-123.297996, 48.406242], [-123.300227, 48.406451], [-123.302175, 48.406751], [-123.304529, 48.408121], [-123.306104, 48.409122], [-123.308113, 48.409202], [-123.311303, 48.407841], [-123.314293, 48.406245], [-123.318421, 48.403799], [-123.322232, 48.401692], [-123.325192, 48.401248], [-123.327961, 48.400831], [-123.331228, 48.400237], [-123.335581, 48.399644], [-123.338723, 48.398956], [-123.342116, 48.398021], [-123.346266, 48.397797], [-123.34928, 48.397849], [-123.351925, 48.398043], [-123.36047, 48.398377], [-123.364467, 48.398608], [-123.367616, 48.398868], [-123.371325, 48.400289], [-123.374688, 48.401642], [-123.377108, 48.402747], [-123.379578, 48.404474], [-123.38149, 48.405767], [-123.385603, 48.408533], [-123.388421, 48.410379], [-123.391598, 48.411854], [-123.394595, 48.413011], [-123.394437, 48.414715], [-123.393037, 48.417453], [-123.391023, 48.421473], [-123.389303, 48.423477], [-123.387127, 48.424145], [-123.38178, 48.423898], [-123.379717, 48.424215], [-123.37617, 48.424418], [-123.373019, 48.423046], [-123.370562, 48.421971], [-123.36965, 48.421898], [-123.375582, 48.424688], [-123.377437, 48.424559], [-123.382535, 48.424168], [-123.38607, 48.424334], [-123.388402, 48.42403], [-123.390229, 48.422286], [-123.39309, 48.418682], [-123.39501, 48.41666], [-123.39584, 48.41462], [-123.396537, 48.412218], [-123.397775, 48.406872], [-123.398706, 48.403636], [-123.398882, 48.403007], [-123.403823, 48.388703], [-123.404065, 48.387654], [-123.403865, 48.38553], [-123.402965, 48.378492], [-123.40166, 48.37263], [-123.401188, 48.370282], [-123.400296, 48.365363], [-123.399577, 48.361704], [-123.398333, 48.35594], [-123.398311, 48.355751], [-123.396747, 48.345235], [-123.396444, 48.342094], [-123.395778, 48.334833], [-123.395037, 48.329502], [-123.394012, 48.326498], [-123.392989, 48.321929], [-123.392312, 48.319131], [-123.390577, 48.30836], [-123.390114, 48.305855], [-123.389746, 48.302569], [-123.389172, 48.297839], [-123.388613, 48.293289], [-123.38776, 48.285122], [-123.387022, 48.276243], [-123.387016, 48.274845], [-123.386283, 48.267557], [-123.386038, 48.260697], [-123.386297, 48.259257], [-123.389507, 48.258122], [-123.392021, 48.2565], [-123.393411, 48.254003], [-123.393613, 48.250154], [-123.393896, 48.246856], [-123.393958, 48.244152], [-123.394168, 48.239983], [-123.394109, 48.236603], [-123.393675, 48.233672], [-123.392826, 48.229504], [-123.392274, 48.227091], [-123.392072, 48.225302], [-123.392735, 48.220357], [-123.392685, 48.218184], [-123.392162, 48.21341], [-123.390897, 48.210777], [-123.390184, 48.209407], [-123.387447, 48.2015], [-123.387438, 48.199435], [-123.38852, 48.193223], [-123.388759, 48.190812], [-123.389578, 48.185282], [-123.390505, 48.179116], [-123.391735, 48.170103], [-123.392697, 48.166585], [-123.393782, 48.16133], [-123.394211, 48.158871], [-123.394992, 48.154723], [-123.395707, 48.151724], [-123.396428, 48.147766], [-123.396927, 48.145488], [-123.397968, 48.139255], [-123.399427, 48.136835], [-123.3998, 48.135609], [-123.401198, 48.132369], [-123.402697, 48.13069], [-123.405791, 48.128948], [-123.41481, 48.123878], [-123.418276, 48.122381], [-123.421194, 48.121523], [-123.423821, 48.120753], [-123.427111, 48.120249], [-123.427428, 48.12075], [-123.424503, 48.119948], [-123.425474, 48.120224]]}, "times": ["2021-09-20T14:54:24+00:00", "2021-09-20T14:55:36+00:00", "2021-09-20T14:58:45+00:00", "2021-09-20T15:00:57+00:00", "2021-09-20T15:02:25+00:00", "2021-09-20T15:03:29+00:00", "2021-09-20T15:06:53+00:00", "2021-09-20T16:09:17+00:00", "2021-09-20T18:04:23+00:00", "2021-09-20T18:21:57+00:00", "2021-09-20T18:24:57+00:00", "2021-09-20T18:25:50+00:00", "2021-09-20T18:29:58+00:00", "2021-09-20T18:33:14+00:00", "2021-09-20T18:35:06+00:00", "2021-09-20T18:40:47+00:00", "2021-09-20T18:53:40+00:00", "2021-09-20T18:55:52+00:00", "2021-09-20T18:57:20+00:00", "2021-09-20T18:58:12+00:00", "2021-09-20T19:03:41+00:00", "2021-09-20T19:04:21+00:00", "2021-09-20T19:05:17+00:00", "2021-09-20T19:06:57+00:00", "2021-09-20T19:11:14+00:00", "2021-09-20T19:13:22+00:00", "2021-09-20T19:15:06+00:00", "2021-09-20T19:18:11+00:00", "2021-09-20T19:20:03+00:00", "2021-09-20T19:23:07+00:00", "2021-09-20T19:26:47+00:00", "2021-09-20T19:28:12+00:00", "2021-09-20T19:30:16+00:00", "2021-09-20T19:32:01+00:00", "2021-09-20T19:36:56+00:00", "2021-09-20T19:38:12+00:00", "2021-09-20T19:44:26+00:00", "2021-09-20T19:48:11+00:00", "2021-09-20T19:49:01+00:00", "2021-09-20T19:50:59+00:00", "2021-09-20T19:56:39+00:00", "2021-09-20T19:58:13+00:00", "2021-09-20T20:05:33+00:00", "2021-09-20T20:08:00+00:00", "2021-09-20T20:09:08+00:00", "2021-09-20T20:09:32+00:00", "2021-09-20T20:18:00+00:00", "2021-09-20T20:20:45+00:00", "2021-09-20T20:23:47+00:00", "2021-09-20T20:24:48+00:00", "2021-09-20T20:29:56+00:00", "2021-09-20T20:35:28+00:00", "2021-09-20T20:38:15+00:00", "2021-09-20T20:40:28+00:00", "2021-09-20T20:42:13+00:00", "2021-09-20T20:48:16+00:00", "2021-09-20T20:51:48+00:00", "2021-09-20T20:58:17+00:00", "2021-09-20T21:06:43+00:00", "2021-09-20T21:08:17+00:00", "2021-09-20T21:18:15+00:00", "2021-09-20T21:20:40+00:00", "2021-09-20T21:23:01+00:00", "2021-09-20T21:24:10+00:00", "2021-09-20T21:28:21+00:00", "2021-09-20T21:29:51+00:00", "2021-09-20T21:33:45+00:00", "2021-09-20T21:36:34+00:00", "2021-09-20T21:38:19+00:00", "2021-09-20T21:41:23+00:00", "2021-09-20T21:44:00+00:00", "2021-09-20T21:46:09+00:00", "2021-09-20T21:48:19+00:00", "2021-09-20T21:50:02+00:00", "2021-09-20T21:53:47+00:00", "2021-09-20T21:55:52+00:00", "2021-09-20T21:58:19+00:00", "2021-09-20T22:03:30+00:00", "2021-09-20T22:07:00+00:00", "2021-09-20T22:09:05+00:00", "2021-09-20T22:15:43+00:00", "2021-09-20T22:18:12+00:00", "2021-09-20T22:23:31+00:00", "2021-09-20T22:27:28+00:00", "2021-09-20T22:28:24+00:00", "2021-09-20T22:33:09+00:00", "2021-09-20T22:36:42+00:00", "2021-09-20T22:37:19+00:00", "2021-09-20T22:38:22+00:00", "2021-09-20T22:39:23+00:00", "2021-09-20T22:46:25+00:00", "2021-09-20T22:47:13+00:00", "2021-09-20T22:48:22+00:00", "2021-09-20T22:51:46+00:00", "2021-09-20T22:54:46+00:00", "2021-09-20T22:58:11+00:00", "2021-09-20T23:01:04+00:00", "2021-09-20T23:02:00+00:00", "2021-09-20T23:08:30+00:00", "2021-09-20T23:13:55+00:00", "2021-09-20T23:16:24+00:00", "2021-09-20T23:18:32+00:00", "2021-09-20T23:24:38+00:00", "2021-09-20T23:26:54+00:00", "2021-09-20T23:28:30+00:00", "2021-09-20T23:29:59+00:00", "2021-09-20T23:32:59+00:00", "2021-09-20T23:34:08+00:00", "2021-09-20T23:38:31+00:00", "2021-09-20T23:41:21+00:00", "2021-09-20T23:45:40+00:00", "2021-09-20T23:48:34+00:00", "2021-09-20T23:52:08+00:00", "2021-09-20T23:56:52+00:00", "2021-09-20T23:58:30+00:00", "2021-09-21T00:01:03+00:00", "2021-09-21T00:03:00+00:00", "2021-09-21T00:06:31+00:00", "2021-09-21T00:08:31+00:00", "2021-09-21T00:13:21+00:00", "2021-09-21T00:14:13+00:00", "2021-09-21T00:18:30+00:00", "2021-09-21T00:24:59+00:00", "2021-09-21T00:25:43+00:00", "2021-09-21T00:27:27+00:00", "2021-09-21T00:28:35+00:00", "2021-09-21T00:32:19+00:00", "2021-09-21T00:33:28+00:00", "2021-09-21T00:34:36+00:00", "2021-09-21T00:35:57+00:00", "2021-09-21T00:37:22+00:00", "2021-09-21T00:38:47+00:00", "2021-09-21T00:39:20+00:00", "2021-09-21T00:41:17+00:00", "2021-09-21T00:42:22+00:00", "2021-09-21T00:43:39+00:00", "2021-09-21T00:45:08+00:00", "2021-09-21T00:46:09+00:00", "2021-09-21T00:46:49+00:00", "2021-09-21T00:47:50+00:00", "2021-09-21T00:49:07+00:00", "2021-09-21T00:50:20+00:00", "2021-09-21T00:51:36+00:00", "2021-09-21T00:52:37+00:00", "2021-09-21T00:56:56+00:00", "2021-09-21T00:58:30+00:00", "2021-09-21T00:58:49+00:00", "2021-09-21T00:59:22+00:00", "2021-09-21T01:02:12+00:00", "2021-09-21T01:03:45+00:00", "2021-09-21T01:07:07+00:00", "2021-09-21T01:08:53+00:00", "2021-09-21T01:10:46+00:00", "2021-09-21T01:14:12+00:00", "2021-09-21T01:15:45+00:00", "2021-09-21T01:17:15+00:00", "2021-09-21T01:18:37+00:00", "2021-09-21T01:21:17+00:00", "2021-09-21T01:27:38+00:00", "2021-09-21T01:28:19+00:00", "2021-09-21T01:30:32+00:00", "2021-09-21T01:31:33+00:00", "2021-09-21T01:33:30+00:00", "2021-09-21T01:35:07+00:00", "2021-09-21T01:36:55+00:00", "2021-09-21T01:38:44+00:00", "2021-09-21T01:40:28+00:00", "2021-09-21T11:18:31+00:00", "2021-09-21T16:48:53+00:00", "2021-09-21T16:50:55+00:00", "2021-09-21T16:52:15+00:00", "2021-09-21T16:53:19+00:00", "2021-09-21T16:55:24+00:00", "2021-09-21T16:57:49+00:00", "2021-09-21T16:58:54+00:00", "2021-09-21T17:02:26+00:00", "2021-09-21T17:04:50+00:00", "2021-09-21T17:07:24+00:00", "2021-09-21T17:08:44+00:00", "2021-09-21T17:09:56+00:00", "2021-09-21T17:12:21+00:00", "2021-09-21T17:16:18+00:00", "2021-09-21T17:18:03+00:00", "2021-09-21T17:18:45+00:00", "2021-09-21T17:24:01+00:00", "2021-09-21T17:24:53+00:00", "2021-09-21T17:26:50+00:00", "2021-09-21T17:28:45+00:00", "2021-09-21T17:33:56+00:00", "2021-09-21T17:34:53+00:00", "2021-09-21T17:38:57+00:00", "2021-09-21T17:41:34+00:00", "2021-09-21T17:45:03+00:00", "2021-09-21T17:48:20+00:00", "2021-09-21T17:49:24+00:00", "2021-09-21T17:51:17+00:00", "2021-09-21T17:53:26+00:00", "2021-09-21T17:54:53+00:00", "2021-09-21T17:58:52+00:00", "2021-09-21T18:02:05+00:00", "2021-09-21T18:04:53+00:00", "2021-09-21T18:06:30+00:00", "2021-09-21T18:08:45+00:00", "2021-09-21T18:11:07+00:00", "2021-09-21T18:12:00+00:00", "2021-09-21T18:14:16+00:00", "2021-09-21T18:15:21+00:00", "2021-09-21T18:17:29+00:00", "2021-09-21T18:18:58+00:00", "2021-09-21T18:20:50+00:00", "2021-09-21T18:21:30+00:00", "2021-09-21T18:24:18+00:00", "2021-09-21T18:28:45+00:00", "2021-09-21T18:33:11+00:00", "2021-09-21T18:34:31+00:00", "2021-09-21T18:35:04+00:00", "2021-09-21T18:37:08+00:00", "2021-09-21T18:39:32+00:00", "2021-09-21T18:41:20+00:00", "2021-09-21T18:43:41+00:00", "2021-09-21T18:46:18+00:00", "2021-09-21T18:47:58+00:00", "2021-09-21T18:50:47+00:00", "2021-09-21T18:51:27+00:00", "2021-09-21T18:54:53+00:00", "2021-09-21T18:56:57+00:00", "2021-09-21T18:58:49+00:00", "2021-09-21T18:59:50+00:00", "2021-09-21T19:04:27+00:00", "2021-09-21T19:07:24+00:00", "2021-09-21T19:07:56+00:00", "2021-09-21T19:09:06+00:00", "2021-09-21T19:11:29+00:00", "2021-09-21T19:15:59+00:00", "2021-09-21T19:17:39+00:00", "2021-09-21T19:19:06+00:00", "2021-09-21T19:23:09+00:00", "2021-09-21T19:24:59+00:00", "2021-09-21T19:27:02+00:00", "2021-09-21T19:29:07+00:00", "2021-09-21T19:31:44+00:00", "2021-09-21T19:39:00+00:00", "2021-09-21T19:39:58+00:00", "2021-09-21T19:42:39+00:00", "2021-09-21T19:43:32+00:00", "2021-09-21T19:47:53+00:00", "2021-09-21T19:49:05+00:00", "2021-09-21T19:53:46+00:00", "2021-09-21T19:55:39+00:00", "2021-09-21T19:57:44+00:00", "2021-09-21T19:59:00+00:00", "2021-09-21T20:03:58+00:00", "2021-09-21T20:06:34+00:00", "2021-09-21T20:08:35+00:00", "2021-09-21T20:09:59+00:00", "2021-09-21T20:13:00+00:00", "2021-09-21T20:14:40+00:00", "2021-09-21T20:15:56+00:00", "2021-09-21T20:17:41+00:00", "2021-09-21T20:19:10+00:00", "2021-09-21T20:21:42+00:00", "2021-09-21T20:24:43+00:00", "2021-09-21T20:25:39+00:00", "2021-09-21T20:27:20+00:00", "2021-09-21T20:30:29+00:00", "2021-09-21T20:31:29+00:00", "2021-09-21T20:34:42+00:00", "2021-09-21T20:36:59+00:00", "2021-09-21T20:38:28+00:00", "2021-09-21T20:39:28+00:00", "2021-09-21T20:42:41+00:00", "2021-09-21T20:46:38+00:00", "2021-09-21T20:49:00+00:00", "2021-09-21T20:50:47+00:00", "2021-09-21T20:52:08+00:00", "2021-09-21T20:56:25+00:00", "2021-09-21T20:58:18+00:00", "2021-09-21T20:59:12+00:00", "2021-09-21T21:02:51+00:00", "2021-09-21T21:04:32+00:00", "2021-09-21T21:05:48+00:00", "2021-09-21T21:08:01+00:00", "2021-09-21T21:09:17+00:00", "2021-09-21T21:11:38+00:00", "2021-09-21T21:13:11+00:00", "2021-09-21T21:14:55+00:00", "2021-09-21T21:17:52+00:00", "2021-09-21T21:19:11+00:00", "2021-09-21T21:21:05+00:00", "2021-09-21T21:25:15+00:00", "2021-09-21T21:26:51+00:00", "2021-09-21T21:28:03+00:00", "2021-09-21T21:30:04+00:00", "2021-09-21T21:31:20+00:00", "2021-09-21T21:33:29+00:00", "2021-09-21T21:35:54+00:00", "2021-09-21T21:38:14+00:00", "2021-09-21T21:39:45+00:00", "2021-09-21T21:41:32+00:00", "2021-09-21T21:46:17+00:00", "2021-09-21T21:48:14+00:00", "2021-09-21T21:50:30+00:00", "2021-09-21T21:53:51+00:00", "2021-09-21T21:55:48+00:00", "2021-09-21T21:57:00+00:00", "2021-09-21T21:59:17+00:00", "2021-09-21T22:00:46+00:00", "2021-09-21T22:02:58+00:00", "2021-09-21T22:05:59+00:00", "2021-09-21T22:07:36+00:00", "2021-09-21T22:09:16+00:00", "2021-09-21T22:09:53+00:00", "2021-09-21T22:11:57+00:00", "2021-09-21T22:14:30+00:00", "2021-09-21T22:16:06+00:00", "2021-09-21T22:16:55+00:00", "2021-09-21T22:19:47+00:00", "2021-09-21T22:21:08+00:00", "2021-09-21T22:22:04+00:00", "2021-09-21T22:24:13+00:00", "2021-09-21T22:29:45+00:00", "2021-09-22T09:52:03+00:00", "2021-09-22T14:39:58+00:00", "2021-09-22T14:40:22+00:00", "2021-09-22T14:42:52+00:00", "2021-09-22T14:44:53+00:00", "2021-09-22T14:45:42+00:00", "2021-09-22T14:46:22+00:00", "2021-09-22T14:50:00+00:00", "2021-09-22T14:51:54+00:00", "2021-09-22T14:53:35+00:00", "2021-09-22T14:54:32+00:00", "2021-09-22T14:58:06+00:00", "2021-09-22T15:00:06+00:00", "2021-09-22T15:00:44+00:00", "2021-09-22T15:10:00+00:00", "2021-09-22T15:10:43+00:00", "2021-09-22T15:12:08+00:00", "2021-09-22T15:16:31+00:00", "2021-09-22T15:20:04+00:00", "2021-09-22T15:22:50+00:00", "2021-09-22T15:25:52+00:00", "2021-09-22T15:26:49+00:00", "2021-09-22T15:29:59+00:00", "2021-09-22T15:30:08+00:00", "2021-09-22T15:36:24+00:00", "2021-09-22T15:40:00+00:00", "2021-09-22T15:42:33+00:00", "2021-09-22T15:45:42+00:00", "2021-09-22T15:47:26+00:00", "2021-09-22T15:50:06+00:00", "2021-09-22T15:53:27+00:00", "2021-09-22T15:58:31+00:00", "2021-09-22T16:00:10+00:00", "2021-09-22T16:04:19+00:00", "2021-09-22T16:06:28+00:00", "2021-09-22T16:10:00+00:00", "2021-09-22T16:13:48+00:00", "2021-09-22T16:19:53+00:00", "2021-09-22T16:21:25+00:00", "2021-09-22T16:25:29+00:00", "2021-09-22T16:30:11+00:00", "2021-09-22T16:31:22+00:00", "2021-09-22T16:32:38+00:00", "2021-09-22T16:33:43+00:00", "2021-09-22T16:35:43+00:00", "2021-09-22T16:37:19+00:00", "2021-09-22T16:40:13+00:00", "2021-09-22T16:43:20+00:00", "2021-09-22T16:46:52+00:00", "2021-09-22T16:50:29+00:00", "2021-09-22T16:56:01+00:00", "2021-09-22T16:59:38+00:00", "2021-09-22T17:00:30+00:00", "2021-09-22T17:03:14+00:00", "2021-09-22T17:09:23+00:00", "2021-09-22T17:10:30+00:00", "2021-09-22T17:18:20+00:00", "2021-09-22T17:20:29+00:00", "2021-09-22T17:20:57+00:00", "2021-09-22T17:25:45+00:00", "2021-09-22T17:27:33+00:00", "2021-09-22T17:30:31+00:00", "2021-09-22T17:31:14+00:00", "2021-09-22T17:37:04+00:00", "2021-09-22T17:40:29+00:00", "2021-09-22T17:44:46+00:00", "2021-09-22T17:47:16+00:00", "2021-09-22T17:50:50+00:00", "2021-09-22T17:53:12+00:00", "2021-09-22T17:55:14+00:00", "2021-09-22T17:56:27+00:00", "2021-09-22T18:00:45+00:00", "2021-09-22T18:01:42+00:00", "2021-09-22T18:05:12+00:00", "2021-09-22T18:06:45+00:00", "2021-09-22T18:07:14+00:00", "2021-09-22T18:09:15+00:00", "2021-09-22T18:10:50+00:00", "2021-09-22T18:13:06+00:00", "2021-09-22T18:17:29+00:00", "2021-09-22T18:18:50+00:00", "2021-09-22T18:20:50+00:00", "2021-09-22T18:22:01+00:00", "2021-09-22T18:23:38+00:00", "2021-09-23T00:27:04+00:00", "2021-09-23T17:03:19+00:00", "2021-09-24T12:53:24+00:00"], "elevations": [null, null, null, null, null, null, null, null, null, null, null, null, null, null, null, null, null, null, null, null, null, null, null, null, null, null, null, 0.2, null, null, null, 2.8, null, null, null, 3.5, null, 4.2, 4.0, null, null, 4.1, null, 2.7, 3.0, null, -3.7, -2.0, null, -2.0, -1.7, null, -3.2, null, null, -4.0, null, -4.0, null, -3.2, -1.7, -1.0, null, -1.7, -1.0, null, null, null, 14.5, null, null, null, 0.8, null, null, null, 0.8, null, null, 0.2, null, null, null, null, -5.6, null, null, null, -0.9, null, null, null, 2.4, null, null, 6.4, 7.0, null, 8.4, null, 0.3, 1.0, null, null, 0.7, 1.0, null, null, 2.2, 2.0, null, -9.4, null, null, 0.4, null, null, null, -6.3, null, null, -9.8, null, null, 4.4, 5.0, null, null, null, null, -13.9, -12.0, null, null, null, null, null, null, null, -9.4, -9.0, null, null, null, null, -17.9, -17.5, null, null, null, null, -10.9, null, null, null, null, -9.4, null, null, 0.2, null, null, null, null, null, -1.7, -2.0, 2.0, 1.0, null, null, 4.0, null, null, 4.2, null, 5.0, null, null, 5.0, null, 5.0, null, 6.2, null, 6.0, null, 4.7, null, 6.0, -1.4, null, 5.0, null, 4.0, null, null, 0.0, -1.7, null, -1.0, null, -1.7, null, null, null, -1.0, null, -1.9, null, null, null, -0.3, null, null, 0.0, 0.3, 1.0, null, null, 5.0, 6.4, 7.0, null, 4.0, null, 4.4, 4.0, null, -3.0, null, -2.9, null, 0.0, null, 0.2, null, 8.0, null, 0.2, null, 10.5, 13.0, null, null, null, 2.8, null, null, null, 2.8, null, null, 2.3, 2.0, null, null, null, null, 2.7, null, null, null, null, 22.8, null, null, null, 10.5, 10.0, null, null, 0.2, 0.0, null, null, 16.5, 16.0, null, null, null, null, -9.3, null, null, null, null, -7.3, null, null, null, 28.7, 29.0, null, null, null, null, 14.8, null, null, -3.7, -2.0, null, null, null, null, -3.4, null, null, null, null, 10.2, null, null, null, null, -11.8, -11.0, null, null, null, 8.5, null, 0.2, null, null, null, 2.0, 0.7, null, null, null, null, 0.2, null, 4.4, 5.0, null, null, -1.4, -1.0, null, null, null, 0.0, null, 12.5, null, null, null, 10.7, 11.0, null, 4.5, null, null, 0.3, null, null, 1.7, null, 29.9, 29.0, null, null, null, 2.3, 2.0, null, null, -6.0, null, null, 0.4, null, null, 0.1, null, -1.4, -1.0, null, null, -1.0, null, null, 9.0, null, null, 0.2, null, null, null, 0.3, 0.0, null, null, null, null, 6.1, null, null, null, 4.1, null, null, -1.3, 0.2, 0.0]}