{"type": "Feature", "properties": {"leg_id": 56, "name": "20230624 - Mackay to Airlie Beach", "stated_nm": 76.0, "computed_nm": 76.0}, "geometry": {"type": "LineString", "coordinates": [[149.229032, -21.110514], [149.230526, -21.109302], [149.232536, -21.106057], [149.234084, -21.104053], [149.236065, -21.101353], [149.237849, -21.098296], [149.239409, -21.095871], [149.241637, -21.092867], [149.243645, -21.090229], [149.245903, -21.087364], [149.247509, -21.0854], [149.249989, -21.082408], [149.25076, -21.080012], [149.250586, -21.076262], [149.250439, -21.073026], [149.250239, -21.070121], [149.25, -21.066679], [149.249813, -21.063724], [149.249694, -21.060603], [149.249565, -21.057203], [149.249447, -21.054161], [149.24926, -21.050991], [149.249084, -21.047721], [149.248926, -21.044067], [149.248764, -21.040613], [149.248608, -21.037169], [149.248474, -21.033715], [149.248322, -21.030241], [149.248161, -21.026756], [149.248075, -21.023947], [149.248616, -21.021844], [149.249556, -21.019606], [149.24995, -21.01643], [149.250099, -21.012859], [149.250303, -21.009302], [149.250497, -21.005733], [149.250691, -21.002119], [149.250928, -20.998562], [149.251039, -20.995452], [149.251211, -20.99164], [149.251282, -20.98902], [149.251366, -20.985346], [149.251441, -20.981614], [149.251655, -20.975404], [149.251745, -20.971793], [149.251898, -20.967475], [149.252015, -20.963905], [149.252084, -20.961122], [149.252281, -20.956702], [149.252373, -20.954492], [149.252495, -20.95097], [149.252724, -20.946511], [149.252874, -20.943883], [149.253112, -20.940777], [149.253434, -20.937241], [149.253749, -20.934236], [149.25425, -20.929265], [149.254629, -20.925631], [149.254963, -20.921908], [149.255356, -20.918202], [149.255869, -20.915002], [149.256844, -20.911734], [149.257699, -20.908877], [149.258607, -20.905959], [149.259467, -20.903049], [149.260479, -20.899579], [149.261287, -20.896597], [149.262239, -20.892963], [149.263125, -20.889774], [149.264002, -20.886399], [149.264947, -20.882706], [149.26569, -20.879719], [149.266525, -20.876313], [149.26741, -20.872858], [149.26818, -20.869878], [149.268934, -20.866801], [149.269658, -20.863829], [149.270537, -20.860119], [149.271186, -20.857124], [149.271911, -20.854032], [149.272667, -20.850933], [149.273161, -20.847959], [149.273318, -20.84557], [149.273733, -20.842426], [149.274535, -20.839176], [149.275432, -20.835664], [149.27631, -20.8325], [149.277454, -20.828976], [149.278701, -20.82578], [149.280033, -20.822769], [149.281189, -20.820632], [149.281361, -20.820444], [149.283004, -20.824399], [149.284529, -20.826881], [149.286283, -20.827813], [149.28876, -20.827779], [149.290848, -20.82648], [149.292786, -20.823881], [149.294463, -20.821257], [149.295149, -20.819086], [149.294876, -20.816288], [149.29451, -20.812943], [149.294038, -20.810471], [149.292718, -20.80869], [149.29062, -20.807509], [149.288826, -20.807146], [149.288935, -20.807163], [149.293893, -20.807429], [149.296722, -20.807132], [149.300987, -20.806669], [149.304093, -20.806242], [149.305337, -20.804065], [149.306907, -20.799871], [149.307913, -20.797778], [149.30891, -20.795078], [149.309549, -20.791443], [149.310277, -20.786791], [149.309759, -20.783966], [149.308579, -20.779972], [149.307693, -20.776837], [149.306656, -20.773146], [149.305841, -20.769904], [149.304878, -20.766246], [149.303916, -20.762618], [149.302516, -20.759462], [149.300832, -20.756577], [149.299285, -20.753372], [149.297068, -20.748659], [149.296097, -20.746432], [149.29466, -20.743681], [149.293373, -20.742107], [149.290312, -20.740881], [149.286202, -20.739667], [149.283421, -20.738821], [149.280217, -20.737901], [149.278138, -20.73729], [149.274245, -20.736041], [149.270515, -20.734928], [149.268088, -20.734185], [149.264652, -20.73322], [149.262091, -20.732413], [149.259745, -20.731278], [149.256939, -20.730065], [149.253426, -20.72882], [149.250185, -20.727668], [149.247101, -20.726746], [149.243547, -20.725805], [149.240368, -20.725051], [149.236881, -20.72397], [149.23351, -20.722918], [149.229646, -20.721847], [149.225975, -20.720866], [149.222287, -20.719921], [149.218567, -20.718978], [149.21504, -20.718019], [149.211894, -20.716866], [149.208273, -20.715283], [149.205508, -20.714055], [149.202296, -20.711964], [149.199564, -20.71019], [149.196826, -20.708553], [149.193736, -20.706559], [149.190551, -20.70463], [149.187045, -20.702491], [149.183756, -20.700533], [149.180378, -20.698605], [149.177529, -20.697015], [149.174922, -20.695629], [149.172329, -20.694367], [149.170171, -20.692374], [149.167957, -20.690256], [149.165664, -20.688198], [149.163196, -20.685915], [149.160775, -20.683524], [149.159772, -20.68281], [149.159758, -20.682825], [149.161057, -20.685123], [149.164609, -20.687121], [149.166716, -20.687544], [149.16937, -20.687086], [149.170557, -20.685289], [149.170749, -20.682501], [149.170814, -20.678655], [149.17062, -20.675425], [149.170479, -20.672251], [149.170341, -20.668679], [149.169935, -20.665083], [149.169469, -20.661565], [149.167666, -20.659401], [149.165338, -20.656801], [149.163148, -20.654226], [149.161009, -20.651743], [149.158639, -20.649271], [149.156744, -20.647358], [149.155091, -20.64531], [149.153188, -20.642549], [149.151457, -20.639889], [149.149313, -20.636615], [149.147559, -20.634051], [149.145522, -20.631801], [149.143032, -20.629266], [149.139923, -20.626204], [149.13768, -20.623977], [149.135279, -20.621613], [149.132935, -20.61941], [149.130476, -20.617141], [149.12804, -20.614926], [149.125603, -20.612747], [149.123145, -20.610563], [149.120904, -20.608565], [149.118319, -20.606324], [149.115755, -20.604122], [149.11292, -20.601601], [149.109956, -20.598978], [149.107163, -20.5965], [149.10475, -20.594366], [149.101906, -20.591892], [149.098923, -20.589379], [149.096138, -20.586998], [149.093232, -20.584485], [149.090384, -20.582069], [149.087713, -20.57972], [149.085163, -20.577506], [149.082218, -20.574992], [149.078827, -20.572104], [149.076005, -20.569698], [149.073095, -20.567222], [149.070366, -20.564937], [149.068394, -20.563327], [149.065696, -20.561199], [149.063149, -20.559195], [149.060349, -20.556976], [149.057744, -20.554279], [149.055086, -20.55131], [149.053345, -20.549429], [149.050567, -20.546433], [149.048295, -20.544029], [149.045907, -20.541458], [149.043503, -20.538871], [149.040922, -20.536102], [149.039549, -20.534209], [149.038375, -20.531555], [149.037255, -20.52872], [149.035769, -20.52522], [149.035408, -20.522827], [149.035271, -20.519486], [149.034818, -20.51588], [149.034558, -20.513321], [149.034298, -20.50946], [149.033902, -20.506677], [149.033774, -20.504327], [149.03479, -20.502328], [149.036789, -20.501295], [149.039914, -20.50209], [149.042485, -20.503235], [149.04481, -20.504762], [149.0458, -20.505647], [149.04583, -20.505376], [149.042504, -20.501505], [149.038803, -20.498983], [149.036445, -20.497121], [149.034033, -20.494868], [149.031428, -20.492571], [149.028175, -20.490237], [149.024475, -20.487845], [149.020789, -20.485446], [149.017813, -20.483484], [149.014945, -20.481715], [149.011857, -20.479783], [149.008805, -20.477874], [149.00573, -20.475934], [149.002646, -20.473927], [149.000124, -20.471419], [148.997635, -20.468422], [148.995247, -20.465617], [148.992233, -20.462041], [148.989191, -20.458449], [148.986778, -20.455577], [148.984714, -20.453113], [148.98185, -20.449791], [148.979314, -20.446837], [148.977018, -20.444113], [148.974751, -20.441448], [148.972114, -20.438426], [148.969658, -20.435635], [148.967225, -20.432809], [148.964764, -20.429969], [148.962724, -20.427612], [148.959938, -20.424298], [148.958021, -20.422071], [148.95501, -20.418581], [148.952481, -20.415703], [148.95051, -20.413503], [148.947403, -20.410091], [148.944877, -20.407324], [148.942671, -20.404945], [148.939688, -20.401786], [148.937396, -20.399358], [148.934449, -20.396306], [148.931655, -20.393495], [148.929153, -20.390827], [148.926486, -20.387983], [148.924125, -20.385512], [148.921257, -20.38233], [148.918984, -20.379822], [148.916099, -20.376545], [148.914141, -20.374238], [148.911025, -20.370715], [148.908416, -20.367772], [148.905784, -20.364702], [148.902067, -20.360448], [148.899529, -20.35754], [148.896914, -20.354582], [148.894607, -20.351858], [148.892205, -20.349053], [148.889608, -20.346284], [148.887485, -20.344093], [148.883567, -20.339726], [148.882068, -20.337701], [148.879847, -20.334443], [148.877686, -20.331523], [148.875693, -20.328663], [148.873146, -20.324998], [148.870148, -20.320688], [148.867826, -20.317608], [148.86502, -20.314724], [148.862821, -20.312382], [148.86036, -20.310773], [148.856544, -20.308652], [148.853089, -20.306728], [148.84993, -20.304904], [148.846933, -20.303362], [148.84331, -20.301662], [148.840902, -20.300631], [148.83664, -20.298738], [148.833328, -20.297261], [148.830866, -20.296175], [148.828628, -20.294461], [148.826074, -20.292161], [148.823502, -20.28988], [148.821201, -20.288017], [148.81869, -20.285203], [148.817045, -20.282847], [148.81514, -20.279742], [148.813837, -20.277561], [148.811852, -20.273924], [148.810684, -20.271827], [148.808669, -20.268289], [148.807112, -20.265687], [148.804893, -20.262374], [148.803218, -20.260127], [148.800592, -20.256757], [148.798588, -20.254141], [148.796412, -20.25119], [148.794835, -20.249], [148.79255, -20.245673], [148.790894, -20.243245], [148.788748, -20.240196], [148.786856, -20.237485], [148.784987, -20.234889], [148.783089, -20.232262], [148.781412, -20.230041], [148.779551, -20.228882], [148.77699, -20.228451], [148.773892, -20.228602], [148.770141, -20.228822], [148.766683, -20.229039], [148.76263, -20.229638], [148.758621, -20.230438], [148.754679, -20.231387], [148.751191, -20.23216], [148.747954, -20.234109], [148.745109, -20.236774], [148.742782, -20.238924], [148.740448, -20.241068], [148.738066, -20.243176], [148.735727, -20.245225], [148.733196, -20.247462], [148.730785, -20.250355], [148.727994, -20.253956], [148.7266, -20.25633], [148.725151, -20.25909], [148.724211, -20.261156], [148.72341, -20.263166], [148.722046, -20.263527]]}, "times": ["2023-06-24T01:29:16+00:00", "2023-06-24T01:30:29+00:00", "2023-06-24T01:34:29+00:00", "2023-06-24T01:35:51+00:00", "2023-06-24T01:37:56+00:00", "2023-06-24T01:40:30+00:00", "2023-06-24T01:43:33+00:00", "2023-06-24T01:45:33+00:00", "2023-06-24T01:47:30+00:00", "2023-06-24T01:50:33+00:00", "2023-06-24T01:51:33+00:00", "2023-06-24T01:54:33+00:00", "2023-06-24T01:56:33+00:00", "2023-06-24T01:59:33+00:00", "2023-06-24T02:01:33+00:00", "2023-06-24T02:03:33+00:00", "2023-06-24T02:06:34+00:00", "2023-06-24T02:08:31+00:00", "2023-06-24T02:10:32+00:00", "2023-06-24T02:13:32+00:00", "2023-06-24T02:15:32+00:00", "2023-06-24T02:17:30+00:00", "2023-06-24T02:19:39+00:00", "2023-06-24T02:22:35+00:00", "2023-06-24T02:25:35+00:00", "2023-06-24T02:27:30+00:00", "2023-06-24T02:30:35+00:00", "2023-06-24T02:32:35+00:00", "2023-06-24T02:35:35+00:00", "2023-06-24T02:36:58+00:00", "2023-06-24T02:38:32+00:00", "2023-06-24T02:40:33+00:00", "2023-06-24T02:42:33+00:00", "2023-06-24T02:45:34+00:00", "2023-06-24T02:47:30+00:00", "2023-06-24T02:50:34+00:00", "2023-06-24T02:52:34+00:00", "2023-06-24T02:54:54+00:00", "2023-06-24T02:57:30+00:00", "2023-06-24T02:59:55+00:00", "2023-06-24T03:01:39+00:00", "2023-06-24T03:04:47+00:00", "2023-06-24T03:07:30+00:00", "2023-06-24T03:11:42+00:00", "2023-06-24T03:13:42+00:00", "2023-06-24T03:17:30+00:00", "2023-06-24T03:19:41+00:00", "2023-06-24T03:20:49+00:00", "2023-06-24T03:24:40+00:00", "2023-06-24T03:25:40+00:00", "2023-06-24T03:27:45+00:00", "2023-06-24T03:31:46+00:00", "2023-06-24T03:32:46+00:00", "2023-06-24T03:35:46+00:00", "2023-06-24T03:37:45+00:00", "2023-06-24T03:39:46+00:00", "2023-06-24T03:43:45+00:00", "2023-06-24T03:45:45+00:00", "2023-06-24T03:48:47+00:00", "2023-06-24T03:50:47+00:00", "2023-06-24T03:53:45+00:00", "2023-06-24T03:55:47+00:00", "2023-06-24T03:57:45+00:00", "2023-06-24T03:59:49+00:00", "2023-06-24T04:01:49+00:00", "2023-06-24T04:03:49+00:00", "2023-06-24T04:05:49+00:00", "2023-06-24T04:08:49+00:00", "2023-06-24T04:10:49+00:00", "2023-06-24T04:12:49+00:00", "2023-06-24T04:15:49+00:00", "2023-06-24T04:17:45+00:00", "2023-06-24T04:20:24+00:00", "2023-06-24T04:22:24+00:00", "2023-06-24T04:24:24+00:00", "2023-06-24T04:26:02+00:00", "2023-06-24T04:27:45+00:00", "2023-06-24T04:30:40+00:00", "2023-06-24T04:32:49+00:00", "2023-06-24T04:34:50+00:00", "2023-06-24T04:36:50+00:00", "2023-06-24T04:38:26+00:00", "2023-06-24T04:39:50+00:00", "2023-06-24T04:41:50+00:00", "2023-06-24T04:44:50+00:00", "2023-06-24T04:46:50+00:00", "2023-06-24T04:48:50+00:00", "2023-06-24T04:50:57+00:00", "2023-06-24T04:53:26+00:00", "2023-06-24T04:55:42+00:00", "2023-06-24T04:57:45+00:00", "2023-06-24T18:54:22+00:00", "2023-06-25T04:20:24+00:00", "2023-06-25T04:21:35+00:00", "2023-06-25T04:23:03+00:00", "2023-06-25T04:24:24+00:00", "2023-06-25T04:26:24+00:00", "2023-06-25T04:28:24+00:00", "2023-06-25T04:30:24+00:00", "2023-06-25T04:32:17+00:00", "2023-06-25T04:34:33+00:00", "2023-06-25T04:36:33+00:00", "2023-06-25T04:37:30+00:00", "2023-06-25T04:39:14+00:00", "2023-06-25T04:40:33+00:00", "2023-06-25T04:46:36+00:00", "2023-06-26T01:14:47+00:00", "2023-06-26T23:48:16+00:00", "2023-06-26T23:49:43+00:00", "2023-06-26T23:52:45+00:00", "2023-06-26T23:54:09+00:00", "2023-06-26T23:55:45+00:00", "2023-06-26T23:58:45+00:00", "2023-06-26T23:59:45+00:00", "2023-06-27T00:01:06+00:00", "2023-06-27T00:03:48+00:00", "2023-06-27T00:06:15+00:00", "2023-06-27T00:07:48+00:00", "2023-06-27T00:10:48+00:00", "2023-06-27T00:12:48+00:00", "2023-06-27T00:14:48+00:00", "2023-06-27T00:16:48+00:00", "2023-06-27T00:19:48+00:00", "2023-06-27T00:21:48+00:00", "2023-06-27T00:23:48+00:00", "2023-06-27T00:25:47+00:00", "2023-06-27T00:27:46+00:00", "2023-06-27T00:31:37+00:00", "2023-06-27T00:32:41+00:00", "2023-06-27T00:34:41+00:00", "2023-06-27T00:35:45+00:00", "2023-06-27T00:38:09+00:00", "2023-06-27T00:41:41+00:00", "2023-06-27T00:43:03+00:00", "2023-06-27T00:45:41+00:00", "2023-06-27T00:46:41+00:00", "2023-06-27T00:50:21+00:00", "2023-06-27T00:52:47+00:00", "2023-06-27T00:53:47+00:00", "2023-06-27T00:56:48+00:00", "2023-06-27T00:57:48+00:00", "2023-06-27T00:59:48+00:00", "2023-06-27T01:01:48+00:00", "2023-06-27T01:04:48+00:00", "2023-06-27T01:06:48+00:00", "2023-06-27T01:08:48+00:00", "2023-06-27T01:11:08+00:00", "2023-06-27T01:13:37+00:00", "2023-06-27T01:15:45+00:00", "2023-06-27T01:17:50+00:00", "2023-06-27T01:20:49+00:00", "2023-06-27T01:23:49+00:00", "2023-06-27T01:25:45+00:00", "2023-06-27T01:28:49+00:00", "2023-06-27T01:30:49+00:00", "2023-06-27T01:32:49+00:00", "2023-06-27T01:35:45+00:00", "2023-06-27T01:37:09+00:00", "2023-06-27T01:39:50+00:00", "2023-06-27T01:41:50+00:00", "2023-06-27T01:43:50+00:00", "2023-06-27T01:46:39+00:00", "2023-06-27T01:48:51+00:00", "2023-06-27T01:51:40+00:00", "2023-06-27T01:53:51+00:00", "2023-06-27T01:56:10+00:00", "2023-06-27T01:58:51+00:00", "2023-06-27T01:59:55+00:00", "2023-06-27T02:01:55+00:00", "2023-06-27T02:03:51+00:00", "2023-06-27T02:05:44+00:00", "2023-06-27T02:07:51+00:00", "2023-06-27T02:09:51+00:00", "2023-06-27T02:11:58+00:00", "2023-06-27T02:18:00+00:00", "2023-06-27T16:55:16+00:00", "2023-06-28T00:57:25+00:00", "2023-06-28T01:00:06+00:00", "2023-06-28T01:01:21+00:00", "2023-06-28T01:02:42+00:00", "2023-06-28T01:04:17+00:00", "2023-06-28T01:06:17+00:00", "2023-06-28T01:08:19+00:00", "2023-06-28T01:10:08+00:00", "2023-06-28T01:12:19+00:00", "2023-06-28T01:14:19+00:00", "2023-06-28T01:16:20+00:00", "2023-06-28T01:18:20+00:00", "2023-06-28T01:20:11+00:00", "2023-06-28T01:22:21+00:00", "2023-06-28T01:24:21+00:00", "2023-06-28T01:25:53+00:00", "2023-06-28T01:28:21+00:00", "2023-06-28T01:29:21+00:00", "2023-06-28T01:31:18+00:00", "2023-06-28T01:33:21+00:00", "2023-06-28T01:35:15+00:00", "2023-06-28T01:38:15+00:00", "2023-06-28T01:40:12+00:00", "2023-06-28T01:42:22+00:00", "2023-06-28T01:43:29+00:00", "2023-06-28T01:47:21+00:00", "2023-06-28T01:49:21+00:00", "2023-06-28T01:51:03+00:00", "2023-06-28T01:53:21+00:00", "2023-06-28T01:55:15+00:00", "2023-06-28T01:56:56+00:00", "2023-06-28T01:59:21+00:00", "2023-06-28T02:01:21+00:00", "2023-06-28T02:02:26+00:00", "2023-06-28T02:05:15+00:00", "2023-06-28T02:07:15+00:00", "2023-06-28T02:09:22+00:00", "2023-06-28T02:12:22+00:00", "2023-06-28T02:14:29+00:00", "2023-06-28T02:16:21+00:00", "2023-06-28T02:19:22+00:00", "2023-06-28T02:22:21+00:00", "2023-06-28T02:24:22+00:00", "2023-06-28T02:27:26+00:00", "2023-06-28T02:29:07+00:00", "2023-06-28T02:31:28+00:00", "2023-06-28T02:33:35+00:00", "2023-06-28T02:36:27+00:00", "2023-06-28T02:40:27+00:00", "2023-06-28T02:42:35+00:00", "2023-06-28T02:44:27+00:00", "2023-06-28T02:47:30+00:00", "2023-06-28T02:48:30+00:00", "2023-06-28T02:51:30+00:00", "2023-06-28T02:53:30+00:00", "2023-06-28T02:55:30+00:00", "2023-06-28T02:57:31+00:00", "2023-06-28T03:00:23+00:00", "2023-06-28T03:01:32+00:00", "2023-06-28T03:04:32+00:00", "2023-06-28T03:06:32+00:00", "2023-06-28T03:08:50+00:00", "2023-06-28T03:10:51+00:00", "2023-06-28T03:12:51+00:00", "2023-06-28T03:13:51+00:00", "2023-06-28T03:15:51+00:00", "2023-06-28T03:18:31+00:00", "2023-06-28T03:20:20+00:00", "2023-06-28T03:22:00+00:00", "2023-06-28T03:23:33+00:00", "2023-06-28T03:26:33+00:00", "2023-06-28T03:27:33+00:00", "2023-06-28T03:29:55+00:00", "2023-06-28T03:31:33+00:00", "2023-06-28T03:33:33+00:00", "2023-06-28T03:35:30+00:00", "2023-06-28T03:37:33+00:00", "2023-06-28T03:39:33+00:00", "2023-06-28T03:41:33+00:00", "2023-06-28T03:43:33+00:00", "2023-06-28T04:09:34+00:00", "2023-06-28T23:48:02+00:00", "2023-06-29T00:15:38+00:00", "2023-06-29T00:17:38+00:00", "2023-06-29T00:18:38+00:00", "2023-06-29T00:20:38+00:00", "2023-06-29T00:22:30+00:00", "2023-06-29T00:25:35+00:00", "2023-06-29T00:28:33+00:00", "2023-06-29T00:30:41+00:00", "2023-06-29T00:32:30+00:00", "2023-06-29T00:34:34+00:00", "2023-06-29T00:36:35+00:00", "2023-06-29T00:38:35+00:00", "2023-06-29T00:40:36+00:00", "2023-06-29T00:42:30+00:00", "2023-06-29T00:43:59+00:00", "2023-06-29T00:46:38+00:00", "2023-06-29T00:48:38+00:00", "2023-06-29T00:51:38+00:00", "2023-06-29T00:53:39+00:00", "2023-06-29T00:55:39+00:00", "2023-06-29T00:56:39+00:00", "2023-06-29T00:59:43+00:00", "2023-06-29T01:01:37+00:00", "2023-06-29T01:03:37+00:00", "2023-06-29T01:04:44+00:00", "2023-06-29T01:07:37+00:00", "2023-06-29T01:09:37+00:00", "2023-06-29T01:11:38+00:00", "2023-06-29T01:13:38+00:00", "2023-06-29T01:14:39+00:00", "2023-06-29T01:17:39+00:00", "2023-06-29T01:18:39+00:00", "2023-06-29T01:21:40+00:00", "2023-06-29T01:23:40+00:00", "2023-06-29T01:24:40+00:00", "2023-06-29T01:27:40+00:00", "2023-06-29T01:29:40+00:00", "2023-06-29T01:30:40+00:00", "2023-06-29T01:33:40+00:00", "2023-06-29T01:34:40+00:00", "2023-06-29T01:37:41+00:00", "2023-06-29T01:39:25+00:00", "2023-06-29T01:41:41+00:00", "2023-06-29T01:43:41+00:00", "2023-06-29T01:44:41+00:00", "2023-06-29T01:47:41+00:00", "2023-06-29T01:48:41+00:00", "2023-06-29T01:51:42+00:00", "2023-06-29T01:52:48+00:00", "2023-06-29T01:55:39+00:00", "2023-06-29T01:57:39+00:00", "2023-06-29T01:59:47+00:00", "2023-06-29T02:02:30+00:00", "2023-06-29T02:04:40+00:00", "2023-06-29T02:06:44+00:00", "2023-06-29T02:08:39+00:00", "2023-06-29T02:10:05+00:00", "2023-06-29T02:12:30+00:00", "2023-06-29T02:13:40+00:00", "2023-06-29T02:17:47+00:00", "2023-06-29T02:19:39+00:00", "2023-06-29T02:20:47+00:00", "2023-06-29T02:23:05+00:00", "2023-06-29T02:25:40+00:00", "2023-06-29T02:28:40+00:00", "2023-06-29T02:31:39+00:00", "2023-06-29T02:32:30+00:00", "2023-06-29T02:35:12+00:00", "2023-06-29T02:36:41+00:00", "2023-06-29T02:38:41+00:00", "2023-06-29T02:41:43+00:00", "2023-06-29T02:43:06+00:00", "2023-06-29T02:45:41+00:00", "2023-06-29T02:47:41+00:00", "2023-06-29T02:50:40+00:00", "2023-06-29T02:51:44+00:00", "2023-06-29T02:54:49+00:00", "2023-06-29T02:56:49+00:00", "2023-06-29T02:57:49+00:00", "2023-06-29T02:59:43+00:00", "2023-06-29T03:01:39+00:00", "2023-06-29T03:03:44+00:00", "2023-06-29T03:05:12+00:00", "2023-06-29T03:07:30+00:00", "2023-06-29T03:09:30+00:00", "2023-06-29T03:12:30+00:00", "2023-06-29T03:13:30+00:00", "2023-06-29T03:16:47+00:00", "2023-06-29T03:17:49+00:00", "2023-06-29T03:20:49+00:00", "2023-06-29T03:21:49+00:00", "2023-06-29T03:24:49+00:00", "2023-06-29T03:25:49+00:00", "2023-06-29T03:28:49+00:00", "2023-06-29T03:29:58+00:00", "2023-06-29T03:32:45+00:00", "2023-06-29T03:33:49+00:00", "2023-06-29T03:36:49+00:00", "2023-06-29T03:37:49+00:00", "2023-06-29T03:40:49+00:00", "2023-06-29T03:42:45+00:00", "2023-06-29T03:44:51+00:00", "2023-06-29T03:46:51+00:00", "2023-06-29T03:47:55+00:00", "2023-06-29T03:49:51+00:00", "2023-06-29T03:50:51+00:00", "2023-06-29T03:52:45+00:00", "2023-06-29T03:55:51+00:00", "2023-06-29T03:57:51+00:00", "2023-06-29T04:00:51+00:00", "2023-06-29T04:03:51+00:00", "2023-06-29T04:06:53+00:00", "2023-06-29T04:09:53+00:00", "2023-06-29T04:11:53+00:00", "2023-06-29T04:14:53+00:00", "2023-06-29T04:16:53+00:00", "2023-06-29T04:18:53+00:00", "2023-06-29T04:20:53+00:00", "2023-06-29T04:22:45+00:00", "2023-06-29T04:24:51+00:00", "2023-06-29T04:26:53+00:00", "2023-06-29T04:29:51+00:00", "2023-06-29T04:31:41+00:00", "2023-06-29T04:33:17+00:00", "2023-06-29T04:34:41+00:00", "2023-06-29T04:36:50+00:00", "2023-06-29T04:38:02+00:00"], "elevations": [14.0, 0.0, 6.0, 9.5, 6.2, 6.0, 7.0, 9.0, 11.2, 16.5, 14.5, 22.5, 8.8, 8.0, 4.0, 6.7, 7.5, 8.2, 8.3, 9.0, 10.0, 10.8, 12.5, 4.0, 5.0, 6.1, 8.0, 10.3, 8.0, 6.2, 9.0, 10.0, 10.7, 7.5, 6.8, 7.0, 7.0, 7.0, 8.2, 7.0, 8.0, 2.0, 17.2, 2.5, 4.0, 4.7, 5.0, 5.0, 5.0, 4.5, 10.2, 9.5, 13.5, 7.0, 0.7, 0.0, -0.5, 0.0, -0.8, 0.0, -1.0, 0.0, -3.9, -2.0, -1.0, -1.5, 2.0, -1.4, 3.5, 2.7, 2.0, 2.2, 2.0, 3.0, 0.5, 3.0, 4.8, 5.5, 2.5, 2.0, 39.0, 11.7, 12.5, 6.5, 12.0, 6.0, 8.5, 4.0, 3.5, 3.0, 4.7, 7.3, 15.5, 13.0, 14.0, 13.0, 13.3, 12.8, 13.0, 13.0, 12.5, 8.0, 8.4, 8.5, 9.0, 10.0, 8.4, 13.0, 5.7, 12.5, 13.0, 9.1, 11.0, 10.0, -1.5, 10.0, 10.5, 12.0, 14.5, 9.5, 10.0, 14.8, 19.5, 18.0, 9.0, 12.5, 26.0, 14.0, 24.0, -2.0, 14.5, 5.5, 6.5, 4.5, 3.8, 1.0, 19.5, 12.5, 12.0, 12.2, 21.0, 16.7, 10.0, 9.5, 8.7, 9.0, 9.0, 8.0, 3.1, 6.0, 3.0, 3.5, 3.8, 7.5, 7.0, 6.7, 4.2, 7.5, 12.5, 14.3, 11.5, 7.2, 7.3, 4.0, 7.0, 4.7, 5.0, 5.0, 5.0, 8.7, null, 9.3, 5.5, 6.0, 6.7, null, -2.0, 8.0, 4.0, 5.0, 1.7, 1.0, 4.0, 2.0, 2.5, 2.5, 14.2, 2.0, 12.0, 8.0, 7.0, 6.2, 3.0, 4.0, 10.5, 8.0, 8.1, 8.0, 9.0, 5.5, 5.2, 4.5, 3.0, 3.0, 3.0, 4.7, 2.0, 3.5, 4.5, 4.5, 3.2, 5.5, 6.3, 7.0, 7.5, 9.5, 4.0, 5.5, 7.0, 7.5, 7.0, 1.3, 3.0, 4.1, 3.5, 3.5, 5.2, 6.0, 6.0, 7.0, 8.5, 22.8, 0.0, 2.0, -0.7, 0.5, 2.2, 3.5, 3.5, 0.0, 0.0, 4.2, 4.0, -0.5, 2.0, 2.0, 2.2, 2.0, 2.0, 2.0, 2.0, 2.2, 1.5, 0.5, 0.0, 4.0, 28.7, 7.9, 6.0, 5.0, 4.0, 4.0, 4.4, 4.0, 5.0, 5.5, 6.4, 6.0, 6.0, 6.0, 6.0, 6.2, 6.0, 23.0, 7.0, 3.0, 6.2, 6.0, 6.0, 6.0, 7.0, 6.2, -5.5, 4.0, 5.0, 2.5, 4.7, 3.0, 5.0, 5.5, 6.0, 6.7, 7.5, 8.0, 8.5, 10.0, 10.2, 9.5, 9.0, 8.5, 8.0, 8.2, 8.0, 8.0, 5.5, 2.0, 2.7, 3.0, 2.0, 3.0, 2.7, 3.5, 4.0, 4.5, 5.0, 4.7, 5.0, 6.0, 6.0, 6.0, 6.2, 6.0, 6.0, 6.0, 6.2, 6.0, 7.0, 7.0, 7.0, 6.7, 7.0, 7.0, 24.0, 13.8, 14.0, 12.5, 12.0, 10.5, 10.0, 10.7, 10.5, 9.0, 8.5, 6.5, 6.1, 6.0, 1.7, 0.0, 0.2, 0.5, 0.0, 0.5, 4.5, 4.7, 6.0, 5.0, 5.0, 5.0, 5.7, 5.0, 12.5, -5.0, 1.0, 3.0, 4.2, 4.0, 4.0, 4.3, 7.8, 13.7, 12.5, 4.5, 6.0, 5.5, 5.0, 6.0, 6.7, 7.0, 7.0, 7.0, 8.0, 8.7, null, 9.5, 9.0]}