{"type": "Feature", "properties": {"leg_id": 67, "name": "20231014 - Abrolhos to Geraldton", "stated_nm": 52.9, "computed_nm": 52.9}, "geometry": {"type": "LineString", "coordinates": [[113.736912, -28.424887], [113.738622, -28.417292], [113.740245, -28.415848], [113.742062, -28.415588], [113.743853, -28.416256], [113.750435, -28.41724], [113.753321, -28.418128], [113.756338, -28.419165], [113.77028, -28.424667], [113.8091, -28.43982], [113.823028, -28.448545], [113.825698, -28.450341], [113.842478, -28.46206], [113.843456, -28.46313], [113.845908, -28.465889], [113.849784, -28.469571], [113.858577, -28.475507], [113.863435, -28.478885], [113.875602, -28.48684], [113.878861, -28.488899], [113.902828, -28.50368], [113.919998, -28.513842], [113.94315, -28.527237], [113.943838, -28.527541], [113.960012, -28.533025], [113.970747, -28.536377], [113.9898, -28.542605], [114.00311, -28.54667], [114.005013, -28.547313], [114.026132, -28.553758], [114.043752, -28.558973], [114.063067, -28.564197], [114.065193, -28.565208], [114.069602, -28.567423], [114.080042, -28.57601], [114.090687, -28.585045], [114.107155, -28.598732], [114.121067, -28.610107], [114.129518, -28.61717], [114.140865, -28.626275], [114.15657, -28.63916], [114.157969, -28.639542], [114.162412, -28.640478], [114.16807, -28.64204], [114.17004, -28.642448], [114.178412, -28.644705], [114.185178, -28.646658], [114.190495, -28.648667], [114.201572, -28.652578], [114.212137, -28.65649], [114.213737, -28.657005], [114.22483, -28.661113], [114.235445, -28.664925], [114.238391, -28.666134], [114.243892, -28.668312], [114.248305, -28.670079], [114.257988, -28.673898], [114.264668, -28.676285], [114.27328, -28.679528], [114.276152, -28.680713], [114.28081, -28.682322], [114.287502, -28.684878], [114.297827, -28.689013], [114.300798, -28.690036], [114.305542, -28.691818], [114.307288, -28.69251], [114.311662, -28.694119], [114.315294, -28.695096], [114.317454, -28.695651], [114.320655, -28.696348], [114.326504, -28.697703], [114.334044, -28.699382], [114.349078, -28.703062], [114.351636, -28.703791], [114.354613, -28.704582], [114.364462, -28.706918], [114.367922, -28.707817], [114.37354, -28.708923], [114.393782, -28.713468], [114.408963, -28.717048], [114.428577, -28.721957], [114.430747, -28.722434], [114.434337, -28.72336], [114.440573, -28.724702], [114.450962, -28.727375], [114.453592, -28.727981], [114.457642, -28.728982], [114.461377, -28.729845], [114.476122, -28.733565], [114.477623, -28.734025], [114.483892, -28.73566], [114.495915, -28.739165], [114.497893, -28.739637], [114.506728, -28.742027], [114.511267, -28.743148], [114.516608, -28.74465], [114.519597, -28.745385], [114.520195, -28.745598], [114.530777, -28.748432], [114.532231, -28.748642], [114.537348, -28.749102], [114.540415, -28.749197], [114.545523, -28.749675], [114.551357, -28.749923], [114.556212, -28.749918], [114.559455, -28.75008], [114.563751, -28.750099], [114.564433, -28.750012], [114.574268, -28.750285], [114.578601, -28.750209], [114.580753, -28.750236], [114.583123, -28.750008], [114.586803, -28.751098], [114.590277, -28.752943], [114.596201, -28.756043], [114.599242, -28.757121], [114.60148, -28.75814], [114.602783, -28.759311], [114.603059, -28.760112], [114.605487, -28.76281], [114.607866, -28.764287], [114.610015, -28.764871], [114.611164, -28.764917], [114.610904, -28.766492], [114.610756, -28.764934], [114.606456, -28.767916], [114.604592, -28.771389], [114.60419, -28.773351]]}, "times": ["2023-10-14T22:05:58+00:00", "2023-10-14T22:10:59+00:00", "2023-10-14T22:12:23+00:00", "2023-10-14T22:13:32+00:00", "2023-10-14T22:15:24+00:00", "2023-10-14T22:19:41+00:00", "2023-10-14T22:20:42+00:00", "2023-10-14T22:24:11+00:00", "2023-10-14T22:35:05+00:00", "2023-10-14T23:07:11+00:00", "2023-10-14T23:21:33+00:00", "2023-10-14T23:27:05+00:00", "2023-10-14T23:41:55+00:00", "2023-10-14T23:43:23+00:00", "2023-10-14T23:48:20+00:00", "2023-10-14T23:53:02+00:00", "2023-10-14T23:58:22+00:00", "2023-10-15T00:02:42+00:00", "2023-10-15T00:12:51+00:00", "2023-10-15T00:18:07+00:00", "2023-10-15T00:34:33+00:00", "2023-10-15T00:47:54+00:00", "2023-10-15T01:06:04+00:00", "2023-10-15T01:06:48+00:00", "2023-10-15T01:17:21+00:00", "2023-10-15T01:24:22+00:00", "2023-10-15T01:36:43+00:00", "2023-10-15T01:45:16+00:00", "2023-10-15T01:47:08+00:00", "2023-10-15T02:00:11+00:00", "2023-10-15T02:11:24+00:00", "2023-10-15T02:23:39+00:00", "2023-10-15T02:24:19+00:00", "2023-10-15T02:28:20+00:00", "2023-10-15T02:37:25+00:00", "2023-10-15T02:47:02+00:00", "2023-10-15T03:01:37+00:00", "2023-10-15T03:13:55+00:00", "2023-10-15T03:21:32+00:00", "2023-10-15T03:31:34+00:00", "2023-10-15T03:45:40+00:00", "2023-10-15T03:47:00+00:00", "2023-10-15T03:49:04+00:00", "2023-10-15T03:52:08+00:00", "2023-10-15T03:53:12+00:00", "2023-10-15T03:57:41+00:00", "2023-10-15T04:01:22+00:00", "2023-10-15T04:04:34+00:00", "2023-10-15T04:11:23+00:00", "2023-10-15T04:17:48+00:00", "2023-10-15T04:19:20+00:00", "2023-10-15T04:25:33+00:00", "2023-10-15T04:32:10+00:00", "2023-10-15T04:35:50+00:00", "2023-10-15T04:38:58+00:00", "2023-10-15T04:41:19+00:00", "2023-10-15T04:45:56+00:00", "2023-10-15T04:50:08+00:00", "2023-10-15T04:55:29+00:00", "2023-10-15T04:57:13+00:00", "2023-10-15T05:00:09+00:00", "2023-10-15T05:04:14+00:00", "2023-10-15T05:10:23+00:00", "2023-10-15T05:13:03+00:00", "2023-10-15T05:15:04+00:00", "2023-10-15T05:15:48+00:00", "2023-10-15T05:19:53+00:00", "2023-10-15T05:21:45+00:00", "2023-10-15T05:22:29+00:00", "2023-10-15T05:25:06+00:00", "2023-10-15T05:29:14+00:00", "2023-10-15T05:32:27+00:00", "2023-10-15T05:39:11+00:00", "2023-10-15T05:41:20+00:00", "2023-10-15T05:42:24+00:00", "2023-10-15T05:47:21+00:00", "2023-10-15T05:49:13+00:00", "2023-10-15T05:52:10+00:00", "2023-10-15T06:02:35+00:00", "2023-10-15T06:10:29+00:00", "2023-10-15T06:20:43+00:00", "2023-10-15T06:22:23+00:00", "2023-10-15T06:23:44+00:00", "2023-10-15T06:27:00+00:00", "2023-10-15T06:32:22+00:00", "2023-10-15T06:35:02+00:00", "2023-10-15T06:36:10+00:00", "2023-10-15T06:37:43+00:00", "2023-10-15T06:45:12+00:00", "2023-10-15T06:46:24+00:00", "2023-10-15T06:49:13+00:00", "2023-10-15T06:55:34+00:00", "2023-10-15T06:57:02+00:00", "2023-10-15T07:01:11+00:00", "2023-10-15T07:03:31+00:00", "2023-10-15T07:06:16+00:00", "2023-10-15T07:07:40+00:00", "2023-10-15T07:08:08+00:00", "2023-10-15T07:13:37+00:00", "2023-10-15T07:14:45+00:00", "2023-10-15T07:16:58+00:00", "2023-10-15T07:18:30+00:00", "2023-10-15T07:21:06+00:00", "2023-10-15T07:24:07+00:00", "2023-10-15T07:26:43+00:00", "2023-10-15T07:28:27+00:00", "2023-10-15T07:30:43+00:00", "2023-10-15T07:31:56+00:00", "2023-10-15T07:37:09+00:00", "2023-10-15T07:39:13+00:00", "2023-10-15T07:40:25+00:00", "2023-10-15T07:41:58+00:00", "2023-10-15T07:43:06+00:00", "2023-10-15T07:46:31+00:00", "2023-10-15T07:49:51+00:00", "2023-10-15T07:51:11+00:00", "2023-10-15T07:52:51+00:00", "2023-10-15T07:54:15+00:00", "2023-10-15T07:55:39+00:00", "2023-10-15T07:59:24+00:00", "2023-10-15T08:03:00+00:00", "2023-10-15T08:03:52+00:00", "2023-10-15T08:04:44+00:00", "2023-10-15T08:07:21+00:00", "2023-10-26T06:22:27+00:00", "2023-10-26T06:28:28+00:00", "2023-10-26T06:31:24+00:00", "2023-10-26T06:36:49+00:00"], "elevations": [0.0, 0.0, 0.0, 0.0, 0.0, 0.0, 0.0, null, 0.0, 0.0, 0.0, 0.0, 0.0, 0.0, 0.0, 0.0, 0.0, 0.0, 0.0, 0.0, 0.0, 0.0, 0.0, 0.0, 0.0, 0.0, 0.0, 0.0, 0.0, 0.0, 0.0, 0.0, 0.0, null, 0.0, 0.0, 0.0, 0.0, 0.0, 0.0, 0.0, 0.0, 0.0, 0.0, 0.0, 0.0, 0.0, 0.0, 0.0, 0.0, 0.0, 0.0, 0.0, 0.0, 0.0, 0.0, 0.0, 0.0, 0.0, 0.0, 0.0, 0.0, 0.0, 0.0, 0.0, 0.0, 0.0, 0.0, 0.0, 0.0, 0.0, 0.0, 0.0, 0.0, 0.0, 0.0, 0.0, 0.0, 0.0, 0.0, 0.0, 0.0, 0.0, 0.0, 0.0, 0.0, 0.0, 0.0, 0.0, 0.0, 0.0, 0.0, 0.0, 0.0, 0.0, 0.0, 0.0, null, 0.0, 0.0, 0.0, 0.0, 0.0, 0.0, 0.0, 0.0, 0.0, null, 0.0, 0.0, 0.0, 0.0, 0.0, 0.0, 0.0, 0.0, 0.0, 0.0, 0.0, 0.0, 0.0, 0.0, 0.0, 0.0, null, null, null, null]}