{"type": "Feature", "properties": {"leg_id": 73, "name": "20240513 - Sydney to Nelson Bay", "stated_nm": 155.8, "computed_nm": 155.8}, "geometry": {"type": "LineString", "coordinates": [[151.188978, -33.864778], [151.193902, -33.862297], [151.196165, -33.860894], [151.198336, -33.858668], [151.199993, -33.855789], [151.204346, -33.854108], [151.208707, -33.853502], [151.212206, -33.854418], [151.216879, -33.855275], [151.221269, -33.856178], [151.22645, -33.856444], [151.22947, -33.856477], [151.241492, -33.8581], [151.245802, -33.857932], [151.249251, -33.857355], [151.254747, -33.854907], [151.260553, -33.851822], [151.265952, -33.846087], [151.274242, -33.837972], [151.279223, -33.827937], [151.281044, -33.822118], [151.282165, -33.815125], [151.284156, -33.814227], [151.286214, -33.814491], [151.286142, -33.81445], [151.281273, -33.809414], [151.280619, -33.806668], [151.282838, -33.800116], [151.282831, -33.80036], [151.27873, -33.817212], [151.280032, -33.819574], [151.2836, -33.823805], [151.296817, -33.828585], [151.300701, -33.828366], [151.307232, -33.82711], [151.316025, -33.823898], [151.327815, -33.81905], [151.336775, -33.8144], [151.3462, -33.809235], [151.352762, -33.805427], [151.356457, -33.80342], [151.3689, -33.79741], [151.38764, -33.78902], [151.390143, -33.78804], [151.401248, -33.784408], [151.406646, -33.782507], [151.413022, -33.780233], [151.423453, -33.776883], [151.430242, -33.774853], [151.439165, -33.77197], [151.451948, -33.768223], [151.45678, -33.766703], [151.464633, -33.764392], [151.473897, -33.761952], [151.479293, -33.760729], [151.48646, -33.758973], [151.491738, -33.757953], [151.49999, -33.756067], [151.504033, -33.755085], [151.513903, -33.754372], [151.52879, -33.753918], [151.533837, -33.753919], [151.540162, -33.753007], [151.545073, -33.752007], [151.556197, -33.749617], [151.560292, -33.748878], [151.570527, -33.746732], [151.576415, -33.745737], [151.584372, -33.744205], [151.58949, -33.743385], [151.59806, -33.741767], [151.605982, -33.740555], [151.615108, -33.738958], [151.619325, -33.738403], [151.629185, -33.736792], [151.633837, -33.736178], [151.647302, -33.73411], [151.65228, -33.733502], [151.660123, -33.73212], [151.665308, -33.731345], [151.673893, -33.729712], [151.682785, -33.728133], [151.691688, -33.726552], [151.700118, -33.724832], [151.703873, -33.724029], [151.71779, -33.72106], [151.722259, -33.720227], [151.72813, -33.719018], [151.737727, -33.717217], [151.74717, -33.715412], [151.755825, -33.71396], [151.762837, -33.712593], [151.769353, -33.711553], [151.775192, -33.710813], [151.783248, -33.709417], [151.788627, -33.708629], [151.795263, -33.707622], [151.800197, -33.706892], [151.806718, -33.705745], [151.811437, -33.70467], [151.818172, -33.703345], [151.824092, -33.702287], [151.82931, -33.701242], [151.834824, -33.700257], [151.840477, -33.699202], [151.847043, -33.697927], [151.85723, -33.695695], [151.870567, -33.692817], [151.8766, -33.691772], [151.881389, -33.690845], [151.885741, -33.68988], [151.893813, -33.688253], [151.898263, -33.687453], [151.90622, -33.686134], [151.911128, -33.685105], [151.915553, -33.684101], [151.921999, -33.682753], [151.928913, -33.680988], [151.936041, -33.679426], [151.944458, -33.677103], [151.9534, -33.674308], [151.959097, -33.672671], [151.962977, -33.671547], [151.967368, -33.671761], [151.972316, -33.671582], [151.976061, -33.670958], [151.980317, -33.670457], [151.984836, -33.670571], [151.989651, -33.670467], [151.993253, -33.670394], [151.997431, -33.670651], [152.0013, -33.671384], [152.004071, -33.671095], [152.00731, -33.669907], [152.010781, -33.669244], [152.014496, -33.668659], [152.016888, -33.668381], [152.020957, -33.667721], [152.025681, -33.667385], [152.028896, -33.666996], [152.032453, -33.666972], [152.037185, -33.667158], [152.040314, -33.66692], [152.044305, -33.667237], [152.047942, -33.66711], [152.051697, -33.666597], [152.055388, -33.664824], [152.057999, -33.663785], [152.060643, -33.662924], [152.063133, -33.661518], [152.065717, -33.660505], [152.068302, -33.659323], [152.07162, -33.657854], [152.073788, -33.656341], [152.076116, -33.654913], [152.078364, -33.653263], [152.080577, -33.651731], [152.082349, -33.650594], [152.084947, -33.649039], [152.086629, -33.648346], [152.08834, -33.647394], [152.090412, -33.645907], [152.094066, -33.644197], [152.097521, -33.643024], [152.099509, -33.642116], [152.101869, -33.640708], [152.103742, -33.639717], [152.106127, -33.638338], [152.107994, -33.637528], [152.110617, -33.636576], [152.114126, -33.635245], [152.116116, -33.63421], [152.119563, -33.632336], [152.121765, -33.631361], [152.123678, -33.630353], [152.126197, -33.628692], [152.128581, -33.627179], [152.130904, -33.625504], [152.133427, -33.623868], [152.135843, -33.622902], [152.138559, -33.62229], [152.141134, -33.621178], [152.143434, -33.619869], [152.145361, -33.618656], [152.14757, -33.617315], [152.149836, -33.61604], [152.153007, -33.613883], [152.154965, -33.612083], [152.157777, -33.610329], [152.160532, -33.609378], [152.162401, -33.608381], [152.164719, -33.606937], [152.167205, -33.605531], [152.169158, -33.604205], [152.171178, -33.602501], [152.17283, -33.60103], [152.176019, -33.599481], [152.178453, -33.597789], [152.180533, -33.596574], [152.183757, -33.594099], [152.185876, -33.592325], [152.188714, -33.589966], [152.191219, -33.588055], [152.193138, -33.586476], [152.196408, -33.584136], [152.199729, -33.582205], [152.203359, -33.580182], [152.206026, -33.578807], [152.209264, -33.576761], [152.21299, -33.574431], [152.215591, -33.572646], [152.217957, -33.571182], [152.220885, -33.569313], [152.222635, -33.567636], [152.225172, -33.565785], [152.227837, -33.565258], [152.232096, -33.563734], [152.235763, -33.562573], [152.240527, -33.561594], [152.242788, -33.560924], [152.24805, -33.558073], [152.250891, -33.55669], [152.255011, -33.555242], [152.258791, -33.554159], [152.263611, -33.552864], [152.265771, -33.551705], [152.268844, -33.550057], [152.271412, -33.548991], [152.273465, -33.547179], [152.275663, -33.545367], [152.278463, -33.542461], [152.28069, -33.540711], [152.282449, -33.538907], [152.283783, -33.537098], [152.288152, -33.536483], [152.291423, -33.535479], [152.295143, -33.534449], [152.299141, -33.533731], [152.302099, -33.533165], [152.305045, -33.532991], [152.309126, -33.531852], [152.314616, -33.530928], [152.318158, -33.530391], [152.322644, -33.529692], [152.326619, -33.529502], [152.330566, -33.529491], [152.333507, -33.529414], [152.338665, -33.529355], [152.342344, -33.529396], [152.346754, -33.529299], [152.35127, -33.529631], [152.355212, -33.529776], [152.360534, -33.529503], [152.363235, -33.528922], [152.366901, -33.528882], [152.370075, -33.528637], [152.373999, -33.527544], [152.376827, -33.526369], [152.381174, -33.526188], [152.385824, -33.524926], [152.389513, -33.523234], [152.393269, -33.522074], [152.396234, -33.521162], [152.400277, -33.520117], [152.404328, -33.519613], [152.407489, -33.519087], [152.411544, -33.51782], [152.415012, -33.517302], [152.418721, -33.517607], [152.421613, -33.517355], [152.424877, -33.516734], [152.428489, -33.516679], [152.431498, -33.5167], [152.436477, -33.515467], [152.439389, -33.514598], [152.442459, -33.514317], [152.445399, -33.513891], [152.448657, -33.513556], [152.452044, -33.513392], [152.4545, -33.513086], [152.457478, -33.510844], [152.464309, -33.507958], [152.467998, -33.507063], [152.472509, -33.506119], [152.475645, -33.505464], [152.483661, -33.504272], [152.491532, -33.503368], [152.498437, -33.502575], [152.501871, -33.502159], [152.506087, -33.501736], [152.510079, -33.501281], [152.514583, -33.500766], [152.518021, -33.500379], [152.522131, -33.499934], [152.527507, -33.499269], [152.53204, -33.498785], [152.540216, -33.498252], [152.551513, -33.496848], [152.554286, -33.49674], [152.558124, -33.49632], [152.561991, -33.495779], [152.570536, -33.495], [152.577334, -33.494196], [152.582605, -33.493622], [152.58964, -33.492944], [152.592864, -33.492463], [152.595788, -33.49211], [152.602377, -33.491288], [152.605484, -33.490924], [152.612392, -33.490284], [152.61926, -33.489821], [152.623481, -33.489544], [152.627511, -33.489278], [152.634818, -33.488727], [152.638646, -33.488339], [152.642294, -33.487863], [152.647329, -33.487611], [152.65229, -33.487012], [152.658454, -33.48785], [152.667698, -33.489971], [152.672489, -33.49121], [152.675496, -33.491961], [152.680042, -33.491597], [152.683593, -33.491394], [152.68779, -33.491282], [152.694479, -33.490863], [152.698495, -33.490574], [152.702598, -33.490274], [152.705617, -33.490019], [152.711275, -33.489665], [152.713893, -33.489333], [152.724415, -33.488222], [152.726967, -33.487768], [152.733539, -33.487218], [152.740001, -33.486837], [152.744986, -33.486459], [152.748563, -33.486253], [152.751187, -33.486058], [152.757502, -33.485412], [152.764397, -33.484438], [152.769103, -33.484096], [152.77316, -33.483738], [152.776223, -33.483475], [152.779046, -33.483324], [152.78447, -33.482814], [152.788389, -33.482463], [152.793713, -33.482051], [152.797706, -33.481709], [152.801499, -33.481357], [152.804838, -33.480983], [152.807402, -33.480768], [152.811472, -33.480346], [152.813955, -33.47998], [152.816331, -33.479703], [152.819039, -33.479329], [152.82113, -33.479032], [152.823535, -33.478721], [152.825534, -33.478436], [152.828668, -33.477953], [152.836123, -33.476809], [152.842586, -33.475788], [152.8471, -33.474961], [152.852344, -33.473975], [152.855899, -33.473366], [152.862602, -33.471866], [152.869342, -33.470515], [152.873455, -33.46964], [152.878149, -33.468658], [152.882341, -33.467957], [152.885089, -33.466998], [152.882053, -33.466158], [152.86782, -33.462913], [152.863626, -33.462222], [152.852522, -33.460018], [152.84588, -33.458856], [152.842069, -33.457425], [152.836876, -33.453502], [152.833002, -33.450598], [152.831318, -33.449394], [152.826468, -33.445865], [152.82237, -33.442913], [152.816745, -33.439165], [152.811234, -33.435507], [152.806525, -33.432391], [152.801457, -33.429175], [152.793812, -33.424248], [152.788891, -33.421242], [152.783, -33.417408], [152.774952, -33.411402], [152.769895, -33.407747], [152.764613, -33.403631], [152.75918, -33.399202], [152.7525, -33.39329], [152.746075, -33.387318], [152.74201, -33.383987], [152.734455, -33.377377], [152.72726, -33.37129], [152.724197, -33.368572], [152.71403, -33.36033], [152.711647, -33.358477], [152.709457, -33.356807], [152.703438, -33.351765], [152.698712, -33.347314], [152.695375, -33.344157], [152.691232, -33.340377], [152.685747, -33.335262], [152.682591, -33.332296], [152.678787, -33.327554], [152.674466, -33.321687], [152.671804, -33.318051], [152.66718, -33.311771], [152.662948, -33.306188], [152.65912, -33.30082], [152.655376, -33.295774], [152.652833, -33.292121], [152.64571, -33.28201], [152.636942, -33.268562], [152.634973, -33.265846], [152.629988, -33.258207], [152.627446, -33.254368], [152.621515, -33.245383], [152.618862, -33.241179], [152.61651, -33.237393], [152.612837, -33.231773], [152.603638, -33.216963], [152.603054, -33.214979], [152.601133, -33.21022], [152.598858, -33.203984], [152.596397, -33.197354], [152.595233, -33.1941], [152.59283, -33.187797], [152.591309, -33.184039], [152.589416, -33.179141], [152.58716, -33.173062], [152.583538, -33.163865], [152.581912, -33.159982], [152.579767, -33.154509], [152.578096, -33.15015], [152.577166, -33.147705], [152.575288, -33.142954], [152.572294, -33.134998], [152.570363, -33.1301], [152.567687, -33.12254], [152.566417, -33.118669], [152.565405, -33.115555], [152.563357, -33.109962], [152.561837, -33.1053], [152.557903, -33.094538], [152.556518, -33.090311], [152.55234, -33.083232], [152.54966, -33.078745], [152.546378, -33.072687], [152.541502, -33.061555], [152.540332, -33.058187], [152.537033, -33.04989], [152.534515, -33.04398], [152.528023, -33.030157], [152.522763, -33.020525], [152.51909, -33.014127], [152.516101, -33.008642], [152.512058, -33.001222], [152.508125, -32.994517], [152.504231, -32.987196], [152.499612, -32.981915], [152.479137, -32.957738], [152.475982, -32.955205], [152.467197, -32.94844], [152.464325, -32.946098], [152.459452, -32.941827], [152.450977, -32.934687], [152.448933, -32.93304], [152.444067, -32.929002], [152.442509, -32.927716], [152.435307, -32.921782], [152.423247, -32.91214], [152.419513, -32.90761], [152.41543, -32.902305], [152.408793, -32.894042], [152.40323, -32.887672], [152.395127, -32.87809], [152.367603, -32.844012], [152.360418, -32.835378], [152.359892, -32.83477], [152.356453, -32.830575], [152.355376, -32.829273], [152.352858, -32.826245], [152.344072, -32.81569], [152.341262, -32.81348], [152.337307, -32.810333], [152.324017, -32.800007], [152.317578, -32.792527], [152.308987, -32.786152], [152.304007, -32.782735], [152.298628, -32.778765], [152.286253, -32.76918], [152.274593, -32.76048], [152.262008, -32.751355], [152.250628, -32.743383], [152.24525, -32.738387], [152.236167, -32.729593], [152.228122, -32.722092], [152.22264, -32.717453], [152.214215, -32.713168], [152.206847, -32.709798], [152.198802, -32.706758], [152.196047, -32.705843], [152.186737, -32.702245], [152.183902, -32.702395], [152.169905, -32.702835], [152.16819, -32.703628], [152.159987, -32.707828], [152.153961, -32.71103], [152.150589, -32.713147], [152.148715, -32.715489], [152.149023, -32.715915]]}, "times": ["2024-05-13T05:37:17+00:00", "2024-05-13T05:40:58+00:00", "2024-05-13T05:42:06+00:00", "2024-05-13T05:43:50+00:00", "2024-05-13T05:46:26+00:00", "2024-05-13T05:49:31+00:00", "2024-05-13T05:51:55+00:00", "2024-05-13T05:55:27+00:00", "2024-05-13T05:57:44+00:00", "2024-05-13T06:00:28+00:00", "2024-05-13T06:03:08+00:00", "2024-05-13T06:03:56+00:00", "2024-05-13T06:10:13+00:00", "2024-05-13T06:12:37+00:00", "2024-05-13T06:14:54+00:00", "2024-05-13T06:17:26+00:00", "2024-05-13T06:21:14+00:00", "2024-05-13T06:25:47+00:00", "2024-05-13T06:32:44+00:00", "2024-05-13T06:39:37+00:00", "2024-05-13T06:45:25+00:00", "2024-05-13T06:48:58+00:00", "2024-05-13T06:50:38+00:00", "2024-05-13T06:54:31+00:00", "2024-05-13T11:23:00+00:00", "2024-05-13T21:41:33+00:00", "2024-05-13T21:43:05+00:00", "2024-05-13T21:49:10+00:00", "2024-05-13T22:46:26+00:00", "2024-05-14T02:47:02+00:00", "2024-05-14T02:48:50+00:00", "2024-05-14T02:53:03+00:00", "2024-05-14T03:01:41+00:00", "2024-05-14T03:05:38+00:00", "2024-05-14T03:07:30+00:00", "2024-05-14T03:13:59+00:00", "2024-05-14T03:23:05+00:00", "2024-05-14T03:30:35+00:00", "2024-05-14T03:38:20+00:00", "2024-05-14T03:43:49+00:00", "2024-05-14T03:46:54+00:00", "2024-05-14T03:57:32+00:00", "2024-05-14T04:15:15+00:00", "2024-05-14T04:17:36+00:00", "2024-05-14T04:28:01+00:00", "2024-05-14T04:34:26+00:00", "2024-05-14T04:39:35+00:00", "2024-05-14T04:49:48+00:00", "2024-05-14T04:56:27+00:00", "2024-05-14T05:06:35+00:00", "2024-05-14T05:20:40+00:00", "2024-05-14T05:28:46+00:00", "2024-05-14T05:35:43+00:00", "2024-05-14T05:44:20+00:00", "2024-05-14T05:49:43+00:00", "2024-05-14T05:55:29+00:00", "2024-05-14T06:00:32+00:00", "2024-05-14T06:06:48+00:00", "2024-05-14T06:09:58+00:00", "2024-05-14T06:17:38+00:00", "2024-05-14T06:29:18+00:00", "2024-05-14T06:35:08+00:00", "2024-05-14T06:39:44+00:00", "2024-05-14T06:41:57+00:00", "2024-05-14T06:50:38+00:00", "2024-05-14T06:53:42+00:00", "2024-05-14T07:01:23+00:00", "2024-05-14T07:05:48+00:00", "2024-05-14T07:11:49+00:00", "2024-05-14T07:15:37+00:00", "2024-05-14T07:21:30+00:00", "2024-05-14T07:26:46+00:00", "2024-05-14T07:33:11+00:00", "2024-05-14T07:36:12+00:00", "2024-05-14T07:43:17+00:00", "2024-05-14T07:46:29+00:00", "2024-05-14T07:55:50+00:00", "2024-05-14T07:59:10+00:00", "2024-05-14T08:04:43+00:00", "2024-05-14T08:09:09+00:00", "2024-05-14T08:16:10+00:00", "2024-05-14T08:24:35+00:00", "2024-05-14T08:30:35+00:00", "2024-05-14T08:36:50+00:00", "2024-05-14T08:40:52+00:00", "2024-05-14T08:49:26+00:00", "2024-05-14T08:53:51+00:00", "2024-05-14T08:58:11+00:00", "2024-05-14T09:02:27+00:00", "2024-05-14T09:08:37+00:00", "2024-05-14T09:14:17+00:00", "2024-05-14T09:18:41+00:00", "2024-05-14T09:22:50+00:00", "2024-05-14T09:26:26+00:00", "2024-05-14T09:31:55+00:00", "2024-05-14T09:36:43+00:00", "2024-05-14T09:39:19+00:00", "2024-05-14T09:43:28+00:00", "2024-05-14T09:46:05+00:00", "2024-05-14T09:49:17+00:00", "2024-05-14T09:54:02+00:00", "2024-05-14T09:59:15+00:00", "2024-05-14T10:03:05+00:00", "2024-05-14T10:06:49+00:00", "2024-05-14T10:11:46+00:00", "2024-05-14T10:17:07+00:00", "2024-05-14T10:22:28+00:00", "2024-05-14T10:32:30+00:00", "2024-05-14T10:38:13+00:00", "2024-05-14T10:40:38+00:00", "2024-05-14T10:44:26+00:00", "2024-05-14T10:49:30+00:00", "2024-05-14T10:52:11+00:00", "2024-05-14T10:58:31+00:00", "2024-05-14T11:01:36+00:00", "2024-05-14T11:05:16+00:00", "2024-05-14T11:11:13+00:00", "2024-05-14T11:13:57+00:00", "2024-05-14T11:20:23+00:00", "2024-05-14T11:25:47+00:00", "2024-05-14T11:32:02+00:00", "2024-05-14T11:37:43+00:00", "2024-05-14T11:39:31+00:00", "2024-05-14T11:42:20+00:00", "2024-05-14T11:47:24+00:00", "2024-05-14T11:49:57+00:00", "2024-05-14T11:52:37+00:00", "2024-05-14T11:55:33+00:00", "2024-05-14T11:59:49+00:00", "2024-05-14T12:02:31+00:00", "2024-05-14T12:05:23+00:00", "2024-05-14T12:08:09+00:00", "2024-05-14T12:09:25+00:00", "2024-05-14T12:11:18+00:00", "2024-05-14T12:12:57+00:00", "2024-05-14T12:15:49+00:00", "2024-05-14T12:16:53+00:00", "2024-05-14T12:19:29+00:00", "2024-05-14T12:22:49+00:00", "2024-05-14T12:24:09+00:00", "2024-05-14T12:26:05+00:00", "2024-05-14T12:29:46+00:00", "2024-05-14T12:31:06+00:00", "2024-05-14T12:33:59+00:00", "2024-05-14T12:36:11+00:00", "2024-05-14T12:39:04+00:00", "2024-05-14T12:41:48+00:00", "2024-05-14T12:43:49+00:00", "2024-05-14T12:45:25+00:00", "2024-05-14T12:47:29+00:00", "2024-05-14T12:49:41+00:00", "2024-05-14T12:51:53+00:00", "2024-05-14T12:54:09+00:00", "2024-05-14T12:56:01+00:00", "2024-05-14T12:57:57+00:00", "2024-05-14T13:00:10+00:00", "2024-05-14T13:02:22+00:00", "2024-05-14T13:03:58+00:00", "2024-05-14T13:05:51+00:00", "2024-05-14T13:07:22+00:00", "2024-05-14T13:08:58+00:00", "2024-05-14T13:11:07+00:00", "2024-05-14T13:13:31+00:00", "2024-05-14T13:16:32+00:00", "2024-05-14T13:18:16+00:00", "2024-05-14T13:20:05+00:00", "2024-05-14T13:21:57+00:00", "2024-05-14T13:24:02+00:00", "2024-05-14T13:25:19+00:00", "2024-05-14T13:27:23+00:00", "2024-05-14T13:29:55+00:00", "2024-05-14T13:31:36+00:00", "2024-05-14T13:34:52+00:00", "2024-05-14T13:36:25+00:00", "2024-05-14T13:37:53+00:00", "2024-05-14T13:40:21+00:00", "2024-05-14T13:42:17+00:00", "2024-05-14T13:44:18+00:00", "2024-05-14T13:46:58+00:00", "2024-05-14T13:48:46+00:00", "2024-05-14T13:50:55+00:00", "2024-05-14T13:52:55+00:00", "2024-05-14T13:55:24+00:00", "2024-05-14T13:56:44+00:00", "2024-05-14T13:58:52+00:00", "2024-05-14T14:00:37+00:00", "2024-05-14T14:03:41+00:00", "2024-05-14T14:05:41+00:00", "2024-05-14T14:08:01+00:00", "2024-05-14T14:10:43+00:00", "2024-05-14T14:12:03+00:00", "2024-05-14T14:13:48+00:00", "2024-05-14T14:16:40+00:00", "2024-05-14T14:18:40+00:00", "2024-05-14T14:20:41+00:00", "2024-05-14T14:22:25+00:00", "2024-05-14T14:24:58+00:00", "2024-05-14T14:27:54+00:00", "2024-05-14T14:29:19+00:00", "2024-05-14T14:33:11+00:00", "2024-05-14T14:35:55+00:00", "2024-05-14T14:39:16+00:00", "2024-05-14T14:41:44+00:00", "2024-05-14T14:43:48+00:00", "2024-05-14T14:46:37+00:00", "2024-05-14T14:50:10+00:00", "2024-05-14T14:53:46+00:00", "2024-05-14T14:55:30+00:00", "2024-05-14T14:59:23+00:00", "2024-05-14T15:02:20+00:00", "2024-05-14T15:05:16+00:00", "2024-05-14T15:06:36+00:00", "2024-05-14T15:09:37+00:00", "2024-05-14T15:12:01+00:00", "2024-05-14T15:14:26+00:00", "2024-05-14T15:16:54+00:00", "2024-05-14T15:20:27+00:00", "2024-05-14T15:25:32+00:00", "2024-05-14T15:28:53+00:00", "2024-05-14T15:30:53+00:00", "2024-05-14T15:37:10+00:00", "2024-05-14T15:38:30+00:00", "2024-05-14T15:42:31+00:00", "2024-05-14T15:45:48+00:00", "2024-05-14T15:49:53+00:00", "2024-05-14T15:52:05+00:00", "2024-05-14T15:54:49+00:00", "2024-05-14T15:57:34+00:00", "2024-05-14T16:00:11+00:00", "2024-05-14T16:02:27+00:00", "2024-05-14T16:04:55+00:00", "2024-05-14T16:07:39+00:00", "2024-05-14T16:09:36+00:00", "2024-05-14T16:11:36+00:00", "2024-05-14T16:15:52+00:00", "2024-05-14T16:19:41+00:00", "2024-05-14T16:22:49+00:00", "2024-05-14T16:26:58+00:00", "2024-05-14T16:28:02+00:00", "2024-05-14T16:30:42+00:00", "2024-05-14T16:34:02+00:00", "2024-05-14T16:39:35+00:00", "2024-05-14T16:41:59+00:00", "2024-05-14T16:45:20+00:00", "2024-05-14T16:49:44+00:00", "2024-05-14T16:51:37+00:00", "2024-05-14T16:55:01+00:00", "2024-05-14T16:59:54+00:00", "2024-05-14T17:02:14+00:00", "2024-05-14T17:06:39+00:00", "2024-05-14T17:11:36+00:00", "2024-05-14T17:12:40+00:00", "2024-05-14T17:18:25+00:00", "2024-05-14T17:20:45+00:00", "2024-05-14T17:23:37+00:00", "2024-05-14T17:27:38+00:00", "2024-05-14T17:29:42+00:00", "2024-05-14T17:33:11+00:00", "2024-05-14T17:37:20+00:00", "2024-05-14T17:41:41+00:00", "2024-05-14T17:45:17+00:00", "2024-05-14T17:50:02+00:00", "2024-05-14T17:53:03+00:00", "2024-05-14T17:57:03+00:00", "2024-05-14T18:01:20+00:00", "2024-05-14T18:03:40+00:00", "2024-05-14T18:07:01+00:00", "2024-05-14T18:10:29+00:00", "2024-05-14T18:14:06+00:00", "2024-05-14T18:16:42+00:00", "2024-05-14T18:19:34+00:00", "2024-05-14T18:22:35+00:00", "2024-05-14T18:25:55+00:00", "2024-05-14T18:30:44+00:00", "2024-05-14T18:34:20+00:00", "2024-05-14T18:37:00+00:00", "2024-05-14T18:39:53+00:00", "2024-05-14T18:43:25+00:00", "2024-05-14T18:48:02+00:00", "2024-05-14T18:52:15+00:00", "2024-05-14T18:55:43+00:00", "2024-05-14T19:01:05+00:00", "2024-05-14T19:03:21+00:00", "2024-05-14T19:06:49+00:00", "2024-05-14T19:09:01+00:00", "2024-05-14T19:14:50+00:00", "2024-05-14T19:21:12+00:00", "2024-05-14T19:24:40+00:00", "2024-05-14T19:26:40+00:00", "2024-05-14T19:30:25+00:00", "2024-05-14T19:33:45+00:00", "2024-05-14T19:35:49+00:00", "2024-05-14T19:38:06+00:00", "2024-05-14T19:41:18+00:00", "2024-05-14T19:45:35+00:00", "2024-05-14T19:47:59+00:00", "2024-05-14T19:55:52+00:00", "2024-05-14T20:02:36+00:00", "2024-05-14T20:05:01+00:00", "2024-05-14T20:08:02+00:00", "2024-05-14T20:10:18+00:00", "2024-05-14T20:17:07+00:00", "2024-05-14T20:20:03+00:00", "2024-05-14T20:24:08+00:00", "2024-05-14T20:29:57+00:00", "2024-05-14T20:31:05+00:00", "2024-05-14T20:33:10+00:00", "2024-05-14T20:38:22+00:00", "2024-05-14T20:39:10+00:00", "2024-05-14T20:47:51+00:00", "2024-05-14T20:53:12+00:00", "2024-05-14T20:56:40+00:00", "2024-05-14T21:00:21+00:00", "2024-05-14T21:07:05+00:00", "2024-05-14T21:10:14+00:00", "2024-05-14T21:14:10+00:00", "2024-05-14T21:18:39+00:00", "2024-05-14T21:22:19+00:00", "2024-05-14T21:28:36+00:00", "2024-05-14T21:33:41+00:00", "2024-05-14T21:37:49+00:00", "2024-05-14T21:40:34+00:00", "2024-05-14T21:45:26+00:00", "2024-05-14T21:48:43+00:00", "2024-05-14T21:51:40+00:00", "2024-05-14T21:58:40+00:00", "2024-05-14T22:01:37+00:00", "2024-05-14T22:04:53+00:00", "2024-05-14T22:07:25+00:00", "2024-05-14T22:12:30+00:00", "2024-05-14T22:16:15+00:00", "2024-05-14T22:24:12+00:00", "2024-05-14T22:28:13+00:00", "2024-05-14T22:33:10+00:00", "2024-05-14T22:39:38+00:00", "2024-05-14T22:43:47+00:00", "2024-05-14T22:48:44+00:00", "2024-05-14T22:50:12+00:00", "2024-05-14T22:55:37+00:00", "2024-05-14T23:03:26+00:00", "2024-05-14T23:07:11+00:00", "2024-05-14T23:09:52+00:00", "2024-05-14T23:13:01+00:00", "2024-05-14T23:15:17+00:00", "2024-05-14T23:20:33+00:00", "2024-05-14T23:23:58+00:00", "2024-05-14T23:28:51+00:00", "2024-05-14T23:32:08+00:00", "2024-05-14T23:35:08+00:00", "2024-05-14T23:38:17+00:00", "2024-05-14T23:40:21+00:00", "2024-05-14T23:42:57+00:00", "2024-05-14T23:45:42+00:00", "2024-05-14T23:47:59+00:00", "2024-05-14T23:50:19+00:00", "2024-05-14T23:51:31+00:00", "2024-05-14T23:54:00+00:00", "2024-05-14T23:55:36+00:00", "2024-05-14T23:58:52+00:00", "2024-05-15T00:05:46+00:00", "2024-05-15T00:10:02+00:00", "2024-05-15T00:14:03+00:00", "2024-05-15T00:16:43+00:00", "2024-05-15T00:19:20+00:00", "2024-05-15T00:26:25+00:00", "2024-05-15T00:30:55+00:00", "2024-05-15T00:33:24+00:00", "2024-05-15T00:37:24+00:00", "2024-05-15T00:39:16+00:00", "2024-05-15T00:41:40+00:00", "2024-05-15T00:43:33+00:00", "2024-05-15T00:51:55+00:00", "2024-05-15T00:55:49+00:00", "2024-05-15T01:00:42+00:00", "2024-05-15T01:05:37+00:00", "2024-05-15T01:07:29+00:00", "2024-05-15T01:12:32+00:00", "2024-05-15T01:13:57+00:00", "2024-05-15T01:15:06+00:00", "2024-05-15T01:19:04+00:00", "2024-05-15T01:21:46+00:00", "2024-05-15T01:26:36+00:00", "2024-05-15T01:30:57+00:00", "2024-05-15T01:36:13+00:00", "2024-05-15T01:40:11+00:00", "2024-05-15T01:44:36+00:00", "2024-05-15T01:50:21+00:00", "2024-05-15T01:53:09+00:00", "2024-05-15T01:59:47+00:00", "2024-05-15T02:04:07+00:00", "2024-05-15T02:09:52+00:00", "2024-05-15T02:13:50+00:00", "2024-05-15T02:20:15+00:00", "2024-05-15T02:26:20+00:00", "2024-05-15T02:29:56+00:00", "2024-05-15T02:36:49+00:00", "2024-05-15T02:43:14+00:00", "2024-05-15T02:47:54+00:00", "2024-05-15T02:54:35+00:00", "2024-05-15T02:57:23+00:00", "2024-05-15T02:58:20+00:00", "2024-05-15T03:03:32+00:00", "2024-05-15T03:08:45+00:00", "2024-05-15T03:12:05+00:00", "2024-05-15T03:15:54+00:00", "2024-05-15T03:20:58+00:00", "2024-05-15T03:23:50+00:00", "2024-05-15T03:29:43+00:00", "2024-05-15T03:33:27+00:00", "2024-05-15T03:36:44+00:00", "2024-05-15T03:41:57+00:00", "2024-05-15T03:45:45+00:00", "2024-05-15T03:50:10+00:00", "2024-05-15T03:54:43+00:00", "2024-05-15T03:57:55+00:00", "2024-05-15T04:05:31+00:00", "2024-05-15T04:16:04+00:00", "2024-05-15T04:19:57+00:00", "2024-05-15T04:24:14+00:00", "2024-05-15T04:29:23+00:00", "2024-05-15T04:34:15+00:00", "2024-05-15T04:39:00+00:00", "2024-05-15T04:40:20+00:00", "2024-05-15T04:44:46+00:00", "2024-05-15T04:56:07+00:00", "2024-05-15T04:58:40+00:00", "2024-05-15T05:01:09+00:00", "2024-05-15T05:06:25+00:00", "2024-05-15T05:11:42+00:00", "2024-05-15T05:12:46+00:00", "2024-05-15T05:17:22+00:00", "2024-05-15T05:20:07+00:00", "2024-05-15T05:24:43+00:00", "2024-05-15T05:27:51+00:00", "2024-05-15T05:34:25+00:00", "2024-05-15T05:38:26+00:00", "2024-05-15T05:42:30+00:00", "2024-05-15T05:45:03+00:00", "2024-05-15T05:46:48+00:00", "2024-05-15T05:49:56+00:00", "2024-05-15T05:55:29+00:00", "2024-05-15T05:58:50+00:00", "2024-05-15T06:04:15+00:00", "2024-05-15T06:08:15+00:00", "2024-05-15T06:09:15+00:00", "2024-05-15T06:13:28+00:00", "2024-05-15T06:16:52+00:00", "2024-05-15T06:24:58+00:00", "2024-05-15T06:29:06+00:00", "2024-05-15T06:33:47+00:00", "2024-05-15T06:37:27+00:00", "2024-05-15T06:43:36+00:00", "2024-05-15T06:51:01+00:00", "2024-05-15T06:53:33+00:00", "2024-05-15T07:00:02+00:00", "2024-05-15T07:04:42+00:00", "2024-05-15T07:15:38+00:00", "2024-05-15T07:23:24+00:00", "2024-05-15T07:28:37+00:00", "2024-05-15T07:34:22+00:00", "2024-05-15T07:38:49+00:00", "2024-05-15T07:44:17+00:00", "2024-05-15T07:50:19+00:00", "2024-05-15T07:54:52+00:00", "2024-05-15T08:15:53+00:00", "2024-05-15T08:18:29+00:00", "2024-05-15T08:25:50+00:00", "2024-05-15T08:28:14+00:00", "2024-05-15T08:32:31+00:00", "2024-05-15T08:39:52+00:00", "2024-05-15T08:41:20+00:00", "2024-05-15T08:45:48+00:00", "2024-05-15T08:47:16+00:00", "2024-05-15T08:53:09+00:00", "2024-05-15T09:03:30+00:00", "2024-05-15T09:07:43+00:00", "2024-05-15T09:12:27+00:00", "2024-05-15T09:20:08+00:00", "2024-05-15T09:26:09+00:00", "2024-05-15T09:34:58+00:00", "2024-05-15T10:05:26+00:00", "2024-05-15T10:13:15+00:00", "2024-05-15T10:13:43+00:00", "2024-05-15T10:17:51+00:00", "2024-05-15T10:19:15+00:00", "2024-05-15T10:21:59+00:00", "2024-05-15T10:31:58+00:00", "2024-05-15T10:35:47+00:00", "2024-05-15T10:37:59+00:00", "2024-05-15T10:49:53+00:00", "2024-05-15T10:57:03+00:00", "2024-05-15T11:04:37+00:00", "2024-05-15T11:08:53+00:00", "2024-05-15T11:13:46+00:00", "2024-05-15T11:25:15+00:00", "2024-05-15T11:35:48+00:00", "2024-05-15T11:47:04+00:00", "2024-05-15T11:57:19+00:00", "2024-05-15T12:02:39+00:00", "2024-05-15T12:11:45+00:00", "2024-05-15T12:20:02+00:00", "2024-05-15T12:26:03+00:00", "2024-05-15T12:32:36+00:00", "2024-05-15T12:37:57+00:00", "2024-05-15T12:43:17+00:00", "2024-05-15T12:44:57+00:00", "2024-05-15T12:50:18+00:00", "2024-05-15T12:51:26+00:00", "2024-05-15T12:59:19+00:00", "2024-05-15T13:01:11+00:00", "2024-05-15T13:05:32+00:00", "2024-05-15T13:09:49+00:00", "2024-05-15T13:11:21+00:00", "2024-05-15T13:14:17+00:00", "2024-05-15T17:46:10+00:00"], "elevations": [null, null, null, null, null, null, null, null, null, null, null, null, null, null, null, null, null, null, null, null, null, null, null, null, null, null, null, null, null, null, null, null, null, null, null, null, null, null, null, null, null, null, null, null, null, null, null, null, null, null, null, null, null, null, null, null, null, null, null, null, null, null, null, null, null, null, null, null, null, null, null, null, null, null, null, null, null, null, null, null, null, null, null, null, null, null, null, null, null, null, null, null, null, null, null, null, null, null, null, null, null, null, null, null, null, null, null, null, null, null, null, null, null, null, null, null, null, null, null, null, null, null, null, null, null, null, null, null, null, null, null, null, null, null, null, null, null, null, null, null, null, null, null, null, null, null, null, null, null, null, null, null, null, null, null, null, null, null, null, null, null, null, null, null, null, null, null, null, null, null, null, null, null, null, null, null, null, null, null, null, null, null, null, null, null, null, null, null, null, null, null, null, null, null, null, null, null, null, null, null, null, null, null, null, null, null, null, null, null, null, null, null, null, null, null, null, null, null, null, null, null, null, null, null, null, null, null, null, null, null, null, null, null, null, null, null, null, null, null, null, null, null, null, null, null, null, null, null, null, null, null, null, null, null, null, null, null, null, null, null, null, null, null, null, null, null, null, null, null, null, null, null, null, null, null, null, null, null, null, null, null, null, null, null, null, null, null, null, null, null, null, null, null, null, null, null, null, null, null, null, null, null, null, null, null, null, null, null, null, null, null, null, null, null, null, null, null, null, null, null, null, null, null, null, null, null, null, null, null, null, null, null, null, null, null, null, null, null, null, null, null, null, null, null, null, null, null, null, null, null, null, null, null, null, null, null, null, null, null, null, null, null, null, null, null, null, null, null, null, null, null, null, null, null, null, null, null, null, null, null, null, null, null, null, null, null, null, null, null, null, null, null, null, null, null, null, null, null, null, null, null, null, null, null, null, null, null, null, null, null, null, null, null, null, null, null, null, null, null, null, null, null, null, null, null, null, null, null, null, null, null, null, null, null, null, null, null, null, null, null, null, null, null, null, null, null, null, null, null, null, null, null, null, null, null, null, null, null, null, null, null, null, null, null, null, null, null, null, null, null, null, null, null, null, null, null, null, null, null, null, null, null, null, null, null, null, null, null, null, null, null, null, null, null, null, null, null, null, null, null, null, null, null, null, null, null, null, null, null, null, null, null, null, null, null]}