{"type": "Feature", "properties": {"leg_id": 8, "name": "20200104 - La Paz to San Blas", "stated_nm": 402.4, "computed_nm": 402.4}, "geometry": {"type": "LineString", "coordinates": [[-110.318656, 24.167003], [-110.317521, 24.167961], [-110.31061, 24.176498], [-110.309834, 24.177619], [-110.305373, 24.186691], [-110.305175, 24.187784], [-110.303056, 24.198728], [-110.302914, 24.19945], [-110.303013, 24.209436], [-110.303059, 24.20993], [-110.311103, 24.216356], [-110.311374, 24.216445], [-110.3196, 24.223265], [-110.326042, 24.231579], [-110.326208, 24.231795], [-110.332472, 24.239782], [-110.33269, 24.240175], [-110.336993, 24.247915], [-110.338981, 24.252118], [-110.341616, 24.263282], [-110.340988, 24.271344], [-110.341405, 24.279437], [-110.344307, 24.287989], [-110.344383, 24.289998], [-110.338744, 24.297065], [-110.333895, 24.298573], [-110.331968, 24.298882], [-110.341462, 24.300383], [-110.34389, 24.30282], [-110.346859, 24.310404], [-110.346571, 24.31343], [-110.344094, 24.320482], [-110.342366, 24.323173], [-110.338441, 24.329175], [-110.336123, 24.33271], [-110.331519, 24.339283], [-110.328591, 24.342601], [-110.321605, 24.346901], [-110.31739, 24.34919], [-110.310049, 24.353049], [-110.305008, 24.355766], [-110.29792, 24.359516], [-110.293013, 24.362], [-110.286437, 24.365252], [-110.281083, 24.367836], [-110.276758, 24.372107], [-110.269903, 24.373748], [-110.260951, 24.37389], [-110.253125, 24.37288], [-110.246048, 24.370547], [-110.239863, 24.367408], [-110.234302, 24.363291], [-110.228448, 24.359156], [-110.222383, 24.358495], [-110.215251, 24.359403], [-110.20986, 24.360138], [-110.202376, 24.361356], [-110.196431, 24.362376], [-110.187185, 24.363963], [-110.18133, 24.365076], [-110.172508, 24.36641], [-110.166792, 24.367279], [-110.157723, 24.36861], [-110.152851, 24.369256], [-110.142616, 24.37097], [-110.137607, 24.371777], [-110.126395, 24.37391], [-110.120638, 24.374665], [-110.11028, 24.376236], [-110.100534, 24.377774], [-110.09393, 24.378576], [-110.081821, 24.380641], [-110.07863, 24.381236], [-110.066526, 24.384014], [-110.063223, 24.384723], [-110.051436, 24.386664], [-110.048181, 24.38688], [-110.037038, 24.387636], [-110.033676, 24.387866], [-110.022635, 24.388437], [-110.019515, 24.388683], [-110.009865, 24.390215], [-110.006811, 24.390765], [-109.997111, 24.392376], [-109.993658, 24.393028], [-109.983034, 24.393923], [-109.978658, 24.394283], [-109.967639, 24.39414], [-109.962866, 24.392878], [-109.948081, 24.388286], [-109.932331, 24.384648], [-109.919671, 24.379273], [-109.90728, 24.374255], [-109.906926, 24.374101], [-109.894761, 24.371019], [-109.894523, 24.370905], [-109.880146, 24.365036], [-109.865276, 24.359456], [-109.851415, 24.354758], [-109.836545, 24.349886], [-109.822018, 24.345348], [-109.80732, 24.341046], [-109.792191, 24.33639], [-109.778095, 24.331336], [-109.763116, 24.32607], [-109.747538, 24.320533], [-109.730736, 24.316756], [-109.712648, 24.314213], [-109.693765, 24.3118], [-109.674705, 24.309172], [-109.655507, 24.306498], [-109.636212, 24.304005], [-109.616901, 24.301574], [-109.598205, 24.298911], [-109.579653, 24.295835], [-109.562093, 24.293233], [-109.54472, 24.290053], [-109.527446, 24.285911], [-109.510775, 24.281255], [-109.493908, 24.277328], [-109.493926, 24.277335], [-109.476915, 24.273358], [-109.477018, 24.273421], [-109.461078, 24.269066], [-109.444855, 24.265465], [-109.429349, 24.261703], [-109.413764, 24.25754], [-109.397938, 24.25329], [-109.3832, 24.248951], [-109.368231, 24.244511], [-109.353146, 24.240388], [-109.338898, 24.237513], [-109.32435, 24.235121], [-109.309623, 24.232881], [-109.309243, 24.232815], [-109.294563, 24.230892], [-109.279503, 24.228876], [-109.264826, 24.227063], [-109.249463, 24.225165], [-109.234163, 24.22348], [-109.219015, 24.222128], [-109.203758, 24.221173], [-109.188738, 24.220143], [-109.173946, 24.218902], [-109.173546, 24.218931], [-109.158306, 24.217717], [-109.143541, 24.216522], [-109.129385, 24.21528], [-109.129063, 24.215273], [-109.114835, 24.213454], [-109.100635, 24.211548], [-109.087562, 24.209447], [-109.075553, 24.207512], [-109.075183, 24.20744], [-109.062518, 24.20569], [-109.061815, 24.205585], [-109.048876, 24.20345], [-109.036431, 24.20126], [-109.023428, 24.1989], [-109.01154, 24.19625], [-109.000403, 24.193686], [-108.988538, 24.191305], [-108.977273, 24.188943], [-108.966265, 24.186445], [-108.954177, 24.184046], [-108.941217, 24.181746], [-108.927421, 24.179786], [-108.912792, 24.178048], [-108.898412, 24.174044], [-108.884894, 24.167553], [-108.871175, 24.162043], [-108.857669, 24.156975], [-108.856369, 24.156505], [-108.850028, 24.154321], [-108.843221, 24.152025], [-108.829452, 24.147604], [-108.82842, 24.147358], [-108.814902, 24.143632], [-108.813658, 24.143281], [-108.800503, 24.139755], [-108.798766, 24.139355], [-108.786035, 24.13624], [-108.783916, 24.135771], [-108.77114, 24.132749], [-108.768725, 24.132145], [-108.756239, 24.12896], [-108.753661, 24.128058], [-108.742384, 24.124999], [-108.73935, 24.124485], [-108.72818, 24.120868], [-108.725038, 24.119593], [-108.714178, 24.116042], [-108.710725, 24.114905], [-108.700079, 24.112976], [-108.696628, 24.111696], [-108.687304, 24.107506], [-108.683925, 24.105913], [-108.675508, 24.102286], [-108.671801, 24.100603], [-108.664338, 24.096464], [-108.660515, 24.094638], [-108.654367, 24.08913], [-108.650515, 24.086623], [-108.643796, 24.081748], [-108.639721, 24.079391], [-108.63384, 24.075395], [-108.629936, 24.072643], [-108.624179, 24.068814], [-108.619186, 24.06714], [-108.612784, 24.063784], [-108.6076, 24.061506], [-108.601378, 24.059231], [-108.595605, 24.057623], [-108.589367, 24.055253], [-108.583525, 24.052591], [-108.576841, 24.050334], [-108.569985, 24.048578], [-108.564013, 24.046356], [-108.557175, 24.04418], [-108.551958, 24.041517], [-108.545393, 24.0374], [-108.540031, 24.035507], [-108.53239, 24.032496], [-108.527524, 24.029812], [-108.519365, 24.027163], [-108.513982, 24.025714], [-108.504838, 24.024728], [-108.499955, 24.023965], [-108.490505, 24.022958], [-108.486587, 24.021133], [-108.478231, 24.019568], [-108.474424, 24.018476], [-108.465443, 24.017411], [-108.461212, 24.01679], [-108.451151, 24.013163], [-108.447398, 24.012065], [-108.436025, 24.009611], [-108.4323, 24.009073], [-108.420853, 24.007466], [-108.417543, 24.006917], [-108.40622, 24.004086], [-108.403224, 24.003825], [-108.391026, 24.00208], [-108.388409, 24.001606], [-108.376115, 24.000126], [-108.373956, 23.999832], [-108.361136, 23.999686], [-108.359284, 23.999347], [-108.347253, 23.997798], [-108.345762, 23.997345], [-108.332963, 23.995471], [-108.331717, 23.995135], [-108.319186, 23.991286], [-108.318215, 23.99109], [-108.304788, 23.987123], [-108.304249, 23.986959], [-108.290391, 23.981286], [-108.290168, 23.981198], [-108.276873, 23.974463], [-108.263317, 23.968126], [-108.263075, 23.967983], [-108.249385, 23.960473], [-108.235845, 23.953156], [-108.222285, 23.946451], [-108.209323, 23.940185], [-108.1969, 23.933576], [-108.184862, 23.927481], [-108.172883, 23.923455], [-108.161086, 23.918073], [-108.148863, 23.912237], [-108.136561, 23.907193], [-108.124395, 23.903116], [-108.124575, 23.903203], [-108.110974, 23.898448], [-108.107968, 23.897576], [-108.096928, 23.89345], [-108.083453, 23.887775], [-108.070923, 23.881896], [-108.070706, 23.88182], [-108.057275, 23.876026], [-108.045988, 23.869686], [-108.03365, 23.864021], [-108.020796, 23.858915], [-108.008415, 23.852563], [-107.997493, 23.846136], [-107.986228, 23.839345], [-107.975762, 23.833361], [-107.975478, 23.833196], [-107.964589, 23.827861], [-107.964083, 23.827575], [-107.953087, 23.823329], [-107.952218, 23.823015], [-107.941246, 23.819111], [-107.940373, 23.818606], [-107.929178, 23.816122], [-107.9278, 23.81586], [-107.917172, 23.813757], [-107.91544, 23.813466], [-107.904535, 23.812774], [-107.90248, 23.81247], [-107.891224, 23.812062], [-107.888961, 23.811631], [-107.878391, 23.810137], [-107.875571, 23.809776], [-107.864597, 23.808627], [-107.861238, 23.808768], [-107.849653, 23.808425], [-107.845916, 23.808166], [-107.834817, 23.807837], [-107.830596, 23.807695], [-107.820197, 23.806743], [-107.815918, 23.806375], [-107.806595, 23.805007], [-107.80195, 23.804046], [-107.792337, 23.803324], [-107.787015, 23.80306], [-107.777568, 23.803035], [-107.772403, 23.8032], [-107.763072, 23.803275], [-107.757168, 23.803693], [-107.748091, 23.804279], [-107.74159, 23.804786], [-107.732961, 23.805363], [-107.726033, 23.80601], [-107.717525, 23.806273], [-107.710305, 23.806578], [-107.70232, 23.806891], [-107.69449, 23.807286], [-107.686597, 23.807646], [-107.678418, 23.807716], [-107.670928, 23.807436], [-107.662281, 23.807555], [-107.655118, 23.807086], [-107.64664, 23.806655], [-107.639809, 23.806841], [-107.63076, 23.80659], [-107.62431, 23.806741], [-107.614838, 23.806633], [-107.609112, 23.807043], [-107.599475, 23.80732], [-107.598453, 23.803292], [-107.599239, 23.794814], [-107.599883, 23.78643], [-107.600387, 23.782635], [-107.60175, 23.774446], [-107.601914, 23.770773], [-107.602908, 23.762226], [-107.60304, 23.758787], [-107.604968, 23.749436], [-107.605774, 23.746144], [-107.607265, 23.735865], [-107.608023, 23.732742], [-107.610183, 23.722851], [-107.610088, 23.72056], [-107.61074, 23.710385], [-107.612274, 23.708808], [-107.619388, 23.702305], [-107.620682, 23.700855], [-107.626983, 23.693003], [-107.62805, 23.691843], [-107.624195, 23.68412], [-107.623261, 23.68314], [-107.613358, 23.682318], [-107.611957, 23.68243], [-107.598273, 23.683423], [-107.597282, 23.683174], [-107.583146, 23.683895], [-107.582465, 23.684101], [-107.566688, 23.684785], [-107.566352, 23.684762], [-107.551335, 23.68181], [-107.537131, 23.67772], [-107.536789, 23.677602], [-107.522694, 23.673079], [-107.522019, 23.672819], [-107.507773, 23.668467], [-107.506835, 23.66806], [-107.49399, 23.66326], [-107.492641, 23.662977], [-107.480228, 23.658378], [-107.478712, 23.657623], [-107.467245, 23.652876], [-107.465474, 23.651936], [-107.454718, 23.646705], [-107.45277, 23.645936], [-107.443884, 23.641456], [-107.441826, 23.640721], [-107.432963, 23.63683], [-107.430731, 23.635711], [-107.422555, 23.633062], [-107.419875, 23.632686], [-107.410641, 23.631464], [-107.407515, 23.630755], [-107.398965, 23.629138], [-107.39537, 23.628448], [-107.386388, 23.626537], [-107.382645, 23.626098], [-107.374146, 23.624973], [-107.37005, 23.624671], [-107.361693, 23.624078], [-107.357303, 23.623513], [-107.349034, 23.622868], [-107.344451, 23.622108], [-107.336726, 23.621069], [-107.331598, 23.620776], [-107.323723, 23.619705], [-107.31823, 23.61891], [-107.310441, 23.616995], [-107.304583, 23.61523], [-107.296926, 23.61383], [-107.290528, 23.61213], [-107.283042, 23.610414], [-107.276065, 23.6089], [-107.268727, 23.607905], [-107.261625, 23.6064], [-107.254659, 23.604691], [-107.247096, 23.60285], [-107.240591, 23.601019], [-107.233256, 23.599211], [-107.227396, 23.597567], [-107.219953, 23.595243], [-107.21429, 23.593662], [-107.206778, 23.59108], [-107.202103, 23.589128], [-107.194505, 23.586745], [-107.189876, 23.585106], [-107.181221, 23.582946], [-107.176422, 23.581759], [-107.16734, 23.579041], [-107.163134, 23.577307], [-107.153628, 23.57533], [-107.149505, 23.574435], [-107.140323, 23.572186], [-107.13674, 23.571474], [-107.126913, 23.569986], [-107.123354, 23.569528], [-107.112751, 23.569021], [-107.109492, 23.569045], [-107.099081, 23.568903], [-107.096145, 23.568683], [-107.084748, 23.567336], [-107.082091, 23.567183], [-107.069986, 23.565791], [-107.067611, 23.565217], [-107.055008, 23.562551], [-107.052913, 23.562417], [-107.039645, 23.560578], [-107.037844, 23.560415], [-107.023723, 23.559451], [-107.022175, 23.559299], [-107.008038, 23.558271], [-107.006934, 23.557904], [-106.992673, 23.554118], [-106.992033, 23.553819], [-106.979026, 23.549408], [-106.978647, 23.549324], [-106.968555, 23.542113], [-106.957435, 23.535752], [-106.957268, 23.53559], [-106.946921, 23.5289], [-106.946496, 23.52867], [-106.93539, 23.522813], [-106.934673, 23.522405], [-106.922711, 23.51662], [-106.921648, 23.51631], [-106.911837, 23.511292], [-106.910533, 23.510828], [-106.899801, 23.506775], [-106.898066, 23.50629], [-106.887053, 23.502769], [-106.88515, 23.502201], [-106.874501, 23.498325], [-106.872188, 23.497256], [-106.862005, 23.492665], [-106.859528, 23.491333], [-106.84938, 23.487635], [-106.84659, 23.486526], [-106.837509, 23.482107], [-106.83541, 23.4801], [-106.828377, 23.474453], [-106.82584, 23.472333], [-106.818943, 23.467413], [-106.816055, 23.465551], [-106.809686, 23.460667], [-106.806636, 23.458643], [-106.800812, 23.454601], [-106.797795, 23.452871], [-106.791673, 23.449803], [-106.788225, 23.448171], [-106.782363, 23.444626], [-106.784606, 23.4371], [-106.787071, 23.433731], [-106.789202, 23.427914], [-106.790628, 23.423828], [-106.792679, 23.4177], [-106.794448, 23.412401], [-106.796391, 23.405928], [-106.797923, 23.400235], [-106.800198, 23.394011], [-106.802536, 23.38808], [-106.804346, 23.382447], [-106.806678, 23.376641], [-106.80876, 23.371478], [-106.81125, 23.365301], [-106.813643, 23.360331], [-106.816828, 23.353618], [-106.81912, 23.348784], [-106.822556, 23.342053], [-106.825308, 23.337659], [-106.829616, 23.331088], [-106.832137, 23.326651], [-106.836848, 23.319286], [-106.839407, 23.31557], [-106.844508, 23.308363], [-106.846954, 23.304732], [-106.85219, 23.297871], [-106.854388, 23.294838], [-106.859743, 23.287775], [-106.862175, 23.285152], [-106.867746, 23.278753], [-106.869774, 23.27603], [-106.875686, 23.26856], [-106.878105, 23.265964], [-106.88472, 23.257916], [-106.886406, 23.255311], [-106.893025, 23.246286], [-106.894732, 23.243874], [-106.902208, 23.234881], [-106.903891, 23.232846], [-106.911263, 23.223616], [-106.912482, 23.221774], [-106.91961, 23.21203], [-106.920736, 23.210603], [-106.928473, 23.200465], [-106.929325, 23.199141], [-106.937185, 23.188491], [-106.938151, 23.187504], [-106.946926, 23.176688], [-106.94759, 23.175911], [-106.94506, 23.165756], [-106.944776, 23.165313], [-106.939286, 23.156733], [-106.939143, 23.156556], [-106.9324, 23.147496], [-106.926543, 23.138879], [-106.92637, 23.138708], [-106.924077, 23.128069], [-106.923858, 23.127626], [-106.922573, 23.117567], [-106.922593, 23.116715], [-106.922403, 23.10609], [-106.922121, 23.105031], [-106.921039, 23.095665], [-106.919211, 23.09094], [-106.91768, 23.086083], [-106.910105, 23.081245], [-106.902121, 23.078048], [-106.893646, 23.075635], [-106.884635, 23.074228], [-106.874806, 23.07365], [-106.86455, 23.07278], [-106.854216, 23.071781], [-106.843928, 23.07132], [-106.832628, 23.071322], [-106.820959, 23.07251], [-106.808803, 23.07409], [-106.796774, 23.076306], [-106.784191, 23.077695], [-106.77254, 23.07925], [-106.762645, 23.075474], [-106.762583, 23.075248], [-106.75636, 23.06675], [-106.747155, 23.05937], [-106.739881, 23.050711], [-106.731856, 23.042], [-106.724023, 23.03332], [-106.717521, 23.023138], [-106.710763, 23.013675], [-106.704798, 23.003901], [-106.699005, 22.99359], [-106.692996, 22.983441], [-106.68806, 22.972165], [-106.683855, 22.960846], [-106.679778, 22.949463], [-106.675508, 22.93896], [-106.671088, 22.928306], [-106.66641, 22.9185], [-106.662183, 22.908468], [-106.65746, 22.898467], [-106.652755, 22.888299], [-106.648173, 22.878898], [-106.643365, 22.869426], [-106.63823, 22.860923], [-106.638021, 22.860703], [-106.632527, 22.851293], [-106.632356, 22.850758], [-106.626395, 22.841508], [-106.620473, 22.831979], [-106.615213, 22.822037], [-106.610298, 22.811458], [-106.604911, 22.800053], [-106.599884, 22.789357], [-106.599741, 22.788873], [-106.594891, 22.777201], [-106.590108, 22.765801], [-106.590063, 22.765625], [-106.586926, 22.75381], [-106.583455, 22.741388], [-106.579782, 22.729934], [-106.579635, 22.729768], [-106.576738, 22.718128], [-106.573885, 22.707066], [-106.570773, 22.696606], [-106.567618, 22.685791], [-106.56438, 22.675681], [-106.56425, 22.675373], [-106.56287, 22.666624], [-106.56292, 22.666081], [-106.563991, 22.656575], [-106.564143, 22.655803], [-106.564328, 22.647419], [-106.5644, 22.646545], [-106.565044, 22.638304], [-106.565612, 22.633899], [-106.56601, 22.629378], [-106.566399, 22.621754], [-106.565904, 22.613785], [-106.559794, 22.609981], [-106.552952, 22.607209], [-106.549713, 22.604195], [-106.544177, 22.596249], [-106.541761, 22.593705], [-106.536064, 22.587395], [-106.53333, 22.586216], [-106.527609, 22.579488], [-106.524831, 22.576315], [-106.518313, 22.570875], [-106.514618, 22.567753], [-106.507835, 22.562633], [-106.50331, 22.560468], [-106.497589, 22.555992], [-106.49329, 22.552431], [-106.487079, 22.547394], [-106.486954, 22.543759], [-106.483541, 22.537762], [-106.47989, 22.534614], [-106.479854, 22.528415], [-106.475358, 22.524258], [-106.47112, 22.519765], [-106.467797, 22.515448], [-106.464042, 22.510785], [-106.460031, 22.505479], [-106.457446, 22.500097], [-106.452155, 22.495301], [-106.448706, 22.490677], [-106.44387, 22.484984], [-106.440035, 22.480721], [-106.435868, 22.474129], [-106.431476, 22.470998], [-106.42566, 22.465398], [-106.421481, 22.462108], [-106.415897, 22.455433], [-106.412575, 22.451929], [-106.406069, 22.44579], [-106.402786, 22.442434], [-106.425655, 22.465388], [-106.388779, 22.424495], [-106.386161, 22.421487], [-106.378455, 22.415131], [-106.375667, 22.412998], [-106.369142, 22.405404], [-106.363497, 22.400353], [-106.358517, 22.396501], [-106.354782, 22.391129], [-106.349051, 22.387287], [-106.34388, 22.382773], [-106.338815, 22.378037], [-106.333586, 22.37408], [-106.32695, 22.371843], [-106.321867, 22.367748], [-106.315513, 22.364055], [-106.310481, 22.360547], [-106.305213, 22.355665], [-106.300948, 22.352211], [-106.295363, 22.346503], [-106.292803, 22.342299], [-106.287253, 22.336836], [-106.284087, 22.333401], [-106.277811, 22.328103], [-106.26905, 22.322919], [-106.266396, 22.321278], [-106.259383, 22.314282], [-106.256911, 22.312235], [-106.249478, 22.305309], [-106.248221, 22.302643], [-106.24187, 22.294951], [-106.239638, 22.292773], [-106.23332, 22.285415], [-106.231785, 22.282686], [-106.225594, 22.274997], [-106.222945, 22.272773], [-106.215354, 22.26679], [-106.213051, 22.265393], [-106.205058, 22.259664], [-106.202838, 22.257441], [-106.19528, 22.251107], [-106.192475, 22.249116], [-106.182518, 22.240265], [-106.172711, 22.232218], [-106.162055, 22.225117], [-106.161896, 22.224858], [-106.154653, 22.216549], [-106.154086, 22.21619], [-106.14683, 22.206661], [-106.145996, 22.206126], [-106.136524, 22.197454], [-106.135181, 22.196953], [-106.128545, 22.187545], [-106.12735, 22.186568], [-106.118493, 22.178889], [-106.11675, 22.177866], [-106.109326, 22.169363], [-106.108145, 22.167545], [-106.101059, 22.158768], [-106.100421, 22.15656], [-106.097431, 22.147359], [-106.095056, 22.145691], [-106.09137, 22.136763], [-106.088661, 22.13508], [-106.082566, 22.127517], [-106.081838, 22.12434], [-106.075426, 22.116945], [-106.07465, 22.113461], [-106.071975, 22.10487], [-106.069156, 22.102206], [-106.061585, 22.096386], [-106.057826, 22.093785], [-106.052469, 22.087024], [-106.04873, 22.083935], [-106.042765, 22.077763], [-106.038988, 22.074161], [-106.031581, 22.069246], [-106.030146, 22.064195], [-106.024643, 22.058363], [-106.02135, 22.053691], [-106.016059, 22.047619], [-106.01281, 22.042458], [-106.008795, 22.040278], [-106.00517, 22.035183], [-106.002034, 22.028357], [-105.997981, 22.022695], [-105.994925, 22.016252], [-105.990471, 22.011001], [-105.985917, 22.006197], [-105.981351, 22.000346], [-105.975847, 21.996363], [-105.970838, 21.990551], [-105.966945, 21.985737], [-105.9635, 21.978921], [-105.959754, 21.9748], [-105.954573, 21.968815], [-105.950737, 21.965005], [-105.946248, 21.95857], [-105.944561, 21.954851], [-105.939531, 21.947615], [-105.935202, 21.945403], [-105.9273, 21.941853], [-105.924155, 21.938543], [-105.916615, 21.93252], [-105.913086, 21.930016], [-105.904641, 21.924901], [-105.901297, 21.92266], [-105.894148, 21.915471], [-105.891234, 21.913253], [-105.88269, 21.907596], [-105.879898, 21.905893], [-105.870995, 21.900205], [-105.868888, 21.898207], [-105.860631, 21.89072], [-105.858367, 21.889354], [-105.849773, 21.882298], [-105.84805, 21.880717], [-105.838486, 21.874155], [-105.836684, 21.873125], [-105.826578, 21.867718], [-105.824915, 21.867139], [-105.814583, 21.8601], [-105.813251, 21.859487], [-105.80246, 21.852418], [-105.801441, 21.851934], [-105.790378, 21.844961], [-105.789745, 21.844544], [-105.779071, 21.83714], [-105.778669, 21.837018], [-105.76744, 21.829748], [-105.756654, 21.821395], [-105.756518, 21.821261], [-105.745012, 21.814454], [-105.74461, 21.814158], [-105.733481, 21.806748], [-105.732808, 21.806241], [-105.721082, 21.800435], [-105.720105, 21.799803], [-105.708661, 21.794198], [-105.707338, 21.79356], [-105.695957, 21.788505], [-105.694205, 21.787948], [-105.683683, 21.782488], [-105.681738, 21.781575], [-105.672362, 21.774452], [-105.670045, 21.773453], [-105.660546, 21.766798], [-105.657921, 21.76574], [-105.647985, 21.760382], [-105.64554, 21.758583], [-105.637484, 21.751505], [-105.635025, 21.749206], [-105.628623, 21.741229], [-105.62625, 21.738478], [-105.620447, 21.730546], [-105.618481, 21.727138], [-105.612871, 21.719345], [-105.610478, 21.715786], [-105.605131, 21.708159], [-105.602431, 21.704456], [-105.597688, 21.696855], [-105.594963, 21.692783], [-105.58994, 21.685647], [-105.587131, 21.681303], [-105.582377, 21.674303], [-105.579235, 21.669716], [-105.574975, 21.663306], [-105.571166, 21.658838], [-105.566577, 21.652616], [-105.56282, 21.647883], [-105.557906, 21.642434], [-105.552993, 21.638066], [-105.548776, 21.632441], [-105.543615, 21.627895], [-105.538582, 21.623199], [-105.533123, 21.618518], [-105.529132, 21.61364], [-105.523981, 21.608295], [-105.520127, 21.603583], [-105.515378, 21.59689], [-105.511598, 21.594194], [-105.501666, 21.58778], [-105.496777, 21.584421], [-105.491473, 21.576945], [-105.488181, 21.572714], [-105.480058, 21.567041], [-105.476374, 21.563442], [-105.468535, 21.556913], [-105.464607, 21.554324], [-105.455316, 21.549113], [-105.451398, 21.546939], [-105.441928, 21.541378], [-105.438252, 21.53931], [-105.427401, 21.536861], [-105.423978, 21.535088], [-105.412638, 21.532838], [-105.409236, 21.532264], [-105.396801, 21.530875], [-105.393576, 21.530599], [-105.38086, 21.52889], [-105.377983, 21.528558], [-105.36586, 21.525853], [-105.363408, 21.525397], [-105.349595, 21.524383], [-105.347449, 21.52417], [-105.333501, 21.521948], [-105.331758, 21.52146], [-105.318138, 21.517291], [-105.316732, 21.517239], [-105.302066, 21.514235], [-105.301006, 21.51407], [-105.286381, 21.508998], [-105.285735, 21.508688], [-105.269945, 21.507303], [-105.269607, 21.507345], [-105.253121, 21.509278], [-105.243104, 21.517625], [-105.243035, 21.518072], [-105.251685, 21.507465], [-105.252762, 21.507062], [-105.266533, 21.505093], [-105.267367, 21.5051], [-105.280651, 21.508526], [-105.281095, 21.508647], [-105.287453, 21.519138], [-105.287905, 21.530295], [-105.291477, 21.53881], [-105.292472, 21.541108], [-105.292734, 21.544099]]}, "times": ["2020-01-04T18:00:30+00:00", "2020-01-04T18:01:58+00:00", "2020-01-04T18:10:30+00:00", "2020-01-04T18:11:45+00:00", "2020-01-04T18:20:30+00:00", "2020-01-04T18:21:32+00:00", "2020-01-04T18:30:30+00:00", "2020-01-04T18:31:19+00:00", "2020-01-04T18:40:30+00:00", "2020-01-04T18:41:06+00:00", "2020-01-04T18:50:30+00:00", "2020-01-04T18:50:53+00:00", "2020-01-04T19:00:30+00:00", "2020-01-04T19:10:26+00:00", "2020-01-04T19:10:30+00:00", "2020-01-04T19:20:13+00:00", "2020-01-04T19:20:30+00:00", "2020-01-04T19:30:00+00:00", "2020-01-04T19:39:47+00:00", "2020-01-04T19:50:30+00:00", "2020-01-04T20:00:30+00:00", "2020-01-04T20:10:45+00:00", "2020-01-04T20:18:55+00:00", "2020-01-04T20:20:45+00:00", "2020-01-04T20:28:43+00:00", "2020-01-04T20:38:30+00:00", "2020-01-04T23:46:14+00:00", "2020-01-05T15:37:02+00:00", "2020-01-05T15:39:30+00:00", "2020-01-05T15:46:49+00:00", "2020-01-05T15:49:30+00:00", "2020-01-05T15:56:36+00:00", "2020-01-05T15:59:30+00:00", "2020-01-05T16:06:22+00:00", "2020-01-05T16:09:30+00:00", "2020-01-05T16:16:10+00:00", "2020-01-05T16:19:30+00:00", "2020-01-05T16:25:57+00:00", "2020-01-05T16:29:30+00:00", "2020-01-05T16:35:44+00:00", "2020-01-05T16:39:30+00:00", "2020-01-05T16:45:31+00:00", "2020-01-05T16:49:30+00:00", "2020-01-05T16:55:18+00:00", "2020-01-05T16:59:30+00:00", "2020-01-05T17:05:05+00:00", "2020-01-05T17:09:30+00:00", "2020-01-05T17:14:52+00:00", "2020-01-05T17:19:30+00:00", "2020-01-05T17:24:39+00:00", "2020-01-05T17:29:30+00:00", "2020-01-05T17:34:45+00:00", "2020-01-05T17:39:30+00:00", "2020-01-05T17:44:13+00:00", "2020-01-05T17:49:30+00:00", "2020-01-05T17:54:00+00:00", "2020-01-05T17:59:30+00:00", "2020-01-05T18:03:47+00:00", "2020-01-05T18:09:30+00:00", "2020-01-05T18:13:33+00:00", "2020-01-05T18:19:30+00:00", "2020-01-05T18:23:21+00:00", "2020-01-05T18:29:30+00:00", "2020-01-05T18:33:08+00:00", "2020-01-05T18:39:30+00:00", "2020-01-05T18:42:55+00:00", "2020-01-05T18:49:45+00:00", "2020-01-05T18:53:28+00:00", "2020-01-05T18:59:45+00:00", "2020-01-05T19:05:46+00:00", "2020-01-05T19:09:45+00:00", "2020-01-05T19:17:47+00:00", "2020-01-05T19:19:45+00:00", "2020-01-05T19:27:46+00:00", "2020-01-05T19:29:45+00:00", "2020-01-05T19:37:46+00:00", "2020-01-05T19:39:45+00:00", "2020-01-05T19:47:47+00:00", "2020-01-05T19:49:45+00:00", "2020-01-05T19:57:46+00:00", "2020-01-05T20:00:00+00:00", "2020-01-05T20:07:36+00:00", "2020-01-05T20:10:00+00:00", "2020-01-05T20:17:23+00:00", "2020-01-05T20:20:00+00:00", "2020-01-05T20:27:11+00:00", "2020-01-05T20:30:00+00:00", "2020-01-05T20:36:59+00:00", "2020-01-05T20:40:00+00:00", "2020-01-05T20:50:00+00:00", "2020-01-05T21:00:00+00:00", "2020-01-05T21:10:00+00:00", "2020-01-05T21:19:50+00:00", "2020-01-05T21:20:00+00:00", "2020-01-05T21:29:57+00:00", "2020-01-05T21:30:00+00:00", "2020-01-05T21:40:00+00:00", "2020-01-05T21:50:00+00:00", "2020-01-05T22:00:00+00:00", "2020-01-05T22:10:00+00:00", "2020-01-05T22:20:00+00:00", "2020-01-05T22:30:00+00:00", "2020-01-05T22:40:00+00:00", "2020-01-05T22:50:00+00:00", "2020-01-05T23:00:00+00:00", "2020-01-05T23:10:00+00:00", "2020-01-05T23:20:00+00:00", "2020-01-05T23:30:00+00:00", "2020-01-05T23:40:00+00:00", "2020-01-05T23:50:10+00:00", "2020-01-06T00:00:10+00:00", "2020-01-06T00:10:12+00:00", "2020-01-06T00:20:13+00:00", "2020-01-06T00:30:13+00:00", "2020-01-06T00:40:15+00:00", "2020-01-06T00:50:14+00:00", "2020-01-06T01:00:15+00:00", "2020-01-06T01:10:15+00:00", "2020-01-06T01:20:15+00:00", "2020-01-06T01:30:15+00:00", "2020-01-06T01:30:28+00:00", "2020-01-06T01:40:15+00:00", "2020-01-06T01:40:28+00:00", "2020-01-06T01:50:15+00:00", "2020-01-06T02:00:27+00:00", "2020-01-06T02:10:27+00:00", "2020-01-06T02:20:29+00:00", "2020-01-06T02:30:29+00:00", "2020-01-06T02:40:29+00:00", "2020-01-06T02:50:26+00:00", "2020-01-06T03:00:30+00:00", "2020-01-06T03:10:30+00:00", "2020-01-06T03:20:30+00:00", "2020-01-06T03:30:23+00:00", "2020-01-06T03:30:30+00:00", "2020-01-06T03:40:28+00:00", "2020-01-06T03:50:30+00:00", "2020-01-06T04:00:30+00:00", "2020-01-06T04:10:30+00:00", "2020-01-06T04:20:30+00:00", "2020-01-06T04:30:30+00:00", "2020-01-06T04:40:30+00:00", "2020-01-06T04:50:30+00:00", "2020-01-06T05:00:27+00:00", "2020-01-06T05:00:45+00:00", "2020-01-06T05:10:41+00:00", "2020-01-06T05:20:44+00:00", "2020-01-06T05:30:33+00:00", "2020-01-06T05:30:45+00:00", "2020-01-06T05:40:39+00:00", "2020-01-06T05:50:42+00:00", "2020-01-06T06:00:44+00:00", "2020-01-06T06:10:31+00:00", "2020-01-06T06:10:45+00:00", "2020-01-06T06:20:18+00:00", "2020-01-06T06:20:45+00:00", "2020-01-06T06:30:45+00:00", "2020-01-06T06:40:45+00:00", "2020-01-06T06:50:45+00:00", "2020-01-06T07:00:45+00:00", "2020-01-06T07:10:45+00:00", "2020-01-06T07:20:45+00:00", "2020-01-06T07:30:45+00:00", "2020-01-06T07:40:45+00:00", "2020-01-06T07:50:57+00:00", "2020-01-06T08:00:58+00:00", "2020-01-06T08:10:56+00:00", "2020-01-06T08:20:58+00:00", "2020-01-06T08:30:57+00:00", "2020-01-06T08:40:59+00:00", "2020-01-06T08:50:59+00:00", "2020-01-06T09:00:46+00:00", "2020-01-06T09:02:15+00:00", "2020-01-06T09:06:00+00:00", "2020-01-06T09:11:00+00:00", "2020-01-06T09:20:23+00:00", "2020-01-06T09:21:00+00:00", "2020-01-06T09:30:10+00:00", "2020-01-06T09:31:00+00:00", "2020-01-06T09:39:57+00:00", "2020-01-06T09:41:00+00:00", "2020-01-06T09:49:44+00:00", "2020-01-06T09:51:00+00:00", "2020-01-06T09:59:31+00:00", "2020-01-06T10:01:00+00:00", "2020-01-06T10:09:18+00:00", "2020-01-06T10:11:00+00:00", "2020-01-06T10:19:05+00:00", "2020-01-06T10:21:00+00:00", "2020-01-06T10:28:53+00:00", "2020-01-06T10:31:00+00:00", "2020-01-06T10:38:40+00:00", "2020-01-06T10:41:00+00:00", "2020-01-06T10:48:26+00:00", "2020-01-06T10:51:00+00:00", "2020-01-06T10:58:14+00:00", "2020-01-06T11:01:00+00:00", "2020-01-06T11:08:00+00:00", "2020-01-06T11:11:00+00:00", "2020-01-06T11:17:48+00:00", "2020-01-06T11:21:00+00:00", "2020-01-06T11:27:34+00:00", "2020-01-06T11:31:00+00:00", "2020-01-06T11:37:22+00:00", "2020-01-06T11:41:00+00:00", "2020-01-06T11:47:09+00:00", "2020-01-06T11:51:00+00:00", "2020-01-06T11:56:57+00:00", "2020-01-06T12:01:00+00:00", "2020-01-06T12:06:44+00:00", "2020-01-06T12:11:00+00:00", "2020-01-06T12:16:30+00:00", "2020-01-06T12:21:00+00:00", "2020-01-06T12:26:17+00:00", "2020-01-06T12:31:00+00:00", "2020-01-06T12:36:05+00:00", "2020-01-06T12:41:00+00:00", "2020-01-06T12:45:52+00:00", "2020-01-06T12:51:00+00:00", "2020-01-06T12:55:38+00:00", "2020-01-06T13:01:00+00:00", "2020-01-06T13:05:26+00:00", "2020-01-06T13:11:00+00:00", "2020-01-06T13:15:12+00:00", "2020-01-06T13:21:15+00:00", "2020-01-06T13:25:00+00:00", "2020-01-06T13:31:15+00:00", "2020-01-06T13:34:46+00:00", "2020-01-06T13:41:15+00:00", "2020-01-06T13:44:33+00:00", "2020-01-06T13:51:15+00:00", "2020-01-06T13:54:20+00:00", "2020-01-06T14:01:15+00:00", "2020-01-06T14:04:07+00:00", "2020-01-06T14:11:15+00:00", "2020-01-06T14:13:54+00:00", "2020-01-06T14:21:15+00:00", "2020-01-06T14:23:41+00:00", "2020-01-06T14:31:15+00:00", "2020-01-06T14:33:28+00:00", "2020-01-06T14:41:15+00:00", "2020-01-06T14:43:15+00:00", "2020-01-06T14:51:15+00:00", "2020-01-06T14:53:02+00:00", "2020-01-06T15:01:15+00:00", "2020-01-06T15:02:49+00:00", "2020-01-06T15:11:15+00:00", "2020-01-06T15:12:36+00:00", "2020-01-06T15:21:15+00:00", "2020-01-06T15:22:23+00:00", "2020-01-06T15:31:15+00:00", "2020-01-06T15:32:10+00:00", "2020-01-06T15:41:15+00:00", "2020-01-06T15:41:58+00:00", "2020-01-06T15:51:15+00:00", "2020-01-06T15:51:44+00:00", "2020-01-06T16:01:15+00:00", "2020-01-06T16:01:31+00:00", "2020-01-06T16:11:15+00:00", "2020-01-06T16:21:12+00:00", "2020-01-06T16:21:15+00:00", "2020-01-06T16:31:15+00:00", "2020-01-06T16:41:15+00:00", "2020-01-06T16:51:15+00:00", "2020-01-06T17:01:15+00:00", "2020-01-06T17:11:15+00:00", "2020-01-06T17:21:29+00:00", "2020-01-06T17:31:26+00:00", "2020-01-06T17:41:30+00:00", "2020-01-06T17:51:29+00:00", "2020-01-06T18:01:30+00:00", "2020-01-06T18:11:30+00:00", "2020-01-06T18:11:34+00:00", "2020-01-06T18:21:21+00:00", "2020-01-06T18:25:15+00:00", "2020-01-06T18:31:30+00:00", "2020-01-06T18:41:45+00:00", "2020-01-06T18:51:39+00:00", "2020-01-06T18:51:45+00:00", "2020-01-06T19:01:45+00:00", "2020-01-06T19:11:45+00:00", "2020-01-06T19:21:45+00:00", "2020-01-06T19:31:45+00:00", "2020-01-06T19:41:45+00:00", "2020-01-06T19:51:45+00:00", "2020-01-06T20:01:45+00:00", "2020-01-06T20:11:35+00:00", "2020-01-06T20:11:45+00:00", "2020-01-06T20:21:22+00:00", "2020-01-06T20:21:45+00:00", "2020-01-06T20:31:09+00:00", "2020-01-06T20:31:45+00:00", "2020-01-06T20:40:57+00:00", "2020-01-06T20:41:45+00:00", "2020-01-06T20:50:44+00:00", "2020-01-06T20:51:45+00:00", "2020-01-06T21:00:31+00:00", "2020-01-06T21:01:45+00:00", "2020-01-06T21:10:18+00:00", "2020-01-06T21:11:45+00:00", "2020-01-06T21:20:05+00:00", "2020-01-06T21:21:45+00:00", "2020-01-06T21:29:52+00:00", "2020-01-06T21:31:45+00:00", "2020-01-06T21:39:39+00:00", "2020-01-06T21:41:45+00:00", "2020-01-06T21:49:26+00:00", "2020-01-06T21:51:45+00:00", "2020-01-06T21:59:12+00:00", "2020-01-06T22:01:45+00:00", "2020-01-06T22:08:59+00:00", "2020-01-06T22:11:45+00:00", "2020-01-06T22:18:47+00:00", "2020-01-06T22:21:45+00:00", "2020-01-06T22:28:33+00:00", "2020-01-06T22:31:45+00:00", "2020-01-06T22:38:20+00:00", "2020-01-06T22:41:45+00:00", "2020-01-06T22:48:07+00:00", "2020-01-06T22:51:45+00:00", "2020-01-06T22:57:54+00:00", "2020-01-06T23:02:00+00:00", "2020-01-06T23:07:41+00:00", "2020-01-06T23:12:00+00:00", "2020-01-06T23:17:27+00:00", "2020-01-06T23:22:00+00:00", "2020-01-06T23:27:14+00:00", "2020-01-06T23:32:00+00:00", "2020-01-06T23:37:01+00:00", "2020-01-06T23:42:00+00:00", "2020-01-06T23:46:48+00:00", "2020-01-06T23:52:00+00:00", "2020-01-06T23:56:35+00:00", "2020-01-07T00:02:00+00:00", "2020-01-07T00:06:21+00:00", "2020-01-07T00:12:00+00:00", "2020-01-07T00:16:08+00:00", "2020-01-07T00:22:00+00:00", "2020-01-07T00:25:55+00:00", "2020-01-07T00:32:00+00:00", "2020-01-07T00:42:00+00:00", "2020-01-07T00:45:28+00:00", "2020-01-07T00:52:00+00:00", "2020-01-07T00:55:16+00:00", "2020-01-07T01:02:00+00:00", "2020-01-07T01:05:03+00:00", "2020-01-07T01:12:00+00:00", "2020-01-07T01:14:50+00:00", "2020-01-07T01:22:00+00:00", "2020-01-07T01:24:37+00:00", "2020-01-07T01:32:00+00:00", "2020-01-07T01:34:24+00:00", "2020-01-07T01:42:00+00:00", "2020-01-07T01:44:11+00:00", "2020-01-07T01:52:00+00:00", "2020-01-07T01:53:58+00:00", "2020-01-07T02:02:00+00:00", "2020-01-07T02:03:45+00:00", "2020-01-07T02:12:00+00:00", "2020-01-07T02:13:31+00:00", "2020-01-07T02:22:00+00:00", "2020-01-07T02:23:19+00:00", "2020-01-07T02:32:00+00:00", "2020-01-07T02:33:06+00:00", "2020-01-07T02:42:00+00:00", "2020-01-07T02:42:52+00:00", "2020-01-07T02:52:00+00:00", "2020-01-07T02:52:39+00:00", "2020-01-07T03:02:00+00:00", "2020-01-07T03:02:26+00:00", "2020-01-07T03:12:13+00:00", "2020-01-07T03:22:00+00:00", "2020-01-07T03:22:15+00:00", "2020-01-07T03:31:46+00:00", "2020-01-07T03:32:15+00:00", "2020-01-07T03:41:34+00:00", "2020-01-07T03:42:16+00:00", "2020-01-07T03:51:20+00:00", "2020-01-07T03:52:16+00:00", "2020-01-07T04:01:07+00:00", "2020-01-07T04:02:17+00:00", "2020-01-07T04:10:54+00:00", "2020-01-07T04:12:18+00:00", "2020-01-07T04:20:40+00:00", "2020-01-07T04:22:15+00:00", "2020-01-07T04:30:28+00:00", "2020-01-07T04:32:15+00:00", "2020-01-07T04:40:15+00:00", "2020-01-07T04:42:15+00:00", "2020-01-07T04:50:02+00:00", "2020-01-07T04:52:15+00:00", "2020-01-07T04:59:48+00:00", "2020-01-07T05:02:15+00:00", "2020-01-07T05:09:35+00:00", "2020-01-07T05:12:15+00:00", "2020-01-07T05:19:22+00:00", "2020-01-07T05:22:15+00:00", "2020-01-07T05:29:08+00:00", "2020-01-07T05:32:15+00:00", "2020-01-07T05:38:55+00:00", "2020-01-07T05:42:15+00:00", "2020-01-07T05:48:42+00:00", "2020-01-07T05:52:15+00:00", "2020-01-07T05:58:29+00:00", "2020-01-07T06:02:15+00:00", "2020-01-07T06:08:16+00:00", "2020-01-07T06:12:15+00:00", "2020-01-07T06:18:04+00:00", "2020-01-07T06:22:15+00:00", "2020-01-07T06:27:50+00:00", "2020-01-07T06:32:15+00:00", "2020-01-07T06:37:38+00:00", "2020-01-07T06:42:15+00:00", "2020-01-07T06:47:25+00:00", "2020-01-07T06:52:15+00:00", "2020-01-07T06:57:12+00:00", "2020-01-07T07:02:15+00:00", "2020-01-07T07:06:58+00:00", "2020-01-07T07:12:15+00:00", "2020-01-07T07:16:45+00:00", "2020-01-07T07:22:15+00:00", "2020-01-07T07:26:32+00:00", "2020-01-07T07:32:15+00:00", "2020-01-07T07:36:19+00:00", "2020-01-07T07:42:15+00:00", "2020-01-07T07:46:06+00:00", "2020-01-07T07:52:15+00:00", "2020-01-07T07:55:53+00:00", "2020-01-07T08:02:15+00:00", "2020-01-07T08:05:40+00:00", "2020-01-07T08:12:30+00:00", "2020-01-07T08:15:28+00:00", "2020-01-07T08:22:30+00:00", "2020-01-07T08:25:14+00:00", "2020-01-07T08:32:30+00:00", "2020-01-07T08:35:02+00:00", "2020-01-07T08:42:30+00:00", "2020-01-07T08:44:49+00:00", "2020-01-07T08:52:30+00:00", "2020-01-07T08:54:35+00:00", "2020-01-07T09:02:30+00:00", "2020-01-07T09:04:22+00:00", "2020-01-07T09:12:30+00:00", "2020-01-07T09:14:09+00:00", "2020-01-07T09:22:30+00:00", "2020-01-07T09:23:56+00:00", "2020-01-07T09:32:30+00:00", "2020-01-07T09:33:43+00:00", "2020-01-07T09:42:30+00:00", "2020-01-07T09:43:31+00:00", "2020-01-07T09:52:30+00:00", "2020-01-07T09:53:18+00:00", "2020-01-07T10:02:30+00:00", "2020-01-07T10:03:05+00:00", "2020-01-07T10:12:30+00:00", "2020-01-07T10:12:53+00:00", "2020-01-07T10:22:30+00:00", "2020-01-07T10:32:27+00:00", "2020-01-07T10:32:30+00:00", "2020-01-07T10:42:14+00:00", "2020-01-07T10:42:30+00:00", "2020-01-07T10:52:01+00:00", "2020-01-07T10:52:30+00:00", "2020-01-07T11:01:48+00:00", "2020-01-07T11:02:30+00:00", "2020-01-07T11:11:35+00:00", "2020-01-07T11:12:30+00:00", "2020-01-07T11:21:22+00:00", "2020-01-07T11:22:30+00:00", "2020-01-07T11:31:09+00:00", "2020-01-07T11:32:30+00:00", "2020-01-07T11:40:56+00:00", "2020-01-07T11:42:30+00:00", "2020-01-07T11:50:43+00:00", "2020-01-07T11:52:30+00:00", "2020-01-07T12:00:29+00:00", "2020-01-07T12:02:30+00:00", "2020-01-07T12:10:16+00:00", "2020-01-07T12:12:30+00:00", "2020-01-07T12:20:03+00:00", "2020-01-07T12:22:30+00:00", "2020-01-07T12:29:50+00:00", "2020-01-07T12:32:30+00:00", "2020-01-07T12:39:36+00:00", "2020-01-07T12:42:30+00:00", "2020-01-07T12:49:23+00:00", "2020-01-07T12:52:30+00:00", "2020-01-07T12:59:11+00:00", "2020-01-07T13:02:30+00:00", "2020-01-07T13:12:30+00:00", "2020-01-07T13:18:45+00:00", "2020-01-07T13:22:45+00:00", "2020-01-07T13:28:32+00:00", "2020-01-07T13:32:45+00:00", "2020-01-07T13:38:19+00:00", "2020-01-07T13:42:45+00:00", "2020-01-07T13:48:06+00:00", "2020-01-07T13:52:45+00:00", "2020-01-07T13:57:53+00:00", "2020-01-07T14:02:45+00:00", "2020-01-07T14:07:40+00:00", "2020-01-07T14:12:45+00:00", "2020-01-07T14:17:27+00:00", "2020-01-07T14:22:45+00:00", "2020-01-07T14:27:13+00:00", "2020-01-07T14:32:45+00:00", "2020-01-07T14:37:00+00:00", "2020-01-07T14:42:45+00:00", "2020-01-07T14:46:47+00:00", "2020-01-07T14:52:45+00:00", "2020-01-07T14:56:34+00:00", "2020-01-07T15:02:45+00:00", "2020-01-07T15:06:21+00:00", "2020-01-07T15:12:45+00:00", "2020-01-07T15:16:09+00:00", "2020-01-07T15:22:45+00:00", "2020-01-07T15:25:56+00:00", "2020-01-07T15:32:45+00:00", "2020-01-07T15:35:43+00:00", "2020-01-07T15:42:45+00:00", "2020-01-07T15:45:30+00:00", "2020-01-07T15:52:45+00:00", "2020-01-07T15:55:17+00:00", "2020-01-07T16:02:45+00:00", "2020-01-07T16:05:04+00:00", "2020-01-07T16:12:45+00:00", "2020-01-07T16:14:51+00:00", "2020-01-07T16:22:45+00:00", "2020-01-07T16:24:39+00:00", "2020-01-07T16:32:45+00:00", "2020-01-07T16:34:26+00:00", "2020-01-07T16:42:45+00:00", "2020-01-07T16:44:13+00:00", "2020-01-07T16:52:45+00:00", "2020-01-07T16:54:00+00:00", "2020-01-07T17:02:45+00:00", "2020-01-07T17:03:47+00:00", "2020-01-07T17:12:45+00:00", "2020-01-07T17:13:34+00:00", "2020-01-07T17:22:45+00:00", "2020-01-07T17:23:21+00:00", "2020-01-07T17:32:45+00:00", "2020-01-07T17:33:07+00:00", "2020-01-07T17:42:45+00:00", "2020-01-07T17:52:42+00:00", "2020-01-07T17:52:45+00:00", "2020-01-07T18:02:28+00:00", "2020-01-07T18:02:45+00:00", "2020-01-07T18:12:15+00:00", "2020-01-07T18:12:45+00:00", "2020-01-07T18:22:03+00:00", "2020-01-07T18:22:45+00:00", "2020-01-07T18:31:50+00:00", "2020-01-07T18:41:37+00:00", "2020-01-07T18:42:45+00:00", "2020-01-07T18:52:45+00:00", "2020-01-07T19:02:45+00:00", "2020-01-07T19:12:45+00:00", "2020-01-07T19:22:45+00:00", "2020-01-07T19:32:45+00:00", "2020-01-07T19:42:45+00:00", "2020-01-07T19:52:57+00:00", "2020-01-07T20:02:56+00:00", "2020-01-07T20:12:57+00:00", "2020-01-07T20:22:58+00:00", "2020-01-07T20:33:00+00:00", "2020-01-07T20:42:57+00:00", "2020-01-07T20:53:00+00:00", "2020-01-07T21:03:00+00:00", "2020-01-07T21:12:53+00:00", "2020-01-07T21:13:00+00:00", "2020-01-07T21:23:00+00:00", "2020-01-07T21:33:00+00:00", "2020-01-07T21:43:00+00:00", "2020-01-07T21:53:00+00:00", "2020-01-07T22:03:00+00:00", "2020-01-07T22:13:00+00:00", "2020-01-07T22:23:00+00:00", "2020-01-07T22:33:00+00:00", "2020-01-07T22:43:00+00:00", "2020-01-07T22:53:00+00:00", "2020-01-07T23:03:00+00:00", "2020-01-07T23:13:00+00:00", "2020-01-07T23:23:00+00:00", "2020-01-07T23:33:00+00:00", "2020-01-07T23:43:00+00:00", "2020-01-07T23:53:00+00:00", "2020-01-08T00:03:00+00:00", "2020-01-08T00:13:12+00:00", "2020-01-08T00:23:14+00:00", "2020-01-08T00:33:13+00:00", "2020-01-08T00:43:15+00:00", "2020-01-08T00:53:02+00:00", "2020-01-08T00:53:15+00:00", "2020-01-08T01:02:49+00:00", "2020-01-08T01:03:15+00:00", "2020-01-08T01:13:14+00:00", "2020-01-08T01:23:14+00:00", "2020-01-08T01:33:14+00:00", "2020-01-08T01:43:15+00:00", "2020-01-08T01:53:15+00:00", "2020-01-08T02:03:04+00:00", "2020-01-08T02:03:15+00:00", "2020-01-08T02:13:15+00:00", "2020-01-08T02:23:24+00:00", "2020-01-08T02:23:30+00:00", "2020-01-08T02:33:26+00:00", "2020-01-08T02:43:30+00:00", "2020-01-08T02:53:27+00:00", "2020-01-08T02:53:30+00:00", "2020-01-08T03:03:30+00:00", "2020-01-08T03:13:30+00:00", "2020-01-08T03:23:30+00:00", "2020-01-08T03:33:30+00:00", "2020-01-08T03:43:23+00:00", "2020-01-08T03:43:30+00:00", "2020-01-08T03:53:11+00:00", "2020-01-08T03:53:30+00:00", "2020-01-08T04:02:59+00:00", "2020-01-08T04:03:30+00:00", "2020-01-08T04:12:45+00:00", "2020-01-08T04:13:45+00:00", "2020-01-08T04:22:33+00:00", "2020-01-08T04:32:20+00:00", "2020-01-08T04:33:45+00:00", "2020-01-08T04:43:45+00:00", "2020-01-08T04:53:45+00:00", "2020-01-08T05:03:45+00:00", "2020-01-08T05:13:45+00:00", "2020-01-08T05:23:45+00:00", "2020-01-08T05:31:02+00:00", "2020-01-08T05:33:45+00:00", "2020-01-08T05:40:49+00:00", "2020-01-08T05:43:45+00:00", "2020-01-08T05:50:36+00:00", "2020-01-08T05:53:45+00:00", "2020-01-08T06:00:22+00:00", "2020-01-08T06:03:45+00:00", "2020-01-08T06:10:09+00:00", "2020-01-08T06:13:45+00:00", "2020-01-08T06:19:56+00:00", "2020-01-08T06:23:45+00:00", "2020-01-08T06:29:44+00:00", "2020-01-08T06:33:54+00:00", "2020-01-08T06:39:30+00:00", "2020-01-08T06:43:54+00:00", "2020-01-08T06:49:17+00:00", "2020-01-08T06:53:55+00:00", "2020-01-08T06:59:04+00:00", "2020-01-08T07:03:55+00:00", "2020-01-08T07:08:50+00:00", "2020-01-08T07:13:56+00:00", "2020-01-08T07:18:37+00:00", "2020-01-08T07:23:57+00:00", "2020-01-08T07:28:24+00:00", "2020-01-08T07:33:57+00:00", "2020-01-08T07:38:11+00:00", "2020-01-08T07:43:57+00:00", "2020-01-08T07:47:58+00:00", "2020-01-08T07:53:58+00:00", "2020-01-08T07:57:45+00:00", "2020-01-08T08:03:59+00:00", "2020-01-08T08:07:31+00:00", "2020-01-08T08:13:59+00:00", "2020-01-08T08:17:18+00:00", "2020-01-08T08:23:45+00:00", "2020-01-08T08:34:00+00:00", "2020-01-08T08:36:51+00:00", "2020-01-08T08:44:01+00:00", "2020-01-08T08:46:38+00:00", "2020-01-08T08:54:02+00:00", "2020-01-08T08:59:27+00:00", "2020-01-08T09:04:03+00:00", "2020-01-08T09:09:17+00:00", "2020-01-08T09:14:03+00:00", "2020-01-08T09:19:07+00:00", "2020-01-08T09:24:04+00:00", "2020-01-08T09:28:54+00:00", "2020-01-08T09:34:00+00:00", "2020-01-08T09:38:42+00:00", "2020-01-08T09:44:00+00:00", "2020-01-08T09:48:28+00:00", "2020-01-08T09:54:00+00:00", "2020-01-08T09:58:16+00:00", "2020-01-08T10:04:00+00:00", "2020-01-08T10:08:03+00:00", "2020-01-08T10:14:00+00:00", "2020-01-08T10:17:50+00:00", "2020-01-08T10:24:00+00:00", "2020-01-08T10:31:46+00:00", "2020-01-08T10:34:00+00:00", "2020-01-08T10:41:46+00:00", "2020-01-08T10:44:00+00:00", "2020-01-08T10:51:53+00:00", "2020-01-08T10:54:00+00:00", "2020-01-08T11:01:46+00:00", "2020-01-08T11:04:00+00:00", "2020-01-08T11:11:47+00:00", "2020-01-08T11:14:00+00:00", "2020-01-08T11:21:47+00:00", "2020-01-08T11:24:00+00:00", "2020-01-08T11:31:48+00:00", "2020-01-08T11:34:00+00:00", "2020-01-08T11:41:46+00:00", "2020-01-08T11:44:15+00:00", "2020-01-08T11:51:47+00:00", "2020-01-08T11:54:15+00:00", "2020-01-08T12:04:15+00:00", "2020-01-08T12:14:15+00:00", "2020-01-08T12:24:10+00:00", "2020-01-08T12:24:15+00:00", "2020-01-08T12:33:57+00:00", "2020-01-08T12:34:15+00:00", "2020-01-08T12:43:43+00:00", "2020-01-08T12:44:15+00:00", "2020-01-08T12:53:30+00:00", "2020-01-08T12:54:15+00:00", "2020-01-08T13:03:16+00:00", "2020-01-08T13:04:15+00:00", "2020-01-08T13:13:03+00:00", "2020-01-08T13:14:15+00:00", "2020-01-08T13:22:50+00:00", "2020-01-08T13:24:15+00:00", "2020-01-08T13:32:37+00:00", "2020-01-08T13:34:15+00:00", "2020-01-08T13:42:24+00:00", "2020-01-08T13:44:15+00:00", "2020-01-08T13:52:11+00:00", "2020-01-08T13:54:15+00:00", "2020-01-08T14:01:58+00:00", "2020-01-08T14:04:15+00:00", "2020-01-08T14:11:46+00:00", "2020-01-08T14:14:30+00:00", "2020-01-08T14:21:33+00:00", "2020-01-08T14:24:30+00:00", "2020-01-08T14:31:19+00:00", "2020-01-08T14:34:30+00:00", "2020-01-08T14:41:06+00:00", "2020-01-08T14:44:30+00:00", "2020-01-08T14:50:53+00:00", "2020-01-08T14:54:30+00:00", "2020-01-08T15:00:41+00:00", "2020-01-08T15:04:30+00:00", "2020-01-08T15:10:28+00:00", "2020-01-08T15:14:30+00:00", "2020-01-08T15:20:15+00:00", "2020-01-08T15:24:30+00:00", "2020-01-08T15:30:02+00:00", "2020-01-08T15:34:30+00:00", "2020-01-08T15:39:49+00:00", "2020-01-08T15:44:30+00:00", "2020-01-08T15:49:36+00:00", "2020-01-08T15:54:30+00:00", "2020-01-08T15:59:23+00:00", "2020-01-08T16:04:30+00:00", "2020-01-08T16:09:11+00:00", "2020-01-08T16:14:30+00:00", "2020-01-08T16:18:58+00:00", "2020-01-08T16:24:30+00:00", "2020-01-08T16:28:44+00:00", "2020-01-08T16:34:30+00:00", "2020-01-08T16:38:32+00:00", "2020-01-08T16:44:30+00:00", "2020-01-08T16:48:19+00:00", "2020-01-08T16:54:30+00:00", "2020-01-08T16:58:06+00:00", "2020-01-08T17:04:30+00:00", "2020-01-08T17:07:53+00:00", "2020-01-08T17:14:30+00:00", "2020-01-08T17:17:41+00:00", "2020-01-08T17:24:30+00:00", "2020-01-08T17:27:28+00:00", "2020-01-08T17:34:30+00:00", "2020-01-08T17:37:15+00:00", "2020-01-08T17:44:30+00:00", "2020-01-08T17:47:02+00:00", "2020-01-08T17:54:30+00:00", "2020-01-08T17:56:48+00:00", "2020-01-08T18:04:30+00:00", "2020-01-08T18:06:36+00:00", "2020-01-08T18:14:30+00:00", "2020-01-08T18:16:23+00:00", "2020-01-08T18:24:30+00:00", "2020-01-08T18:26:10+00:00", "2020-01-08T18:34:30+00:00", "2020-01-08T18:35:57+00:00", "2020-01-08T18:44:30+00:00", "2020-01-08T18:45:44+00:00", "2020-01-08T18:54:30+00:00", "2020-01-08T18:55:31+00:00", "2020-01-08T19:04:45+00:00", "2020-01-08T19:05:18+00:00", "2020-01-08T19:14:45+00:00", "2020-01-08T19:15:04+00:00", "2020-01-08T19:24:45+00:00", "2020-01-08T19:34:39+00:00", "2020-01-08T19:34:45+00:00", "2020-01-08T19:44:26+00:00", "2020-01-08T19:44:45+00:00", "2020-01-08T19:54:13+00:00", "2020-01-08T19:54:45+00:00", "2020-01-08T20:04:00+00:00", "2020-01-08T20:04:45+00:00", "2020-01-08T20:13:47+00:00", "2020-01-08T20:14:45+00:00", "2020-01-08T20:23:34+00:00", "2020-01-08T20:24:45+00:00", "2020-01-08T20:33:21+00:00", "2020-01-08T20:34:45+00:00", "2020-01-08T20:43:08+00:00", "2020-01-08T20:44:45+00:00", "2020-01-08T20:52:55+00:00", "2020-01-08T20:54:45+00:00", "2020-01-08T21:02:42+00:00", "2020-01-08T21:04:45+00:00", "2020-01-08T21:12:29+00:00", "2020-01-08T21:14:45+00:00", "2020-01-08T21:22:15+00:00", "2020-01-08T21:24:45+00:00", "2020-01-08T21:32:02+00:00", "2020-01-08T21:34:45+00:00", "2020-01-08T21:41:49+00:00", "2020-01-08T21:44:45+00:00", "2020-01-08T21:51:36+00:00", "2020-01-08T21:54:45+00:00", "2020-01-08T22:01:23+00:00", "2020-01-08T22:04:45+00:00", "2020-01-08T22:11:10+00:00", "2020-01-08T22:14:45+00:00", "2020-01-08T22:20:57+00:00", "2020-01-08T22:24:45+00:00", "2020-01-08T22:30:44+00:00", "2020-01-08T22:34:45+00:00", "2020-01-08T22:40:31+00:00", "2020-01-08T22:44:45+00:00", "2020-01-08T22:50:18+00:00", "2020-01-08T22:54:45+00:00", "2020-01-08T23:00:05+00:00", "2020-01-08T23:04:45+00:00", "2020-01-08T23:09:52+00:00", "2020-01-08T23:14:45+00:00", "2020-01-08T23:19:39+00:00", "2020-01-08T23:24:45+00:00", "2020-01-08T23:29:26+00:00", "2020-01-08T23:34:45+00:00", "2020-01-08T23:49:00+00:00", "2020-01-08T23:54:45+00:00", "2020-01-08T23:58:47+00:00", "2020-01-09T00:04:45+00:00", "2020-01-09T00:08:33+00:00", "2020-01-09T00:14:45+00:00", "2020-01-09T00:18:20+00:00", "2020-01-09T00:25:00+00:00", "2020-01-09T00:28:07+00:00", "2020-01-09T00:35:00+00:00", "2020-01-09T00:37:54+00:00", "2020-01-09T00:45:00+00:00", "2020-01-09T00:47:41+00:00", "2020-01-09T00:55:00+00:00", "2020-01-09T00:57:28+00:00", "2020-01-09T01:05:00+00:00", "2020-01-09T01:07:16+00:00", "2020-01-09T01:15:00+00:00", "2020-01-09T01:17:02+00:00", "2020-01-09T01:25:00+00:00", "2020-01-09T01:26:49+00:00", "2020-01-09T01:35:00+00:00", "2020-01-09T01:36:36+00:00", "2020-01-09T01:45:00+00:00", "2020-01-09T01:46:23+00:00", "2020-01-09T01:55:00+00:00", "2020-01-09T01:56:10+00:00", "2020-01-09T02:05:00+00:00", "2020-01-09T02:05:57+00:00", "2020-01-09T02:15:00+00:00", "2020-01-09T02:15:44+00:00", "2020-01-09T02:25:00+00:00", "2020-01-09T02:25:31+00:00", "2020-01-09T02:35:00+00:00", "2020-01-09T02:35:18+00:00", "2020-01-09T02:45:00+00:00", "2020-01-09T02:54:52+00:00", "2020-01-09T16:17:30+00:00", "2020-01-09T16:27:30+00:00", "2020-01-09T16:28:27+00:00", "2020-01-09T16:37:30+00:00", "2020-01-09T16:38:15+00:00", "2020-01-09T16:47:30+00:00", "2020-01-09T16:48:01+00:00", "2020-01-09T16:57:30+00:00", "2020-01-09T17:07:30+00:00", "2020-01-09T17:17:22+00:00", "2020-01-09T17:27:09+00:00", "2020-01-10T00:29:01+00:00"], "elevations": [-3.7, -2.0, -1.7, -1.0, -7.8, -8.0, -3.7, -5.0, -5.8, -5.0, -3.7, -4.0, -1.7, 0.0, -1.7, 0.0, 0.3, -1.0, -2.4, -3.4, -3.4, -1.0, 0.0, -1.7, 0.0, -0.3, 1.6, -7.0, -7.8, -3.0, -7.8, -6.0, -3.7, -2.0, 0.3, 0.0, -1.7, 0.0, -3.7, -2.0, -3.7, -3.0, -3.7, -1.0, -3.7, 2.0, -1.7, 0.0, -1.7, 0.0, 0.3, 0.2, 0.3, -2.0, -3.7, -2.0, -3.7, -4.0, -5.8, -6.0, -5.8, -5.0, -5.8, -3.0, -7.8, -4.0, -3.7, 22.0, -3.7, -2.0, -1.7, 0.0, -3.7, -2.0, -3.7, 0.0, -1.7, -1.0, -1.7, -3.0, -3.7, -2.0, -1.7, -1.0, -7.8, -2.0, -3.7, -3.0, -5.8, -5.8, -1.7, -11.8, -4.0, -3.7, -4.0, -3.7, -3.7, -3.7, -1.7, -1.7, -1.7, -1.7, -1.7, -1.7, -1.7, 2.3, 4.4, 12.5, 0.3, -7.0, -3.0, -2.0, -2.0, 0.0, -5.8, -6.0, -5.8, null, null, -5.8, -4.0, -5.8, -5.0, 12.5, -11.0, -12.0, null, 0.0, 0.0, 1.0, 0.3, 0.3, 4.4, 1.0, 0.3, 0.0, -1.7, -3.7, 6.4, -3.7, -1.7, -11.8, -9.8, -2.0, -3.7, -2.0, -2.0, -3.0, -3.7, -3.0, -2.0, -3.0, -4.0, -5.8, -1.0, -3.7, -1.7, -1.7, 0.3, -3.7, -3.7, 0.3, 0.3, 0.3, 2.0, 2.0, 2.0, 1.0, 1.0, 0.0, -2.0, 1.0, 0.3, 0.3, 0.7, 2.0, 2.3, 4.0, 2.3, 0.0, -1.7, -1.0, -1.7, -1.0, -1.7, -2.0, -3.7, -3.0, -3.7, -2.0, -1.7, -1.0, -1.7, -2.0, -1.7, -2.0, -3.7, -2.0, -3.7, -2.0, -3.7, -2.0, -1.7, -2.0, -1.7, -1.0, -1.7, -3.0, -3.7, -3.0, -3.7, -2.0, -1.7, -1.0, -1.7, -1.0, 0.3, 0.0, 0.3, -1.0, -3.7, -1.0, -1.7, -3.0, -3.7, -3.0, -3.7, 0.0, -1.7, -2.0, -3.7, -3.0, 4.4, 5.0, 2.3, 1.0, 0.3, 0.0, 0.3, 0.0, 2.3, 2.0, -1.7, -1.0, -1.7, -1.0, -1.7, -1.0, 0.3, 0.0, 0.3, 0.0, 4.4, 5.0, 2.3, 1.0, 0.3, 1.0, 2.3, 2.0, 0.3, -1.7, -1.7, 0.3, 0.3, 0.3, 1.0, 1.0, 2.3, -3.0, 0.3, 0.3, 0.0, 0.0, -0.7, 8.4, 0.3, 1.0, 0.3, 0.3, 0.3, -1.7, 0.3, 0.3, 0.3, 0.3, -1.0, -1.7, -3.0, -3.7, -1.0, -1.7, 0.0, 0.3, 0.0, 0.3, 0.0, 0.3, -1.0, -1.7, -2.0, -1.7, -2.0, -1.7, -2.0, -1.7, -2.0, -3.7, -1.0, -1.7, 0.0, 2.3, 0.0, -1.7, 0.0, 0.3, 0.0, -1.7, 0.0, -1.7, -1.0, -5.8, -1.0, -1.7, 0.0, 0.3, 2.0, 2.3, 1.0, 0.3, 1.0, 0.3, -3.0, -3.7, -4.0, -5.8, -5.0, 0.3, 0.0, -1.7, -1.4, 0.0, -1.7, 0.0, 0.3, 0.0, 0.3, 0.0, 0.3, 0.0, 0.3, 0.0, 0.3, 0.0, 0.3, 0.0, 0.3, 0.0, 0.3, 0.0, 0.3, 1.0, 0.3, 0.0, 2.3, 1.0, 0.3, 0.0, 0.3, 1.0, 2.0, 1.0, 2.0, 1.0, 1.0, 0.0, 0.0, 0.0, 0.2, 2.0, 2.2, 2.0, 0.7, 0.0, -1.7, -1.0, -1.7, 0.0, -3.7, 0.0, -1.7, 0.0, -1.7, 0.0, 0.3, 0.0, 0.3, 0.0, 0.3, 0.0, 0.3, 1.0, 0.3, -3.0, -5.8, -1.0, -1.7, -1.0, -1.7, 0.0, -1.7, -1.0, -1.7, -1.0, -1.7, 0.0, -1.7, 0.0, 0.3, 0.0, 0.3, 0.0, 0.3, 1.0, 0.3, 1.0, 0.3, 2.0, -1.7, 0.0, -1.7, 0.0, 0.3, 1.0, 0.3, 1.0, 0.3, 0.0, 0.3, 0.0, 0.3, 1.0, 2.3, 2.0, 2.3, 1.0, -1.7, 0.0, -1.7, -1.0, -3.7, -2.0, 0.3, 1.0, 0.3, 0.0, -1.7, 0.0, 0.3, 0.0, 0.3, 1.0, 0.3, 1.0, 0.3, 0.0, -1.7, 0.0, -1.7, 0.0, -1.7, -2.0, -3.7, -1.0, -3.7, -1.0, -1.7, -1.0, -1.7, -1.0, -1.7, -2.0, -1.7, 2.0, 0.3, 0.0, 0.3, 0.0, -1.7, 0.2, 1.0, 2.0, 0.0, 0.3, 0.0, -1.7, -1.0, -1.7, 0.0, -1.7, -2.0, -3.7, -3.0, -3.7, -3.0, -5.8, -3.0, -5.8, -3.0, -3.7, -3.0, -1.7, -2.0, -3.7, -1.0, 0.3, 0.0, 2.3, 2.0, 0.3, 0.0, 0.3, 1.0, 0.3, 0.0, 0.3, 0.0, 0.3, 0.0, 0.3, 0.0, 0.3, 1.0, 2.3, 2.0, 2.3, 2.0, 2.3, 3.0, 2.3, 3.0, 2.3, 2.0, 2.3, 1.0, 0.3, 2.0, 2.3, 0.0, -1.7, 0.0, 0.3, -4.0, -3.9, -3.7, -1.7, -3.7, -1.7, 0.3, 0.3, 0.3, 1.0, 1.0, 0.0, -1.0, 2.3, -1.0, -11.8, -3.7, 15.0, 0.3, -7.8, -1.7, -1.7, -1.7, 0.3, 0.3, 0.3, -1.7, 0.3, 4.4, 2.3, 10.5, -1.7, -5.8, 0.3, 8.4, -1.7, 3.0, 15.0, -4.0, -7.8, -5.0, -5.8, -2.0, -1.7, 0.0, -8.0, -3.0, 18.6, 18.6, 0.0, 0.3, 0.3, 15.0, 12.5, 13.0, 2.3, 5.0, 4.4, 2.3, 2.3, 0.3, -1.7, -3.0, -1.7, 1.0, 0.3, 5.0, 6.4, 4.0, 4.4, 0.0, 2.0, 0.3, 3.2, 2.2, 1.2, -0.8, 0.2, 2.0, 0.3, 1.0, 0.3, 1.0, 0.3, 2.0, 2.3, 2.0, 2.3, 0.0, 0.3, 1.0, -1.0, 0.0, 0.0, 0.0, 1.0, 1.0, 0.0, 0.0, 0.0, 1.0, 1.0, 1.0, 0.0, 0.0, 1.0, 1.0, 0.0, 0.0, -1.4, 0.0, -1.4, 0.0, 0.3, 0.0, 0.0, 0.0, 0.0, 0.0, 0.0, 0.2, 0.0, 2.2, 4.0, 4.7, 0.0, 0.3, 0.0, 0.3, 0.0, 0.3, 5.0, 4.4, 2.0, -1.7, 0.0, 0.3, 0.0, 0.3, 3.0, 2.3, -1.0, 0.3, 3.0, 0.3, 0.0, -11.8, 10.0, -1.7, -20.0, -5.8, -5.0, -7.8, -5.0, 0.3, -3.7, 0.3, 0.0, 0.3, 0.0, 0.3, 0.0, 0.3, 0.0, -1.7, 0.0, 0.3, 0.0, -1.7, 0.0, -1.7, -1.0, -1.7, -1.0, 0.3, 1.0, 2.3, 0.0, -1.7, -2.0, -1.7, 0.0, -3.7, 2.0, 0.3, 0.0, 2.3, 2.0, 2.3, 2.0, 2.3, 2.0, 2.3, 3.0, 2.3, 6.0, 6.4, 4.0, 2.3, 2.0, 2.3, 3.0, 4.4, 0.0, 2.3, 1.0, 0.3, 1.0, 0.3, 2.0, 0.3, 2.0, 2.3, 2.0, 2.3, 3.0, 4.4, 4.0, 4.4, 5.0, 6.4, 6.0, 4.4, 4.0, 0.3, 1.0, 0.3, 0.0, -1.7, 2.0, 0.3, 0.0, 0.3, 0.0, 0.3, 1.0, 0.3, 0.0, 0.3, 1.0, 0.3, 1.0, 0.3, 3.0, 2.3, 3.0, 2.3, 3.0, 2.3, -1.0, -1.7, 0.0, -1.7, 0.0, -1.7, 0.0, -1.7, -1.0, -1.7, 0.0, 0.3, 0.0, 0.3, 0.0, 0.3, 0.0, 0.3, 0.0, 0.3, 1.0, 0.3, 0.0, -1.7, 0.0, 0.3, 0.0, 0.3, 0.0, -1.7, -1.0, -1.7, -1.0, -1.7, -1.0, -1.7, 0.0, 0.3, 0.0, 0.3, -1.0, 0.3, 0.0, 0.3, -0.5, -1.7, -1.0, -1.7, 0.0, 0.3, 1.0, -7.8, -7.0, -7.8, -6.0, -3.7, -4.0, -3.7, -3.0, -3.7, -3.0, -3.7, -3.0, -3.7, -3.0, 6.4, 6.0, 2.3, 3.0, 0.3, 1.0, 2.3, 1.0, 0.3, 0.0, 0.3, 0.0, 0.3, 1.0, 0.3, 0.0, 1.8, 0.3, 1.0, 4.4, 5.0, -1.7, -1.0, 2.3, 6.4, 7.0, 6.2, 0.4]}