{"type": "Feature", "properties": {"leg_id": 79, "name": "20250326 - Tauranga to Auckland", "stated_nm": 176.4, "computed_nm": 176.4}, "geometry": {"type": "LineString", "coordinates": [[176.171273, -37.637148], [176.16682, -37.636561], [176.164483, -37.633799], [176.16402, -37.631285], [176.163978, -37.628242], [176.164741, -37.625304], [176.165466, -37.622347], [176.165482, -37.619264], [176.165482, -37.616416], [176.165611, -37.612984], [176.165436, -37.609845], [176.163926, -37.607022], [176.162277, -37.604198], [176.160799, -37.601754], [176.15883, -37.598527], [176.157151, -37.595663], [176.155403, -37.592813], [176.153595, -37.589945], [176.151994, -37.587454], [176.149903, -37.584146], [176.148056, -37.581205], [176.146263, -37.578294], [176.144583, -37.575397], [176.14315, -37.572904], [176.141213, -37.569642], [176.139504, -37.56673], [176.137795, -37.563814], [176.136047, -37.560926], [176.134565, -37.558422], [176.132722, -37.555151], [176.131011, -37.552294], [176.129325, -37.549449], [176.127679, -37.546549], [176.126215, -37.544029], [176.124337, -37.540743], [176.122665, -37.537859], [176.120964, -37.534993], [176.119293, -37.532122], [176.117781, -37.52962], [176.115814, -37.526407], [176.114037, -37.52354], [176.112251, -37.520678], [176.110451, -37.517816], [176.1089, -37.515158], [176.107034, -37.511983], [176.105315, -37.509085], [176.103623, -37.50619], [176.101906, -37.503322], [176.100348, -37.500682], [176.098549, -37.497579], [176.096931, -37.494725], [176.095314, -37.491876], [176.093666, -37.489018], [176.092202, -37.486514], [176.09034, -37.483311], [176.088662, -37.480489], [176.087029, -37.477666], [176.086028, -37.474635], [176.085334, -37.471794], [176.084534, -37.468421], [176.083709, -37.465315], [176.082893, -37.46218], [176.082062, -37.459037], [176.081277, -37.456165], [176.080368, -37.45278], [176.079552, -37.449663], [176.078766, -37.446558], [176.077965, -37.443445], [176.077307, -37.440703], [176.076454, -37.437202], [176.075722, -37.434095], [176.075011, -37.430992], [176.074311, -37.427907], [176.073709, -37.425235], [176.073044, -37.421802], [176.072433, -37.418771], [176.070597, -37.416337], [176.067397, -37.416174], [176.067528, -37.413332], [176.06762, -37.410001], [176.067688, -37.406637], [176.067765, -37.403535], [176.068497, -37.400437], [176.068873, -37.398567], [176.068908, -37.394753], [176.068734, -37.391508], [176.06855, -37.388374], [176.068418, -37.385195], [176.06839, -37.383306], [176.068291, -37.379773], [176.06814, -37.376391], [176.068015, -37.373175], [176.067939, -37.370903], [176.067836, -37.367626], [176.067779, -37.36411], [176.067657, -37.360724], [176.067619, -37.358874], [176.067561, -37.355565], [176.067581, -37.352514], [176.067592, -37.349796], [176.067577, -37.34797], [176.067474, -37.344398], [176.067459, -37.341075], [176.067428, -37.338617], [176.067398, -37.335731], [176.067332, -37.332865], [176.067322, -37.330101], [176.067354, -37.3284], [176.067429, -37.325666], [176.067499, -37.322921], [176.067389, -37.320075], [176.066803, -37.317963], [176.065666, -37.313913], [176.064804, -37.310715], [176.063979, -37.307583], [176.063361, -37.304097], [176.063309, -37.301968], [176.063226, -37.298005], [176.063064, -37.294838], [176.062844, -37.291647], [176.062767, -37.288198], [176.062718, -37.286152], [176.062584, -37.282348], [176.062362, -37.279275], [176.062157, -37.276247], [176.061862, -37.272898], [176.061722, -37.270865], [176.061431, -37.267117], [176.061072, -37.2641], [176.06073, -37.261102], [176.060354, -37.257821], [176.06014, -37.255809], [176.059792, -37.252064], [176.059382, -37.248359], [176.058938, -37.244613], [176.058605, -37.241768], [176.058386, -37.239374], [176.057907, -37.235301], [176.057533, -37.232191], [176.057038, -37.228947], [176.056615, -37.226202], [176.05619, -37.222908], [176.055761, -37.219238], [176.055474, -37.215569], [176.055187, -37.212405], [176.055028, -37.210475], [176.054755, -37.206856], [176.054529, -37.203312], [176.054383, -37.199739], [176.054203, -37.197197], [176.053985, -37.193947], [176.053665, -37.190346], [176.053299, -37.186763], [176.053033, -37.183603], [176.05277, -37.180214], [176.052376, -37.176587], [176.051982, -37.17294], [176.051563, -37.169012], [176.051387, -37.167043], [176.051064, -37.163321], [176.050665, -37.159587], [176.050247, -37.155847], [176.049941, -37.153081], [176.049636, -37.149795], [176.049468, -37.146758], [176.049294, -37.143722], [176.049018, -37.14067], [176.048837, -37.137914], [176.048653, -37.134232], [176.048523, -37.130959], [176.048417, -37.127736], [176.04818, -37.12451], [176.048006, -37.121662], [176.04783, -37.117977], [176.047538, -37.1147], [176.046432, -37.111536], [176.045128, -37.108435], [176.043955, -37.105747], [176.042457, -37.102348], [176.041153, -37.099339], [176.039871, -37.096334], [176.03865, -37.093362], [176.037596, -37.090779], [176.036354, -37.087457], [176.035507, -37.0844], [176.034737, -37.081329], [176.033958, -37.078249], [176.033388, -37.075832], [176.032639, -37.072657], [176.031655, -37.068716], [176.030763, -37.065613], [176.02948, -37.062642], [176.027244, -37.060454], [176.024299, -37.05775], [176.021659, -37.055302], [176.019006, -37.052858], [176.016389, -37.050435], [176.014071, -37.048323], [176.011177, -37.045664], [176.008584, -37.043304], [176.005974, -37.040932], [176.003348, -37.038557], [176.001032, -37.036472], [175.998177, -37.033838], [175.995575, -37.031522], [175.992996, -37.029229], [175.990403, -37.026928], [175.988113, -37.02473], [175.98542, -37.022157], [175.982819, -37.019752], [175.980179, -37.017381], [175.977577, -37.014997], [175.97526, -37.012872], [175.972351, -37.010227], [175.969765, -37.007847], [175.967148, -37.005478], [175.964499, -37.003101], [175.962036, -37.000833], [175.959177, -36.998235], [175.95652, -36.995844], [175.953874, -36.993484], [175.951233, -36.991127], [175.948837, -36.988923], [175.946754, -36.986006], [175.944893, -36.983241], [175.943039, -36.980457], [175.941223, -36.977694], [175.939468, -36.975181], [175.937499, -36.972246], [175.935653, -36.969548], [175.933785, -36.96688], [175.93197, -36.96419], [175.930262, -36.961677], [175.928268, -36.95877], [175.926385, -36.956094], [175.9244, -36.953467], [175.92247, -36.950868], [175.920742, -36.948383], [175.918892, -36.945555], [175.917161, -36.942867], [175.915413, -36.940181], [175.913658, -36.937518], [175.912017, -36.935016], [175.91008, -36.932212], [175.908265, -36.92957], [175.905992, -36.926379], [175.903395, -36.923372], [175.901148, -36.920787], [175.898704, -36.917946], [175.896371, -36.915053], [175.89407, -36.911693], [175.892213, -36.908851], [175.890076, -36.90578], [175.887843, -36.902709], [175.885495, -36.899333], [175.883535, -36.896505], [175.881463, -36.89337], [175.879242, -36.8903], [175.87687, -36.886939], [175.87476, -36.884208], [175.872467, -36.881184], [175.870234, -36.878167], [175.868143, -36.874739], [175.866527, -36.871866], [175.864701, -36.868696], [175.862869, -36.865516], [175.860864, -36.862031], [175.859232, -36.859193], [175.857444, -36.856016], [175.855616, -36.852845], [175.853588, -36.84941], [175.851939, -36.846568], [175.850205, -36.843411], [175.84847, -36.8403], [175.846521, -36.836869], [175.84496, -36.834021], [175.843194, -36.830873], [175.841497, -36.827691], [175.839507, -36.824197], [175.83726, -36.821549], [175.83464, -36.818585], [175.831588, -36.815926], [175.827156, -36.81446], [175.824406, -36.814177], [175.81974, -36.8139], [175.815894, -36.813609], [175.811997, -36.8133], [175.807612, -36.812837], [175.803294, -36.812323], [175.798493, -36.811706], [175.794678, -36.811169], [175.790886, -36.810856], [175.787413, -36.811688], [175.783609, -36.812714], [175.779808, -36.813584], [175.775902, -36.814209], [175.772141, -36.814967], [175.768982, -36.815702], [175.764374, -36.816549], [175.760696, -36.818037], [175.757644, -36.820542], [175.754892, -36.822395], [175.752676, -36.824528], [175.750655, -36.827723], [175.7485, -36.830892], [175.745218, -36.833534], [175.742928, -36.834589], [175.742201, -36.834795], [175.745268, -36.829667], [175.748174, -36.826799], [175.751252, -36.823668], [175.753775, -36.821644], [175.757401, -36.819561], [175.760498, -36.817521], [175.763611, -36.81564], [175.766091, -36.813468], [175.768374, -36.811345], [175.771446, -36.809038], [175.774391, -36.807058], [175.777267, -36.804993], [175.780274, -36.802948], [175.782964, -36.801239], [175.786605, -36.799662], [175.790584, -36.797812], [175.794739, -36.796169], [175.798085, -36.794395], [175.800146, -36.79321], [175.80391, -36.791027], [175.807561, -36.788874], [175.810967, -36.786715], [175.813189, -36.78494], [175.815993, -36.782666], [175.819162, -36.780122], [175.822388, -36.777538], [175.825204, -36.775211], [175.826853, -36.773745], [175.829681, -36.770779], [175.831932, -36.768361], [175.834213, -36.765945], [175.83667, -36.76318], [175.838183, -36.761517], [175.840691, -36.758299], [175.84253, -36.755551], [175.844352, -36.752829], [175.846408, -36.749822], [175.847651, -36.747995], [175.849998, -36.744632], [175.851921, -36.741945], [175.853454, -36.738552], [175.85359, -36.735428], [175.854568, -36.732635], [175.855424, -36.72895], [175.853603, -36.725538], [175.851119, -36.722347], [175.84981, -36.720639], [175.84716, -36.717118], [175.845192, -36.714473], [175.842708, -36.71129], [175.840255, -36.708837], [175.838008, -36.706652], [175.835006, -36.703787], [175.832451, -36.701456], [175.82937, -36.698611], [175.827006, -36.696369], [175.824196, -36.693608], [175.821822, -36.690823], [175.819794, -36.687963], [175.8178, -36.685947], [175.814244, -36.683667], [175.810288, -36.681922], [175.806183, -36.680288], [175.802897, -36.678944], [175.799748, -36.67764], [175.795846, -36.675869], [175.791864, -36.674182], [175.787519, -36.672378], [175.785375, -36.671461], [175.781303, -36.669743], [175.77797, -36.668394], [175.774605, -36.667049], [175.770904, -36.665638], [175.768636, -36.66474], [175.764351, -36.663123], [175.760704, -36.662161], [175.757042, -36.661253], [175.753016, -36.660194], [175.748825, -36.659035], [175.74453, -36.657326], [175.740982, -36.655979], [175.737419, -36.654572], [175.734217, -36.653368], [175.730012, -36.652037], [175.726097, -36.651086], [175.722222, -36.65013], [175.718415, -36.648941], [175.715693, -36.647622], [175.712215, -36.645956], [175.708123, -36.643696], [175.70488, -36.641776], [175.701606, -36.639879], [175.698742, -36.638239], [175.695084, -36.636118], [175.691697, -36.634277], [175.688216, -36.632517], [175.684769, -36.63074], [175.682122, -36.629384], [175.678691, -36.627682], [175.674369, -36.625465], [175.671402, -36.623198], [175.668586, -36.62083], [175.666459, -36.618969], [175.663666, -36.616606], [175.660148, -36.613598], [175.657326, -36.611179], [175.654519, -36.608789], [175.65237, -36.606918], [175.649638, -36.604563], [175.646179, -36.601522], [175.643433, -36.599075], [175.640731, -36.596615], [175.638637, -36.594707], [175.636073, -36.592197], [175.632775, -36.589088], [175.630135, -36.586559], [175.627518, -36.584083], [175.625467, -36.582156], [175.623022, -36.579716], [175.619865, -36.576623], [175.617302, -36.574269], [175.614861, -36.571869], [175.612536, -36.569744], [175.609711, -36.567079], [175.607185, -36.564673], [175.604714, -36.562233], [175.602143, -36.559838], [175.599798, -36.557725], [175.597054, -36.555091], [175.594536, -36.552702], [175.59198, -36.550359], [175.589432, -36.54799], [175.587098, -36.545915], [175.584327, -36.543304], [175.581963, -36.540921], [175.579651, -36.538556], [175.577188, -36.536291], [175.575041, -36.534245], [175.572037, -36.531948], [175.568871, -36.530387], [175.565774, -36.528655], [175.562683, -36.526855], [175.559939, -36.525276], [175.55661, -36.523319], [175.553482, -36.521623], [175.55043, -36.519829], [175.547317, -36.518124], [175.544553, -36.5166], [175.541176, -36.514763], [175.538085, -36.513023], [175.534988, -36.511343], [175.531929, -36.50954], [175.52914, -36.50788], [175.525674, -36.505879], [175.522544, -36.504059], [175.519425, -36.502205], [175.515977, -36.500754], [175.512585, -36.49981], [175.5084, -36.499514], [175.504584, -36.500003], [175.500649, -36.4998], [175.496727, -36.499603], [175.493149, -36.499465], [175.488824, -36.49968], [175.484902, -36.500157], [175.480842, -36.500201], [175.476745, -36.500873], [175.473347, -36.501427], [175.469844, -36.503089], [175.466257, -36.506074], [175.463989, -36.508809], [175.462731, -36.511926], [175.462654, -36.51455], [175.463776, -36.517258], [175.46731, -36.520032], [175.467916, -36.520487], [175.463897, -36.516399], [175.461174, -36.51386], [175.458489, -36.511286], [175.455773, -36.508696], [175.453525, -36.506271], [175.451004, -36.503405], [175.448753, -36.500733], [175.446629, -36.497443], [175.449656, -36.49536], [175.449971, -36.493505], [175.44751, -36.490009], [175.445572, -36.48704], [175.443625, -36.484075], [175.440778, -36.481287], [175.438909, -36.479554], [175.435502, -36.476417], [175.432837, -36.473895], [175.430253, -36.471362], [175.427606, -36.468527], [175.425863, -36.466738], [175.422653, -36.463528], [175.419731, -36.461337], [175.415733, -36.460467], [175.41129, -36.459628], [175.408356, -36.458905], [175.403372, -36.457315], [175.399496, -36.456553], [175.395371, -36.455987], [175.392386, -36.455481], [175.388458, -36.454248], [175.384942, -36.45332], [175.381219, -36.452674], [175.377419, -36.452098], [175.374227, -36.451679], [175.37007, -36.451132], [175.365535, -36.451098], [175.361275, -36.451849], [175.357954, -36.45327], [175.355697, -36.454267], [175.351608, -36.456107], [175.347671, -36.457488], [175.343603, -36.458158], [175.341248, -36.458305], [175.336889, -36.458517], [175.333013, -36.459202], [175.329583, -36.460146], [175.326977, -36.460901], [175.322868, -36.46239], [175.319911, -36.464303], [175.316947, -36.46656], [175.315292, -36.46776], [175.312173, -36.470055], [175.308924, -36.472371], [175.305702, -36.474788], [175.303369, -36.476378], [175.300332, -36.478552], [175.297703, -36.480981], [175.295655, -36.482672], [175.293946, -36.484118], [175.291733, -36.486079], [175.289352, -36.488187], [175.287402, -36.48977], [175.285732, -36.491052], [175.283497, -36.492598], [175.281367, -36.494095], [175.280155, -36.494059], [175.27578, -36.495611], [175.273021, -36.496682], [175.269399, -36.498832], [175.267223, -36.501838], [175.265872, -36.504246], [175.264114, -36.507057], [175.26237, -36.510258], [175.260745, -36.513584], [175.259736, -36.515524], [175.257812, -36.518468], [175.25646, -36.521295], [175.254742, -36.524742], [175.2537, -36.526732], [175.252076, -36.529894], [175.250611, -36.532788], [175.248569, -36.536218], [175.247086, -36.538066], [175.244821, -36.540976], [175.242691, -36.543653], [175.240616, -36.5464], [175.239, -36.548332], [175.236481, -36.551176], [175.234131, -36.55381], [175.231821, -36.556504], [175.229808, -36.558699], [175.227524, -36.5605], [175.224456, -36.562778], [175.221446, -36.565053], [175.218917, -36.567907], [175.217232, -36.569865], [175.214157, -36.572907], [175.21142, -36.575381], [175.208043, -36.577846], [175.20631, -36.579072], [175.203125, -36.581343], [175.199845, -36.583703], [175.196625, -36.586162], [175.194271, -36.587943], [175.191528, -36.590092], [175.188181, -36.59251], [175.184876, -36.595045], [175.18194, -36.597331], [175.180099, -36.59866], [175.176772, -36.601112], [175.173315, -36.603622], [175.169983, -36.606227], [175.167551, -36.608139], [175.16491, -36.610543], [175.162358, -36.613562], [175.159819, -36.616615], [175.157627, -36.619383], [175.156266, -36.621008], [175.153549, -36.623939], [175.150828, -36.626971], [175.148178, -36.630055], [175.146277, -36.632383], [175.143486, -36.634743], [175.140716, -36.636852], [175.137947, -36.639014], [175.135308, -36.641267], [175.133347, -36.643195], [175.131042, -36.645444], [175.127892, -36.648433], [175.125435, -36.650881], [175.12349, -36.653598], [175.121718, -36.65593], [175.118279, -36.657892], [175.115121, -36.659822], [175.111938, -36.661766], [175.108811, -36.663803], [175.106458, -36.66562], [175.104411, -36.668186], [175.10189, -36.671826], [175.099792, -36.674707], [175.097825, -36.677633], [175.09629, -36.680031], [175.094513, -36.682763], [175.092126, -36.686465], [175.090202, -36.68945], [175.088249, -36.692409], [175.086389, -36.69473], [175.084203, -36.697298], [175.081276, -36.700706], [175.078972, -36.703445], [175.076575, -36.706091], [175.074106, -36.707868], [175.071559, -36.710129], [175.067946, -36.713016], [175.065064, -36.715362], [175.061921, -36.717227], [175.058747, -36.717722], [175.055232, -36.718513], [175.050416, -36.719558], [175.046601, -36.720474], [175.043038, -36.72198], [175.04052, -36.72379], [175.037868, -36.725971], [175.034272, -36.728944], [175.031456, -36.731365], [175.028603, -36.733781], [175.026191, -36.73576], [175.023544, -36.737994], [175.02002, -36.741135], [175.017235, -36.743678], [175.014174, -36.745895], [175.011511, -36.747652], [175.008504, -36.749535], [175.004486, -36.752251], [175.001205, -36.754407], [174.997811, -36.756566], [174.994917, -36.75844], [174.991659, -36.760493], [174.987099, -36.763336], [174.983414, -36.765655], [174.979577, -36.767863], [174.976375, -36.769771], [174.972987, -36.771781], [174.968429, -36.774549], [174.96489, -36.776645], [174.961486, -36.778616], [174.958766, -36.780354], [174.95607, -36.782248], [174.95247, -36.7848], [174.948995, -36.787262], [174.945145, -36.789739], [174.94309, -36.790797], [174.939056, -36.792766], [174.93496, -36.794017], [174.930634, -36.795356], [174.926362, -36.796808], [174.923443, -36.797842], [174.918152, -36.799743], [174.914033, -36.801062], [174.909782, -36.802188], [174.905763, -36.803391], [174.903179, -36.804502], [174.89833, -36.80661], [174.894447, -36.808028], [174.890563, -36.809336], [174.886232, -36.81091], [174.883708, -36.811817], [174.879195, -36.813378], [174.875565, -36.814729], [174.872008, -36.816076], [174.868059, -36.817695], [174.865774, -36.818652], [174.861503, -36.820385], [174.857948, -36.821911], [174.854484, -36.823465], [174.850562, -36.825245], [174.848185, -36.826149], [174.843751, -36.82739], [174.840011, -36.82845], [174.836105, -36.829397], [174.831584, -36.830608], [174.828862, -36.831341], [174.823936, -36.832861], [174.819688, -36.834291], [174.815315, -36.835653], [174.810654, -36.836345], [174.808143, -36.836626], [174.803696, -36.836968], [174.798972, -36.836708], [174.794175, -36.836236], [174.789139, -36.835656], [174.784768, -36.835192], [174.781425, -36.834848], [174.776397, -36.834242], [174.771439, -36.833686], [174.76658, -36.833084], [174.761705, -36.832616], [174.75431, -36.831004], [174.749572, -36.829791], [174.745651, -36.828096], [174.744459, -36.825795], [174.744801, -36.825115], [174.744714, -36.825198], [174.746956, -36.829719], [174.750335, -36.832624], [174.75377, -36.835078], [174.75269, -36.838349], [174.751396, -36.840241], [174.751336, -36.839538], [174.753382, -36.837853], [174.75689, -36.835573], [174.760825, -36.835513], [174.764953, -36.836069], [174.769415, -36.836902], [174.7721, -36.837198], [174.777122, -36.837567], [174.781075, -36.837852], [174.784935, -36.837948], [174.78925, -36.838198], [174.792002, -36.838304], [174.796928, -36.838016], [174.800942, -36.837606], [174.805007, -36.837227], [174.809504, -36.836813], [174.812195, -36.83617], [174.81665, -36.834441], [174.819931, -36.832861], [174.823357, -36.83127], [174.826774, -36.829294], [174.828827, -36.828033], [174.83278, -36.826003], [174.836649, -36.82429], [174.840393, -36.822658], [174.843148, -36.82185], [174.847753, -36.821421], [174.851936, -36.821075], [174.855922, -36.820387], [174.858947, -36.819119], [174.861862, -36.817892], [174.865579, -36.816305], [174.869466, -36.814781], [174.873648, -36.813159], [174.875789, -36.812508], [174.879914, -36.811516], [174.884043, -36.810504], [174.888222, -36.809461], [174.891174, -36.80864], [174.895696, -36.807536], [174.89975, -36.806571], [174.90361, -36.805611], [174.906695, -36.804731], [174.90979, -36.803913], [174.913696, -36.802987], [174.917445, -36.801861], [174.920974, -36.79984], [174.922766, -36.798636], [174.92614, -36.796518], [174.929438, -36.794433], [174.932617, -36.792431], [174.934766, -36.790915], [174.937904, -36.789144], [174.9419, -36.787631], [174.945709, -36.786282], [174.949334, -36.785167], [174.953547, -36.784215], [174.958001, -36.782782], [174.962071, -36.781147], [174.966137, -36.779429], [174.969381, -36.777669], [174.972855, -36.775858], [174.975734, -36.774191], [174.978462, -36.772513], [174.980774, -36.771007], [174.983932, -36.769758], [174.988109, -36.769879], [174.99224, -36.771076], [174.994675, -36.771885], [174.99438, -36.771964], [174.988631, -36.769462], [174.984429, -36.770038], [174.981812, -36.773208], [174.980489, -36.775474], [174.97892, -36.779125], [174.977911, -36.782734], [174.976829, -36.7864], [174.976619, -36.788598], [174.976501, -36.792195], [174.976863, -36.795612], [174.978448, -36.798946], [174.979659, -36.801027], [174.981501, -36.803982], [174.983444, -36.8072], [174.984744, -36.810541], [174.985248, -36.812188], [174.987778, -36.814923], [174.991663, -36.816985], [174.995557, -36.819021], [174.997799, -36.819698], [175.002884, -36.820607], [175.006607, -36.821014], [175.011165, -36.821828], [175.014612, -36.823177], [175.017873, -36.824605], [175.022369, -36.825757], [175.026055, -36.826146], [175.029968, -36.82654], [175.033357, -36.826439], [175.037964, -36.825543], [175.042031, -36.825164], [175.046082, -36.824554], [175.049498, -36.824353], [175.052917, -36.824127], [175.057305, -36.823639], [175.059619, -36.82301], [175.059583, -36.823011], [175.053092, -36.825507], [175.049989, -36.827152], [175.047036, -36.82911], [175.043614, -36.830968], [175.043444, -36.830491], [175.038368, -36.831228], [175.035225, -36.831251], [175.030579, -36.831196], [175.026144, -36.831087], [175.022426, -36.831084], [175.019439, -36.831064], [175.014822, -36.830745], [175.010102, -36.830202], [175.006007, -36.829728], [175.001857, -36.829273], [174.997167, -36.829015], [174.992562, -36.828958], [174.988246, -36.828941], [174.983845, -36.82856], [174.978378, -36.827969], [174.974, -36.827739], [174.96991, -36.828008], [174.965907, -36.827982], [174.961486, -36.827343], [174.9571, -36.826656], [174.952964, -36.826165], [174.948723, -36.826075], [174.944741, -36.825906], [174.940475, -36.825624], [174.935112, -36.825205], [174.93103, -36.824732], [174.926826, -36.824088], [174.923265, -36.823558], [174.919256, -36.823251], [174.914071, -36.822373], [174.909911, -36.82159], [174.905463, -36.820923], [174.901731, -36.820367], [174.897512, -36.819492], [174.891777, -36.818073], [174.887192, -36.816839], [174.882629, -36.815518], [174.879229, -36.815023], [174.876363, -36.816932], [174.871521, -36.818695], [174.867776, -36.820201], [174.864181, -36.821616], [174.861258, -36.822578], [174.85764, -36.823766], [174.853134, -36.825287], [174.84957, -36.826564], [174.845683, -36.82826], [174.84279, -36.828879], [174.838136, -36.829662], [174.833565, -36.830195], [174.829225, -36.830752], [174.825035, -36.831475], [174.820806, -36.832169], [174.816155, -36.833435], [174.812202, -36.834674], [174.808258, -36.835605], [174.803678, -36.836034], [174.800415, -36.836059], [174.795449, -36.836021], [174.791543, -36.836077], [174.786998, -36.836008], [174.783157, -36.835992], [174.779434, -36.835556], [174.774498, -36.834458], [174.770393, -36.834667], [174.766303, -36.835331], [174.763211, -36.835778], [174.759695, -36.8347], [174.755941, -36.835817], [174.75225, -36.837922], [174.749405, -36.837876], [174.74586, -36.837192], [174.745001, -36.836437], [174.744953, -36.836178]]}, "times": ["2025-03-26T17:13:19+00:00", "2025-03-26T17:15:19+00:00", "2025-03-26T17:18:22+00:00", "2025-03-26T17:19:22+00:00", "2025-03-26T17:22:22+00:00", "2025-03-26T17:24:22+00:00", "2025-03-26T17:26:22+00:00", "2025-03-26T17:28:22+00:00", "2025-03-26T17:29:22+00:00", "2025-03-26T17:32:27+00:00", "2025-03-26T17:34:27+00:00", "2025-03-26T17:36:27+00:00", "2025-03-26T17:38:27+00:00", "2025-03-26T17:39:27+00:00", "2025-03-26T17:42:27+00:00", "2025-03-26T17:44:27+00:00", "2025-03-26T17:46:27+00:00", "2025-03-26T17:48:27+00:00", "2025-03-26T17:49:27+00:00", "2025-03-26T17:52:27+00:00", "2025-03-26T17:54:27+00:00", "2025-03-26T17:56:27+00:00", "2025-03-26T17:58:27+00:00", "2025-03-26T17:59:27+00:00", "2025-03-26T18:02:27+00:00", "2025-03-26T18:04:27+00:00", "2025-03-26T18:06:27+00:00", "2025-03-26T18:08:27+00:00", "2025-03-26T18:09:27+00:00", "2025-03-26T18:12:27+00:00", "2025-03-26T18:14:27+00:00", "2025-03-26T18:16:27+00:00", "2025-03-26T18:18:27+00:00", "2025-03-26T18:19:27+00:00", "2025-03-26T18:22:27+00:00", "2025-03-26T18:24:27+00:00", "2025-03-26T18:26:27+00:00", "2025-03-26T18:28:27+00:00", "2025-03-26T18:29:27+00:00", "2025-03-26T18:32:27+00:00", "2025-03-26T18:34:27+00:00", "2025-03-26T18:36:27+00:00", "2025-03-26T18:38:27+00:00", "2025-03-26T18:39:27+00:00", "2025-03-26T18:42:27+00:00", "2025-03-26T18:44:27+00:00", "2025-03-26T18:46:27+00:00", "2025-03-26T18:48:27+00:00", "2025-03-26T18:49:27+00:00", "2025-03-26T18:52:27+00:00", "2025-03-26T18:54:27+00:00", "2025-03-26T18:56:27+00:00", "2025-03-26T18:58:27+00:00", "2025-03-26T18:59:28+00:00", "2025-03-26T19:02:28+00:00", "2025-03-26T19:04:28+00:00", "2025-03-26T19:06:28+00:00", "2025-03-26T19:08:28+00:00", "2025-03-26T19:09:28+00:00", "2025-03-26T19:12:28+00:00", "2025-03-26T19:14:28+00:00", "2025-03-26T19:16:28+00:00", "2025-03-26T19:18:28+00:00", "2025-03-26T19:19:28+00:00", "2025-03-26T19:22:28+00:00", "2025-03-26T19:24:28+00:00", "2025-03-26T19:26:28+00:00", "2025-03-26T19:28:28+00:00", "2025-03-26T19:29:29+00:00", "2025-03-26T19:32:28+00:00", "2025-03-26T19:34:28+00:00", "2025-03-26T19:36:28+00:00", "2025-03-26T19:38:28+00:00", "2025-03-26T19:39:29+00:00", "2025-03-26T19:42:28+00:00", "2025-03-26T19:44:28+00:00", "2025-03-26T19:46:28+00:00", "2025-03-26T19:49:30+00:00", "2025-03-26T19:51:28+00:00", "2025-03-26T19:53:28+00:00", "2025-03-26T19:55:28+00:00", "2025-03-26T19:57:28+00:00", "2025-03-26T19:59:28+00:00", "2025-03-26T20:00:28+00:00", "2025-03-26T20:03:28+00:00", "2025-03-26T20:05:28+00:00", "2025-03-26T20:07:28+00:00", "2025-03-26T20:09:28+00:00", "2025-03-26T20:10:28+00:00", "2025-03-26T20:13:28+00:00", "2025-03-26T20:15:28+00:00", "2025-03-26T20:18:28+00:00", "2025-03-26T20:19:32+00:00", "2025-03-26T20:22:28+00:00", "2025-03-26T20:25:28+00:00", "2025-03-26T20:28:28+00:00", "2025-03-26T20:30:28+00:00", "2025-03-26T20:33:28+00:00", "2025-03-26T20:36:28+00:00", "2025-03-26T20:39:28+00:00", "2025-03-26T20:41:28+00:00", "2025-03-26T20:44:28+00:00", "2025-03-26T20:47:28+00:00", "2025-03-26T20:49:33+00:00", "2025-03-26T20:52:28+00:00", "2025-03-26T20:55:28+00:00", "2025-03-26T20:58:28+00:00", "2025-03-26T21:00:28+00:00", "2025-03-26T21:03:28+00:00", "2025-03-26T21:06:28+00:00", "2025-03-26T21:09:28+00:00", "2025-03-26T21:10:28+00:00", "2025-03-26T21:13:28+00:00", "2025-03-26T21:15:28+00:00", "2025-03-26T21:17:28+00:00", "2025-03-26T21:19:28+00:00", "2025-03-26T21:20:28+00:00", "2025-03-26T21:23:28+00:00", "2025-03-26T21:25:28+00:00", "2025-03-26T21:27:28+00:00", "2025-03-26T21:29:28+00:00", "2025-03-26T21:30:28+00:00", "2025-03-26T21:33:28+00:00", "2025-03-26T21:35:28+00:00", "2025-03-26T21:37:28+00:00", "2025-03-26T21:39:28+00:00", "2025-03-26T21:40:28+00:00", "2025-03-26T21:43:28+00:00", "2025-03-26T21:45:28+00:00", "2025-03-26T21:47:28+00:00", "2025-03-26T21:49:28+00:00", "2025-03-26T21:50:30+00:00", "2025-03-26T21:53:34+00:00", "2025-03-26T21:55:34+00:00", "2025-03-26T21:58:35+00:00", "2025-03-26T22:00:00+00:00", "2025-03-26T22:01:35+00:00", "2025-03-26T22:04:47+00:00", "2025-03-26T22:07:00+00:00", "2025-03-26T22:09:10+00:00", "2025-03-26T22:10:12+00:00", "2025-03-26T22:13:10+00:00", "2025-03-26T22:15:11+00:00", "2025-03-26T22:18:11+00:00", "2025-03-26T22:20:00+00:00", "2025-03-26T22:21:11+00:00", "2025-03-26T22:24:11+00:00", "2025-03-26T22:26:11+00:00", "2025-03-26T22:29:11+00:00", "2025-03-26T22:30:12+00:00", "2025-03-26T22:33:11+00:00", "2025-03-26T22:35:11+00:00", "2025-03-26T22:38:11+00:00", "2025-03-26T22:40:00+00:00", "2025-03-26T22:42:12+00:00", "2025-03-26T22:45:12+00:00", "2025-03-26T22:47:13+00:00", "2025-03-26T22:50:00+00:00", "2025-03-26T22:51:13+00:00", "2025-03-26T22:54:13+00:00", "2025-03-26T22:56:14+00:00", "2025-03-26T22:59:14+00:00", "2025-03-26T23:00:14+00:00", "2025-03-26T23:03:14+00:00", "2025-03-26T23:05:14+00:00", "2025-03-26T23:07:14+00:00", "2025-03-26T23:09:14+00:00", "2025-03-26T23:10:15+00:00", "2025-03-26T23:13:14+00:00", "2025-03-26T23:15:14+00:00", "2025-03-26T23:17:14+00:00", "2025-03-26T23:19:14+00:00", "2025-03-26T23:20:15+00:00", "2025-03-26T23:23:14+00:00", "2025-03-26T23:25:14+00:00", "2025-03-26T23:27:14+00:00", "2025-03-26T23:29:14+00:00", "2025-03-26T23:30:15+00:00", "2025-03-26T23:33:14+00:00", "2025-03-26T23:35:14+00:00", "2025-03-26T23:37:14+00:00", "2025-03-26T23:39:14+00:00", "2025-03-26T23:40:16+00:00", "2025-03-26T23:43:14+00:00", "2025-03-26T23:45:14+00:00", "2025-03-26T23:47:14+00:00", "2025-03-26T23:49:14+00:00", "2025-03-26T23:50:15+00:00", "2025-03-26T23:52:14+00:00", "2025-03-26T23:55:14+00:00", "2025-03-26T23:57:14+00:00", "2025-03-26T23:59:14+00:00", "2025-03-27T00:00:16+00:00", "2025-03-27T00:03:14+00:00", "2025-03-27T00:05:14+00:00", "2025-03-27T00:07:14+00:00", "2025-03-27T00:09:14+00:00", "2025-03-27T00:10:16+00:00", "2025-03-27T00:13:14+00:00", "2025-03-27T00:15:14+00:00", "2025-03-27T00:17:14+00:00", "2025-03-27T00:19:14+00:00", "2025-03-27T00:20:16+00:00", "2025-03-27T00:23:14+00:00", "2025-03-27T00:25:14+00:00", "2025-03-27T00:27:14+00:00", "2025-03-27T00:29:14+00:00", "2025-03-27T00:30:17+00:00", "2025-03-27T00:33:14+00:00", "2025-03-27T00:35:14+00:00", "2025-03-27T00:37:14+00:00", "2025-03-27T00:39:14+00:00", "2025-03-27T00:40:17+00:00", "2025-03-27T00:43:14+00:00", "2025-03-27T00:45:14+00:00", "2025-03-27T00:47:14+00:00", "2025-03-27T00:49:14+00:00", "2025-03-27T00:50:18+00:00", "2025-03-27T00:53:14+00:00", "2025-03-27T00:55:14+00:00", "2025-03-27T00:57:14+00:00", "2025-03-27T00:59:14+00:00", "2025-03-27T01:00:19+00:00", "2025-03-27T01:03:14+00:00", "2025-03-27T01:05:14+00:00", "2025-03-27T01:07:14+00:00", "2025-03-27T01:09:14+00:00", "2025-03-27T01:10:19+00:00", "2025-03-27T01:13:14+00:00", "2025-03-27T01:15:14+00:00", "2025-03-27T01:17:14+00:00", "2025-03-27T01:19:14+00:00", "2025-03-27T01:20:19+00:00", "2025-03-27T01:23:15+00:00", "2025-03-27T01:25:15+00:00", "2025-03-27T01:27:15+00:00", "2025-03-27T01:29:15+00:00", "2025-03-27T01:30:19+00:00", "2025-03-27T01:33:15+00:00", "2025-03-27T01:35:16+00:00", "2025-03-27T01:37:16+00:00", "2025-03-27T01:39:16+00:00", "2025-03-27T01:40:20+00:00", "2025-03-27T01:43:16+00:00", "2025-03-27T01:45:16+00:00", "2025-03-27T01:47:16+00:00", "2025-03-27T01:50:15+00:00", "2025-03-27T01:52:16+00:00", "2025-03-27T01:55:16+00:00", "2025-03-27T01:57:16+00:00", "2025-03-27T02:00:15+00:00", "2025-03-27T02:02:16+00:00", "2025-03-27T02:05:16+00:00", "2025-03-27T02:07:16+00:00", "2025-03-27T02:10:15+00:00", "2025-03-27T02:12:16+00:00", "2025-03-27T02:15:16+00:00", "2025-03-27T02:17:16+00:00", "2025-03-27T02:20:15+00:00", "2025-03-27T02:22:16+00:00", "2025-03-27T02:25:16+00:00", "2025-03-27T02:27:16+00:00", "2025-03-27T02:30:15+00:00", "2025-03-27T02:32:16+00:00", "2025-03-27T02:35:16+00:00", "2025-03-27T02:37:16+00:00", "2025-03-27T02:40:15+00:00", "2025-03-27T02:42:16+00:00", "2025-03-27T02:45:16+00:00", "2025-03-27T02:47:16+00:00", "2025-03-27T02:50:15+00:00", "2025-03-27T02:52:16+00:00", "2025-03-27T02:55:16+00:00", "2025-03-27T02:57:16+00:00", "2025-03-27T03:00:15+00:00", "2025-03-27T03:02:16+00:00", "2025-03-27T03:05:16+00:00", "2025-03-27T03:07:16+00:00", "2025-03-27T03:10:15+00:00", "2025-03-27T03:12:16+00:00", "2025-03-27T03:15:16+00:00", "2025-03-27T03:17:16+00:00", "2025-03-27T03:20:15+00:00", "2025-03-27T03:21:16+00:00", "2025-03-27T03:24:16+00:00", "2025-03-27T03:26:16+00:00", "2025-03-27T03:28:17+00:00", "2025-03-27T03:30:15+00:00", "2025-03-27T03:32:17+00:00", "2025-03-27T03:35:17+00:00", "2025-03-27T03:37:17+00:00", "2025-03-27T03:39:17+00:00", "2025-03-27T03:40:26+00:00", "2025-03-27T03:43:17+00:00", "2025-03-27T03:45:19+00:00", "2025-03-27T03:47:22+00:00", "2025-03-27T03:49:29+00:00", "2025-03-27T03:50:26+00:00", "2025-03-27T03:54:23+00:00", "2025-03-27T03:56:23+00:00", "2025-03-27T03:58:25+00:00", "2025-03-27T04:00:26+00:00", "2025-03-27T04:02:26+00:00", "2025-03-27T04:05:26+00:00", "2025-03-27T04:07:26+00:00", "2025-03-27T04:10:15+00:00", "2025-03-27T04:12:26+00:00", "2025-03-28T00:29:27+00:00", "2025-03-28T19:54:23+00:00", "2025-03-28T19:56:23+00:00", "2025-03-28T19:59:23+00:00", "2025-03-28T20:00:27+00:00", "2025-03-28T20:03:23+00:00", "2025-03-28T20:05:23+00:00", "2025-03-28T20:07:23+00:00", "2025-03-28T20:09:23+00:00", "2025-03-28T20:10:27+00:00", "2025-03-28T20:13:23+00:00", "2025-03-28T20:15:23+00:00", "2025-03-28T20:17:23+00:00", "2025-03-28T20:19:23+00:00", "2025-03-28T20:20:28+00:00", "2025-03-28T20:23:23+00:00", "2025-03-28T20:25:23+00:00", "2025-03-28T20:28:23+00:00", "2025-03-28T20:30:15+00:00", "2025-03-28T20:31:23+00:00", "2025-03-28T20:34:23+00:00", "2025-03-28T20:36:23+00:00", "2025-03-28T20:39:23+00:00", "2025-03-28T20:40:29+00:00", "2025-03-28T20:43:23+00:00", "2025-03-28T20:45:23+00:00", "2025-03-28T20:48:23+00:00", "2025-03-28T20:50:15+00:00", "2025-03-28T20:51:23+00:00", "2025-03-28T20:54:23+00:00", "2025-03-28T20:56:23+00:00", "2025-03-28T20:58:23+00:00", "2025-03-28T21:00:23+00:00", "2025-03-28T21:01:23+00:00", "2025-03-28T21:04:23+00:00", "2025-03-28T21:06:23+00:00", "2025-03-28T21:08:23+00:00", "2025-03-28T21:10:23+00:00", "2025-03-28T21:11:23+00:00", "2025-03-28T21:14:23+00:00", "2025-03-28T21:16:23+00:00", "2025-03-28T21:18:23+00:00", "2025-03-28T21:20:30+00:00", "2025-03-28T21:22:23+00:00", "2025-03-28T21:25:23+00:00", "2025-03-28T21:27:23+00:00", "2025-03-28T21:30:23+00:00", "2025-03-28T21:31:23+00:00", "2025-03-28T21:34:23+00:00", "2025-03-28T21:36:23+00:00", "2025-03-28T21:38:23+00:00", "2025-03-28T21:40:30+00:00", "2025-03-28T21:42:23+00:00", "2025-03-28T21:45:23+00:00", "2025-03-28T21:47:27+00:00", "2025-03-28T21:49:29+00:00", "2025-03-28T21:51:29+00:00", "2025-03-28T21:54:29+00:00", "2025-03-28T21:56:29+00:00", "2025-03-28T21:59:29+00:00", "2025-03-28T22:00:34+00:00", "2025-03-28T22:03:29+00:00", "2025-03-28T22:06:29+00:00", "2025-03-28T22:08:30+00:00", "2025-03-28T22:10:31+00:00", "2025-03-28T22:12:31+00:00", "2025-03-28T22:15:32+00:00", "2025-03-28T22:17:33+00:00", "2025-03-28T22:20:30+00:00", "2025-03-28T22:21:33+00:00", "2025-03-28T22:24:33+00:00", "2025-03-28T22:26:33+00:00", "2025-03-28T22:28:33+00:00", "2025-03-28T22:30:30+00:00", "2025-03-28T22:31:34+00:00", "2025-03-28T22:34:34+00:00", "2025-03-28T22:36:34+00:00", "2025-03-28T22:38:34+00:00", "2025-03-28T22:40:34+00:00", "2025-03-28T22:42:34+00:00", "2025-03-28T22:45:34+00:00", "2025-03-28T22:47:34+00:00", "2025-03-28T22:49:34+00:00", "2025-03-28T22:50:36+00:00", "2025-03-28T22:53:34+00:00", "2025-03-28T22:55:34+00:00", "2025-03-28T22:57:34+00:00", "2025-03-28T22:59:34+00:00", "2025-03-28T23:00:34+00:00", "2025-03-28T23:02:34+00:00", "2025-03-28T23:05:34+00:00", "2025-03-28T23:07:34+00:00", "2025-03-28T23:09:34+00:00", "2025-03-28T23:10:37+00:00", "2025-03-28T23:13:34+00:00", "2025-03-28T23:15:34+00:00", "2025-03-28T23:17:34+00:00", "2025-03-28T23:19:34+00:00", "2025-03-28T23:20:34+00:00", "2025-03-28T23:22:34+00:00", "2025-03-28T23:25:34+00:00", "2025-03-28T23:27:34+00:00", "2025-03-28T23:29:34+00:00", "2025-03-28T23:30:34+00:00", "2025-03-28T23:32:34+00:00", "2025-03-28T23:35:34+00:00", "2025-03-28T23:37:34+00:00", "2025-03-28T23:39:34+00:00", "2025-03-28T23:40:34+00:00", "2025-03-28T23:42:34+00:00", "2025-03-28T23:45:34+00:00", "2025-03-28T23:47:34+00:00", "2025-03-28T23:49:34+00:00", "2025-03-28T23:50:34+00:00", "2025-03-28T23:52:34+00:00", "2025-03-28T23:55:34+00:00", "2025-03-28T23:57:34+00:00", "2025-03-28T23:59:34+00:00", "2025-03-29T00:00:34+00:00", "2025-03-29T00:02:34+00:00", "2025-03-29T00:05:34+00:00", "2025-03-29T00:07:34+00:00", "2025-03-29T00:09:34+00:00", "2025-03-29T00:10:39+00:00", "2025-03-29T00:13:35+00:00", "2025-03-29T00:15:35+00:00", "2025-03-29T00:17:35+00:00", "2025-03-29T00:19:35+00:00", "2025-03-29T00:20:40+00:00", "2025-03-29T00:23:35+00:00", "2025-03-29T00:25:35+00:00", "2025-03-29T00:27:35+00:00", "2025-03-29T00:29:35+00:00", "2025-03-29T00:30:40+00:00", "2025-03-29T00:33:35+00:00", "2025-03-29T00:35:35+00:00", "2025-03-29T00:37:35+00:00", "2025-03-29T00:39:35+00:00", "2025-03-29T00:40:40+00:00", "2025-03-29T00:43:35+00:00", "2025-03-29T00:45:35+00:00", "2025-03-29T00:47:35+00:00", "2025-03-29T00:49:35+00:00", "2025-03-29T00:50:40+00:00", "2025-03-29T00:53:35+00:00", "2025-03-29T00:55:35+00:00", "2025-03-29T00:57:35+00:00", "2025-03-29T00:59:35+00:00", "2025-03-29T01:00:41+00:00", "2025-03-29T01:03:35+00:00", "2025-03-29T01:05:35+00:00", "2025-03-29T01:07:35+00:00", "2025-03-29T01:09:35+00:00", "2025-03-29T01:10:41+00:00", "2025-03-29T01:13:35+00:00", "2025-03-29T01:15:35+00:00", "2025-03-29T01:17:35+00:00", "2025-03-29T01:19:35+00:00", "2025-03-29T01:20:42+00:00", "2025-03-29T01:23:35+00:00", "2025-03-29T01:25:35+00:00", "2025-03-29T01:27:35+00:00", "2025-03-29T01:29:35+00:00", "2025-03-29T01:30:43+00:00", "2025-03-29T01:33:35+00:00", "2025-03-29T01:35:35+00:00", "2025-03-29T01:37:35+00:00", "2025-03-29T01:39:35+00:00", "2025-03-29T01:40:45+00:00", "2025-03-29T01:42:35+00:00", "2025-03-29T01:45:35+00:00", "2025-03-29T01:47:35+00:00", "2025-03-29T01:49:37+00:00", "2025-03-29T01:50:45+00:00", "2025-03-29T01:52:37+00:00", "2025-03-29T01:55:37+00:00", "2025-03-29T08:43:57+00:00", "2025-03-29T19:47:01+00:00", "2025-03-29T19:49:01+00:00", "2025-03-29T19:51:01+00:00", "2025-03-29T19:53:01+00:00", "2025-03-29T19:54:01+00:00", "2025-03-29T19:57:01+00:00", "2025-03-29T19:59:01+00:00", "2025-03-29T20:01:01+00:00", "2025-03-29T20:04:00+00:00", "2025-03-29T20:05:06+00:00", "2025-03-29T20:08:06+00:00", "2025-03-29T20:10:06+00:00", "2025-03-29T20:12:06+00:00", "2025-03-29T20:14:00+00:00", "2025-03-29T20:15:06+00:00", "2025-03-29T20:18:06+00:00", "2025-03-29T20:20:06+00:00", "2025-03-29T20:22:06+00:00", "2025-03-29T20:24:00+00:00", "2025-03-29T20:25:06+00:00", "2025-03-29T20:28:06+00:00", "2025-03-29T20:30:06+00:00", "2025-03-29T20:32:06+00:00", "2025-03-29T20:34:00+00:00", "2025-03-29T20:35:08+00:00", "2025-03-29T20:38:08+00:00", "2025-03-29T20:40:08+00:00", "2025-03-29T20:43:08+00:00", "2025-03-29T20:44:08+00:00", "2025-03-29T20:47:11+00:00", "2025-03-29T20:49:11+00:00", "2025-03-29T20:51:11+00:00", "2025-03-29T20:53:11+00:00", "2025-03-29T20:54:11+00:00", "2025-03-29T20:57:11+00:00", "2025-03-29T20:59:11+00:00", "2025-03-29T21:02:11+00:00", "2025-03-29T21:04:00+00:00", "2025-03-29T21:05:11+00:00", "2025-03-29T21:08:11+00:00", "2025-03-29T21:10:11+00:00", "2025-03-29T21:13:11+00:00", "2025-03-29T21:15:11+00:00", "2025-03-29T21:18:11+00:00", "2025-03-29T21:21:11+00:00", "2025-03-29T21:24:00+00:00", "2025-03-29T21:26:11+00:00", "2025-03-29T21:29:11+00:00", "2025-03-29T21:31:11+00:00", "2025-03-29T21:34:00+00:00", "2025-03-29T21:35:11+00:00", "2025-03-29T21:38:11+00:00", "2025-03-29T21:40:11+00:00", "2025-03-29T21:43:11+00:00", "2025-03-29T21:44:11+00:00", "2025-03-29T21:47:11+00:00", "2025-03-29T21:49:11+00:00", "2025-03-29T21:52:11+00:00", "2025-03-29T21:54:11+00:00", "2025-03-29T21:58:11+00:00", "2025-03-29T22:01:11+00:00", "2025-03-29T22:04:10+00:00", "2025-03-29T22:07:11+00:00", "2025-03-29T22:11:11+00:00", "2025-03-29T22:14:10+00:00", "2025-03-29T22:20:07+00:00", "2025-03-29T22:24:07+00:00", "2025-03-29T22:26:07+00:00", "2025-03-29T22:29:07+00:00", "2025-03-29T22:32:07+00:00", "2025-03-29T22:34:11+00:00", "2025-03-29T22:37:07+00:00", "2025-03-29T22:40:07+00:00", "2025-03-29T22:43:07+00:00", "2025-03-29T22:45:07+00:00", "2025-03-29T22:48:07+00:00", "2025-03-29T22:50:07+00:00", "2025-03-29T22:53:07+00:00", "2025-03-29T22:55:07+00:00", "2025-03-29T22:58:07+00:00", "2025-03-29T23:00:07+00:00", "2025-03-29T23:03:07+00:00", "2025-03-29T23:05:07+00:00", "2025-03-29T23:08:07+00:00", "2025-03-29T23:10:07+00:00", "2025-03-29T23:13:07+00:00", "2025-03-29T23:14:13+00:00", "2025-03-29T23:17:07+00:00", "2025-03-29T23:20:07+00:00", "2025-03-29T23:22:07+00:00", "2025-03-29T23:24:07+00:00", "2025-03-29T23:26:07+00:00", "2025-03-29T23:29:07+00:00", "2025-03-29T23:31:07+00:00", "2025-03-29T23:34:07+00:00", "2025-03-29T23:36:07+00:00", "2025-03-29T23:39:07+00:00", "2025-03-29T23:41:07+00:00", "2025-03-29T23:44:07+00:00", "2025-03-29T23:45:07+00:00", "2025-03-29T23:48:07+00:00", "2025-03-29T23:50:07+00:00", "2025-03-29T23:53:07+00:00", "2025-03-29T23:54:15+00:00", "2025-03-29T23:57:07+00:00", "2025-03-29T23:59:07+00:00", "2025-03-30T00:02:07+00:00", "2025-03-30T00:04:07+00:00", "2025-03-30T00:05:07+00:00", "2025-03-30T00:08:07+00:00", "2025-03-30T00:10:07+00:00", "2025-03-30T00:13:07+00:00", "2025-03-30T00:14:17+00:00", "2025-03-30T00:17:07+00:00", "2025-03-30T00:19:07+00:00", "2025-03-30T00:22:07+00:00", "2025-03-30T00:24:07+00:00", "2025-03-30T00:25:07+00:00", "2025-03-30T00:28:07+00:00", "2025-03-30T00:30:07+00:00", "2025-03-30T00:33:07+00:00", "2025-03-30T00:34:17+00:00", "2025-03-30T00:37:07+00:00", "2025-03-30T00:39:07+00:00", "2025-03-30T00:41:07+00:00", "2025-03-30T00:43:07+00:00", "2025-03-30T00:44:15+00:00", "2025-03-30T00:46:07+00:00", "2025-03-30T00:49:07+00:00", "2025-03-30T00:51:07+00:00", "2025-03-30T00:53:07+00:00", "2025-03-30T00:54:19+00:00", "2025-03-30T00:57:07+00:00", "2025-03-30T00:59:07+00:00", "2025-03-30T01:01:07+00:00", "2025-03-30T01:03:07+00:00", "2025-03-30T01:04:15+00:00", "2025-03-30T01:06:07+00:00", "2025-03-30T01:09:07+00:00", "2025-03-30T01:11:07+00:00", "2025-03-30T01:13:07+00:00", "2025-03-30T01:14:15+00:00", "2025-03-30T01:16:07+00:00", "2025-03-30T01:19:07+00:00", "2025-03-30T01:21:07+00:00", "2025-03-30T01:23:07+00:00", "2025-03-30T01:24:15+00:00", "2025-03-30T01:26:07+00:00", "2025-03-30T01:29:07+00:00", "2025-03-30T01:31:07+00:00", "2025-03-30T01:33:07+00:00", "2025-03-30T01:34:15+00:00", "2025-03-30T01:36:07+00:00", "2025-03-30T01:39:07+00:00", "2025-03-30T01:41:07+00:00", "2025-03-30T01:43:07+00:00", "2025-03-30T01:44:15+00:00", "2025-03-30T01:46:07+00:00", "2025-03-30T01:49:07+00:00", "2025-03-30T01:51:07+00:00", "2025-03-30T01:53:07+00:00", "2025-03-30T01:54:15+00:00", "2025-03-30T01:56:07+00:00", "2025-03-30T01:59:07+00:00", "2025-03-30T02:01:07+00:00", "2025-03-30T02:03:07+00:00", "2025-03-30T02:04:15+00:00", "2025-03-30T02:06:07+00:00", "2025-03-30T02:09:07+00:00", "2025-03-30T02:11:07+00:00", "2025-03-30T02:13:07+00:00", "2025-03-30T02:14:15+00:00", "2025-03-30T02:16:07+00:00", "2025-03-30T02:19:07+00:00", "2025-03-30T02:21:07+00:00", "2025-03-30T02:23:07+00:00", "2025-03-30T02:24:15+00:00", "2025-03-30T02:26:07+00:00", "2025-03-30T02:29:07+00:00", "2025-03-30T02:31:07+00:00", "2025-03-30T02:33:07+00:00", "2025-03-30T02:34:15+00:00", "2025-03-30T02:36:07+00:00", "2025-03-30T02:39:07+00:00", "2025-03-30T02:41:07+00:00", "2025-03-30T02:43:07+00:00", "2025-03-30T02:44:15+00:00", "2025-03-30T02:46:07+00:00", "2025-03-30T02:49:07+00:00", "2025-03-30T02:51:07+00:00", "2025-03-30T02:54:07+00:00", "2025-03-30T02:55:07+00:00", "2025-03-30T02:58:07+00:00", "2025-03-30T03:00:07+00:00", "2025-03-30T03:02:07+00:00", "2025-03-30T03:04:07+00:00", "2025-03-30T03:05:07+00:00", "2025-03-30T03:08:07+00:00", "2025-03-30T03:10:07+00:00", "2025-03-30T03:12:07+00:00", "2025-03-30T03:14:07+00:00", "2025-03-30T03:15:07+00:00", "2025-03-30T03:18:07+00:00", "2025-03-30T03:20:07+00:00", "2025-03-30T03:22:07+00:00", "2025-03-30T03:24:07+00:00", "2025-03-30T03:25:07+00:00", "2025-03-30T03:28:07+00:00", "2025-03-30T03:30:07+00:00", "2025-03-30T03:32:07+00:00", "2025-03-30T03:34:07+00:00", "2025-03-30T03:35:07+00:00", "2025-03-30T03:38:07+00:00", "2025-03-30T03:40:07+00:00", "2025-03-30T03:42:07+00:00", "2025-03-30T03:44:07+00:00", "2025-03-30T03:45:07+00:00", "2025-03-30T03:48:07+00:00", "2025-03-30T03:50:07+00:00", "2025-03-30T03:52:07+00:00", "2025-03-30T03:54:07+00:00", "2025-03-30T03:55:07+00:00", "2025-03-30T03:58:07+00:00", "2025-03-30T04:00:07+00:00", "2025-03-30T04:02:07+00:00", "2025-03-30T04:04:07+00:00", "2025-03-30T04:04:29+00:00", "2025-03-30T04:07:07+00:00", "2025-03-30T04:09:07+00:00", "2025-03-30T04:11:07+00:00", "2025-03-30T04:13:07+00:00", "2025-03-30T04:14:29+00:00", "2025-03-30T04:16:07+00:00", "2025-03-30T04:18:07+00:00", "2025-03-30T04:20:07+00:00", "2025-03-30T04:22:07+00:00", "2025-03-30T04:24:07+00:00", "2025-03-30T04:27:11+00:00", "2025-03-30T04:29:11+00:00", "2025-03-30T04:31:11+00:00", "2025-03-30T04:34:11+00:00", "2025-03-30T09:43:35+00:00", "2025-03-30T21:07:19+00:00", "2025-03-31T00:55:34+00:00", "2025-03-31T00:57:34+00:00", "2025-03-31T00:59:34+00:00", "2025-03-31T01:01:38+00:00", "2025-03-31T01:03:38+00:00", "2025-03-31T01:10:48+00:00", "2025-03-31T01:30:24+00:00", "2025-03-31T01:33:24+00:00", "2025-03-31T01:35:24+00:00", "2025-03-31T01:37:24+00:00", "2025-03-31T01:39:15+00:00", "2025-03-31T01:40:24+00:00", "2025-03-31T01:43:24+00:00", "2025-03-31T01:45:24+00:00", "2025-03-31T01:47:24+00:00", "2025-03-31T01:49:15+00:00", "2025-03-31T01:50:24+00:00", "2025-03-31T01:53:24+00:00", "2025-03-31T01:55:24+00:00", "2025-03-31T01:57:24+00:00", "2025-03-31T01:59:15+00:00", "2025-03-31T02:00:24+00:00", "2025-03-31T02:03:24+00:00", "2025-03-31T02:05:24+00:00", "2025-03-31T02:07:24+00:00", "2025-03-31T02:09:15+00:00", "2025-03-31T02:10:24+00:00", "2025-03-31T02:13:24+00:00", "2025-03-31T02:15:24+00:00", "2025-03-31T02:18:24+00:00", "2025-03-31T02:19:28+00:00", "2025-03-31T02:22:24+00:00", "2025-03-31T02:25:24+00:00", "2025-03-31T02:27:24+00:00", "2025-03-31T02:29:24+00:00", "2025-03-31T02:31:24+00:00", "2025-03-31T02:34:24+00:00", "2025-03-31T02:36:24+00:00", "2025-03-31T02:39:15+00:00", "2025-03-31T02:40:24+00:00", "2025-03-31T02:43:24+00:00", "2025-03-31T02:45:24+00:00", "2025-03-31T02:48:24+00:00", "2025-03-31T02:49:29+00:00", "2025-03-31T02:52:28+00:00", "2025-03-31T02:55:28+00:00", "2025-03-31T02:57:28+00:00", "2025-03-31T02:59:30+00:00", "2025-03-31T03:01:28+00:00", "2025-03-31T03:04:29+00:00", "2025-03-31T03:06:29+00:00", "2025-03-31T03:09:29+00:00", "2025-03-31T03:10:29+00:00", "2025-03-31T03:13:29+00:00", "2025-03-31T03:15:29+00:00", "2025-03-31T03:18:29+00:00", "2025-03-31T03:19:30+00:00", "2025-03-31T03:22:31+00:00", "2025-03-31T03:24:31+00:00", "2025-03-31T03:27:31+00:00", "2025-03-31T03:29:30+00:00", "2025-03-31T03:31:31+00:00", "2025-03-31T03:34:31+00:00", "2025-03-31T03:36:31+00:00", "2025-03-31T03:39:30+00:00", "2025-03-31T03:41:31+00:00", "2025-03-31T03:44:31+00:00", "2025-03-31T03:46:31+00:00", "2025-03-31T03:49:30+00:00", "2025-03-31T03:51:31+00:00", "2025-03-31T03:54:33+00:00", "2025-03-31T03:57:33+00:00", "2025-03-31T03:59:33+00:00", "2025-03-31T04:03:33+00:00", "2025-03-31T11:42:30+00:00", "2025-03-31T22:21:34+00:00", "2025-03-31T22:24:33+00:00", "2025-03-31T22:26:36+00:00", "2025-03-31T22:28:34+00:00", "2025-03-31T22:32:31+00:00", "2025-03-31T22:34:31+00:00", "2025-03-31T22:37:32+00:00", "2025-03-31T22:39:32+00:00", "2025-03-31T22:42:32+00:00", "2025-03-31T22:44:32+00:00", "2025-03-31T22:47:32+00:00", "2025-03-31T22:48:34+00:00", "2025-03-31T22:51:32+00:00", "2025-03-31T22:54:32+00:00", "2025-03-31T22:57:32+00:00", "2025-03-31T22:59:32+00:00", "2025-03-31T23:02:32+00:00", "2025-03-31T23:05:32+00:00", "2025-03-31T23:08:30+00:00", "2025-03-31T23:09:32+00:00", "2025-03-31T23:12:32+00:00", "2025-03-31T23:14:32+00:00", "2025-03-31T23:16:32+00:00", "2025-03-31T23:18:32+00:00", "2025-03-31T23:20:32+00:00", "2025-03-31T23:23:32+00:00", "2025-03-31T23:25:32+00:00", "2025-03-31T23:27:32+00:00", "2025-03-31T23:28:36+00:00", "2025-03-31T23:31:32+00:00", "2025-03-31T23:34:32+00:00", "2025-03-31T23:36:32+00:00", "2025-03-31T23:38:32+00:00", "2025-03-31T23:40:32+00:00", "2025-03-31T23:43:32+00:00", "2025-03-31T23:46:32+00:00", "2025-04-01T11:24:42+00:00", "2025-04-01T20:36:59+00:00", "2025-04-01T20:38:59+00:00", "2025-04-01T20:40:59+00:00", "2025-04-01T20:42:59+00:00", "2025-04-01T20:46:59+00:00", "2025-04-01T20:51:59+00:00", "2025-04-01T20:53:59+00:00", "2025-04-01T20:56:59+00:00", "2025-04-01T20:59:59+00:00", "2025-04-01T21:02:59+00:00", "2025-04-01T21:04:59+00:00", "2025-04-01T21:07:59+00:00", "2025-04-01T21:10:59+00:00", "2025-04-01T21:12:59+00:00", "2025-04-01T21:14:59+00:00", "2025-04-01T21:17:59+00:00", "2025-04-01T21:20:59+00:00", "2025-04-01T21:22:59+00:00", "2025-04-01T21:24:59+00:00", "2025-04-01T21:27:59+00:00", "2025-04-01T21:29:59+00:00", "2025-04-01T21:31:59+00:00", "2025-04-01T21:33:14+00:00", "2025-04-01T21:35:59+00:00", "2025-04-01T21:37:59+00:00", "2025-04-01T21:39:59+00:00", "2025-04-01T21:41:59+00:00", "2025-04-01T21:43:15+00:00", "2025-04-01T21:44:59+00:00", "2025-04-01T21:47:59+00:00", "2025-04-01T21:49:59+00:00", "2025-04-01T21:51:59+00:00", "2025-04-01T21:53:15+00:00", "2025-04-01T21:54:59+00:00", "2025-04-01T21:58:00+00:00", "2025-04-01T22:00:01+00:00", "2025-04-01T22:02:01+00:00", "2025-04-01T22:03:15+00:00", "2025-04-01T22:05:01+00:00", "2025-04-01T22:08:01+00:00", "2025-04-01T22:10:01+00:00", "2025-04-01T22:12:01+00:00", "2025-04-01T22:13:15+00:00", "2025-04-01T22:15:13+00:00", "2025-04-01T22:18:13+00:00", "2025-04-01T22:20:13+00:00", "2025-04-01T22:22:13+00:00", "2025-04-01T22:23:15+00:00", "2025-04-01T22:25:13+00:00", "2025-04-01T22:28:13+00:00", "2025-04-01T22:30:13+00:00", "2025-04-01T22:32:13+00:00", "2025-04-01T22:33:18+00:00", "2025-04-01T22:36:13+00:00", "2025-04-01T22:38:13+00:00", "2025-04-01T22:40:13+00:00", "2025-04-01T22:42:13+00:00", "2025-04-01T22:43:18+00:00", "2025-04-01T22:46:16+00:00", "2025-04-01T22:48:16+00:00", "2025-04-01T22:50:16+00:00", "2025-04-01T22:52:16+00:00", "2025-04-01T22:54:16+00:00", "2025-04-01T22:57:16+00:00", "2025-04-01T22:59:16+00:00", "2025-04-01T23:01:16+00:00", "2025-04-01T23:03:16+00:00", "2025-04-01T23:05:16+00:00", "2025-04-01T23:08:16+00:00", "2025-04-01T23:10:16+00:00", "2025-04-01T23:12:16+00:00", "2025-04-01T23:13:19+00:00", "2025-04-01T23:16:19+00:00", "2025-04-01T23:19:19+00:00", "2025-04-01T23:22:19+00:00", "2025-04-01T23:23:20+00:00", "2025-04-01T23:26:19+00:00", "2025-04-01T23:32:19+00:00", "2025-04-02T13:18:23+00:00"], "elevations": [13.5, 11.0, 2.5, 7.8, 6.0, 7.0, 8.0, 8.0, 8.1, 11.5, 9.0, 9.5, 12.0, 12.1, 13.0, 12.0, 11.5, 11.0, 10.9, 10.0, 11.5, 11.5, 11.5, 10.9, 11.5, 11.0, 12.0, 11.0, 10.6, 10.0, 10.0, 9.5, 10.0, 9.1, 9.0, 9.0, 9.0, 9.0, 8.6, 8.0, 8.0, 8.0, 8.0, 8.1, 8.0, 7.5, 7.0, 7.0, 6.8, 7.0, 7.0, 7.0, 7.0, 6.8, 7.0, 7.0, 7.0, 7.0, 6.8, 7.0, 7.0, 7.0, 7.0, 6.8, 7.5, 8.0, 8.0, 8.0, 8.1, 9.0, 9.0, 10.0, 10.5, 10.9, 11.0, 11.0, 11.0, 10.9, 11.5, 12.0, 11.5, 12.0, 12.2, 12.0, 12.0, 13.0, 12.5, 12.5, 12.0, 12.0, 12.0, 12.0, 12.4, 12.7, 13.0, 12.7, 12.4, 12.0, 12.0, 12.2, 12.0, 12.0, 13.0, 14.1, 14.0, 13.0, 13.0, 12.9, 13.0, 13.0, 14.5, 13.7, 13.0, 12.5, 13.0, 12.8, 13.0, 13.0, 13.0, 13.0, 12.8, 13.0, 13.0, 13.0, 13.0, 12.8, 13.0, 13.0, 13.0, 13.0, 12.8, 13.0, 14.0, 9.3, 10.5, 10.8, 11.0, 9.5, 10.0, 10.0, 12.1, 11.0, 13.0, 11.0, 10.2, 10.0, 10.5, 10.0, 10.0, 9.1, 11.5, 12.7, 14.5, 10.8, 11.0, 11.0, 12.0, 12.2, 12.0, 12.0, 12.7, 13.0, 12.8, 13.0, 12.5, 11.0, 11.5, 12.6, 14.0, 14.0, 12.5, 12.0, 12.1, 13.0, 13.5, 13.5, 14.0, 14.4, 15.0, 15.0, 15.0, 15.0, 14.9, 15.0, 15.5, 15.0, 15.0, 14.8, 14.0, 14.0, 13.0, 11.0, 11.1, 11.0, 11.0, 11.0, 11.5, 12.1, 12.0, 12.0, 12.0, 12.0, 12.6, 13.0, 13.0, 13.0, 13.0, 14.0, 15.0, 15.0, 15.0, 15.0, 14.9, 15.0, 15.0, 15.0, 15.5, 16.0, 16.0, 16.0, 16.0, 15.0, 15.3, 15.5, 15.0, 15.0, 15.0, 15.0, 15.0, 15.0, 15.0, 13.5, 14.0, 14.5, 12.5, 12.0, 12.0, 10.8, 11.0, 11.0, 11.0, 11.0, 10.8, 11.0, 11.0, 11.7, 12.2, 12.3, 13.0, 13.0, 12.8, 13.0, 13.0, 13.0, 11.2, 9.7, 9.0, 10.3, 10.8, 12.0, 12.0, 12.3, 12.8, 12.7, 12.5, 12.0, 12.2, 12.0, 12.0, 12.3, 12.8, 13.7, 14.0, 13.7, 12.8, 13.0, 13.0, 9.7, 6.1, 14.3, 14.5, 15.0, 14.8, 14.7, 14.5, 14.0, 15.0, 14.2, 15.0, 15.0, 15.5, 16.0, 16.2, 16.0, 16.0, 15.0, 15.0, 14.8, 15.0, 15.0, 15.0, 14.2, 13.3, 12.5, 13.0, 12.2, 12.8, 12.0, 12.0, 13.0, 12.5, 12.1, 12.0, 12.0, 12.0, 13.0, 12.9, 12.5, 13.0, 13.0, 13.0, 12.9, 13.0, 12.7, 12.5, 12.5, 13.0, 13.0, 14.3, 13.5, 14.6, 15.0, 14.3, 14.0, 14.2, 13.7, 13.0, 13.0, 13.0, 12.3, 12.8, 13.0, 13.0, 13.0, 12.5, 12.3, 12.0, 12.0, 12.0, 12.2, 13.3, 14.0, 12.3, 13.0, 12.4, 12.0, 12.0, 12.0, 10.8, 9.3, 9.0, 9.0, 9.0, 8.0, 8.0, 9.7, 10.5, 10.3, 9.0, 10.0, 10.7, 10.2, 9.3, 8.5, 10.3, 10.2, 9.3, 9.5, 9.0, 9.0, 8.8, 7.3, 6.5, 13.0, 14.0, 11.3, 10.0, 11.5, 11.0, 11.0, 11.6, 12.0, 13.5, 12.0, 11.5, 10.8, 11.7, 11.0, 10.5, 10.5, 9.1, 10.5, 10.0, 10.5, 11.5, 12.2, 10.0, 12.0, 12.0, 12.0, 10.8, 9.3, 10.5, 11.0, 12.0, 12.2, 12.0, 12.0, 12.5, 13.0, 14.2, 12.7, 15.5, 18.5, 20.5, 22.2, 16.0, 11.5, 12.5, 12.0, 11.6, 11.5, 13.5, 15.5, 16.5, 16.9, 14.5, 14.5, 15.0, 14.5, 14.4, 13.5, 14.0, 12.5, 12.5, 12.6, 13.5, 15.5, 16.0, 16.0, 12.9, 14.0, 13.5, 12.5, 13.0, 12.9, 13.0, 13.0, 12.0, 12.5, 11.4, 13.0, 10.5, 11.5, 9.0, 8.4, 9.5, 10.5, 11.5, 12.0, 11.4, 13.5, 12.0, 13.0, 12.0, 9.8, 10.0, 12.0, 12.0, 11.5, 10.8, 10.7, 12.0, 12.9, 12.0, 12.0, 12.0, 12.0, 12.2, 12.0, 12.5, 13.7, 12.8, 13.0, 13.0, 13.0, 14.0, 14.2, 14.0, 13.5, 13.5, 14.0, 14.2, 14.0, 14.0, 14.5, 14.0, 14.2, 14.0, 14.5, 15.0, 15.0, 14.9, 19.5, 19.5, 19.5, 19.0, 18.9, 19.0, 18.0, 15.0, 12.8, 13.3, 13.5, 13.0, 12.8, 13.0, 13.0, 11.7, 10.8, 11.0, 10.0, 7.0, 7.1, 7.0, 6.5, 6.0, 7.0, 6.8, 7.0, 7.0, 7.0, 6.9, 7.0, 8.0, 6.6, 7.5, 8.5, 8.9, 11.5, 12.2, 9.7, 8.3, 10.3, 10.9, 11.0, 11.0, 12.8, 15.8, 13.0, 14.7, 14.2, 14.0, 14.0, 15.0, 14.8, 15.0, 15.0, 15.0, 15.0, 14.9, 15.0, 15.0, 15.0, 14.8, 15.0, 15.0, 15.0, 14.3, 14.4, 12.5, 10.7, 9.0, 7.5, 7.0, 7.7, 8.0, 8.1, 8.0, 8.0, 8.0, 8.1, 8.3, 9.0, 9.0, 9.0, 8.9, 10.0, 10.0, 14.5, 14.2, 14.7, 15.0, 15.0, 15.0, 14.9, 13.0, 12.5, 10.5, 10.0, 10.2, 11.0, 11.0, 11.5, 12.0, 12.1, 12.0, 12.0, 12.0, 12.0, 12.2, 12.7, 13.0, 13.0, 13.0, 12.8, 13.0, 13.5, 13.5, 13.0, 12.8, 13.0, 14.0, 14.0, 11.5, 11.8, 12.7, 13.0, 13.0, 13.0, 12.8, 13.0, 13.0, 13.0, 13.0, 12.8, 13.0, 13.0, 12.5, 12.5, 12.2, 12.0, 13.0, 16.0, 15.5, 16.2, 14.7, 13.5, 13.0, 12.5, 12.2, 12.0, 7.0, 8.0, 10.0, 10.5, 10.7, 11.0, 12.0, 11.0, 10.2, 10.0, 10.0, 10.0, 10.2, 10.0, 10.0, 10.0, 8.0, 8.5, 9.1, 9.5, 11.5, 12.0, 11.5, 10.6, 8.5, 9.0, 11.0, 10.8, 11.0, 11.0, 10.5, 15.0, 15.8, 15.3, 15.0, 14.5, 14.0, 14.2, 14.0, 14.0, 14.0, 14.5, 14.8, 15.0, 14.5, 15.0, 15.0, 15.0, 14.8, 15.0, 15.0, 14.5, 14.5, 14.0, 12.5, 12.0, 12.5, 12.0, 12.0, 14.0, 13.0, 11.5, 9.9, 19.9, 22.0, 15.0, 15.0, 14.5, 14.7, 12.4, 13.2, 12.7, 13.0, 11.5, 11.0, 10.8, 11.0, 11.0, 9.5, 7.5, 8.1, 8.0, 10.0, 9.5, 10.0, 10.2, 9.3, 9.0, 9.0, 10.0, 10.2, 10.0, 9.0, 9.7, 10.0, 10.1, 12.0, 14.5, 12.7, 12.2, 12.0, 12.0, 12.0, 11.2, 11.0, 6.0, 13.3, 14.0, 12.9, 11.3, 10.0, 9.7, 8.8, 9.0, 9.0, 6.7, 7.7, 8.1, 7.0, 6.0, 6.5, 8.9, 13.5, 13.3, 13.0, 14.2, 14.0, 14.0, 14.0, 12.8, 13.0, 13.0, 13.3, 8.5, 9.7, 6.3, 5.7, 4.8, 4.0, 10.8, 12.5, 12.0, 12.7, 12.8, 11.5, 11.0, 10.5, 11.0, 11.0, 11.7, 13.0, 14.6, 13.7, 12.3, 12.2, 12.0, 12.0, 16.7, 16.3, 16.0, 15.0, 15.0, 15.7, 16.2, 15.7, 15.0, 14.5, 15.0, 14.1, 12.0, 11.5, 10.7, 10.2, 9.7, 8.0, 9.7, 12.0, 15.5, 15.0, 15.0, 15.0, 14.4, 14.0, 14.0, 14.0, 13.7, 13.0, 14.0, 14.7, 14.5, 14.3, 14.0, 14.0, 14.5, 15.0, 15.3, 15.5, 15.0, 15.0, 15.3, 16.5, 17.0, 16.5, 16.5, 16.8, 17.3, 17.0, 16.5, 17.5, 16.8, 16.7, 16.0, 15.5, 15.0, 16.2, 16.0, 16.0, 15.5, 15.0, 12.8, 21.0, 10.0, 10.0, 10.0, 10.2, 10.3, 11.0, 11.0, 11.0, 10.8, 11.5, 11.5, 12.5, 12.0, 12.7, 13.5, 14.0, 15.0, 14.2, 14.0, 14.0, 14.0, 15.3, 16.2, 17.3, 16.0, 15.0, 16.0, 14.9, 15.3, 13.7, 13.0, 14.4, 19.7, 17.2, 21.1]}